{"type":"FeatureCollection","features":[{"type":"Feature","properties":{"kind":"blob","cls":4,"id":1},"geometry":{"type":"Polygon","coordinates":[[[-129.5,-59.38],[-128.12,-58.5],[-127.88,-57.5],[-129.0,-56.12],[-131.5,-54.88],[-133.75,-54.62],[-135.5,-55.12],[-136.62,-56.5],[-136.38,-57.25],[-135.5,-58.38],[-133.5,-59.38],[-129.5,-59.38]]]}},{"type":"Feature","properties":{"kind":"blob","cls":4,"id":2},"geometry":{"type":"Polygon","coordinates":[[[-150.5,-77.62],[-145.0,-77.62],[-144.88,-77.0],[-145.62,-76.5],[-145.25,-75.88],[-141.0,-75.88],[-140.0,-75.38],[-135.25,-74.88],[-135.12,-74.5],[-138.25,-73.12],[-145.25,-72.88],[-151.75,-74.12],[-154.25,-74.88],[-155.62,-75.75],[-155.25,-76.62],[-154.25,-77.12],[-150.5,-77.62]]]}},{"type":"Feature","properties":{"kind":"blob","cls":3,"id":3},"geometry":{"type":"Polygon","coordinates":[[[-14.25,-54.62],[-10.75,-54.62],[-9.38,-53.5],[-9.38,-52.25],[-13.5,-49.12],[-16.0,-48.88],[-17.5,-49.38],[-18.62,-50.75],[-18.62,-51.75],[-16.5,-53.88],[-14.25,-54.62]]]}},{"type":"Feature","properties":{"kind":"blob","cls":4,"id":4},"geometry":{"type":"Polygon","coordinates":[[[-130.75,-66.62],[-127.5,-66.12],[-126.0,-65.38],[-124.62,-64.0],[-124.88,-62.75],[-126.5,-61.62],[-129.75,-60.88],[-131.5,-60.88],[-135.0,-61.88],[-136.12,-62.75],[-136.88,-64.25],[-135.75,-63.88],[-134.75,-64.12],[-134.62,-64.75],[-135.62,-66.0],[-130.75,-66.62]]]}},{"type":"Feature","properties":{"kind":"blob","cls":1,"id":5},"geometry":{"type":"Polygon","coordinates":[[[113.25,-66.12],[115.12,-65.0],[115.38,-63.75],[113.5,-62.38],[108.25,-62.38],[107.62,-62.75],[109.5,-63.38],[110.12,-64.25],[106.25,-64.12],[106.12,-64.5],[106.75,-65.38],[108.25,-66.12],[113.25,-66.12]]]}},{"type":"Feature","properties":{"kind":"blob","cls":4,"id":6},"geometry":{"type":"Polygon","coordinates":[[[179.88,-67.5],[180.0,-63.62],[179.5,-64.38],[176.25,-63.88],[172.5,-64.38],[170.12,-65.75],[170.12,-66.75],[170.5,-67.12],[174.0,-68.38],[177.75,-68.12],[179.88,-67.5]]]}},{"type":"Feature","properties":{"kind":"blob","cls":4,"id":6},"geometry":{"type":"Polygon","coordinates":[[[-179.75,-63.62],[-180.0,-67.38],[-178.75,-66.88],[-178.25,-66.12],[-175.5,-66.38],[-171.5,-65.62],[-169.5,-64.62],[-168.62,-63.5],[-170.0,-62.12],[-174.0,-61.62],[-177.25,-62.38],[-179.75,-63.62]]]}},{"type":"Feature","properties":{"kind":"blob","cls":4,"id":7},"geometry":{"type":"Polygon","coordinates":[[[74.75,-59.62],[79.0,-59.88],[81.75,-59.38],[83.12,-58.5],[84.12,-56.75],[82.75,-55.12],[81.0,-54.62],[79.5,-54.62],[74.0,-55.88],[72.12,-57.0],[71.88,-58.0],[72.5,-58.88],[74.75,-59.62]]]}},{"type":"Feature","properties":{"kind":"blob","cls":0,"id":8},"geometry":{"type":"Polygon","coordinates":[[[145.75,18.62],[147.25,18.62],[148.12,19.75],[147.88,21.25],[146.5,22.12],[145.25,21.88],[144.38,20.75],[144.62,19.25],[145.75,18.62]],[[145.25,20.38],[144.88,20.5],[144.88,21.0],[145.5,21.38],[145.88,21.0],[145.25,20.38]]]}},{"type":"Feature","properties":{"kind":"blob","cls":4,"id":9},"geometry":{"type":"Polygon","coordinates":[[[-22.0,-75.88],[-19.5,-74.62],[-15.0,-73.88],[-15.62,-73.5],[-14.25,-73.38],[-14.12,-72.75],[-16.75,-70.88],[-22.25,-69.62],[-27.75,-69.88],[-29.75,-70.62],[-30.38,-71.25],[-29.88,-72.5],[-30.38,-73.25],[-30.0,-74.12],[-27.25,-75.38],[-22.0,-75.88]]]}},{"type":"Feature","properties":{"kind":"blob","cls":1,"id":10},"geometry":{"type":"Polygon","coordinates":[[[170.25,50.12],[171.75,50.62],[172.62,51.5],[172.62,52.5],[171.75,53.38],[170.25,53.88],[167.25,53.38],[166.38,52.5],[166.38,51.5],[167.25,50.62],[170.25,50.12]]]}},{"type":"Feature","properties":{"kind":"blob","cls":6,"id":11},"geometry":{"type":"Polygon","coordinates":[[[80.0,-67.88],[81.0,-68.12],[83.25,-67.88],[84.25,-67.38],[88.62,-67.0],[86.75,-66.12],[84.75,-66.12],[80.0,-67.88]]]}},{"type":"Feature","properties":{"kind":"blob","cls":5,"id":12},"geometry":{"type":"Polygon","coordinates":[[[74.75,-68.38],[77.25,-67.12],[80.88,-66.0],[78.5,-65.88],[76.25,-66.38],[74.62,-67.5],[74.75,-68.38]]]}},{"type":"Feature","properties":{"kind":"blob","cls":5,"id":13},"geometry":{"type":"Polygon","coordinates":[[[79.38,-68.25],[79.5,-68.38],[79.62,-68.25],[79.38,-68.25]]]}},{"type":"Feature","properties":{"kind":"blob","cls":5,"id":14},"geometry":{"type":"Polygon","coordinates":[[[81.62,-65.75],[81.75,-65.88],[81.88,-65.75],[81.62,-65.75]]]}},{"type":"Feature","properties":{"kind":"blob","cls":5,"id":15},"geometry":{"type":"Polygon","coordinates":[[[78.62,-68.5],[78.75,-68.62],[78.88,-68.5],[78.62,-68.5]]]}},{"type":"Feature","properties":{"kind":"blob","cls":4,"id":16},"geometry":{"type":"Polygon","coordinates":[[[-111.25,-64.38],[-109.25,-63.88],[-108.38,-63.25],[-108.12,-61.75],[-107.38,-61.0],[-107.12,-59.25],[-107.38,-58.0],[-108.0,-57.38],[-110.0,-56.62],[-111.5,-56.62],[-113.5,-57.38],[-114.62,-58.5],[-116.12,-60.75],[-116.38,-62.25],[-115.88,-63.25],[-115.0,-63.88],[-111.25,-64.38]]]}},{"type":"Feature","properties":{"kind":"blob","cls":1,"id":17},"geometry":{"type":"Polygon","coordinates":[[[27.5,-65.38],[29.5,-64.88],[30.88,-63.75],[30.88,-62.75],[29.5,-61.62],[27.5,-61.12],[25.5,-61.12],[23.0,-61.88],[22.38,-62.5],[22.38,-63.75],[23.75,-64.88],[27.5,-65.38]]]}},{"type":"Feature","properties":{"kind":"blob","cls":1,"id":18},"geometry":{"type":"Polygon","coordinates":[[[1.75,-68.38],[5.75,-68.38],[7.75,-67.38],[8.38,-66.5],[7.75,-65.62],[4.25,-64.38],[0.75,-64.62],[-1.88,-66.0],[-1.88,-67.0],[-0.75,-67.88],[1.75,-68.38]]]}},{"type":"Feature","properties":{"kind":"blob","cls":5,"id":19},"geometry":{"type":"Polygon","coordinates":[[[23.5,-70.38],[24.12,-70.25],[24.0,-70.12],[23.5,-70.38]]]}},{"type":"Feature","properties":{"kind":"blob","cls":5,"id":20},"geometry":{"type":"Polygon","coordinates":[[[21.25,-70.62],[22.88,-70.5],[22.75,-70.38],[21.25,-70.62]]]}},{"type":"Feature","properties":{"kind":"blob","cls":0,"id":21},"geometry":{"type":"Polygon","coordinates":[[[-169.25,21.38],[-168.38,22.25],[-168.38,24.0],[-169.25,24.88],[-170.75,25.12],[-172.38,24.0],[-172.38,22.25],[-171.5,21.38],[-169.25,21.38]]]}},{"type":"Feature","properties":{"kind":"blob","cls":0,"id":22},"geometry":{"type":"Polygon","coordinates":[[[-112.25,17.62],[-110.75,17.62],[-109.88,18.75],[-110.12,20.5],[-111.5,21.38],[-112.75,21.12],[-113.62,20.0],[-113.5,19.12],[-113.0,19.88],[-112.25,20.12],[-111.38,19.5],[-111.75,18.62],[-113.38,18.25],[-112.25,17.62]]]}},{"type":"Feature","properties":{"kind":"blob","cls":4,"id":23},"geometry":{"type":"Polygon","coordinates":[[[-31.5,60.12],[-27.75,61.12],[-26.12,62.25],[-26.12,63.5],[-27.5,64.62],[-29.5,65.12],[-31.25,65.12],[-34.25,64.38],[-36.12,63.0],[-36.38,61.75],[-34.5,60.38],[-31.5,60.12]]]}},{"type":"Feature","properties":{"kind":"blob","cls":4,"id":24},"geometry":{"type":"Polygon","coordinates":[[[164.75,-74.88],[166.75,-74.88],[170.5,-74.12],[172.12,-72.75],[172.12,-72.0],[171.0,-71.12],[169.25,-70.62],[165.0,-70.38],[170.62,-71.75],[169.25,-73.12],[166.75,-73.12],[165.75,-73.88],[165.0,-73.62],[164.75,-74.88]],[[169.75,-73.62],[169.62,-73.5],[169.75,-73.38],[169.75,-73.62]]]}},{"type":"Feature","properties":{"kind":"blob","cls":6,"id":25},"geometry":{"type":"Polygon","coordinates":[[[112.5,71.62],[118.75,71.62],[120.5,72.12],[121.62,73.0],[118.62,73.5],[118.75,73.88],[119.75,74.12],[121.12,74.0],[120.5,74.38],[116.75,75.12],[110.75,74.88],[109.0,74.38],[107.88,73.5],[107.88,73.0],[109.0,72.12],[112.5,71.62]]]}},{"type":"Feature","properties":{"kind":"blob","cls":2,"id":26},"geometry":{"type":"Polygon","coordinates":[[[164.5,-71.12],[164.62,-70.75],[163.5,-70.62],[164.5,-71.12]]]}},{"type":"Feature","properties":{"kind":"blob","cls":2,"id":27},"geometry":{"type":"Polygon","coordinates":[[[162.0,-71.38],[162.5,-71.62],[162.62,-71.25],[162.25,-70.88],[162.0,-71.38]]]}},{"type":"Feature","properties":{"kind":"blob","cls":5,"id":28},"geometry":{"type":"Polygon","coordinates":[[[-79.5,-78.88],[-73.25,-78.62],[-70.25,-77.88],[-69.62,-76.75],[-70.25,-76.12],[-72.5,-76.12],[-71.88,-75.75],[-73.25,-75.38],[-82.0,-75.38],[-81.12,-75.75],[-81.75,-76.38],[-78.5,-76.62],[-77.88,-77.25],[-80.0,-77.38],[-79.5,-78.88]]]}},{"type":"Feature","properties":{"kind":"blob","cls":3,"id":29},"geometry":{"type":"Polygon","coordinates":[[[-54.25,61.62],[-52.38,62.75],[-52.38,63.75],[-54.12,64.75],[-52.88,65.75],[-52.88,66.75],[-54.25,67.62],[-56.25,68.12],[-59.0,68.12],[-62.0,67.12],[-62.38,66.75],[-62.38,65.75],[-59.88,64.25],[-60.38,63.75],[-60.38,62.75],[-59.25,61.88],[-54.25,61.62]]]}},{"type":"Feature","properties":{"kind":"blob","cls":4,"id":30},"geometry":{"type":"Polygon","coordinates":[[[-50.75,67.62],[-50.62,68.25],[-52.0,70.38],[-53.62,70.5],[-52.25,70.62],[-52.12,71.0],[-53.0,71.88],[-54.25,71.88],[-54.0,72.62],[-58.75,71.88],[-60.12,70.5],[-60.12,70.0],[-59.25,69.12],[-58.25,68.62],[-50.75,67.62]],[[-54.12,70.0],[-53.0,70.12],[-52.62,69.75],[-54.12,70.0]]]}},{"type":"Feature","properties":{"kind":"blob","cls":1,"id":31},"geometry":{"type":"Polygon","coordinates":[[[-83.75,-50.12],[-82.5,-49.62],[-82.0,-48.38],[-80.62,-48.0],[-80.88,-46.25],[-81.75,-45.38],[-83.0,-44.88],[-86.0,-45.62],[-87.62,-47.25],[-87.88,-48.75],[-87.0,-49.62],[-83.75,-50.12]]]}},{"type":"Feature","properties":{"kind":"blob","cls":4,"id":32},"geometry":{"type":"Polygon","coordinates":[[[-69.25,72.62],[-67.75,74.12],[-66.0,75.12],[-63.5,75.88],[-61.75,75.88],[-61.62,75.25],[-65.5,72.62],[-60.25,72.88],[-58.25,73.38],[-57.38,74.0],[-59.5,75.12],[-60.75,76.38],[-66.25,76.38],[-68.75,77.12],[-74.25,76.62],[-76.25,75.88],[-76.88,75.25],[-76.25,74.12],[-74.5,73.38],[-69.25,72.62]]]}},{"type":"Feature","properties":{"kind":"blob","cls":3,"id":33},"geometry":{"type":"Polygon","coordinates":[[[-153.75,53.38],[-149.75,53.38],[-148.12,54.5],[-148.12,56.0],[-149.75,57.38],[-154.75,57.38],[-155.62,56.75],[-155.12,56.25],[-155.12,55.25],[-156.38,54.75],[-155.5,53.88],[-153.75,53.38]]]}},{"type":"Feature","properties":{"kind":"blob","cls":4,"id":34},"geometry":{"type":"Polygon","coordinates":[[[-107.75,-47.38],[-106.5,-46.88],[-104.38,-44.75],[-104.38,-43.25],[-106.25,-42.12],[-109.75,-42.12],[-111.0,-42.62],[-111.62,-43.25],[-111.88,-45.25],[-110.5,-46.88],[-107.75,-47.38]]]}},{"type":"Feature","properties":{"kind":"blob","cls":4,"id":35},"geometry":{"type":"Polygon","coordinates":[[[-19.75,71.12],[-14.25,72.12],[-12.0,73.62],[-10.5,74.12],[-10.12,75.0],[-12.25,76.12],[-15.5,76.62],[-19.25,76.62],[-22.5,76.12],[-20.88,75.75],[-21.62,75.25],[-21.38,74.75],[-21.75,74.38],[-23.25,74.38],[-24.38,73.75],[-24.38,73.0],[-24.88,72.5],[-24.12,72.0],[-25.0,71.38],[-25.88,71.5],[-25.75,71.12],[-19.75,71.12]],[[-23.62,73.75],[-22.88,73.75],[-23.0,73.62],[-23.62,73.75]]]}},{"type":"Feature","properties":{"kind":"blob","cls":4,"id":36},"geometry":{"type":"Polygon","coordinates":[[[149.25,71.62],[152.5,72.12],[154.0,72.88],[154.88,74.0],[153.75,75.38],[150.5,77.88],[145.25,79.12],[135.75,79.12],[132.75,78.38],[131.88,77.5],[132.75,76.62],[134.0,76.12],[138.75,75.12],[142.25,72.38],[149.25,71.62]]]}},{"type":"Feature","properties":{"kind":"blob","cls":3,"id":37},"geometry":{"type":"Polygon","coordinates":[[[16.75,82.12],[25.0,83.12],[26.5,83.62],[26.62,84.25],[25.75,84.62],[14.25,84.12],[-8.12,82.5],[-6.25,82.12],[16.75,82.12]]]}},{"type":"Feature","properties":{"kind":"blob","cls":1,"id":38},"geometry":{"type":"Polygon","coordinates":[[[-66.25,-50.88],[-64.5,-50.12],[-63.88,-49.25],[-64.12,-47.75],[-66.25,-46.62],[-67.25,-46.62],[-69.0,-47.38],[-69.62,-48.25],[-69.62,-49.25],[-68.25,-50.62],[-66.25,-50.88]]]}},{"type":"Feature","properties":{"kind":"blob","cls":4,"id":39},"geometry":{"type":"Polygon","coordinates":[[[61.0,79.38],[64.25,79.88],[66.5,80.62],[67.12,81.25],[66.5,81.88],[64.5,82.62],[57.25,83.38],[43.25,83.12],[39.75,82.62],[37.62,81.75],[37.75,81.12],[40.5,80.12],[45.75,79.38],[61.0,79.38]]]}},{"type":"Feature","properties":{"kind":"blob","cls":1,"id":40},"geometry":{"type":"Polygon","coordinates":[[[-34.0,81.38],[-33.12,81.5],[-33.25,81.62],[-34.0,81.38]]]}},{"type":"Feature","properties":{"kind":"blob","cls":1,"id":41},"geometry":{"type":"Polygon","coordinates":[[[-35.25,81.62],[-34.88,81.75],[-35.0,81.88],[-35.25,81.62]]]}},{"type":"Feature","properties":{"kind":"blob","cls":4,"id":42},"geometry":{"type":"Polygon","coordinates":[[[5.25,65.38],[7.5,65.88],[9.38,67.25],[9.88,68.75],[8.5,69.88],[4.0,70.38],[0.0,69.38],[-1.38,68.5],[-1.62,68.0],[-1.0,66.62],[1.25,65.62],[5.25,65.38]]]}},{"type":"Feature","properties":{"kind":"blob","cls":1,"id":43},"geometry":{"type":"MultiPolygon","coordinates":[[[[-50.12,81.25],[-44.25,81.38],[-43.62,81.75],[-47.0,81.88],[-50.12,81.25]]],[[[-43.62,82.0],[-41.38,82.0],[-41.5,82.12],[-43.62,82.0]]]]}},{"type":"Feature","properties":{"kind":"blob","cls":4,"id":44},"geometry":{"type":"MultiPolygon","coordinates":[[[[-64.0,-30.62],[-62.88,-29.5],[-62.62,-28.5],[-63.12,-27.5],[-61.62,-26.25],[-61.88,-23.75],[-63.75,-22.38],[-64.38,-22.75],[-64.62,-24.0],[-64.12,-24.25],[-65.12,-25.75],[-64.62,-26.0],[-65.0,-26.62],[-65.38,-26.25],[-65.88,-27.25],[-65.38,-28.75],[-65.75,-28.38],[-66.38,-28.75],[-66.12,-28.0],[-66.5,-27.62],[-66.88,-28.0],[-66.62,-29.0],[-67.38,-29.75],[-67.0,-30.38],[-64.0,-30.62]]],[[[-64.75,-24.38],[-64.88,-24.5],[-64.75,-24.62],[-64.75,-24.38]]]]}},{"type":"Feature","properties":{"kind":"blob","cls":1,"id":45},"geometry":{"type":"Polygon","coordinates":[[[-63.25,-20.88],[-61.75,-20.62],[-60.88,-19.5],[-61.12,-17.75],[-62.75,-16.62],[-64.62,-17.25],[-63.38,-18.25],[-63.88,-19.0],[-63.12,-19.5],[-63.25,-20.88]]]}},{"type":"Feature","properties":{"kind":"blob","cls":4,"id":46},"geometry":{"type":"Polygon","coordinates":[[[-104.75,-35.62],[-103.12,-34.75],[-102.88,-33.0],[-103.5,-32.12],[-105.75,-31.38],[-107.62,-32.5],[-107.88,-34.25],[-107.25,-35.12],[-104.75,-35.62]]]}},{"type":"Feature","properties":{"kind":"blob","cls":4,"id":47},"geometry":{"type":"Polygon","coordinates":[[[66.75,55.12],[68.12,56.25],[68.38,57.25],[66.75,58.62],[62.75,58.62],[61.12,57.25],[61.12,56.75],[62.25,55.38],[66.75,55.12]]]}},{"type":"Feature","properties":{"kind":"blob","cls":1,"id":48},"geometry":{"type":"Polygon","coordinates":[[[68.75,25.38],[69.88,27.0],[69.62,28.25],[68.0,29.38],[67.5,29.38],[67.12,28.75],[66.88,27.0],[65.88,26.5],[66.75,25.38],[68.75,25.38]]]}},{"type":"Feature","properties":{"kind":"blob","cls":5,"id":49},"geometry":{"type":"Polygon","coordinates":[[[74.5,29.12],[75.75,29.62],[76.38,30.5],[76.38,31.5],[75.25,32.38],[72.25,32.38],[70.12,31.5],[70.12,30.0],[70.5,29.62],[74.5,29.12]]]}},{"type":"Feature","properties":{"kind":"blob","cls":3,"id":50},"geometry":{"type":"Polygon","coordinates":[[[17.25,-27.62],[17.75,-27.88],[18.25,-26.88],[19.62,-26.5],[19.0,-26.12],[18.0,-26.62],[18.38,-26.0],[18.0,-25.62],[17.12,-26.75],[17.25,-27.62]]]}},{"type":"Feature","properties":{"kind":"blob","cls":4,"id":51},"geometry":{"type":"MultiPolygon","coordinates":[[[[56.25,36.88],[56.12,36.75],[56.5,36.62],[56.25,36.88]]],[[[56.75,37.12],[56.62,37.0],[56.75,36.88],[56.75,37.12]]]]}},{"type":"Feature","properties":{"kind":"blob","cls":4,"id":52},"geometry":{"type":"Polygon","coordinates":[[[57.5,34.38],[57.62,35.0],[56.62,35.5],[57.38,36.0],[57.0,36.38],[56.25,36.38],[55.38,35.5],[56.5,34.62],[57.5,34.38]]]}},{"type":"Feature","properties":{"kind":"blob","cls":6,"id":53},"geometry":{"type":"Polygon","coordinates":[[[-149.5,71.62],[-146.25,72.12],[-144.5,72.88],[-143.62,74.0],[-144.0,74.62],[-146.0,75.62],[-147.0,75.62],[-149.25,76.62],[-152.75,77.12],[-159.25,76.88],[-161.25,76.38],[-162.62,75.25],[-157.5,74.88],[-156.12,74.25],[-157.0,73.62],[-161.38,73.25],[-160.5,72.62],[-156.5,71.88],[-149.5,71.62]]]}},{"type":"Feature","properties":{"kind":"blob","cls":4,"id":54},"geometry":{"type":"Polygon","coordinates":[[[57.75,55.12],[59.38,56.75],[57.75,58.38],[54.0,58.38],[52.38,56.75],[53.5,55.38],[57.75,55.12]]]}},{"type":"Feature","properties":{"kind":"blob","cls":1,"id":55},"geometry":{"type":"Polygon","coordinates":[[[46.25,-18.38],[47.25,-17.88],[47.5,-18.38],[47.75,-17.62],[48.25,-18.12],[50.12,-15.5],[50.12,-14.25],[49.5,-13.88],[49.38,-14.75],[48.75,-14.88],[48.38,-14.5],[49.38,-13.75],[48.25,-13.12],[47.25,-13.12],[45.12,-16.0],[45.12,-17.25],[46.25,-18.38]],[[48.0,-16.88],[47.88,-16.75],[48.0,-16.62],[48.0,-16.88]]]}},{"type":"Feature","properties":{"kind":"blob","cls":4,"id":56},"geometry":{"type":"Polygon","coordinates":[[[54.25,36.62],[55.25,36.88],[56.0,37.62],[57.0,37.62],[56.62,38.25],[57.12,38.5],[55.75,38.62],[54.75,38.12],[54.25,36.62]]]}},{"type":"Feature","properties":{"kind":"blob","cls":4,"id":57},"geometry":{"type":"Polygon","coordinates":[[[-101.0,41.88],[-100.0,42.12],[-98.88,43.0],[-98.88,44.5],[-100.75,45.62],[-103.25,45.12],[-103.62,44.75],[-103.12,44.0],[-103.12,43.0],[-102.0,43.38],[-101.0,41.88]]]}},{"type":"Feature","properties":{"kind":"blob","cls":3,"id":58},"geometry":{"type":"Polygon","coordinates":[[[15.75,-24.62],[15.75,-23.38],[15.62,-23.5],[15.75,-24.62]]]}},{"type":"Feature","properties":{"kind":"blob","cls":3,"id":59},"geometry":{"type":"Polygon","coordinates":[[[16.0,-26.62],[16.38,-26.25],[16.0,-25.62],[15.88,-25.75],[16.0,-26.62]]]}},{"type":"Feature","properties":{"kind":"blob","cls":3,"id":60},"geometry":{"type":"Polygon","coordinates":[[[19.38,-27.0],[19.5,-27.12],[19.62,-27.0],[19.38,-27.0]]]}},{"type":"Feature","properties":{"kind":"blob","cls":4,"id":61},"geometry":{"type":"Polygon","coordinates":[[[120.75,39.38],[121.88,40.5],[121.62,42.75],[119.75,44.62],[119.25,44.62],[118.75,43.88],[118.25,44.12],[117.88,43.5],[118.62,42.75],[118.38,42.25],[118.88,41.75],[118.5,41.38],[117.25,41.62],[116.62,41.25],[118.0,39.38],[120.75,39.38]]]}},{"type":"Feature","properties":{"kind":"blob","cls":1,"id":62},"geometry":{"type":"Polygon","coordinates":[[[45.75,-26.62],[46.62,-25.75],[46.62,-24.25],[45.0,-23.12],[43.75,-23.38],[42.88,-24.25],[42.88,-25.75],[43.75,-26.62],[45.75,-26.62]]]}},{"type":"Feature","properties":{"kind":"blob","cls":4,"id":63},"geometry":{"type":"Polygon","coordinates":[[[57.88,38.0],[58.0,37.88],[58.12,38.0],[57.88,38.0]]]}},{"type":"Feature","properties":{"kind":"blob","cls":4,"id":64},"geometry":{"type":"Polygon","coordinates":[[[57.38,38.25],[57.5,38.12],[57.62,38.25],[57.38,38.25]]]}},{"type":"Feature","properties":{"kind":"blob","cls":3,"id":65},"geometry":{"type":"MultiPolygon","coordinates":[[[[67.0,-30.12],[66.88,-30.25],[67.0,-30.38],[67.0,-30.12]]],[[[69.25,-31.38],[70.88,-30.25],[71.12,-29.0],[70.0,-27.62],[68.5,-27.38],[66.88,-28.5],[66.75,-29.38],[68.62,-29.75],[68.5,-30.38],[67.12,-30.5],[69.25,-31.38]]]]}},{"type":"Feature","properties":{"kind":"blob","cls":4,"id":66},"geometry":{"type":"MultiPolygon","coordinates":[[[[44.75,36.12],[44.62,36.0],[45.0,35.88],[44.75,36.12]]],[[[43.88,36.25],[44.62,36.25],[44.5,36.38],[43.88,36.25]]]]}},{"type":"Feature","properties":{"kind":"blob","cls":1,"id":67},"geometry":{"type":"Polygon","coordinates":[[[16.38,-27.25],[16.5,-27.38],[16.62,-27.25],[16.38,-27.25]]]}},{"type":"Feature","properties":{"kind":"blob","cls":4,"id":68},"geometry":{"type":"Polygon","coordinates":[[[150.5,-40.88],[151.62,-39.5],[151.38,-38.25],[150.25,-37.12],[148.5,-36.88],[146.88,-38.0],[146.88,-39.75],[148.0,-40.88],[150.5,-40.88]]]}},{"type":"Feature","properties":{"kind":"blob","cls":4,"id":69},"geometry":{"type":"MultiPolygon","coordinates":[[[[52.62,36.25],[53.38,36.25],[53.25,36.38],[52.62,36.25]]],[[[53.5,36.62],[53.38,36.5],[53.5,36.38],[53.5,36.62]]]]}},{"type":"Feature","properties":{"kind":"blob","cls":4,"id":70},"geometry":{"type":"Polygon","coordinates":[[[49.0,37.62],[49.38,37.75],[49.12,38.75],[48.25,39.62],[46.88,39.75],[48.5,38.88],[49.0,37.62]]]}},{"type":"Feature","properties":{"kind":"blob","cls":5,"id":71},"geometry":{"type":"Polygon","coordinates":[[[116.0,44.12],[117.0,44.88],[117.88,44.75],[117.5,45.12],[116.25,45.12],[115.38,44.75],[116.0,44.12]]]}},{"type":"Feature","properties":{"kind":"center","id":1,"lat":-57.25,"lon":-132.5,"mslp":948.9,"hvtl":-40.7,"hvtu":-174.2,"hb":68.1,"idx":-1.7,"cls":4,"psfc":948.8,"terrain":false,"radius_km":200,"name":"asym cold","track":"T05"},"geometry":{"type":"Point","coordinates":[-132.5,-57.25]}},{"type":"Feature","properties":{"kind":"center","id":2,"lat":-75.75,"lon":-146.0,"mslp":949.4,"hvtl":-30.8,"hvtu":-43.6,"hb":54.8,"idx":-1.0,"cls":4,"psfc":944.3,"terrain":false,"radius_km":200,"name":"asym cold"},"geometry":{"type":"Point","coordinates":[-146.0,-75.75]}},{"type":"Feature","properties":{"kind":"center","id":3,"lat":-52.5,"lon":-13.75,"mslp":953.4,"hvtl":128.9,"hvtu":-106.5,"hb":83.6,"idx":0.9,"cls":3,"psfc":953.4,"terrain":false,"radius_km":200,"name":"asym shallow warm"},"geometry":{"type":"Point","coordinates":[-13.75,-52.5]}},{"type":"Feature","properties":{"kind":"center","id":4,"lat":-63.25,"lon":-130.5,"mslp":953.7,"hvtl":-83.1,"hvtu":-66.2,"hb":40.6,"idx":-1.9,"cls":4,"psfc":953.7,"terrain":false,"radius_km":200,"name":"asym cold","track":"T09"},"geometry":{"type":"Point","coordinates":[-130.5,-63.25]}},{"type":"Feature","properties":{"kind":"center","id":5,"lat":-64.25,"lon":110.75,"mslp":954.3,"hvtl":63.3,"hvtu":-81.8,"hb":7.1,"idx":0.4,"cls":1,"psfc":954.3,"terrain":false,"radius_km":200,"name":"sym shallow warm","track":"T21"},"geometry":{"type":"Point","coordinates":[110.75,-64.25]}},{"type":"Feature","properties":{"kind":"center","id":6,"lat":-64.0,"lon":-174.75,"mslp":962.1,"hvtl":-180.1,"hvtu":-193.3,"hb":68.0,"idx":-2.9,"cls":4,"psfc":962.1,"terrain":false,"radius_km":200,"name":"asym cold","track":"T10"},"geometry":{"type":"Point","coordinates":[-174.75,-64.0]}},{"type":"Feature","properties":{"kind":"center","id":7,"lat":-57.25,"lon":78.0,"mslp":963.5,"hvtl":-298.8,"hvtu":-378.4,"hb":64.6,"idx":-3.0,"cls":4,"psfc":963.5,"terrain":false,"radius_km":200,"name":"asym cold"},"geometry":{"type":"Point","coordinates":[78.0,-57.25]}},{"type":"Feature","properties":{"kind":"center","id":8,"lat":20.25,"lon":146.25,"mslp":964.5,"hvtl":108.1,"hvtu":183.7,"hb":0.1,"idx":2.5,"cls":0,"psfc":964.5,"terrain":false,"radius_km":200,"name":"sym deep warm","track":"T07"},"geometry":{"type":"Point","coordinates":[146.25,20.25]}},{"type":"Feature","properties":{"kind":"center","id":9,"lat":-73.0,"lon":-21.25,"mslp":965.1,"hvtl":-251.5,"hvtu":-90.5,"hb":43.2,"idx":-2.7,"cls":4,"psfc":965.1,"terrain":false,"radius_km":200,"name":"asym cold"},"geometry":{"type":"Point","coordinates":[-21.25,-73.0]}},{"type":"Feature","properties":{"kind":"center","id":10,"lat":52.0,"lon":169.5,"mslp":966.2,"hvtl":9.9,"hvtu":-305.8,"hb":2.0,"idx":-0.8,"cls":1,"psfc":966.2,"terrain":false,"radius_km":200,"name":"sym shallow warm","track":"T35"},"geometry":{"type":"Point","coordinates":[169.5,52.0]}},{"type":"Feature","properties":{"kind":"center","id":11,"lat":-67.0,"lon":88.5,"mslp":967.1,"hvtl":-298.7,"hvtu":24.2,"hb":12.7,"idx":-1.8,"cls":6,"psfc":904.1,"terrain":false,"radius_km":200,"name":"shallow cold"},"geometry":{"type":"Point","coordinates":[88.5,-67.0]}},{"type":"Feature","properties":{"kind":"center","id":12,"lat":-66.25,"lon":80.0,"mslp":967.8,"hvtl":-74.2,"hvtu":-200.3,"hb":-4.3,"idx":-2.2,"cls":5,"psfc":967.8,"terrain":false,"radius_km":200,"name":"sym cold"},"geometry":{"type":"Point","coordinates":[80.0,-66.25]}},{"type":"Feature","properties":{"kind":"center","id":13,"lat":-68.25,"lon":79.5,"mslp":967.8,"hvtl":-83.4,"hvtu":-27.0,"hb":1.2,"idx":-1.6,"cls":5,"psfc":900.7,"terrain":false,"radius_km":200,"name":"sym cold"},"geometry":{"type":"Point","coordinates":[79.5,-68.25]}},{"type":"Feature","properties":{"kind":"center","id":14,"lat":-65.75,"lon":81.75,"mslp":967.9,"hvtl":-124.2,"hvtu":-211.8,"hb":-3.5,"idx":-2.7,"cls":5,"psfc":967.9,"terrain":false,"radius_km":200,"name":"sym cold"},"geometry":{"type":"Point","coordinates":[81.75,-65.75]}},{"type":"Feature","properties":{"kind":"center","id":15,"lat":-68.5,"lon":78.75,"mslp":968.2,"hvtl":-74.5,"hvtu":-29.1,"hb":-0.3,"idx":-1.5,"cls":5,"psfc":923.1,"terrain":false,"radius_km":200,"name":"sym cold"},"geometry":{"type":"Point","coordinates":[78.75,-68.5]}},{"type":"Feature","properties":{"kind":"center","id":16,"lat":-59.75,"lon":-111.25,"mslp":968.4,"hvtl":-235.9,"hvtu":-148.6,"hb":49.7,"idx":-2.9,"cls":4,"psfc":968.4,"terrain":false,"radius_km":200,"name":"asym cold"},"geometry":{"type":"Point","coordinates":[-111.25,-59.75]}},{"type":"Feature","properties":{"kind":"center","id":17,"lat":-63.25,"lon":26.5,"mslp":971.2,"hvtl":106.3,"hvtu":-68.9,"hb":-17.9,"idx":1.0,"cls":1,"psfc":971.2,"terrain":false,"radius_km":200,"name":"sym shallow warm"},"geometry":{"type":"Point","coordinates":[26.5,-63.25]}},{"type":"Feature","properties":{"kind":"center","id":18,"lat":-66.5,"lon":3.25,"mslp":972.6,"hvtl":4.0,"hvtu":-246.1,"hb":-7.2,"idx":-0.9,"cls":1,"psfc":972.6,"terrain":false,"radius_km":200,"name":"sym shallow warm","track":"T04"},"geometry":{"type":"Point","coordinates":[3.25,-66.5]}},{"type":"Feature","properties":{"kind":"center","id":19,"lat":-70.25,"lon":24.0,"mslp":974.8,"hvtl":-37.5,"hvtu":-115.4,"hb":2.3,"idx":-1.5,"cls":5,"psfc":973.5,"terrain":false,"radius_km":200,"name":"sym cold"},"geometry":{"type":"Point","coordinates":[24.0,-70.25]}},{"type":"Feature","properties":{"kind":"center","id":20,"lat":-70.5,"lon":21.75,"mslp":974.9,"hvtl":-22.1,"hvtu":-128.3,"hb":4.5,"idx":-1.3,"cls":5,"psfc":952.4,"terrain":false,"radius_km":200,"name":"sym cold"},"geometry":{"type":"Point","coordinates":[21.75,-70.5]}},{"type":"Feature","properties":{"kind":"center","id":21,"lat":23.0,"lon":-170.5,"mslp":979.3,"hvtl":84.9,"hvtu":218.9,"hb":-5.6,"idx":2.4,"cls":0,"psfc":979.3,"terrain":false,"radius_km":200,"name":"sym deep warm","track":"T40"},"geometry":{"type":"Point","coordinates":[-170.5,23.0]}},{"type":"Feature","properties":{"kind":"center","id":22,"lat":19.75,"lon":-111.5,"mslp":979.4,"hvtl":82.5,"hvtu":241.0,"hb":-0.2,"idx":2.3,"cls":0,"psfc":979.4,"terrain":false,"radius_km":200,"name":"sym deep warm","track":"T48"},"geometry":{"type":"Point","coordinates":[-111.5,19.75]}},{"type":"Feature","properties":{"kind":"center","id":23,"lat":62.75,"lon":-31.0,"mslp":980.0,"hvtl":-123.1,"hvtu":-319.2,"hb":46.2,"idx":-2.7,"cls":4,"psfc":980.0,"terrain":false,"radius_km":200,"name":"asym cold","track":"T41"},"geometry":{"type":"Point","coordinates":[-31.0,62.75]}},{"type":"Feature","properties":{"kind":"center","id":24,"lat":-74.75,"lon":165.5,"mslp":980.6,"hvtl":-214.9,"hvtu":-61.4,"hb":12.7,"idx":-2.5,"cls":4,"psfc":980.6,"terrain":false,"radius_km":200,"name":"asym cold","track":"T29"},"geometry":{"type":"Point","coordinates":[165.5,-74.75]}},{"type":"Feature","properties":{"kind":"center","id":25,"lat":73.25,"lon":115.0,"mslp":981.1,"hvtl":-74.8,"hvtu":40.2,"hb":23.6,"idx":-0.9,"cls":6,"psfc":977.0,"terrain":false,"radius_km":200,"name":"shallow cold","track":"T56"},"geometry":{"type":"Point","coordinates":[115.0,73.25]}},{"type":"Feature","properties":{"kind":"center","id":26,"lat":-70.75,"lon":163.75,"mslp":982.6,"hvtl":79.1,"hvtu":27.9,"hb":35.5,"idx":1.6,"cls":2,"psfc":958.1,"terrain":false,"radius_km":200,"name":"asym deep warm"},"geometry":{"type":"Point","coordinates":[163.75,-70.75]}},{"type":"Feature","properties":{"kind":"center","id":27,"lat":-71.0,"lon":162.25,"mslp":983.4,"hvtl":60.6,"hvtu":36.3,"hb":36.1,"idx":1.4,"cls":2,"psfc":940.4,"terrain":false,"radius_km":200,"name":"asym deep warm"},"geometry":{"type":"Point","coordinates":[162.25,-71.0]}},{"type":"Feature","properties":{"kind":"center","id":28,"lat":-77.0,"lon":-77.75,"mslp":985.8,"hvtl":-84.3,"hvtu":-109.9,"hb":9.3,"idx":-2.2,"cls":5,"psfc":914.4,"terrain":false,"radius_km":200,"name":"sym cold","track":"T25"},"geometry":{"type":"Point","coordinates":[-77.75,-77.0]}},{"type":"Feature","properties":{"kind":"center","id":29,"lat":66.25,"lon":-57.5,"mslp":986.5,"hvtl":0.4,"hvtu":-21.0,"hb":23.1,"idx":-0.2,"cls":3,"psfc":986.5,"terrain":false,"radius_km":200,"name":"asym shallow warm","track":"T69"},"geometry":{"type":"Point","coordinates":[-57.5,66.25]}},{"type":"Feature","properties":{"kind":"center","id":30,"lat":70.0,"lon":-54.5,"mslp":989.9,"hvtl":-208.5,"hvtu":-68.9,"hb":57.3,"idx":-2.5,"cls":4,"psfc":921.9,"terrain":false,"radius_km":200,"name":"asym cold","track":"T75"},"geometry":{"type":"Point","coordinates":[-54.5,70.0]}},{"type":"Feature","properties":{"kind":"center","id":31,"lat":-47.5,"lon":-81.25,"mslp":990.2,"hvtl":8.5,"hvtu":-143.8,"hb":6.4,"idx":-0.7,"cls":1,"psfc":990.2,"terrain":false,"radius_km":200,"name":"sym shallow warm"},"geometry":{"type":"Point","coordinates":[-81.25,-47.5]}},{"type":"Feature","properties":{"kind":"center","id":32,"lat":73.75,"lon":-63.5,"mslp":992.2,"hvtl":-126.5,"hvtu":-75.0,"hb":33.3,"idx":-2.3,"cls":4,"psfc":992.2,"terrain":false,"radius_km":200,"name":"asym cold"},"geometry":{"type":"Point","coordinates":[-63.5,73.75]}},{"type":"Feature","properties":{"kind":"center","id":33,"lat":55.25,"lon":-152.5,"mslp":992.6,"hvtl":57.2,"hvtu":-88.6,"hb":34.9,"idx":0.3,"cls":3,"psfc":992.5,"terrain":false,"radius_km":200,"name":"asym shallow warm","track":"T74"},"geometry":{"type":"Point","coordinates":[-152.5,55.25]}},{"type":"Feature","properties":{"kind":"center","id":34,"lat":-44.75,"lon":-109.0,"mslp":992.7,"hvtl":-159.1,"hvtu":-147.8,"hb":45.5,"idx":-2.7,"cls":4,"psfc":992.7,"terrain":false,"radius_km":200,"name":"asym cold","track":"T71"},"geometry":{"type":"Point","coordinates":[-109.0,-44.75]}},{"type":"Feature","properties":{"kind":"center","id":35,"lat":76.0,"lon":-12.25,"mslp":992.8,"hvtl":-90.7,"hvtu":-40.1,"hb":20.2,"idx":-1.8,"cls":4,"psfc":992.8,"terrain":false,"radius_km":200,"name":"asym cold"},"geometry":{"type":"Point","coordinates":[-12.25,76.0]}},{"type":"Feature","properties":{"kind":"center","id":36,"lat":74.25,"lon":147.0,"mslp":993.3,"hvtl":-181.5,"hvtu":-67.0,"hb":44.5,"idx":-2.5,"cls":4,"psfc":993.3,"terrain":false,"radius_km":200,"name":"asym cold","track":"T82"},"geometry":{"type":"Point","coordinates":[147.0,74.25]}},{"type":"Feature","properties":{"kind":"center","id":37,"lat":83.5,"lon":5.25,"mslp":994.9,"hvtl":33.1,"hvtu":-2.4,"hb":26.2,"idx":0.6,"cls":3,"psfc":994.9,"terrain":false,"radius_km":200,"name":"asym shallow warm"},"geometry":{"type":"Point","coordinates":[5.25,83.5]}},{"type":"Feature","properties":{"kind":"center","id":38,"lat":-48.5,"lon":-66.75,"mslp":995.4,"hvtl":135.7,"hvtu":-139.6,"hb":5.7,"idx":0.9,"cls":1,"psfc":992.4,"terrain":false,"radius_km":200,"name":"sym shallow warm","track":"T86"},"geometry":{"type":"Point","coordinates":[-66.75,-48.5]}},{"type":"Feature","properties":{"kind":"center","id":39,"lat":81.25,"lon":52.25,"mslp":996.4,"hvtl":-162.0,"hvtu":-156.0,"hb":72.0,"idx":-2.8,"cls":4,"psfc":996.4,"terrain":false,"radius_km":200,"name":"asym cold"},"geometry":{"type":"Point","coordinates":[52.25,81.25]}},{"type":"Feature","properties":{"kind":"center","id":40,"lat":81.5,"lon":-33.75,"mslp":999.5,"hvtl":50.5,"hvtu":-20.4,"hb":-27.9,"idx":0.7,"cls":1,"psfc":914.1,"terrain":false,"radius_km":200,"name":"sym shallow warm"},"geometry":{"type":"Point","coordinates":[-33.75,81.5]}},{"type":"Feature","properties":{"kind":"center","id":41,"lat":81.75,"lon":-35.25,"mslp":1000.3,"hvtl":53.9,"hvtu":-21.0,"hb":-23.4,"idx":0.8,"cls":1,"psfc":901.6,"terrain":true,"radius_km":200,"name":"sym shallow warm"},"geometry":{"type":"Point","coordinates":[-35.25,81.75]}},{"type":"Feature","properties":{"kind":"center","id":42,"lat":67.75,"lon":4.25,"mslp":1000.6,"hvtl":-157.6,"hvtu":-155.2,"hb":40.1,"idx":-2.8,"cls":4,"psfc":1000.6,"terrain":false,"radius_km":200,"name":"asym cold","track":"T61"},"geometry":{"type":"Point","coordinates":[4.25,67.75]}},{"type":"Feature","properties":{"kind":"center","id":43,"lat":82.0,"lon":-41.5,"mslp":1001.9,"hvtl":40.1,"hvtu":-17.8,"hb":-13.3,"idx":0.6,"cls":1,"psfc":901.6,"terrain":true,"radius_km":200,"name":"sym shallow warm"},"geometry":{"type":"Point","coordinates":[-41.5,82.0]}},{"type":"Feature","properties":{"kind":"center","id":44,"lat":-24.75,"lon":-64.0,"mslp":1002.6,"hvtl":-134.6,"hvtu":-300.9,"hb":17.7,"idx":-2.7,"cls":4,"psfc":958.4,"terrain":false,"radius_km":200,"name":"asym cold"},"geometry":{"type":"Point","coordinates":[-64.0,-24.75]}},{"type":"Feature","properties":{"kind":"center","id":45,"lat":-18.75,"lon":-63.0,"mslp":1003.5,"hvtl":46.6,"hvtu":-153.7,"hb":-0.7,"idx":-0.0,"cls":1,"psfc":959.2,"terrain":false,"radius_km":200,"name":"sym shallow warm"},"geometry":{"type":"Point","coordinates":[-63.0,-18.75]}},{"type":"Feature","properties":{"kind":"center","id":46,"lat":-33.75,"lon":-105.25,"mslp":1004.1,"hvtl":-199.9,"hvtu":-368.7,"hb":36.7,"idx":-2.9,"cls":4,"psfc":1004.1,"terrain":false,"radius_km":200,"name":"asym cold","track":"T92"},"geometry":{"type":"Point","coordinates":[-105.25,-33.75]}},{"type":"Feature","properties":{"kind":"center","id":47,"lat":56.75,"lon":64.75,"mslp":1006.4,"hvtl":-101.7,"hvtu":-210.9,"hb":38.1,"idx":-2.5,"cls":4,"psfc":992.5,"terrain":false,"radius_km":200,"name":"asym cold"},"geometry":{"type":"Point","coordinates":[64.75,56.75]}},{"type":"Feature","properties":{"kind":"center","id":48,"lat":27.25,"lon":67.75,"mslp":1006.5,"hvtl":27.5,"hvtu":-70.8,"hb":-10.9,"idx":-0.1,"cls":1,"psfc":1001.7,"terrain":false,"radius_km":200,"name":"sym shallow warm"},"geometry":{"type":"Point","coordinates":[67.75,27.25]}},{"type":"Feature","properties":{"kind":"center","id":49,"lat":29.75,"lon":70.5,"mslp":1007.1,"hvtl":-1.1,"hvtu":-95.6,"hb":5.0,"idx":-0.8,"cls":5,"psfc":993.6,"terrain":false,"radius_km":200,"name":"sym cold","track":"T111"},"geometry":{"type":"Point","coordinates":[70.5,29.75]}},{"type":"Feature","properties":{"kind":"center","id":50,"lat":-26.0,"lon":17.75,"mslp":1008.7,"hvtl":129.5,"hvtu":-218.0,"hb":28.9,"idx":0.7,"cls":3,"psfc":901.9,"terrain":true,"radius_km":200,"name":"asym shallow warm"},"geometry":{"type":"Point","coordinates":[17.75,-26.0]}},{"type":"Feature","properties":{"kind":"center","id":51,"lat":36.75,"lon":56.25,"mslp":1009.3,"hvtl":-295.2,"hvtu":-146.9,"hb":122.4,"idx":-2.9,"cls":4,"psfc":904.7,"terrain":true,"radius_km":200,"name":"asym cold"},"geometry":{"type":"Point","coordinates":[56.25,36.75]}},{"type":"Feature","properties":{"kind":"center","id":52,"lat":36.25,"lon":56.5,"mslp":1009.6,"hvtl":-253.5,"hvtu":-119.8,"hb":117.2,"idx":-2.8,"cls":4,"psfc":921.1,"terrain":false,"radius_km":200,"name":"asym cold"},"geometry":{"type":"Point","coordinates":[56.5,36.25]}},{"type":"Feature","properties":{"kind":"center","id":53,"lat":74.75,"lon":-154.5,"mslp":1010.0,"hvtl":-96.0,"hvtu":36.0,"hb":3.1,"idx":-1.1,"cls":6,"psfc":1010.0,"terrain":false,"radius_km":200,"name":"shallow cold","track":"T117"},"geometry":{"type":"Point","coordinates":[-154.5,74.75]}},{"type":"Feature","properties":{"kind":"center","id":54,"lat":57.0,"lon":56.75,"mslp":1010.0,"hvtl":-45.3,"hvtu":-45.0,"hb":29.2,"idx":-1.3,"cls":4,"psfc":985.3,"terrain":false,"radius_km":200,"name":"asym cold"},"geometry":{"type":"Point","coordinates":[56.75,57.0]}},{"type":"Feature","properties":{"kind":"center","id":55,"lat":-14.75,"lon":48.25,"mslp":1010.8,"hvtl":69.2,"hvtu":-99.3,"hb":-16.9,"idx":0.4,"cls":1,"psfc":989.4,"terrain":false,"radius_km":200,"name":"sym shallow warm"},"geometry":{"type":"Point","coordinates":[48.25,-14.75]}},{"type":"Feature","properties":{"kind":"center","id":56,"lat":37.75,"lon":57.0,"mslp":1011.2,"hvtl":-344.4,"hvtu":-178.8,"hb":110.9,"idx":-2.9,"cls":4,"psfc":913.4,"terrain":true,"radius_km":200,"name":"asym cold"},"geometry":{"type":"Point","coordinates":[57.0,37.75]}},{"type":"Feature","properties":{"kind":"center","id":57,"lat":43.75,"lon":-101.5,"mslp":1011.5,"hvtl":-121.6,"hvtu":-247.5,"hb":19.9,"idx":-2.7,"cls":4,"psfc":930.1,"terrain":false,"radius_km":200,"name":"asym cold"},"geometry":{"type":"Point","coordinates":[-101.5,43.75]}},{"type":"Feature","properties":{"kind":"center","id":58,"lat":-24.5,"lon":15.75,"mslp":1011.6,"hvtl":119.2,"hvtu":-276.4,"hb":31.7,"idx":0.7,"cls":3,"psfc":915.7,"terrain":true,"radius_km":200,"name":"asym shallow warm"},"geometry":{"type":"Point","coordinates":[15.75,-24.5]}},{"type":"Feature","properties":{"kind":"center","id":59,"lat":-25.75,"lon":16.0,"mslp":1011.6,"hvtl":165.0,"hvtu":-282.4,"hb":16.2,"idx":0.9,"cls":3,"psfc":904.6,"terrain":true,"radius_km":200,"name":"asym shallow warm"},"geometry":{"type":"Point","coordinates":[16.0,-25.75]}},{"type":"Feature","properties":{"kind":"center","id":60,"lat":-27.0,"lon":19.5,"mslp":1012.5,"hvtl":119.2,"hvtu":-214.5,"hb":53.5,"idx":0.7,"cls":3,"psfc":906.3,"terrain":true,"radius_km":200,"name":"asym shallow warm"},"geometry":{"type":"Point","coordinates":[19.5,-27.0]}},{"type":"Feature","properties":{"kind":"center","id":61,"lat":41.5,"lon":119.25,"mslp":1014.5,"hvtl":-141.4,"hvtu":-299.5,"hb":65.8,"idx":-2.8,"cls":4,"psfc":942.8,"terrain":false,"radius_km":200,"name":"asym cold","track":"T26"},"geometry":{"type":"Point","coordinates":[119.25,41.5]}},{"type":"Feature","properties":{"kind":"center","id":62,"lat":-24.0,"lon":45.25,"mslp":1014.8,"hvtl":68.4,"hvtu":-33.6,"hb":7.1,"idx":0.9,"cls":1,"psfc":957.9,"terrain":false,"radius_km":200,"name":"sym shallow warm"},"geometry":{"type":"Point","coordinates":[45.25,-24.0]}},{"type":"Feature","properties":{"kind":"center","id":63,"lat":38.0,"lon":58.0,"mslp":1015.2,"hvtl":-341.9,"hvtu":-171.8,"hb":107.6,"idx":-2.9,"cls":4,"psfc":921.9,"terrain":true,"radius_km":200,"name":"asym cold"},"geometry":{"type":"Point","coordinates":[58.0,38.0]}},{"type":"Feature","properties":{"kind":"center","id":64,"lat":38.25,"lon":57.5,"mslp":1015.3,"hvtl":-364.4,"hvtu":-193.7,"hb":109.9,"idx":-3.0,"cls":4,"psfc":926.6,"terrain":false,"radius_km":200,"name":"asym cold","track":"T128"},"geometry":{"type":"Point","coordinates":[57.5,38.25]}},{"type":"Feature","properties":{"kind":"center","id":65,"lat":-29.5,"lon":68.75,"mslp":1015.5,"hvtl":59.6,"hvtu":-138.8,"hb":38.2,"idx":0.2,"cls":3,"psfc":1015.5,"terrain":false,"radius_km":200,"name":"asym shallow warm"},"geometry":{"type":"Point","coordinates":[68.75,-29.5]}},{"type":"Feature","properties":{"kind":"center","id":66,"lat":36.25,"lon":44.0,"mslp":1015.9,"hvtl":-197.9,"hvtu":-225.5,"hb":44.2,"idx":-2.9,"cls":4,"psfc":964.9,"terrain":false,"radius_km":200,"name":"asym cold"},"geometry":{"type":"Point","coordinates":[44.0,36.25]}},{"type":"Feature","properties":{"kind":"center","id":67,"lat":-27.25,"lon":16.5,"mslp":1016.1,"hvtl":228.6,"hvtu":-285.7,"hb":9.6,"idx":1.0,"cls":1,"psfc":903.9,"terrain":true,"radius_km":200,"name":"sym shallow warm"},"geometry":{"type":"Point","coordinates":[16.5,-27.25]}},{"type":"Feature","properties":{"kind":"center","id":68,"lat":-39.0,"lon":149.0,"mslp":1016.2,"hvtl":-22.5,"hvtu":-80.3,"hb":35.4,"idx":-1.1,"cls":4,"psfc":1016.2,"terrain":false,"radius_km":200,"name":"asym cold","track":"T127"},"geometry":{"type":"Point","coordinates":[149.0,-39.0]}},{"type":"Feature","properties":{"kind":"center","id":69,"lat":36.25,"lon":53.25,"mslp":1016.8,"hvtl":-269.5,"hvtu":-161.1,"hb":161.3,"idx":-2.9,"cls":4,"psfc":917.6,"terrain":true,"radius_km":200,"name":"asym cold"},"geometry":{"type":"Point","coordinates":[53.25,36.25]}},{"type":"Feature","properties":{"kind":"center","id":70,"lat":38.0,"lon":49.25,"mslp":1018.7,"hvtl":-290.7,"hvtu":-255.4,"hb":110.8,"idx":-3.0,"cls":4,"psfc":1021.9,"terrain":false,"radius_km":200,"name":"asym cold"},"geometry":{"type":"Point","coordinates":[49.25,38.0]}},{"type":"Feature","properties":{"kind":"center","id":71,"lat":44.5,"lon":116.75,"mslp":1019.1,"hvtl":-46.7,"hvtu":-232.8,"hb":7.7,"idx":-1.9,"cls":5,"psfc":900.3,"terrain":true,"radius_km":200,"name":"sym cold"},"geometry":{"type":"Point","coordinates":[116.75,44.5]}}]}