{"type":"FeatureCollection","features":[{"type":"Feature","properties":{"kind":"blob","cls":1,"id":1},"geometry":{"type":"Polygon","coordinates":[[[-125.0,-71.38],[-121.75,-70.62],[-120.88,-69.75],[-120.88,-69.25],[-121.75,-68.38],[-123.25,-67.88],[-128.0,-67.62],[-131.25,-68.38],[-132.12,-69.25],[-132.12,-69.75],[-131.25,-70.62],[-127.0,-70.62],[-125.0,-71.38]]]}},{"type":"Feature","properties":{"kind":"blob","cls":1,"id":2},"geometry":{"type":"Polygon","coordinates":[[[96.75,-65.38],[100.5,-65.38],[101.75,-64.88],[102.88,-63.5],[99.75,-59.88],[98.25,-59.12],[96.25,-58.62],[93.75,-58.62],[91.5,-59.38],[90.88,-60.0],[90.88,-62.0],[91.75,-62.88],[93.5,-63.62],[94.5,-64.88],[96.75,-65.38]],[[94.0,-61.62],[93.38,-61.0],[93.75,-60.62],[95.25,-60.62],[96.62,-61.5],[96.25,-61.88],[94.0,-61.62]]]}},{"type":"Feature","properties":{"kind":"blob","cls":3,"id":3},"geometry":{"type":"Polygon","coordinates":[[[-174.75,-65.12],[-169.75,-65.38],[-167.0,-64.62],[-165.75,-63.62],[-161.0,-63.88],[-157.25,-63.38],[-155.0,-62.62],[-154.12,-61.5],[-155.0,-60.38],[-156.0,-59.88],[-162.75,-59.38],[-165.75,-59.88],[-168.25,-61.38],[-175.5,-61.38],[-177.88,-62.75],[-177.88,-63.75],[-177.0,-64.62],[-174.75,-65.12]]]}},{"type":"Feature","properties":{"kind":"blob","cls":4,"id":4},"geometry":{"type":"Polygon","coordinates":[[[98.25,-52.38],[99.75,-51.88],[100.62,-50.75],[100.38,-49.75],[99.25,-48.88],[97.5,-48.38],[95.0,-48.88],[94.38,-49.5],[94.12,-50.5],[95.25,-51.88],[98.25,-52.38]]]}},{"type":"Feature","properties":{"kind":"blob","cls":1,"id":5},"geometry":{"type":"Polygon","coordinates":[[[-21.5,-69.88],[-19.0,-69.38],[-16.38,-68.0],[-16.38,-66.5],[-17.75,-65.38],[-20.75,-64.62],[-26.5,-64.62],[-31.0,-65.62],[-32.88,-67.0],[-32.88,-68.0],[-32.25,-68.62],[-29.75,-69.62],[-21.5,-69.88]],[[-25.25,-68.62],[-26.62,-68.0],[-26.25,-67.12],[-23.75,-66.88],[-21.38,-67.75],[-21.38,-68.25],[-22.0,-68.62],[-25.25,-68.62]]]}},{"type":"Feature","properties":{"kind":"blob","cls":5,"id":6},"geometry":{"type":"Polygon","coordinates":[[[-141.62,-80.75],[-142.38,-80.25],[-142.75,-79.38],[-145.12,-79.75],[-143.25,-80.62],[-141.62,-80.75]]]}},{"type":"Feature","properties":{"kind":"blob","cls":5,"id":7},"geometry":{"type":"Polygon","coordinates":[[[162.62,-71.5],[162.12,-70.75],[162.5,-70.38],[163.75,-71.12],[164.5,-71.12],[164.75,-70.62],[166.25,-70.62],[167.5,-71.12],[167.88,-70.25],[166.25,-69.12],[163.5,-68.62],[161.5,-68.62],[158.62,-69.25],[158.75,-69.62],[159.5,-69.62],[162.62,-71.5]]]}},{"type":"Feature","properties":{"kind":"blob","cls":0,"id":8},"geometry":{"type":"Polygon","coordinates":[[[91.75,20.38],[92.62,21.25],[92.62,22.75],[91.0,23.88],[89.75,23.62],[88.88,22.75],[88.88,21.25],[89.75,20.38],[91.75,20.38]]]}},{"type":"Feature","properties":{"kind":"blob","cls":3,"id":9},"geometry":{"type":"Polygon","coordinates":[[[122.5,75.62],[131.0,75.62],[141.75,77.62],[143.0,78.12],[143.38,79.0],[141.75,79.88],[139.25,80.38],[127.25,80.62],[118.5,79.38],[117.0,78.62],[116.12,77.5],[116.75,76.62],[117.75,76.12],[122.5,75.62]]]}},{"type":"Feature","properties":{"kind":"blob","cls":5,"id":10},"geometry":{"type":"Polygon","coordinates":[[[55.75,-59.88],[57.75,-59.12],[58.38,-58.5],[58.12,-56.25],[57.25,-55.38],[55.5,-54.88],[52.0,-55.38],[50.38,-57.0],[50.12,-58.0],[51.0,-59.12],[55.75,-59.88]]]}},{"type":"Feature","properties":{"kind":"blob","cls":4,"id":11},"geometry":{"type":"Polygon","coordinates":[[[8.5,75.38],[13.5,75.88],[16.5,76.62],[17.38,77.5],[16.5,78.38],[13.5,79.12],[3.0,79.38],[-3.0,78.38],[-4.38,77.5],[-4.0,76.62],[-3.0,76.12],[8.5,75.38]]]}},{"type":"Feature","properties":{"kind":"blob","cls":4,"id":12},"geometry":{"type":"Polygon","coordinates":[[[150.5,79.12],[166.5,79.12],[172.0,80.38],[172.62,81.25],[172.0,81.88],[170.5,82.38],[165.75,83.12],[153.75,83.38],[144.5,82.38],[142.12,81.25],[142.25,80.38],[144.0,79.62],[150.5,79.12]]]}},{"type":"Feature","properties":{"kind":"blob","cls":0,"id":13},"geometry":{"type":"Polygon","coordinates":[[[-100.75,11.38],[-99.25,11.38],[-98.38,12.5],[-98.62,14.0],[-100.0,14.88],[-101.25,14.62],[-102.12,13.5],[-101.88,12.0],[-100.75,11.38]]]}},{"type":"Feature","properties":{"kind":"blob","cls":0,"id":14},"geometry":{"type":"Polygon","coordinates":[[[142.25,12.38],[143.12,13.5],[142.88,15.25],[141.5,16.12],[140.25,15.88],[139.38,14.75],[139.5,13.62],[140.5,14.38],[141.12,13.75],[140.12,12.75],[140.25,12.38],[142.25,12.38]]]}},{"type":"Feature","properties":{"kind":"blob","cls":4,"id":15},"geometry":{"type":"Polygon","coordinates":[[[33.75,75.38],[36.75,76.12],[37.88,77.0],[37.88,77.5],[36.5,78.38],[34.0,78.88],[24.5,79.12],[19.5,78.38],[18.12,77.5],[18.12,76.75],[18.75,76.12],[21.75,75.38],[33.75,75.38]]]}},{"type":"Feature","properties":{"kind":"blob","cls":5,"id":16},"geometry":{"type":"Polygon","coordinates":[[[18.75,-70.62],[25.75,-70.62],[32.25,-70.12],[32.62,-69.75],[31.0,-68.62],[28.75,-67.88],[23.75,-67.62],[22.0,-67.88],[19.0,-69.12],[18.38,-70.0],[18.75,-70.62]]]}},{"type":"Feature","properties":{"kind":"blob","cls":4,"id":17},"geometry":{"type":"Polygon","coordinates":[[[81.5,81.12],[86.5,81.88],[87.75,82.38],[87.88,83.0],[86.0,83.88],[83.25,84.38],[76.0,84.88],[62.75,84.62],[57.5,83.88],[56.12,83.25],[56.12,82.75],[56.75,82.38],[60.0,81.62],[64.0,81.12],[81.5,81.12]]]}},{"type":"Feature","properties":{"kind":"blob","cls":4,"id":18},"geometry":{"type":"Polygon","coordinates":[[[123.0,-50.88],[124.75,-50.12],[125.12,-49.5],[125.12,-47.75],[123.25,-45.88],[121.5,-45.12],[120.5,-45.12],[119.25,-45.62],[118.12,-46.75],[118.12,-47.75],[119.25,-49.88],[120.5,-50.62],[123.0,-50.88]]]}},{"type":"Feature","properties":{"kind":"blob","cls":1,"id":19},"geometry":{"type":"MultiPolygon","coordinates":[[[[-57.25,62.38],[-53.5,62.38],[-51.12,63.5],[-50.88,64.5],[-51.25,65.12],[-53.62,66.0],[-52.75,66.62],[-51.5,66.38],[-50.38,67.0],[-51.0,68.88],[-53.5,69.38],[-53.38,67.25],[-54.25,65.88],[-56.25,64.88],[-57.25,64.88],[-58.25,65.62],[-60.12,64.25],[-60.12,63.75],[-59.25,62.88],[-57.25,62.38]],[[-52.38,67.25],[-52.5,67.12],[-52.62,67.25],[-52.38,67.25]]],[[[-53.75,69.62],[-53.88,69.5],[-53.75,69.38],[-53.75,69.62]]]]}},{"type":"Feature","properties":{"kind":"blob","cls":4,"id":20},"geometry":{"type":"Polygon","coordinates":[[[-38.0,61.12],[-36.0,61.62],[-34.62,62.75],[-34.12,64.0],[-35.25,65.12],[-37.25,65.88],[-43.12,62.75],[-42.62,62.25],[-42.75,61.62],[-38.0,61.12]]]}},{"type":"Feature","properties":{"kind":"blob","cls":4,"id":21},"geometry":{"type":"Polygon","coordinates":[[[-24.5,68.12],[-23.0,68.62],[-22.0,69.88],[-19.0,69.38],[-12.75,69.62],[-10.0,70.62],[-9.38,71.75],[-11.0,72.88],[-13.75,73.38],[-20.25,73.12],[-22.75,72.12],[-23.5,71.38],[-25.75,71.62],[-26.0,70.62],[-27.88,70.0],[-25.5,70.38],[-23.38,70.0],[-24.0,69.62],[-25.25,69.62],[-26.25,68.88],[-27.5,68.62],[-30.25,68.62],[-31.12,68.25],[-24.5,68.12]]]}},{"type":"Feature","properties":{"kind":"blob","cls":4,"id":22},"geometry":{"type":"Polygon","coordinates":[[[-23.75,-38.12],[-21.88,-36.75],[-21.88,-35.0],[-23.0,-33.88],[-24.25,-33.38],[-26.5,-33.88],[-27.62,-34.75],[-27.62,-36.25],[-26.5,-37.38],[-23.75,-38.12]]]}},{"type":"Feature","properties":{"kind":"blob","cls":4,"id":23},"geometry":{"type":"Polygon","coordinates":[[[-127.75,-55.12],[-124.5,-55.12],[-123.38,-54.5],[-122.88,-53.5],[-123.5,-52.38],[-127.5,-51.12],[-129.75,-51.38],[-131.38,-52.75],[-131.62,-53.25],[-130.5,-54.62],[-127.75,-55.12]]]}},{"type":"Feature","properties":{"kind":"blob","cls":0,"id":24},"geometry":{"type":"MultiPolygon","coordinates":[[[[-59.0,66.88],[-59.12,66.75],[-59.0,66.62],[-59.0,66.88]]],[[[-59.5,66.88],[-59.12,67.0],[-59.75,67.62],[-59.5,66.88]]]]}},{"type":"Feature","properties":{"kind":"blob","cls":4,"id":25},"geometry":{"type":"Polygon","coordinates":[[[-89.5,58.12],[-86.75,59.12],[-85.88,60.25],[-85.88,61.75],[-88.0,63.12],[-90.0,63.62],[-92.5,63.62],[-94.75,62.88],[-95.62,62.0],[-94.88,59.25],[-94.0,58.62],[-89.5,58.12]]]}},{"type":"Feature","properties":{"kind":"blob","cls":4,"id":26},"geometry":{"type":"Polygon","coordinates":[[[-58.0,72.62],[-55.38,73.25],[-58.5,74.62],[-60.5,76.38],[-67.25,76.62],[-69.0,75.88],[-69.38,75.25],[-68.5,74.12],[-67.5,73.62],[-64.75,72.88],[-58.0,72.62]]]}},{"type":"Feature","properties":{"kind":"blob","cls":1,"id":27},"geometry":{"type":"Polygon","coordinates":[[[-171.75,48.62],[-170.25,49.12],[-169.38,50.25],[-169.88,51.75],[-170.5,52.38],[-172.0,52.88],[-173.5,52.88],[-175.5,52.12],[-176.12,51.5],[-176.38,50.5],[-175.25,49.12],[-171.75,48.62]]]}},{"type":"Feature","properties":{"kind":"blob","cls":3,"id":28},"geometry":{"type":"Polygon","coordinates":[[[125.0,36.62],[127.5,37.12],[128.38,38.0],[128.62,39.0],[127.5,40.38],[126.75,40.12],[126.5,40.62],[123.0,40.38],[121.88,39.25],[121.62,38.25],[122.75,36.88],[125.0,36.62]]]}},{"type":"Feature","properties":{"kind":"blob","cls":4,"id":29},"geometry":{"type":"Polygon","coordinates":[[[41.75,-41.88],[42.88,-40.75],[42.88,-39.75],[41.0,-38.38],[39.0,-38.62],[37.88,-39.75],[37.88,-40.75],[39.0,-41.88],[41.75,-41.88]]]}},{"type":"Feature","properties":{"kind":"blob","cls":4,"id":30},"geometry":{"type":"Polygon","coordinates":[[[-140.25,54.38],[-138.5,54.88],[-137.12,56.5],[-137.38,57.25],[-138.75,58.38],[-140.5,58.62],[-143.88,55.75],[-142.5,54.62],[-140.25,54.38]]]}},{"type":"Feature","properties":{"kind":"blob","cls":3,"id":31},"geometry":{"type":"Polygon","coordinates":[[[-127.0,-28.12],[-125.5,-28.12],[-124.38,-27.0],[-124.38,-25.5],[-125.25,-24.62],[-127.0,-24.38],[-128.62,-25.5],[-128.62,-27.0],[-127.5,-27.38],[-127.0,-28.12]]]}},{"type":"Feature","properties":{"kind":"blob","cls":1,"id":32},"geometry":{"type":"Polygon","coordinates":[[[86.25,24.62],[87.38,25.75],[87.62,26.75],[87.25,27.12],[87.0,26.88],[82.0,28.38],[81.38,27.5],[81.62,25.75],[82.5,24.88],[86.25,24.62]]]}},{"type":"Feature","properties":{"kind":"blob","cls":0,"id":33},"geometry":{"type":"Polygon","coordinates":[[[42.25,11.62],[42.62,12.5],[42.38,13.5],[42.88,14.25],[42.25,14.88],[41.25,14.88],[40.75,14.12],[39.88,14.0],[39.88,12.0],[42.25,11.62]]]}},{"type":"Feature","properties":{"kind":"blob","cls":4,"id":34},"geometry":{"type":"Polygon","coordinates":[[[-60.5,39.38],[-59.38,40.5],[-59.38,41.5],[-60.38,42.5],[-58.0,42.88],[-55.62,44.75],[-55.38,46.0],[-56.25,47.12],[-58.75,47.62],[-60.25,46.88],[-62.0,46.62],[-63.12,45.75],[-63.38,44.75],[-62.88,43.75],[-61.88,43.0],[-63.0,42.62],[-64.12,41.5],[-64.12,40.5],[-63.0,39.38],[-60.5,39.38]]]}},{"type":"Feature","properties":{"kind":"blob","cls":4,"id":35},"geometry":{"type":"Polygon","coordinates":[[[58.5,29.12],[59.75,29.62],[59.62,30.5],[58.75,30.38],[58.12,29.75],[58.5,29.12]]]}},{"type":"Feature","properties":{"kind":"blob","cls":4,"id":36},"geometry":{"type":"Polygon","coordinates":[[[-155.5,-35.88],[-154.38,-35.0],[-153.88,-32.5],[-155.5,-30.62],[-157.5,-30.12],[-158.75,-30.62],[-159.62,-31.5],[-159.88,-33.25],[-158.0,-35.62],[-155.5,-35.88]]]}},{"type":"Feature","properties":{"kind":"blob","cls":0,"id":37},"geometry":{"type":"Polygon","coordinates":[[[-95.75,13.62],[-94.38,14.5],[-94.12,16.25],[-95.0,17.38],[-96.12,17.5],[-95.62,16.75],[-96.25,15.88],[-97.25,16.12],[-98.0,17.12],[-98.62,16.75],[-98.62,14.75],[-98.0,14.12],[-95.75,13.62]]]}},{"type":"Feature","properties":{"kind":"blob","cls":4,"id":38},"geometry":{"type":"MultiPolygon","coordinates":[[[[-71.38,-32.5],[-70.62,-32.75],[-71.12,-32.0],[-70.88,-30.5],[-71.25,-30.12],[-71.62,-30.5],[-71.38,-32.5]]],[[[-71.12,-30.0],[-71.0,-30.12],[-70.88,-29.75],[-71.12,-30.0]]]]}},{"type":"Feature","properties":{"kind":"blob","cls":4,"id":39},"geometry":{"type":"Polygon","coordinates":[[[-64.5,-17.38],[-64.38,-17.0],[-65.25,-15.88],[-66.5,-15.62],[-66.62,-16.0],[-64.5,-17.38]]]}},{"type":"Feature","properties":{"kind":"blob","cls":2,"id":40},"geometry":{"type":"Polygon","coordinates":[[[-100.5,15.88],[-99.62,17.0],[-99.75,17.38],[-100.0,17.12],[-101.38,18.0],[-101.25,18.38],[-100.5,17.88],[-99.62,18.0],[-100.75,19.38],[-101.5,18.88],[-102.75,19.62],[-103.12,19.25],[-102.5,18.38],[-103.38,18.75],[-103.5,19.38],[-104.12,18.5],[-103.88,17.0],[-102.75,15.88],[-100.5,15.88]]]}},{"type":"Feature","properties":{"kind":"blob","cls":5,"id":41},"geometry":{"type":"Polygon","coordinates":[[[-105.0,18.88],[-104.12,19.25],[-105.12,20.5],[-104.38,21.5],[-105.88,23.25],[-106.62,25.0],[-108.12,26.5],[-107.88,27.0],[-108.62,27.25],[-108.5,27.62],[-109.5,27.38],[-110.38,26.5],[-110.38,24.75],[-108.5,22.88],[-107.62,22.5],[-107.88,20.75],[-106.5,19.12],[-105.0,18.88]]]}},{"type":"Feature","properties":{"kind":"blob","cls":1,"id":42},"geometry":{"type":"Polygon","coordinates":[[[-68.75,-33.12],[-68.0,-32.88],[-67.38,-32.0],[-67.5,-31.38],[-68.12,-31.5],[-67.62,-31.0],[-68.25,-29.88],[-68.62,-30.5],[-68.75,-33.12]]]}},{"type":"Feature","properties":{"kind":"blob","cls":0,"id":43},"geometry":{"type":"Polygon","coordinates":[[[-38.25,-40.38],[-37.62,-40.0],[-37.25,-39.12],[-36.38,-38.75],[-36.62,-37.5],[-37.5,-36.62],[-39.25,-36.38],[-40.88,-37.5],[-40.88,-39.25],[-40.0,-40.12],[-38.25,-40.38]]]}},{"type":"Feature","properties":{"kind":"blob","cls":1,"id":44},"geometry":{"type":"Polygon","coordinates":[[[-67.0,-28.12],[-66.5,-28.38],[-66.12,-27.75],[-66.5,-27.62],[-67.0,-28.12]]]}},{"type":"Feature","properties":{"kind":"blob","cls":4,"id":45},"geometry":{"type":"Polygon","coordinates":[[[-70.0,-13.62],[-69.62,-13.5],[-69.75,-13.38],[-70.0,-13.62]]]}},{"type":"Feature","properties":{"kind":"blob","cls":4,"id":46},"geometry":{"type":"Polygon","coordinates":[[[-69.12,-13.75],[-69.0,-13.88],[-68.88,-13.75],[-69.12,-13.75]]]}},{"type":"Feature","properties":{"kind":"blob","cls":4,"id":47},"geometry":{"type":"MultiPolygon","coordinates":[[[[71.0,41.12],[70.88,41.0],[71.0,40.88],[71.0,41.12]]],[[[67.88,40.5],[68.0,39.88],[70.25,40.12],[70.88,40.75],[69.75,40.38],[69.62,41.75],[70.38,42.5],[69.5,42.38],[67.88,40.5]]]]}},{"type":"Feature","properties":{"kind":"blob","cls":3,"id":48},"geometry":{"type":"Polygon","coordinates":[[[47.25,39.38],[47.38,39.75],[46.25,41.12],[44.62,41.25],[46.25,40.62],[47.25,39.38]]]}},{"type":"Feature","properties":{"kind":"blob","cls":1,"id":49},"geometry":{"type":"Polygon","coordinates":[[[-67.62,-30.5],[-67.5,-30.62],[-67.38,-30.5],[-67.62,-30.5]]]}},{"type":"Feature","properties":{"kind":"blob","cls":4,"id":50},"geometry":{"type":"Polygon","coordinates":[[[-64.0,-21.38],[-63.62,-21.25],[-64.0,-20.62],[-64.0,-21.38]]]}},{"type":"Feature","properties":{"kind":"blob","cls":4,"id":51},"geometry":{"type":"MultiPolygon","coordinates":[[[[-64.5,-23.12],[-64.62,-23.25],[-64.5,-23.38],[-64.5,-23.12]]],[[[-64.25,-23.12],[-63.62,-22.5],[-63.75,-21.62],[-64.38,-22.25],[-64.25,-23.12]]]]}},{"type":"Feature","properties":{"kind":"blob","cls":3,"id":52},"geometry":{"type":"MultiPolygon","coordinates":[[[[-65.88,-27.5],[-65.5,-27.88],[-64.88,-27.25],[-64.62,-26.5],[-65.25,-25.88],[-65.38,-26.75],[-65.88,-27.5]]],[[[-65.0,-25.62],[-65.12,-25.75],[-65.0,-25.88],[-65.0,-25.62]]]]}},{"type":"Feature","properties":{"kind":"blob","cls":4,"id":53},"geometry":{"type":"Polygon","coordinates":[[[-29.75,43.38],[-28.5,43.88],[-27.38,45.25],[-27.62,46.5],[-29.5,47.62],[-31.0,47.62],[-32.25,47.12],[-33.12,46.25],[-33.38,45.25],[-32.25,43.88],[-29.75,43.38]]]}},{"type":"Feature","properties":{"kind":"blob","cls":4,"id":54},"geometry":{"type":"Polygon","coordinates":[[[70.75,42.62],[71.62,42.75],[71.5,42.88],[70.75,42.62]]]}},{"type":"Feature","properties":{"kind":"blob","cls":4,"id":55},"geometry":{"type":"MultiPolygon","coordinates":[[[[74.25,42.88],[75.12,43.0],[74.5,43.62],[74.25,42.88]]],[[[76.25,43.12],[78.5,43.38],[78.88,43.75],[77.5,44.38],[76.0,44.38],[74.62,43.75],[76.25,43.12]]]]}},{"type":"Feature","properties":{"kind":"blob","cls":4,"id":56},"geometry":{"type":"Polygon","coordinates":[[[80.25,43.62],[81.38,43.75],[81.25,43.88],[80.25,43.62]]]}},{"type":"Feature","properties":{"kind":"blob","cls":4,"id":57},"geometry":{"type":"Polygon","coordinates":[[[82.75,43.38],[83.12,43.5],[83.0,43.62],[82.75,43.38]]]}},{"type":"Feature","properties":{"kind":"blob","cls":4,"id":58},"geometry":{"type":"Polygon","coordinates":[[[81.88,43.5],[82.0,43.38],[82.12,43.5],[81.88,43.5]]]}},{"type":"Feature","properties":{"kind":"blob","cls":4,"id":59},"geometry":{"type":"Polygon","coordinates":[[[87.25,43.88],[87.38,44.25],[85.5,45.62],[83.75,45.38],[82.62,44.5],[83.25,44.62],[84.5,44.12],[87.25,43.88]]]}},{"type":"Feature","properties":{"kind":"center","id":1,"lat":-69.5,"lon":-126.5,"mslp":935.9,"hvtl":141.4,"hvtu":-120.0,"hb":-2.0,"idx":0.9,"cls":1,"psfc":935.9,"terrain":false,"radius_km":200,"name":"sym shallow warm","track":"T01"},"geometry":{"type":"Point","coordinates":[-126.5,-69.5]}},{"type":"Feature","properties":{"kind":"center","id":2,"lat":-61.5,"lon":96.75,"mslp":951.5,"hvtl":47.4,"hvtu":-70.6,"hb":-3.8,"idx":0.3,"cls":1,"psfc":951.5,"terrain":false,"radius_km":200,"name":"sym shallow warm","track":"T05"},"geometry":{"type":"Point","coordinates":[96.75,-61.5]}},{"type":"Feature","properties":{"kind":"center","id":3,"lat":-63.25,"lon":-172.75,"mslp":951.5,"hvtl":32.2,"hvtu":-160.7,"hb":52.2,"idx":-0.3,"cls":3,"psfc":951.5,"terrain":false,"radius_km":200,"name":"asym shallow warm","track":"T08"},"geometry":{"type":"Point","coordinates":[-172.75,-63.25]}},{"type":"Feature","properties":{"kind":"center","id":4,"lat":-50.5,"lon":97.25,"mslp":957.2,"hvtl":-47.7,"hvtu":-410.8,"hb":48.1,"idx":-1.9,"cls":4,"psfc":957.2,"terrain":false,"radius_km":200,"name":"asym cold"},"geometry":{"type":"Point","coordinates":[97.25,-50.5]}},{"type":"Feature","properties":{"kind":"center","id":5,"lat":-67.25,"lon":-26.5,"mslp":960.2,"hvtl":53.7,"hvtu":-20.0,"hb":-8.3,"idx":0.8,"cls":1,"psfc":960.2,"terrain":false,"radius_km":200,"name":"sym shallow warm","track":"T22"},"geometry":{"type":"Point","coordinates":[-26.5,-67.25]}},{"type":"Feature","properties":{"kind":"center","id":6,"lat":-79.5,"lon":-143.75,"mslp":960.9,"hvtl":-49.0,"hvtu":-52.9,"hb":-2.9,"idx":-1.4,"cls":5,"psfc":901.0,"terrain":false,"radius_km":200,"name":"sym cold","track":"T25"},"geometry":{"type":"Point","coordinates":[-143.75,-79.5]}},{"type":"Feature","properties":{"kind":"center","id":7,"lat":-70.75,"lon":167.75,"mslp":972.7,"hvtl":-31.4,"hvtu":-74.2,"hb":4.3,"idx":-1.2,"cls":5,"psfc":955.3,"terrain":false,"radius_km":200,"name":"sym cold"},"geometry":{"type":"Point","coordinates":[167.75,-70.75]}},{"type":"Feature","properties":{"kind":"center","id":8,"lat":22.0,"lon":90.75,"mslp":973.7,"hvtl":116.3,"hvtu":197.0,"hb":2.9,"idx":2.6,"cls":0,"psfc":973.5,"terrain":false,"radius_km":200,"name":"sym deep warm","track":"T42"},"geometry":{"type":"Point","coordinates":[90.75,22.0]}},{"type":"Feature","properties":{"kind":"center","id":9,"lat":78.25,"lon":128.0,"mslp":977.1,"hvtl":94.7,"hvtu":-134.0,"hb":54.5,"idx":0.6,"cls":3,"psfc":977.1,"terrain":false,"radius_km":200,"name":"asym shallow warm","track":"T45"},"geometry":{"type":"Point","coordinates":[128.0,78.25]}},{"type":"Feature","properties":{"kind":"center","id":10,"lat":-58.0,"lon":54.0,"mslp":977.9,"hvtl":-25.8,"hvtu":-252.4,"hb":9.9,"idx":-1.5,"cls":5,"psfc":977.9,"terrain":false,"radius_km":200,"name":"sym cold"},"geometry":{"type":"Point","coordinates":[54.0,-58.0]}},{"type":"Feature","properties":{"kind":"center","id":11,"lat":77.5,"lon":5.75,"mslp":978.3,"hvtl":-186.3,"hvtu":-442.7,"hb":118.3,"idx":-2.9,"cls":4,"psfc":978.3,"terrain":false,"radius_km":200,"name":"asym cold"},"geometry":{"type":"Point","coordinates":[5.75,77.5]}},{"type":"Feature","properties":{"kind":"center","id":12,"lat":80.75,"lon":154.25,"mslp":978.4,"hvtl":-60.2,"hvtu":-186.9,"hb":47.9,"idx":-2.0,"cls":4,"psfc":978.4,"terrain":false,"radius_km":200,"name":"asym cold"},"geometry":{"type":"Point","coordinates":[154.25,80.75]}},{"type":"Feature","properties":{"kind":"center","id":13,"lat":13.0,"lon":-100.25,"mslp":978.5,"hvtl":84.0,"hvtu":188.5,"hb":0.1,"idx":2.3,"cls":0,"psfc":978.5,"terrain":false,"radius_km":200,"name":"sym deep warm","track":"T24"},"geometry":{"type":"Point","coordinates":[-100.25,13.0]}},{"type":"Feature","properties":{"kind":"center","id":14,"lat":14.25,"lon":141.25,"mslp":978.5,"hvtl":112.9,"hvtu":124.7,"hb":-3.0,"idx":2.5,"cls":0,"psfc":978.5,"terrain":false,"radius_km":200,"name":"sym deep warm","track":"T50"},"geometry":{"type":"Point","coordinates":[141.25,14.25]}},{"type":"Feature","properties":{"kind":"center","id":15,"lat":77.25,"lon":23.25,"mslp":980.8,"hvtl":-256.2,"hvtu":-446.6,"hb":113.0,"idx":-3.0,"cls":4,"psfc":980.6,"terrain":false,"radius_km":200,"name":"asym cold"},"geometry":{"type":"Point","coordinates":[23.25,77.25]}},{"type":"Feature","properties":{"kind":"center","id":16,"lat":-69.75,"lon":27.25,"mslp":984.3,"hvtl":-116.4,"hvtu":-114.3,"hb":7.1,"idx":-2.5,"cls":5,"psfc":984.3,"terrain":false,"radius_km":200,"name":"sym cold"},"geometry":{"type":"Point","coordinates":[27.25,-69.75]}},{"type":"Feature","properties":{"kind":"center","id":17,"lat":83.0,"lon":72.0,"mslp":984.9,"hvtl":-119.2,"hvtu":-238.3,"hb":39.7,"idx":-2.6,"cls":4,"psfc":984.9,"terrain":false,"radius_km":200,"name":"asym cold"},"geometry":{"type":"Point","coordinates":[72.0,83.0]}},{"type":"Feature","properties":{"kind":"center","id":18,"lat":-48.25,"lon":121.5,"mslp":985.4,"hvtl":-250.7,"hvtu":-119.6,"hb":42.6,"idx":-2.8,"cls":4,"psfc":985.4,"terrain":false,"radius_km":200,"name":"asym cold","track":"T53"},"geometry":{"type":"Point","coordinates":[121.5,-48.25]}},{"type":"Feature","properties":{"kind":"center","id":19,"lat":64.25,"lon":-55.0,"mslp":987.3,"hvtl":126.4,"hvtu":-159.8,"hb":-21.0,"idx":0.8,"cls":1,"psfc":987.3,"terrain":false,"radius_km":200,"name":"sym shallow warm","track":"T69"},"geometry":{"type":"Point","coordinates":[-55.0,64.25]}},{"type":"Feature","properties":{"kind":"center","id":20,"lat":63.5,"lon":-38.75,"mslp":992.3,"hvtl":-450.0,"hvtu":-488.0,"hb":50.0,"idx":-3.0,"cls":4,"psfc":992.3,"terrain":false,"radius_km":200,"name":"asym cold","track":"T41"},"geometry":{"type":"Point","coordinates":[-38.75,63.5]}},{"type":"Feature","properties":{"kind":"center","id":21,"lat":70.0,"lon":-27.25,"mslp":992.7,"hvtl":-158.4,"hvtu":-239.2,"hb":25.0,"idx":-2.8,"cls":4,"psfc":911.6,"terrain":false,"radius_km":200,"name":"asym cold"},"geometry":{"type":"Point","coordinates":[-27.25,70.0]}},{"type":"Feature","properties":{"kind":"center","id":22,"lat":-35.75,"lon":-25.0,"mslp":993.5,"hvtl":-1.5,"hvtu":-297.0,"hb":88.9,"idx":-1.0,"cls":4,"psfc":993.5,"terrain":false,"radius_km":200,"name":"asym cold","track":"T76"},"geometry":{"type":"Point","coordinates":[-25.0,-35.75]}},{"type":"Feature","properties":{"kind":"center","id":23,"lat":-53.25,"lon":-128.0,"mslp":994.3,"hvtl":-370.1,"hvtu":-304.7,"hb":64.4,"idx":-3.0,"cls":4,"psfc":994.3,"terrain":false,"radius_km":200,"name":"asym cold"},"geometry":{"type":"Point","coordinates":[-128.0,-53.25]}},{"type":"Feature","properties":{"kind":"center","id":24,"lat":66.75,"lon":-59.0,"mslp":995.8,"hvtl":75.9,"hvtu":58.7,"hb":-16.5,"idx":1.8,"cls":0,"psfc":995.8,"terrain":false,"radius_km":200,"name":"sym deep warm","track":"T63"},"geometry":{"type":"Point","coordinates":[-59.0,66.75]}},{"type":"Feature","properties":{"kind":"center","id":25,"lat":61.0,"lon":-90.75,"mslp":996.0,"hvtl":-152.7,"hvtu":-82.3,"hb":41.9,"idx":-2.5,"cls":4,"psfc":996.0,"terrain":false,"radius_km":200,"name":"asym cold"},"geometry":{"type":"Point","coordinates":[-90.75,61.0]}},{"type":"Feature","properties":{"kind":"center","id":26,"lat":75.0,"lon":-60.5,"mslp":997.6,"hvtl":-23.2,"hvtu":-133.0,"hb":25.7,"idx":-1.3,"cls":4,"psfc":997.6,"terrain":false,"radius_km":200,"name":"asym cold","track":"T66"},"geometry":{"type":"Point","coordinates":[-60.5,75.0]}},{"type":"Feature","properties":{"kind":"center","id":27,"lat":50.75,"lon":-173.0,"mslp":998.0,"hvtl":53.9,"hvtu":-152.9,"hb":8.0,"idx":0.1,"cls":1,"psfc":998.0,"terrain":false,"radius_km":200,"name":"sym shallow warm","track":"T81"},"geometry":{"type":"Point","coordinates":[-173.0,50.75]}},{"type":"Feature","properties":{"kind":"center","id":28,"lat":38.75,"lon":124.25,"mslp":998.4,"hvtl":116.9,"hvtu":-107.2,"hb":87.7,"idx":0.9,"cls":3,"psfc":998.4,"terrain":false,"radius_km":200,"name":"asym shallow warm"},"geometry":{"type":"Point","coordinates":[124.25,38.75]}},{"type":"Feature","properties":{"kind":"center","id":29,"lat":-40.25,"lon":40.5,"mslp":999.0,"hvtl":-180.5,"hvtu":-251.8,"hb":117.6,"idx":-2.9,"cls":4,"psfc":999.0,"terrain":false,"radius_km":200,"name":"asym cold"},"geometry":{"type":"Point","coordinates":[40.5,-40.25]}},{"type":"Feature","properties":{"kind":"center","id":30,"lat":56.5,"lon":-140.75,"mslp":1000.5,"hvtl":-0.6,"hvtu":-146.6,"hb":10.8,"idx":-0.9,"cls":4,"psfc":1000.5,"terrain":false,"radius_km":200,"name":"asym cold","track":"T34"},"geometry":{"type":"Point","coordinates":[-140.75,56.5]}},{"type":"Feature","properties":{"kind":"center","id":31,"lat":-26.25,"lon":-126.5,"mslp":1001.2,"hvtl":49.2,"hvtu":-142.1,"hb":27.6,"idx":0.0,"cls":3,"psfc":1001.2,"terrain":false,"radius_km":200,"name":"asym shallow warm","track":"T85"},"geometry":{"type":"Point","coordinates":[-126.5,-26.25]}},{"type":"Feature","properties":{"kind":"center","id":32,"lat":26.0,"lon":85.75,"mslp":1008.1,"hvtl":18.4,"hvtu":-202.1,"hb":1.3,"idx":-0.6,"cls":1,"psfc":1002.1,"terrain":false,"radius_km":200,"name":"sym shallow warm"},"geometry":{"type":"Point","coordinates":[85.75,26.0]}},{"type":"Feature","properties":{"kind":"center","id":33,"lat":13.5,"lon":41.0,"mslp":1008.5,"hvtl":83.1,"hvtu":12.8,"hb":8.1,"idx":1.5,"cls":0,"psfc":1012.1,"terrain":false,"radius_km":200,"name":"sym deep warm"},"geometry":{"type":"Point","coordinates":[41.0,13.5]}},{"type":"Feature","properties":{"kind":"center","id":34,"lat":41.0,"lon":-61.75,"mslp":1008.6,"hvtl":-339.4,"hvtu":-51.7,"hb":68.6,"idx":-2.5,"cls":4,"psfc":1008.6,"terrain":false,"radius_km":200,"name":"asym cold"},"geometry":{"type":"Point","coordinates":[-61.75,41.0]}},{"type":"Feature","properties":{"kind":"center","id":35,"lat":30.0,"lon":58.75,"mslp":1008.8,"hvtl":-6.2,"hvtu":-99.7,"hb":20.9,"idx":-0.9,"cls":4,"psfc":973.2,"terrain":false,"radius_km":200,"name":"asym cold"},"geometry":{"type":"Point","coordinates":[58.75,30.0]}},{"type":"Feature","properties":{"kind":"center","id":36,"lat":-33.0,"lon":-156.0,"mslp":1009.0,"hvtl":-86.6,"hvtu":-339.1,"hb":36.8,"idx":-2.4,"cls":4,"psfc":1009.0,"terrain":false,"radius_km":200,"name":"asym cold"},"geometry":{"type":"Point","coordinates":[-156.0,-33.0]}},{"type":"Feature","properties":{"kind":"center","id":37,"lat":15.75,"lon":-97.0,"mslp":1009.9,"hvtl":382.9,"hvtu":187.5,"hb":-38.9,"idx":3.0,"cls":0,"psfc":1006.5,"terrain":false,"radius_km":200,"name":"sym deep warm"},"geometry":{"type":"Point","coordinates":[-97.0,15.75]}},{"type":"Feature","properties":{"kind":"center","id":38,"lat":-31.0,"lon":-71.0,"mslp":1010.2,"hvtl":-14.0,"hvtu":-75.8,"hb":23.8,"idx":-0.9,"cls":4,"psfc":901.7,"terrain":true,"radius_km":200,"name":"asym cold"},"geometry":{"type":"Point","coordinates":[-71.0,-31.0]}},{"type":"Feature","properties":{"kind":"center","id":39,"lat":-16.0,"lon":-66.0,"mslp":1010.2,"hvtl":-99.5,"hvtu":-85.4,"hb":23.2,"idx":-2.2,"cls":4,"psfc":984.7,"terrain":false,"radius_km":200,"name":"asym cold"},"geometry":{"type":"Point","coordinates":[-66.0,-16.0]}},{"type":"Feature","properties":{"kind":"center","id":40,"lat":16.5,"lon":-102.0,"mslp":1010.3,"hvtl":118.2,"hvtu":192.5,"hb":14.5,"idx":2.6,"cls":2,"psfc":1010.3,"terrain":false,"radius_km":200,"name":"asym deep warm","track":"T106"},"geometry":{"type":"Point","coordinates":[-102.0,16.5]}},{"type":"Feature","properties":{"kind":"center","id":41,"lat":19.75,"lon":-105.25,"mslp":1010.7,"hvtl":-5.4,"hvtu":-52.0,"hb":-1.7,"idx":-0.6,"cls":5,"psfc":1004.4,"terrain":false,"radius_km":200,"name":"sym cold","track":"T107"},"geometry":{"type":"Point","coordinates":[-105.25,19.75]}},{"type":"Feature","properties":{"kind":"center","id":42,"lat":-30.5,"lon":-68.25,"mslp":1011.5,"hvtl":128.5,"hvtu":-141.2,"hb":-3.4,"idx":0.8,"cls":1,"psfc":928.1,"terrain":false,"radius_km":200,"name":"sym shallow warm"},"geometry":{"type":"Point","coordinates":[-68.25,-30.5]}},{"type":"Feature","properties":{"kind":"center","id":43,"lat":-38.25,"lon":-38.75,"mslp":1011.9,"hvtl":27.6,"hvtu":43.7,"hb":0.7,"idx":0.9,"cls":0,"psfc":1011.9,"terrain":false,"radius_km":200,"name":"sym deep warm"},"geometry":{"type":"Point","coordinates":[-38.75,-38.25]}},{"type":"Feature","properties":{"kind":"center","id":44,"lat":-28.0,"lon":-66.5,"mslp":1012.0,"hvtl":132.4,"hvtu":-168.5,"hb":9.2,"idx":0.8,"cls":1,"psfc":925.5,"terrain":false,"radius_km":200,"name":"sym shallow warm"},"geometry":{"type":"Point","coordinates":[-66.5,-28.0]}},{"type":"Feature","properties":{"kind":"center","id":45,"lat":-13.5,"lon":-69.75,"mslp":1013.1,"hvtl":-13.7,"hvtu":-44.3,"hb":10.2,"idx":-0.7,"cls":4,"psfc":940.1,"terrain":false,"radius_km":200,"name":"asym cold"},"geometry":{"type":"Point","coordinates":[-69.75,-13.5]}},{"type":"Feature","properties":{"kind":"center","id":46,"lat":-13.75,"lon":-69.0,"mslp":1013.5,"hvtl":-5.8,"hvtu":-46.2,"hb":11.2,"idx":-0.5,"cls":4,"psfc":914.8,"terrain":true,"radius_km":200,"name":"asym cold"},"geometry":{"type":"Point","coordinates":[-69.0,-13.75]}},{"type":"Feature","properties":{"kind":"center","id":47,"lat":40.25,"lon":69.75,"mslp":1015.5,"hvtl":-150.1,"hvtu":-127.9,"hb":77.1,"idx":-2.7,"cls":4,"psfc":961.7,"terrain":false,"radius_km":200,"name":"asym cold","track":"T115"},"geometry":{"type":"Point","coordinates":[69.75,40.25]}},{"type":"Feature","properties":{"kind":"center","id":48,"lat":40.75,"lon":46.5,"mslp":1015.8,"hvtl":18.3,"hvtu":-174.4,"hb":45.5,"idx":-0.6,"cls":3,"psfc":987.4,"terrain":false,"radius_km":200,"name":"asym shallow warm"},"geometry":{"type":"Point","coordinates":[46.5,40.75]}},{"type":"Feature","properties":{"kind":"center","id":49,"lat":-30.5,"lon":-67.5,"mslp":1016.4,"hvtl":149.4,"hvtu":-165.9,"hb":-6.7,"idx":0.9,"cls":1,"psfc":903.2,"terrain":true,"radius_km":200,"name":"sym shallow warm"},"geometry":{"type":"Point","coordinates":[-67.5,-30.5]}},{"type":"Feature","properties":{"kind":"center","id":50,"lat":-21.0,"lon":-63.75,"mslp":1016.4,"hvtl":-178.8,"hvtu":-169.3,"hb":41.1,"idx":-2.8,"cls":4,"psfc":926.9,"terrain":false,"radius_km":200,"name":"asym cold"},"geometry":{"type":"Point","coordinates":[-63.75,-21.0]}},{"type":"Feature","properties":{"kind":"center","id":51,"lat":-22.0,"lon":-63.75,"mslp":1016.9,"hvtl":-154.9,"hvtu":-160.6,"hb":33.8,"idx":-2.7,"cls":4,"psfc":923.4,"terrain":true,"radius_km":200,"name":"asym cold"},"geometry":{"type":"Point","coordinates":[-63.75,-22.0]}},{"type":"Feature","properties":{"kind":"center","id":52,"lat":-26.5,"lon":-64.75,"mslp":1018.3,"hvtl":66.3,"hvtu":-196.5,"hb":17.8,"idx":0.2,"cls":3,"psfc":946.7,"terrain":false,"radius_km":200,"name":"asym shallow warm"},"geometry":{"type":"Point","coordinates":[-64.75,-26.5]}},{"type":"Feature","properties":{"kind":"center","id":53,"lat":45.5,"lon":-30.25,"mslp":1021.8,"hvtl":-180.8,"hvtu":-263.5,"hb":27.4,"idx":-2.9,"cls":4,"psfc":1021.8,"terrain":false,"radius_km":200,"name":"asym cold"},"geometry":{"type":"Point","coordinates":[-30.25,45.5]}},{"type":"Feature","properties":{"kind":"center","id":54,"lat":42.75,"lon":71.5,"mslp":1022.2,"hvtl":-36.5,"hvtu":-271.7,"hb":119.4,"idx":-1.7,"cls":4,"psfc":923.4,"terrain":true,"radius_km":200,"name":"asym cold"},"geometry":{"type":"Point","coordinates":[71.5,42.75]}},{"type":"Feature","properties":{"kind":"center","id":55,"lat":43.0,"lon":75.0,"mslp":1022.2,"hvtl":-16.1,"hvtu":-282.9,"hb":130.3,"idx":-1.3,"cls":4,"psfc":915.7,"terrain":true,"radius_km":200,"name":"asym cold"},"geometry":{"type":"Point","coordinates":[75.0,43.0]}},{"type":"Feature","properties":{"kind":"center","id":56,"lat":43.75,"lon":80.25,"mslp":1026.1,"hvtl":-23.8,"hvtu":-248.4,"hb":60.0,"idx":-1.5,"cls":4,"psfc":957.2,"terrain":false,"radius_km":200,"name":"asym cold","track":"T117"},"geometry":{"type":"Point","coordinates":[80.25,43.75]}},{"type":"Feature","properties":{"kind":"center","id":57,"lat":43.5,"lon":83.0,"mslp":1026.9,"hvtl":-46.0,"hvtu":-226.0,"hb":71.5,"idx":-1.8,"cls":4,"psfc":905.9,"terrain":true,"radius_km":200,"name":"asym cold"},"geometry":{"type":"Point","coordinates":[83.0,43.5]}},{"type":"Feature","properties":{"kind":"center","id":58,"lat":43.5,"lon":82.0,"mslp":1027.0,"hvtl":-59.6,"hvtu":-232.4,"hb":65.6,"idx":-2.0,"cls":4,"psfc":902.1,"terrain":true,"radius_km":200,"name":"asym cold"},"geometry":{"type":"Point","coordinates":[82.0,43.5]}},{"type":"Feature","properties":{"kind":"center","id":59,"lat":44.75,"lon":83.75,"mslp":1029.4,"hvtl":-6.0,"hvtu":-209.1,"hb":53.0,"idx":-1.1,"cls":4,"psfc":991.7,"terrain":false,"radius_km":200,"name":"asym cold"},"geometry":{"type":"Point","coordinates":[83.75,44.75]}}]}