{"type":"FeatureCollection","features":[{"type":"Feature","properties":{"kind":"blob","cls":3,"id":1},"geometry":{"type":"Polygon","coordinates":[[[166.75,-68.88],[173.5,-68.88],[174.75,-68.38],[175.62,-67.5],[175.62,-67.0],[174.75,-66.12],[172.75,-65.38],[168.25,-64.88],[162.25,-63.38],[158.0,-63.62],[156.75,-64.12],[155.88,-65.25],[156.25,-65.88],[159.25,-65.88],[162.62,-66.75],[162.25,-67.38],[159.75,-67.62],[166.75,-68.88]]]}},{"type":"Feature","properties":{"kind":"blob","cls":0,"id":2},"geometry":{"type":"Polygon","coordinates":[[[142.5,-63.12],[146.0,-63.12],[147.0,-62.62],[147.88,-61.5],[147.0,-60.38],[145.5,-59.62],[141.5,-59.62],[139.88,-60.75],[139.62,-61.5],[140.5,-62.62],[142.5,-63.12]]]}},{"type":"Feature","properties":{"kind":"blob","cls":3,"id":3},"geometry":{"type":"Polygon","coordinates":[[[-12.5,-63.38],[-12.0,-62.62],[-9.75,-62.88],[-7.62,-61.5],[-7.62,-60.25],[-9.25,-59.12],[-10.5,-58.88],[-12.75,-58.88],[-16.75,-59.62],[-17.75,-60.12],[-18.88,-61.5],[-18.0,-62.62],[-12.5,-63.38]]]}},{"type":"Feature","properties":{"kind":"blob","cls":1,"id":4},"geometry":{"type":"Polygon","coordinates":[[[158.88,-67.25],[159.0,-67.38],[159.12,-67.25],[158.88,-67.25]]]}},{"type":"Feature","properties":{"kind":"blob","cls":4,"id":5},"geometry":{"type":"Polygon","coordinates":[[[-112.0,-66.88],[-109.75,-66.38],[-108.38,-65.25],[-108.38,-64.0],[-110.75,-62.62],[-114.25,-62.38],[-115.75,-62.62],[-118.38,-64.25],[-118.38,-65.25],[-117.5,-66.12],[-112.0,-66.88]]]}},{"type":"Feature","properties":{"kind":"blob","cls":4,"id":6},"geometry":{"type":"Polygon","coordinates":[[[-116.5,-58.38],[-115.12,-57.25],[-114.88,-56.5],[-116.5,-54.88],[-120.5,-54.88],[-121.88,-56.0],[-122.12,-56.75],[-121.0,-58.12],[-116.5,-58.38]]]}},{"type":"Feature","properties":{"kind":"blob","cls":1,"id":7},"geometry":{"type":"Polygon","coordinates":[[[-128.75,-53.38],[-125.25,-52.12],[-124.38,-51.0],[-124.62,-50.0],[-125.25,-49.38],[-126.75,-48.88],[-128.25,-48.88],[-131.75,-49.88],[-132.62,-50.75],[-132.62,-51.75],[-131.5,-52.88],[-128.75,-53.38]]]}},{"type":"Feature","properties":{"kind":"blob","cls":3,"id":8},"geometry":{"type":"Polygon","coordinates":[[[-36.0,56.88],[-34.38,58.0],[-34.38,59.25],[-35.0,59.88],[-37.0,60.62],[-40.0,60.38],[-41.88,59.0],[-41.88,58.0],[-40.25,56.88],[-36.0,56.88]],[[-40.25,57.38],[-41.38,58.0],[-41.0,58.38],[-39.75,58.38],[-38.88,58.0],[-39.0,57.38],[-40.25,57.38]]]}},{"type":"Feature","properties":{"kind":"blob","cls":0,"id":9},"geometry":{"type":"Polygon","coordinates":[[[148.25,24.38],[149.12,25.25],[149.12,26.75],[147.5,27.88],[146.25,27.62],[145.38,26.75],[146.38,24.5],[148.25,24.38]]]}},{"type":"Feature","properties":{"kind":"blob","cls":1,"id":10},"geometry":{"type":"Polygon","coordinates":[[[60.75,-64.62],[62.5,-63.88],[63.12,-63.25],[63.38,-62.25],[62.25,-61.12],[60.25,-60.62],[57.0,-60.62],[53.25,-61.62],[52.62,-62.25],[52.62,-63.5],[53.75,-64.38],[60.75,-64.62]],[[57.38,-63.75],[57.75,-63.38],[60.0,-62.88],[61.88,-63.25],[60.25,-63.88],[57.38,-63.75]]]}},{"type":"Feature","properties":{"kind":"blob","cls":4,"id":11},"geometry":{"type":"Polygon","coordinates":[[[73.25,-68.12],[76.75,-66.88],[77.25,-66.12],[81.75,-66.12],[83.75,-65.12],[84.12,-64.0],[83.75,-63.38],[82.25,-62.62],[78.5,-62.38],[77.0,-62.62],[75.0,-63.62],[74.5,-64.38],[69.25,-64.12],[65.88,-65.25],[65.62,-66.25],[66.25,-67.12],[68.0,-67.88],[73.25,-68.12]]]}},{"type":"Feature","properties":{"kind":"blob","cls":4,"id":12},"geometry":{"type":"Polygon","coordinates":[[[22.75,-56.38],[26.0,-56.38],[27.62,-55.25],[27.88,-54.25],[26.75,-52.88],[23.5,-51.88],[20.75,-51.88],[18.38,-53.0],[18.12,-54.25],[19.0,-55.38],[22.75,-56.38]]]}},{"type":"Feature","properties":{"kind":"blob","cls":5,"id":13},"geometry":{"type":"Polygon","coordinates":[[[-0.5,-71.12],[1.0,-71.38],[4.5,-70.88],[17.62,-70.75],[15.5,-69.88],[11.0,-69.62],[4.0,-69.88],[1.25,-70.38],[-0.5,-71.12]]]}},{"type":"Feature","properties":{"kind":"blob","cls":1,"id":14},"geometry":{"type":"Polygon","coordinates":[[[114.0,-66.62],[122.62,-66.75],[121.25,-65.62],[119.0,-65.12],[114.75,-65.38],[113.38,-66.0],[114.0,-66.62]]]}},{"type":"Feature","properties":{"kind":"blob","cls":3,"id":15},"geometry":{"type":"Polygon","coordinates":[[[70.75,65.88],[72.5,66.62],[73.62,68.0],[72.5,69.88],[70.25,70.88],[68.5,71.12],[63.0,70.88],[60.62,69.5],[61.25,68.12],[63.25,67.38],[63.75,66.62],[65.5,65.88],[70.75,65.88]]]}},{"type":"Feature","properties":{"kind":"blob","cls":1,"id":16},"geometry":{"type":"Polygon","coordinates":[[[-171.75,58.62],[-169.75,59.12],[-167.62,60.75],[-167.62,61.75],[-168.5,62.62],[-170.75,63.38],[-172.5,63.38],[-174.0,62.12],[-175.75,62.38],[-176.62,61.5],[-176.62,60.25],[-174.5,58.88],[-171.75,58.62]]]}},{"type":"Feature","properties":{"kind":"blob","cls":3,"id":17},"geometry":{"type":"Polygon","coordinates":[[[179.75,-77.38],[180.0,-76.12],[179.0,-75.62],[172.75,-74.62],[164.75,-75.12],[162.62,-76.75],[164.5,-77.88],[169.25,-78.62],[176.75,-78.38],[179.75,-77.38]],[[166.62,-77.5],[169.12,-77.5],[169.0,-77.62],[166.62,-77.5]]]}},{"type":"Feature","properties":{"kind":"blob","cls":3,"id":17},"geometry":{"type":"Polygon","coordinates":[[[-180.0,-76.12],[-180.0,-77.38],[-179.62,-77.0],[-180.0,-76.12]]]}},{"type":"Feature","properties":{"kind":"blob","cls":5,"id":18},"geometry":{"type":"Polygon","coordinates":[[[179.75,-82.88],[180.0,-81.88],[178.0,-81.62],[173.25,-81.12],[168.12,-81.5],[174.25,-82.62],[179.75,-82.88]]]}},{"type":"Feature","properties":{"kind":"blob","cls":5,"id":18},"geometry":{"type":"Polygon","coordinates":[[[-179.75,-81.88],[-180.0,-82.88],[-178.25,-83.12],[-164.62,-83.25],[-177.0,-82.38],[-179.75,-81.88]]]}},{"type":"Feature","properties":{"kind":"blob","cls":5,"id":19},"geometry":{"type":"Polygon","coordinates":[[[-152.25,-82.12],[-152.12,-81.75],[-154.0,-80.88],[-158.5,-80.12],[-166.75,-79.62],[-177.25,-79.62],[-179.38,-80.0],[-159.25,-81.88],[-152.25,-82.12]]]}},{"type":"Feature","properties":{"kind":"blob","cls":4,"id":20},"geometry":{"type":"Polygon","coordinates":[[[-73.0,-69.88],[-71.5,-69.62],[-71.88,-69.25],[-71.25,-68.88],[-69.5,-69.12],[-67.38,-68.0],[-67.38,-67.0],[-69.75,-65.62],[-76.25,-65.38],[-78.5,-65.88],[-80.38,-67.0],[-80.38,-68.0],[-79.75,-68.62],[-77.5,-69.62],[-73.0,-69.88]]]}},{"type":"Feature","properties":{"kind":"blob","cls":4,"id":21},"geometry":{"type":"MultiPolygon","coordinates":[[[[-37.12,-80.0],[-36.38,-80.0],[-36.5,-79.88],[-37.12,-80.0]]],[[[-36.38,-79.75],[-35.12,-79.75],[-35.25,-79.62],[-36.38,-79.75]]],[[[-35.12,-79.5],[-33.88,-79.5],[-34.0,-79.38],[-35.12,-79.5]]]]}},{"type":"Feature","properties":{"kind":"blob","cls":4,"id":22},"geometry":{"type":"Polygon","coordinates":[[[-33.0,-79.38],[-32.62,-79.25],[-32.75,-79.12],[-33.0,-79.38]]]}},{"type":"Feature","properties":{"kind":"blob","cls":4,"id":23},"geometry":{"type":"Polygon","coordinates":[[[-37.62,-80.25],[-37.5,-80.38],[-37.38,-80.25],[-37.62,-80.25]]]}},{"type":"Feature","properties":{"kind":"blob","cls":4,"id":24},"geometry":{"type":"Polygon","coordinates":[[[-115.5,31.62],[-114.75,31.38],[-113.88,32.0],[-113.62,33.5],[-115.75,35.12],[-116.25,35.12],[-116.62,34.75],[-115.88,34.0],[-116.5,34.12],[-116.62,33.75],[-115.5,31.62]]]}},{"type":"Feature","properties":{"kind":"blob","cls":4,"id":25},"geometry":{"type":"Polygon","coordinates":[[[-45.0,-81.38],[-40.12,-80.75],[-56.5,-80.62],[-66.88,-81.25],[-45.0,-81.38]]]}},{"type":"Feature","properties":{"kind":"blob","cls":4,"id":26},"geometry":{"type":"Polygon","coordinates":[[[-115.88,31.25],[-116.88,33.75],[-117.75,34.12],[-118.12,33.75],[-118.12,32.5],[-117.5,31.62],[-115.88,31.25]]]}},{"type":"Feature","properties":{"kind":"blob","cls":4,"id":27},"geometry":{"type":"Polygon","coordinates":[[[179.75,83.88],[180.0,88.12],[161.75,87.62],[155.0,86.88],[153.88,86.25],[155.0,85.62],[160.0,84.88],[174.25,83.88],[179.75,83.88]]]}},{"type":"Feature","properties":{"kind":"blob","cls":4,"id":27},"geometry":{"type":"Polygon","coordinates":[[[-179.75,88.12],[-180.0,83.88],[-178.25,83.62],[-166.5,83.62],[-151.5,84.38],[-145.25,85.12],[-142.62,86.0],[-144.5,86.88],[-151.25,87.62],[-164.75,88.12],[-179.75,88.12]]]}},{"type":"Feature","properties":{"kind":"blob","cls":4,"id":28},"geometry":{"type":"Polygon","coordinates":[[[-134.0,72.38],[-131.0,73.38],[-130.38,74.5],[-132.0,75.62],[-134.0,76.12],[-142.25,76.38],[-146.75,75.62],[-148.75,74.62],[-149.12,74.0],[-148.75,73.38],[-147.0,72.62],[-134.0,72.38]]]}},{"type":"Feature","properties":{"kind":"blob","cls":3,"id":29},"geometry":{"type":"Polygon","coordinates":[[[60.75,76.38],[63.75,76.12],[70.5,76.88],[72.25,77.38],[73.5,78.62],[75.0,79.12],[75.62,79.75],[74.25,80.88],[72.25,81.38],[62.25,81.88],[56.0,81.12],[51.25,79.12],[50.38,78.25],[51.25,77.38],[55.25,76.38],[55.62,77.25],[54.88,79.5],[55.25,79.88],[63.0,79.88],[63.62,78.75],[60.75,76.38]]]}},{"type":"Feature","properties":{"kind":"blob","cls":1,"id":30},"geometry":{"type":"Polygon","coordinates":[[[-82.75,-49.88],[-81.5,-49.38],[-80.38,-48.25],[-80.38,-47.25],[-81.5,-46.12],[-82.75,-45.62],[-84.25,-45.62],[-85.5,-46.12],[-86.62,-47.25],[-86.62,-48.25],[-86.25,-48.62],[-85.0,-48.38],[-85.12,-49.5],[-82.75,-49.88]]]}},{"type":"Feature","properties":{"kind":"blob","cls":4,"id":31},"geometry":{"type":"Polygon","coordinates":[[[-147.5,57.62],[-145.75,58.12],[-144.62,59.25],[-144.62,60.0],[-146.0,61.12],[-149.38,61.25],[-148.75,61.62],[-151.5,61.12],[-152.62,60.0],[-152.62,59.5],[-151.25,58.12],[-147.5,57.62]],[[-149.12,60.25],[-149.0,60.62],[-148.62,60.25],[-149.12,60.25]],[[-150.62,59.75],[-150.0,60.38],[-149.88,60.0],[-150.62,59.75]]]}},{"type":"Feature","properties":{"kind":"blob","cls":0,"id":32},"geometry":{"type":"Polygon","coordinates":[[[-104.5,17.38],[-103.12,18.25],[-103.5,19.38],[-104.25,19.38],[-105.12,20.25],[-104.75,21.12],[-105.75,20.88],[-106.38,20.25],[-106.12,18.0],[-104.5,17.38]]]}},{"type":"Feature","properties":{"kind":"blob","cls":4,"id":33},"geometry":{"type":"Polygon","coordinates":[[[16.0,54.38],[18.0,55.88],[20.75,56.62],[21.38,58.0],[20.25,59.38],[18.25,60.12],[16.25,60.12],[14.0,58.12],[12.0,58.62],[10.88,57.5],[10.88,55.5],[12.25,54.38],[16.0,54.38]]]}},{"type":"Feature","properties":{"kind":"blob","cls":4,"id":34},"geometry":{"type":"Polygon","coordinates":[[[-14.5,78.38],[-4.75,78.38],[-1.0,79.12],[0.12,80.0],[-1.25,81.12],[-3.25,81.62],[-13.75,82.12],[-20.25,81.38],[-22.0,80.62],[-22.38,80.0],[-20.5,78.88],[-14.5,78.38]]]}},{"type":"Feature","properties":{"kind":"blob","cls":3,"id":35},"geometry":{"type":"Polygon","coordinates":[[[-44.75,-41.12],[-43.5,-41.12],[-42.62,-40.25],[-42.38,-39.25],[-43.75,-37.62],[-45.5,-37.38],[-47.38,-38.75],[-47.62,-39.75],[-47.25,-40.38],[-46.0,-40.38],[-44.75,-41.12]]]}},{"type":"Feature","properties":{"kind":"blob","cls":3,"id":36},"geometry":{"type":"Polygon","coordinates":[[[5.5,61.88],[7.5,62.38],[7.62,62.75],[4.88,64.75],[5.0,65.88],[2.0,65.62],[0.12,64.25],[0.12,63.5],[1.0,62.62],[5.5,61.88]]]}},{"type":"Feature","properties":{"kind":"blob","cls":1,"id":37},"geometry":{"type":"Polygon","coordinates":[[[40.0,12.12],[40.5,12.12],[41.5,12.62],[42.88,14.0],[42.62,14.5],[41.25,15.38],[40.0,15.12],[40.0,12.12]]]}},{"type":"Feature","properties":{"kind":"blob","cls":4,"id":38},"geometry":{"type":"Polygon","coordinates":[[[-90.75,47.12],[-87.5,47.88],[-84.88,49.75],[-84.62,50.75],[-85.5,51.88],[-87.0,52.38],[-91.0,52.12],[-92.75,51.62],[-94.88,50.0],[-95.12,49.25],[-94.5,47.88],[-90.75,47.12]]]}},{"type":"Feature","properties":{"kind":"blob","cls":4,"id":39},"geometry":{"type":"Polygon","coordinates":[[[-34.75,36.62],[-33.12,37.75],[-32.88,38.75],[-34.0,40.12],[-35.75,40.38],[-37.38,39.25],[-37.38,37.75],[-36.5,36.88],[-34.75,36.62]]]}},{"type":"Feature","properties":{"kind":"blob","cls":0,"id":40},"geometry":{"type":"Polygon","coordinates":[[[37.5,0.88],[37.88,1.0],[38.12,2.0],[37.5,3.12],[36.75,3.38],[36.62,2.5],[37.38,1.75],[37.5,0.88]]]}},{"type":"Feature","properties":{"kind":"blob","cls":5,"id":41},"geometry":{"type":"Polygon","coordinates":[[[-140.25,62.12],[-139.62,63.0],[-142.12,62.75],[-142.0,62.38],[-140.25,62.12]]]}},{"type":"Feature","properties":{"kind":"blob","cls":3,"id":42},"geometry":{"type":"Polygon","coordinates":[[[59.0,28.62],[59.88,29.0],[59.5,30.62],[58.12,29.75],[59.0,28.62]]]}},{"type":"Feature","properties":{"kind":"blob","cls":3,"id":43},"geometry":{"type":"Polygon","coordinates":[[[144.0,30.88],[145.75,30.88],[147.12,32.25],[146.88,34.25],[145.0,35.38],[143.0,34.88],[142.12,33.5],[142.38,32.0],[144.0,30.88]]]}},{"type":"Feature","properties":{"kind":"blob","cls":4,"id":44},"geometry":{"type":"Polygon","coordinates":[[[25.5,-35.38],[26.75,-34.88],[27.38,-34.0],[27.38,-32.75],[26.0,-32.62],[25.75,-32.12],[25.5,-32.62],[24.5,-32.12],[22.75,-32.38],[22.88,-34.0],[23.75,-34.88],[25.5,-35.38]],[[23.5,-33.62],[23.38,-33.5],[23.5,-33.38],[23.5,-33.62]]]}},{"type":"Feature","properties":{"kind":"blob","cls":4,"id":45},"geometry":{"type":"Polygon","coordinates":[[[-143.25,61.12],[-142.62,61.25],[-142.75,61.38],[-143.25,61.12]]]}},{"type":"Feature","properties":{"kind":"blob","cls":0,"id":46},"geometry":{"type":"Polygon","coordinates":[[[-24.0,11.88],[-23.12,13.0],[-23.38,14.5],[-24.75,15.38],[-26.12,15.0],[-26.12,13.75],[-26.62,12.75],[-26.0,11.88],[-24.0,11.88]]]}},{"type":"Feature","properties":{"kind":"blob","cls":4,"id":47},"geometry":{"type":"Polygon","coordinates":[[[115.75,44.62],[116.75,44.62],[116.75,45.12],[117.75,44.88],[119.12,46.0],[119.12,47.25],[118.25,48.12],[117.0,48.62],[115.5,48.62],[113.38,47.75],[115.0,46.12],[116.12,45.75],[115.75,44.62]],[[116.62,46.0],[117.25,46.12],[117.38,45.75],[116.62,46.0]],[[117.62,46.0],[118.38,46.0],[118.25,45.88],[117.62,46.0]]]}},{"type":"Feature","properties":{"kind":"blob","cls":4,"id":48},"geometry":{"type":"Polygon","coordinates":[[[-57.75,72.62],[-55.12,73.25],[-58.25,74.62],[-60.0,76.38],[-67.5,76.62],[-69.25,75.88],[-69.62,75.25],[-68.25,73.88],[-64.25,72.88],[-57.75,72.62]]]}},{"type":"Feature","properties":{"kind":"blob","cls":4,"id":49},"geometry":{"type":"Polygon","coordinates":[[[-139.0,59.38],[-138.62,59.75],[-139.25,60.12],[-143.12,60.25],[-142.0,59.62],[-139.0,59.38]]]}},{"type":"Feature","properties":{"kind":"blob","cls":3,"id":50},"geometry":{"type":"Polygon","coordinates":[[[60.75,30.12],[60.75,30.88],[60.62,30.75],[60.75,30.12]]]}},{"type":"Feature","properties":{"kind":"blob","cls":3,"id":51},"geometry":{"type":"Polygon","coordinates":[[[47.5,-16.62],[49.0,-16.62],[49.88,-15.5],[49.5,-13.88],[49.25,-14.88],[48.38,-14.5],[49.38,-13.75],[49.0,-13.38],[46.12,-14.75],[46.38,-16.0],[47.5,-16.62]]]}},{"type":"Feature","properties":{"kind":"blob","cls":5,"id":52},"geometry":{"type":"Polygon","coordinates":[[[96.75,23.12],[97.38,24.0],[95.25,25.62],[95.12,24.25],[96.0,23.38],[96.75,23.12]]]}},{"type":"Feature","properties":{"kind":"blob","cls":0,"id":53},"geometry":{"type":"Polygon","coordinates":[[[44.75,-20.62],[46.0,-20.62],[46.62,-19.5],[46.62,-18.75],[46.12,-18.5],[46.88,-18.0],[45.5,-17.12],[44.25,-17.38],[43.38,-18.5],[43.62,-20.0],[44.75,-20.62]]]}},{"type":"Feature","properties":{"kind":"blob","cls":4,"id":54},"geometry":{"type":"Polygon","coordinates":[[[-82.25,35.38],[-82.38,35.75],[-81.75,36.38],[-82.0,35.62],[-80.62,36.5],[-80.38,37.25],[-81.5,38.88],[-82.5,39.38],[-83.75,39.38],[-84.75,38.88],[-85.62,37.5],[-84.5,35.88],[-82.25,35.38]]]}},{"type":"Feature","properties":{"kind":"blob","cls":0,"id":55},"geometry":{"type":"Polygon","coordinates":[[[45.0,-25.38],[46.38,-24.25],[46.38,-22.75],[45.5,-21.88],[43.75,-21.62],[42.12,-22.75],[42.12,-24.5],[43.0,-25.38],[45.0,-25.38]]]}},{"type":"Feature","properties":{"kind":"blob","cls":1,"id":56},"geometry":{"type":"Polygon","coordinates":[[[32.25,-30.62],[33.38,-29.25],[33.12,-28.25],[31.5,-27.12],[30.88,-27.25],[31.0,-28.62],[29.88,-28.75],[30.88,-29.0],[29.88,-30.25],[32.25,-30.62]]]}},{"type":"Feature","properties":{"kind":"blob","cls":4,"id":57},"geometry":{"type":"Polygon","coordinates":[[[122.0,51.12],[123.25,50.88],[125.75,51.88],[126.88,53.25],[126.62,53.75],[125.75,54.62],[125.25,54.38],[125.25,54.88],[124.25,55.12],[122.25,54.88],[122.0,54.38],[120.5,54.12],[119.62,53.25],[119.62,52.25],[121.0,51.12],[122.25,51.38],[122.75,52.12],[122.62,51.25],[122.0,51.12]]]}},{"type":"Feature","properties":{"kind":"blob","cls":5,"id":58},"geometry":{"type":"Polygon","coordinates":[[[97.38,23.25],[97.5,23.12],[97.62,23.25],[97.38,23.25]]]}},{"type":"Feature","properties":{"kind":"blob","cls":4,"id":59},"geometry":{"type":"MultiPolygon","coordinates":[[[[71.0,41.12],[70.88,41.0],[71.0,40.88],[71.0,41.12]]],[[[68.12,40.75],[68.25,39.88],[69.5,39.88],[70.88,40.75],[69.62,40.5],[69.62,41.75],[70.12,42.25],[69.75,42.38],[68.12,40.75]]],[[[70.38,42.5],[70.25,42.62],[70.12,42.5],[70.38,42.5]]]]}},{"type":"Feature","properties":{"kind":"blob","cls":4,"id":60},"geometry":{"type":"Polygon","coordinates":[[[67.12,37.75],[67.25,37.38],[68.38,38.5],[68.0,38.62],[67.12,37.75]]]}},{"type":"Feature","properties":{"kind":"blob","cls":4,"id":61},"geometry":{"type":"MultiPolygon","coordinates":[[[[-70.88,-28.75],[-70.75,-28.88],[-70.62,-28.5],[-70.88,-28.75]]],[[[-70.62,-28.25],[-70.5,-28.38],[-70.38,-28.0],[-70.62,-28.25]]]]}},{"type":"Feature","properties":{"kind":"blob","cls":0,"id":62},"geometry":{"type":"Polygon","coordinates":[[[-103.12,19.25],[-103.0,19.12],[-102.88,19.25],[-103.12,19.25]]]}},{"type":"Feature","properties":{"kind":"blob","cls":4,"id":63},"geometry":{"type":"MultiPolygon","coordinates":[[[[-67.25,-29.38],[-67.38,-29.75],[-67.0,-29.88],[-66.88,-29.75],[-67.25,-29.38]]],[[[-66.75,-29.62],[-66.12,-29.0],[-66.25,-27.62],[-67.12,-28.25],[-66.75,-29.62]]]]}},{"type":"Feature","properties":{"kind":"blob","cls":5,"id":64},"geometry":{"type":"MultiPolygon","coordinates":[[[[-68.5,-30.38],[-68.62,-30.5],[-68.5,-30.62],[-68.5,-30.38]]],[[[-68.38,-30.25],[-68.25,-30.38],[-68.12,-30.0],[-68.38,-30.25]]]]}},{"type":"Feature","properties":{"kind":"blob","cls":4,"id":65},"geometry":{"type":"Polygon","coordinates":[[[-138.25,59.62],[-137.88,59.75],[-138.0,59.88],[-138.25,59.62]]]}},{"type":"Feature","properties":{"kind":"blob","cls":4,"id":66},"geometry":{"type":"Polygon","coordinates":[[[71.0,42.62],[71.62,42.75],[71.5,42.88],[71.0,42.62]]]}},{"type":"Feature","properties":{"kind":"blob","cls":4,"id":67},"geometry":{"type":"MultiPolygon","coordinates":[[[[-65.38,-26.0],[-65.25,-26.38],[-65.12,-26.25],[-65.38,-26.0]]],[[[-65.12,-24.75],[-65.0,-25.12],[-64.88,-25.0],[-65.12,-24.75]]],[[[-65.0,-25.62],[-64.75,-26.12],[-64.12,-25.5],[-64.12,-24.0],[-64.5,-23.62],[-64.38,-24.5],[-65.0,-25.62]]],[[[-64.88,-24.25],[-64.75,-24.62],[-64.62,-24.5],[-64.88,-24.25]]]]}},{"type":"Feature","properties":{"kind":"center","id":1,"lat":-67.0,"lon":168.0,"mslp":947.7,"hvtl":238.2,"hvtu":-112.0,"hb":38.2,"idx":1.2,"cls":3,"psfc":947.7,"terrain":false,"radius_km":200,"name":"asym shallow warm","track":"T06"},"geometry":{"type":"Point","coordinates":[168.0,-67.0]}},{"type":"Feature","properties":{"kind":"center","id":2,"lat":-61.5,"lon":143.75,"mslp":950.1,"hvtl":84.9,"hvtu":45.0,"hb":-15.4,"idx":1.8,"cls":0,"psfc":950.1,"terrain":false,"radius_km":200,"name":"sym deep warm","track":"T03"},"geometry":{"type":"Point","coordinates":[143.75,-61.5]}},{"type":"Feature","properties":{"kind":"center","id":3,"lat":-61.25,"lon":-12.75,"mslp":956.3,"hvtl":167.3,"hvtu":-98.4,"hb":41.1,"idx":1.1,"cls":3,"psfc":956.3,"terrain":false,"radius_km":200,"name":"asym shallow warm","track":"T19"},"geometry":{"type":"Point","coordinates":[-12.75,-61.25]}},{"type":"Feature","properties":{"kind":"center","id":4,"lat":-67.25,"lon":159.0,"mslp":956.4,"hvtl":117.4,"hvtu":-92.0,"hb":-71.3,"idx":0.9,"cls":1,"psfc":956.4,"terrain":false,"radius_km":200,"name":"sym shallow warm","track":"T04"},"geometry":{"type":"Point","coordinates":[159.0,-67.25]}},{"type":"Feature","properties":{"kind":"center","id":5,"lat":-64.75,"lon":-113.25,"mslp":957.9,"hvtl":-72.9,"hvtu":-95.6,"hb":29.2,"idx":-2.0,"cls":4,"psfc":957.9,"terrain":false,"radius_km":200,"name":"asym cold","track":"T12"},"geometry":{"type":"Point","coordinates":[-113.25,-64.75]}},{"type":"Feature","properties":{"kind":"center","id":6,"lat":-56.5,"lon":-118.5,"mslp":961.0,"hvtl":-42.4,"hvtu":-124.3,"hb":16.2,"idx":-1.6,"cls":4,"psfc":961.0,"terrain":false,"radius_km":200,"name":"asym cold"},"geometry":{"type":"Point","coordinates":[-118.5,-56.5]}},{"type":"Feature","properties":{"kind":"center","id":7,"lat":-51.25,"lon":-129.25,"mslp":962.1,"hvtl":75.0,"hvtu":-351.9,"hb":5.1,"idx":0.3,"cls":1,"psfc":962.1,"terrain":false,"radius_km":200,"name":"sym shallow warm","track":"T26"},"geometry":{"type":"Point","coordinates":[-129.25,-51.25]}},{"type":"Feature","properties":{"kind":"center","id":8,"lat":58.75,"lon":-37.75,"mslp":962.4,"hvtl":129.2,"hvtu":-80.6,"hb":17.2,"idx":1.1,"cls":3,"psfc":962.4,"terrain":false,"radius_km":200,"name":"asym shallow warm","track":"T14"},"geometry":{"type":"Point","coordinates":[-37.75,58.75]}},{"type":"Feature","properties":{"kind":"center","id":9,"lat":26.0,"lon":147.25,"mslp":965.4,"hvtl":79.6,"hvtu":279.6,"hb":1.6,"idx":2.3,"cls":0,"psfc":965.4,"terrain":false,"radius_km":200,"name":"sym deep warm","track":"T09"},"geometry":{"type":"Point","coordinates":[147.25,26.0]}},{"type":"Feature","properties":{"kind":"center","id":10,"lat":-62.75,"lon":57.75,"mslp":968.4,"hvtl":43.0,"hvtu":-49.2,"hb":0.6,"idx":0.4,"cls":1,"psfc":968.4,"terrain":false,"radius_km":200,"name":"sym shallow warm","track":"T27"},"geometry":{"type":"Point","coordinates":[57.75,-62.75]}},{"type":"Feature","properties":{"kind":"center","id":11,"lat":-66.25,"lon":71.5,"mslp":970.4,"hvtl":-106.7,"hvtu":-246.2,"hb":12.6,"idx":-2.6,"cls":4,"psfc":970.4,"terrain":false,"radius_km":200,"name":"asym cold"},"geometry":{"type":"Point","coordinates":[71.5,-66.25]}},{"type":"Feature","properties":{"kind":"center","id":12,"lat":-54.25,"lon":23.5,"mslp":977.5,"hvtl":-87.3,"hvtu":-310.5,"hb":62.5,"idx":-2.4,"cls":4,"psfc":977.5,"terrain":false,"radius_km":200,"name":"asym cold","track":"T46"},"geometry":{"type":"Point","coordinates":[23.5,-54.25]}},{"type":"Feature","properties":{"kind":"center","id":13,"lat":-70.0,"lon":4.0,"mslp":978.6,"hvtl":-168.9,"hvtu":-17.2,"hb":6.7,"idx":-2.0,"cls":5,"psfc":978.6,"terrain":false,"radius_km":200,"name":"sym cold"},"geometry":{"type":"Point","coordinates":[4.0,-70.0]}},{"type":"Feature","properties":{"kind":"center","id":14,"lat":-66.75,"lon":119.75,"mslp":979.6,"hvtl":0.0,"hvtu":-112.2,"hb":9.7,"idx":-0.8,"cls":1,"psfc":979.4,"terrain":false,"radius_km":200,"name":"sym shallow warm","track":"T33"},"geometry":{"type":"Point","coordinates":[119.75,-66.75]}},{"type":"Feature","properties":{"kind":"center","id":15,"lat":69.0,"lon":66.75,"mslp":982.0,"hvtl":53.2,"hvtu":-145.8,"hb":30.8,"idx":0.1,"cls":3,"psfc":981.7,"terrain":false,"radius_km":200,"name":"asym shallow warm","track":"T57"},"geometry":{"type":"Point","coordinates":[66.75,69.0]}},{"type":"Feature","properties":{"kind":"center","id":16,"lat":61.0,"lon":-172.25,"mslp":982.1,"hvtl":7.8,"hvtu":-83.7,"hb":1.8,"idx":-0.5,"cls":1,"psfc":982.1,"terrain":false,"radius_km":200,"name":"sym shallow warm","track":"T48"},"geometry":{"type":"Point","coordinates":[-172.25,61.0]}},{"type":"Feature","properties":{"kind":"center","id":17,"lat":-76.25,"lon":170.25,"mslp":983.1,"hvtl":42.3,"hvtu":-364.2,"hb":50.0,"idx":-0.2,"cls":3,"psfc":983.1,"terrain":false,"radius_km":200,"name":"asym shallow warm","track":"T15"},"geometry":{"type":"Point","coordinates":[170.25,-76.25]}},{"type":"Feature","properties":{"kind":"center","id":18,"lat":-82.5,"lon":-175.75,"mslp":985.1,"hvtl":-93.0,"hvtu":-78.1,"hb":2.9,"idx":-2.1,"cls":5,"psfc":978.2,"terrain":false,"radius_km":200,"name":"sym cold","track":"T54"},"geometry":{"type":"Point","coordinates":[-175.75,-82.5]}},{"type":"Feature","properties":{"kind":"center","id":19,"lat":-81.0,"lon":-167.5,"mslp":986.3,"hvtl":-66.0,"hvtu":-69.5,"hb":1.4,"idx":-1.8,"cls":5,"psfc":978.9,"terrain":false,"radius_km":200,"name":"sym cold","track":"T60"},"geometry":{"type":"Point","coordinates":[-167.5,-81.0]}},{"type":"Feature","properties":{"kind":"center","id":20,"lat":-67.75,"lon":-74.75,"mslp":988.7,"hvtl":-150.3,"hvtu":-204.1,"hb":51.3,"idx":-2.8,"cls":4,"psfc":988.7,"terrain":false,"radius_km":200,"name":"asym cold"},"geometry":{"type":"Point","coordinates":[-74.75,-67.75]}},{"type":"Feature","properties":{"kind":"center","id":21,"lat":-79.5,"lon":-35.0,"mslp":990.2,"hvtl":-96.6,"hvtu":-60.7,"hb":31.8,"idx":-2.0,"cls":4,"psfc":973.6,"terrain":false,"radius_km":200,"name":"asym cold"},"geometry":{"type":"Point","coordinates":[-35.0,-79.5]}},{"type":"Feature","properties":{"kind":"center","id":22,"lat":-79.25,"lon":-32.75,"mslp":990.2,"hvtl":-77.0,"hvtu":-49.1,"hb":28.8,"idx":-1.7,"cls":4,"psfc":970.6,"terrain":false,"radius_km":200,"name":"asym cold","track":"T56"},"geometry":{"type":"Point","coordinates":[-32.75,-79.25]}},{"type":"Feature","properties":{"kind":"center","id":23,"lat":-80.25,"lon":-37.5,"mslp":991.1,"hvtl":-107.2,"hvtu":-86.6,"hb":33.4,"idx":-2.3,"cls":4,"psfc":976.7,"terrain":false,"radius_km":200,"name":"asym cold"},"geometry":{"type":"Point","coordinates":[-37.5,-80.25]}},{"type":"Feature","properties":{"kind":"center","id":24,"lat":33.0,"lon":-116.0,"mslp":991.1,"hvtl":-64.9,"hvtu":-135.2,"hb":21.5,"idx":-2.0,"cls":4,"psfc":978.1,"terrain":false,"radius_km":200,"name":"asym cold"},"geometry":{"type":"Point","coordinates":[-116.0,33.0]}},{"type":"Feature","properties":{"kind":"center","id":25,"lat":-80.75,"lon":-40.75,"mslp":991.6,"hvtl":-124.5,"hvtu":-88.9,"hb":37.8,"idx":-2.4,"cls":4,"psfc":977.0,"terrain":false,"radius_km":200,"name":"asym cold","track":"T65"},"geometry":{"type":"Point","coordinates":[-40.75,-80.75]}},{"type":"Feature","properties":{"kind":"center","id":26,"lat":33.75,"lon":-117.0,"mslp":992.8,"hvtl":-66.9,"hvtu":-128.1,"hb":17.8,"idx":-2.0,"cls":4,"psfc":926.5,"terrain":false,"radius_km":200,"name":"asym cold"},"geometry":{"type":"Point","coordinates":[-117.0,33.75]}},{"type":"Feature","properties":{"kind":"center","id":27,"lat":86.0,"lon":-173.75,"mslp":993.1,"hvtl":-112.3,"hvtu":-148.8,"hb":66.9,"idx":-2.5,"cls":4,"psfc":993.1,"terrain":false,"radius_km":200,"name":"asym cold","track":"T72"},"geometry":{"type":"Point","coordinates":[-173.75,86.0]}},{"type":"Feature","properties":{"kind":"center","id":28,"lat":74.25,"lon":-139.75,"mslp":995.7,"hvtl":-168.9,"hvtu":-132.4,"hb":73.0,"idx":-2.7,"cls":4,"psfc":995.7,"terrain":false,"radius_km":200,"name":"asym cold"},"geometry":{"type":"Point","coordinates":[-139.75,74.25]}},{"type":"Feature","properties":{"kind":"center","id":29,"lat":76.25,"lon":61.5,"mslp":996.4,"hvtl":204.0,"hvtu":-256.3,"hb":13.6,"idx":0.9,"cls":3,"psfc":986.4,"terrain":false,"radius_km":200,"name":"asym shallow warm","track":"T74"},"geometry":{"type":"Point","coordinates":[61.5,76.25]}},{"type":"Feature","properties":{"kind":"center","id":30,"lat":-47.75,"lon":-83.5,"mslp":998.6,"hvtl":4.7,"hvtu":-47.7,"hb":-6.5,"idx":-0.4,"cls":1,"psfc":998.6,"terrain":false,"radius_km":200,"name":"sym shallow warm","track":"T79"},"geometry":{"type":"Point","coordinates":[-83.5,-47.75]}},{"type":"Feature","properties":{"kind":"center","id":31,"lat":59.5,"lon":-148.5,"mslp":999.1,"hvtl":-119.7,"hvtu":-440.2,"hb":37.8,"idx":-2.7,"cls":4,"psfc":999.1,"terrain":false,"radius_km":200,"name":"asym cold"},"geometry":{"type":"Point","coordinates":[-148.5,59.5]}},{"type":"Feature","properties":{"kind":"center","id":32,"lat":19.25,"lon":-104.75,"mslp":999.4,"hvtl":31.6,"hvtu":59.3,"hb":-16.0,"idx":1.1,"cls":0,"psfc":987.3,"terrain":false,"radius_km":200,"name":"sym deep warm"},"geometry":{"type":"Point","coordinates":[-104.75,19.25]}},{"type":"Feature","properties":{"kind":"center","id":33,"lat":56.5,"lon":14.75,"mslp":1001.0,"hvtl":-16.9,"hvtu":-190.1,"hb":19.3,"idx":-1.3,"cls":4,"psfc":983.2,"terrain":false,"radius_km":200,"name":"asym cold","track":"T80"},"geometry":{"type":"Point","coordinates":[14.75,56.5]}},{"type":"Feature","properties":{"kind":"center","id":34,"lat":80.0,"lon":-11.0,"mslp":1001.1,"hvtl":-224.8,"hvtu":-156.9,"hb":83.9,"idx":-2.9,"cls":4,"psfc":1001.2,"terrain":false,"radius_km":200,"name":"asym cold","track":"T59"},"geometry":{"type":"Point","coordinates":[-11.0,80.0]}},{"type":"Feature","properties":{"kind":"center","id":35,"lat":-39.5,"lon":-45.0,"mslp":1002.0,"hvtl":200.5,"hvtu":-200.0,"hb":46.0,"idx":1.0,"cls":3,"psfc":1002.0,"terrain":false,"radius_km":200,"name":"asym shallow warm","track":"T93"},"geometry":{"type":"Point","coordinates":[-45.0,-39.5]}},{"type":"Feature","properties":{"kind":"center","id":36,"lat":64.0,"lon":4.75,"mslp":1003.1,"hvtl":136.2,"hvtu":-183.2,"hb":25.7,"idx":0.8,"cls":3,"psfc":1003.1,"terrain":false,"radius_km":200,"name":"asym shallow warm","track":"T82"},"geometry":{"type":"Point","coordinates":[4.75,64.0]}},{"type":"Feature","properties":{"kind":"center","id":37,"lat":13.25,"lon":40.75,"mslp":1003.4,"hvtl":83.6,"hvtu":-71.5,"hb":-8.9,"idx":0.8,"cls":1,"psfc":1006.0,"terrain":false,"radius_km":200,"name":"sym shallow warm","track":"T95"},"geometry":{"type":"Point","coordinates":[40.75,13.25]}},{"type":"Feature","properties":{"kind":"center","id":38,"lat":50.0,"lon":-89.75,"mslp":1004.1,"hvtl":-265.5,"hvtu":-136.7,"hb":88.8,"idx":-2.9,"cls":4,"psfc":951.8,"terrain":false,"radius_km":200,"name":"asym cold"},"geometry":{"type":"Point","coordinates":[-89.75,50.0]}},{"type":"Feature","properties":{"kind":"center","id":39,"lat":38.5,"lon":-35.25,"mslp":1005.8,"hvtl":-312.3,"hvtu":-189.8,"hb":66.5,"idx":-2.9,"cls":4,"psfc":1005.8,"terrain":false,"radius_km":200,"name":"asym cold"},"geometry":{"type":"Point","coordinates":[-35.25,38.5]}},{"type":"Feature","properties":{"kind":"center","id":40,"lat":3.25,"lon":37.0,"mslp":1006.1,"hvtl":80.1,"hvtu":4.2,"hb":-4.7,"idx":1.4,"cls":0,"psfc":960.6,"terrain":false,"radius_km":200,"name":"sym deep warm"},"geometry":{"type":"Point","coordinates":[37.0,3.25]}},{"type":"Feature","properties":{"kind":"center","id":41,"lat":62.5,"lon":-142.0,"mslp":1006.2,"hvtl":-14.0,"hvtu":-356.5,"hb":2.7,"idx":-1.3,"cls":5,"psfc":902.4,"terrain":true,"radius_km":200,"name":"sym cold"},"geometry":{"type":"Point","coordinates":[-142.0,62.5]}},{"type":"Feature","properties":{"kind":"center","id":42,"lat":29.75,"lon":59.0,"mslp":1006.4,"hvtl":43.7,"hvtu":-111.6,"hb":13.1,"idx":0.0,"cls":3,"psfc":971.3,"terrain":false,"radius_km":200,"name":"asym shallow warm"},"geometry":{"type":"Point","coordinates":[59.0,29.75]}},{"type":"Feature","properties":{"kind":"center","id":43,"lat":33.0,"lon":144.75,"mslp":1007.8,"hvtl":126.6,"hvtu":-116.0,"hb":30.6,"idx":0.9,"cls":3,"psfc":1007.8,"terrain":false,"radius_km":200,"name":"asym shallow warm","track":"T91"},"geometry":{"type":"Point","coordinates":[144.75,33.0]}},{"type":"Feature","properties":{"kind":"center","id":44,"lat":-33.0,"lon":25.0,"mslp":1007.9,"hvtl":-237.0,"hvtu":-111.6,"hb":65.2,"idx":-2.8,"cls":4,"psfc":960.1,"terrain":false,"radius_km":200,"name":"asym cold"},"geometry":{"type":"Point","coordinates":[25.0,-33.0]}},{"type":"Feature","properties":{"kind":"center","id":45,"lat":61.25,"lon":-142.75,"mslp":1008.8,"hvtl":-58.3,"hvtu":-377.1,"hb":16.4,"idx":-2.0,"cls":4,"psfc":920.4,"terrain":false,"radius_km":200,"name":"asym cold"},"geometry":{"type":"Point","coordinates":[-142.75,61.25]}},{"type":"Feature","properties":{"kind":"center","id":46,"lat":13.5,"lon":-25.0,"mslp":1008.9,"hvtl":10.1,"hvtu":45.2,"hb":-12.0,"idx":0.6,"cls":0,"psfc":1008.9,"terrain":false,"radius_km":200,"name":"sym deep warm","track":"T86"},"geometry":{"type":"Point","coordinates":[-25.0,13.5]}},{"type":"Feature","properties":{"kind":"center","id":47,"lat":46.5,"lon":116.0,"mslp":1008.9,"hvtl":-242.0,"hvtu":-384.4,"hb":94.8,"idx":-3.0,"cls":4,"psfc":919.9,"terrain":false,"radius_km":200,"name":"asym cold"},"geometry":{"type":"Point","coordinates":[116.0,46.5]}},{"type":"Feature","properties":{"kind":"center","id":48,"lat":73.75,"lon":-58.0,"mslp":1009.2,"hvtl":-43.9,"hvtu":-163.4,"hb":25.6,"idx":-1.8,"cls":4,"psfc":1009.2,"terrain":false,"radius_km":200,"name":"asym cold"},"geometry":{"type":"Point","coordinates":[-58.0,73.75]}},{"type":"Feature","properties":{"kind":"center","id":49,"lat":60.25,"lon":-143.0,"mslp":1009.8,"hvtl":-138.7,"hvtu":-383.0,"hb":31.7,"idx":-2.8,"cls":4,"psfc":972.7,"terrain":false,"radius_km":200,"name":"asym cold"},"geometry":{"type":"Point","coordinates":[-143.0,60.25]}},{"type":"Feature","properties":{"kind":"center","id":50,"lat":30.75,"lon":60.75,"mslp":1009.9,"hvtl":72.9,"hvtu":-120.5,"hb":34.9,"idx":0.4,"cls":3,"psfc":924.4,"terrain":false,"radius_km":200,"name":"asym shallow warm","track":"T112"},"geometry":{"type":"Point","coordinates":[60.75,30.75]}},{"type":"Feature","properties":{"kind":"center","id":51,"lat":-15.0,"lon":48.0,"mslp":1009.9,"hvtl":68.3,"hvtu":-27.3,"hb":27.7,"idx":0.9,"cls":3,"psfc":1003.1,"terrain":false,"radius_km":200,"name":"asym shallow warm"},"geometry":{"type":"Point","coordinates":[48.0,-15.0]}},{"type":"Feature","properties":{"kind":"center","id":52,"lat":24.25,"lon":96.5,"mslp":1010.0,"hvtl":-43.5,"hvtu":-153.4,"hb":6.2,"idx":-1.7,"cls":5,"psfc":994.4,"terrain":false,"radius_km":200,"name":"sym cold","track":"T113"},"geometry":{"type":"Point","coordinates":[96.5,24.25]}},{"type":"Feature","properties":{"kind":"center","id":53,"lat":-19.0,"lon":45.25,"mslp":1010.3,"hvtl":108.9,"hvtu":10.3,"hb":2.6,"idx":1.7,"cls":0,"psfc":992.4,"terrain":false,"radius_km":200,"name":"sym deep warm"},"geometry":{"type":"Point","coordinates":[45.25,-19.0]}},{"type":"Feature","properties":{"kind":"center","id":54,"lat":37.25,"lon":-83.0,"mslp":1010.4,"hvtl":-164.6,"hvtu":-126.9,"hb":36.4,"idx":-2.7,"cls":4,"psfc":959.8,"terrain":false,"radius_km":200,"name":"asym cold","track":"T100"},"geometry":{"type":"Point","coordinates":[-83.0,37.25]}},{"type":"Feature","properties":{"kind":"center","id":55,"lat":-21.75,"lon":44.25,"mslp":1011.8,"hvtl":132.2,"hvtu":18.7,"hb":-7.5,"idx":1.9,"cls":0,"psfc":984.1,"terrain":false,"radius_km":200,"name":"sym deep warm"},"geometry":{"type":"Point","coordinates":[44.25,-21.75]}},{"type":"Feature","properties":{"kind":"center","id":56,"lat":-30.0,"lon":30.25,"mslp":1012.1,"hvtl":130.7,"hvtu":-63.1,"hb":-37.7,"idx":1.2,"cls":1,"psfc":929.8,"terrain":false,"radius_km":200,"name":"sym shallow warm"},"geometry":{"type":"Point","coordinates":[30.25,-30.0]}},{"type":"Feature","properties":{"kind":"center","id":57,"lat":52.75,"lon":122.5,"mslp":1012.2,"hvtl":-170.9,"hvtu":-284.6,"hb":62.6,"idx":-2.9,"cls":4,"psfc":934.9,"terrain":false,"radius_km":200,"name":"asym cold","track":"T83"},"geometry":{"type":"Point","coordinates":[122.5,52.75]}},{"type":"Feature","properties":{"kind":"center","id":58,"lat":23.25,"lon":97.5,"mslp":1012.9,"hvtl":-30.1,"hvtu":-117.7,"hb":-3.6,"idx":-1.4,"cls":5,"psfc":919.9,"terrain":true,"radius_km":200,"name":"sym cold"},"geometry":{"type":"Point","coordinates":[97.5,23.25]}},{"type":"Feature","properties":{"kind":"center","id":59,"lat":40.5,"lon":70.5,"mslp":1013.0,"hvtl":-45.5,"hvtu":-81.4,"hb":24.5,"idx":-1.5,"cls":4,"psfc":967.1,"terrain":false,"radius_km":200,"name":"asym cold"},"geometry":{"type":"Point","coordinates":[70.5,40.5]}},{"type":"Feature","properties":{"kind":"center","id":60,"lat":38.25,"lon":68.0,"mslp":1013.7,"hvtl":-72.3,"hvtu":-171.8,"hb":54.8,"idx":-2.2,"cls":4,"psfc":947.0,"terrain":false,"radius_km":200,"name":"asym cold"},"geometry":{"type":"Point","coordinates":[68.0,38.25]}},{"type":"Feature","properties":{"kind":"center","id":61,"lat":-28.75,"lon":-70.75,"mslp":1013.9,"hvtl":-175.1,"hvtu":-183.3,"hb":31.9,"idx":-2.8,"cls":4,"psfc":903.2,"terrain":true,"radius_km":200,"name":"asym cold"},"geometry":{"type":"Point","coordinates":[-70.75,-28.75]}},{"type":"Feature","properties":{"kind":"center","id":62,"lat":19.25,"lon":-103.0,"mslp":1014.4,"hvtl":68.8,"hvtu":66.7,"hb":-11.0,"idx":1.8,"cls":0,"psfc":911.0,"terrain":true,"radius_km":200,"name":"sym deep warm"},"geometry":{"type":"Point","coordinates":[-103.0,19.25]}},{"type":"Feature","properties":{"kind":"center","id":63,"lat":-27.75,"lon":-66.5,"mslp":1015.5,"hvtl":-89.0,"hvtu":-219.2,"hb":10.7,"idx":-2.4,"cls":4,"psfc":920.9,"terrain":true,"radius_km":200,"name":"asym cold"},"geometry":{"type":"Point","coordinates":[-66.5,-27.75]}},{"type":"Feature","properties":{"kind":"center","id":64,"lat":-30.0,"lon":-68.25,"mslp":1015.8,"hvtl":-74.9,"hvtu":-197.3,"hb":3.8,"idx":-2.2,"cls":5,"psfc":908.9,"terrain":true,"radius_km":200,"name":"sym cold"},"geometry":{"type":"Point","coordinates":[-68.25,-30.0]}},{"type":"Feature","properties":{"kind":"center","id":65,"lat":59.75,"lon":-138.25,"mslp":1016.0,"hvtl":-147.9,"hvtu":-361.4,"hb":39.4,"idx":-2.8,"cls":4,"psfc":913.7,"terrain":true,"radius_km":200,"name":"asym cold"},"geometry":{"type":"Point","coordinates":[-138.25,59.75]}},{"type":"Feature","properties":{"kind":"center","id":66,"lat":42.75,"lon":71.5,"mslp":1016.9,"hvtl":-12.9,"hvtu":-138.4,"hb":34.4,"idx":-1.1,"cls":4,"psfc":921.9,"terrain":true,"radius_km":200,"name":"asym cold"},"geometry":{"type":"Point","coordinates":[71.5,42.75]}},{"type":"Feature","properties":{"kind":"center","id":67,"lat":-26.0,"lon":-65.25,"mslp":1018.6,"hvtl":-74.1,"hvtu":-167.9,"hb":22.5,"idx":-2.2,"cls":4,"psfc":900.8,"terrain":true,"radius_km":200,"name":"asym cold"},"geometry":{"type":"Point","coordinates":[-65.25,-26.0]}}]}