{"type":"FeatureCollection","features":[{"type":"Feature","properties":{"kind":"blob","cls":0,"id":1},"geometry":{"type":"Polygon","coordinates":[[[-163.5,-68.38],[-161.5,-68.62],[-159.25,-68.12],[-157.88,-67.0],[-158.12,-65.75],[-160.5,-64.38],[-164.5,-64.12],[-166.75,-64.62],[-168.38,-65.75],[-168.62,-67.0],[-167.75,-67.88],[-166.5,-68.12],[-164.25,-67.38],[-163.0,-67.38],[-162.62,-67.75],[-163.5,-68.38]]]}},{"type":"Feature","properties":{"kind":"blob","cls":3,"id":2},"geometry":{"type":"Polygon","coordinates":[[[121.0,-66.38],[129.5,-66.62],[130.12,-65.5],[129.0,-64.38],[127.75,-63.88],[124.25,-63.62],[121.5,-64.38],[120.62,-65.25],[121.0,-66.38]]]}},{"type":"Feature","properties":{"kind":"blob","cls":4,"id":3},"geometry":{"type":"Polygon","coordinates":[[[97.75,-66.12],[101.25,-66.38],[108.12,-65.0],[106.0,-64.38],[101.5,-64.38],[99.5,-64.88],[97.75,-66.12]]]}},{"type":"Feature","properties":{"kind":"blob","cls":0,"id":4},"geometry":{"type":"Polygon","coordinates":[[[0.75,-61.62],[0.62,-60.75],[1.0,-60.38],[2.5,-60.88],[2.88,-59.5],[1.75,-58.38],[0.0,-57.88],[-3.5,-58.38],[-4.62,-59.5],[-4.62,-60.25],[-3.5,-61.38],[0.75,-61.62]]]}},{"type":"Feature","properties":{"kind":"blob","cls":4,"id":5},"geometry":{"type":"Polygon","coordinates":[[[108.25,-66.38],[109.38,-66.25],[109.25,-66.12],[108.25,-66.38]]]}},{"type":"Feature","properties":{"kind":"blob","cls":0,"id":6},"geometry":{"type":"MultiPolygon","coordinates":[[[[150.0,54.88],[151.62,56.5],[151.25,57.12],[151.0,56.62],[149.25,56.62],[148.88,57.0],[150.88,57.5],[150.0,58.12],[146.25,58.12],[144.62,56.5],[145.75,55.12],[150.0,54.88]]],[[[151.0,57.38],[150.88,57.25],[151.0,57.12],[151.0,57.38]]]]}},{"type":"Feature","properties":{"kind":"blob","cls":4,"id":7},"geometry":{"type":"Polygon","coordinates":[[[19.5,-56.62],[21.5,-55.88],[22.12,-55.0],[21.62,-53.5],[20.5,-52.62],[18.5,-51.88],[16.75,-51.88],[14.75,-52.62],[14.12,-53.5],[14.38,-54.5],[15.5,-55.62],[19.5,-56.62]]]}},{"type":"Feature","properties":{"kind":"blob","cls":4,"id":8},"geometry":{"type":"Polygon","coordinates":[[[172.25,49.62],[173.88,51.0],[173.88,52.25],[172.75,53.38],[170.88,54.0],[172.12,55.0],[172.12,56.0],[171.25,56.88],[169.5,57.38],[166.75,57.12],[165.25,58.12],[162.75,58.38],[161.0,57.88],[159.38,56.0],[159.38,55.0],[160.12,54.5],[159.38,54.25],[159.62,53.75],[161.0,52.88],[163.25,52.62],[165.75,53.88],[168.0,53.38],[167.12,52.25],[167.12,51.25],[168.25,49.88],[172.25,49.62]],[[160.12,55.0],[160.12,56.0],[160.5,56.38],[161.38,55.75],[161.38,55.0],[160.12,55.0]],[[161.75,54.62],[161.62,54.75],[161.75,54.88],[161.75,54.62]],[[162.0,56.62],[161.88,56.75],[162.0,56.88],[162.0,56.62]]]}},{"type":"Feature","properties":{"kind":"blob","cls":5,"id":9},"geometry":{"type":"Polygon","coordinates":[[[45.75,-67.38],[49.0,-67.38],[50.25,-66.88],[51.25,-65.88],[56.25,-65.88],[57.88,-65.0],[58.12,-64.0],[57.75,-63.38],[56.25,-62.62],[52.5,-62.38],[49.5,-63.38],[49.0,-64.12],[44.5,-64.12],[43.25,-64.62],[42.38,-65.5],[42.38,-66.0],[43.25,-66.88],[45.75,-67.38]]]}},{"type":"Feature","properties":{"kind":"blob","cls":4,"id":10},"geometry":{"type":"Polygon","coordinates":[[[-102.5,-71.62],[-100.5,-70.88],[-99.88,-70.0],[-101.25,-68.38],[-104.5,-67.62],[-106.75,-67.62],[-110.0,-68.38],[-111.38,-70.0],[-110.75,-70.88],[-109.75,-71.38],[-102.5,-71.62]]]}},{"type":"Feature","properties":{"kind":"blob","cls":1,"id":11},"geometry":{"type":"Polygon","coordinates":[[[4.75,-68.12],[6.5,-67.38],[7.12,-66.5],[4.75,-64.88],[3.25,-64.38],[-1.0,-64.62],[-3.12,-65.75],[-3.12,-66.75],[-2.5,-67.38],[-0.75,-68.12],[4.75,-68.12]]]}},{"type":"Feature","properties":{"kind":"blob","cls":4,"id":12},"geometry":{"type":"Polygon","coordinates":[[[69.0,-68.62],[77.25,-68.88],[81.38,-67.75],[78.25,-66.88],[73.5,-66.88],[68.75,-67.88],[69.12,-66.5],[68.25,-65.62],[65.5,-64.12],[63.25,-63.62],[59.5,-64.12],[56.88,-66.5],[57.0,-67.12],[58.25,-67.38],[69.25,-68.12],[69.38,-68.5],[69.0,-68.62]]]}},{"type":"Feature","properties":{"kind":"blob","cls":1,"id":13},"geometry":{"type":"Polygon","coordinates":[[[-118.0,-59.62],[-114.0,-59.62],[-112.38,-58.5],[-112.38,-57.5],[-113.0,-56.62],[-115.25,-55.88],[-115.38,-54.5],[-117.0,-53.38],[-119.75,-53.12],[-121.75,-53.88],[-122.38,-54.5],[-122.38,-55.75],[-121.5,-56.62],[-119.88,-57.0],[-120.38,-57.5],[-120.38,-58.5],[-119.75,-59.12],[-118.0,-59.62]]]}},{"type":"Feature","properties":{"kind":"blob","cls":4,"id":14},"geometry":{"type":"Polygon","coordinates":[[[92.25,-59.12],[95.5,-58.12],[96.88,-57.0],[96.88,-55.75],[96.0,-54.88],[94.25,-54.38],[89.25,-55.12],[87.12,-56.75],[87.12,-57.25],[88.0,-58.38],[92.25,-59.12]]]}},{"type":"Feature","properties":{"kind":"blob","cls":4,"id":15},"geometry":{"type":"Polygon","coordinates":[[[35.75,-69.62],[41.38,-68.5],[39.25,-67.38],[35.0,-67.12],[32.5,-67.62],[30.62,-69.0],[31.25,-69.62],[35.75,-69.62]]]}},{"type":"Feature","properties":{"kind":"blob","cls":1,"id":16},"geometry":{"type":"Polygon","coordinates":[[[48.5,69.12],[53.5,69.12],[56.25,70.12],[56.88,71.0],[56.25,71.88],[54.25,72.62],[48.25,72.88],[45.5,72.38],[44.75,71.62],[44.0,71.62],[43.62,71.0],[44.25,70.12],[45.25,69.62],[48.5,69.12]]]}},{"type":"Feature","properties":{"kind":"blob","cls":4,"id":17},"geometry":{"type":"Polygon","coordinates":[[[-95.25,-66.88],[-91.25,-66.88],[-90.0,-66.38],[-89.12,-65.25],[-91.0,-63.38],[-93.25,-62.88],[-96.75,-63.12],[-98.62,-64.25],[-98.88,-65.0],[-97.75,-66.38],[-95.25,-66.88]]]}},{"type":"Feature","properties":{"kind":"blob","cls":4,"id":18},"geometry":{"type":"Polygon","coordinates":[[[-37.0,-80.12],[-30.62,-78.75],[-35.38,-78.5],[-35.25,-78.12],[-33.0,-77.38],[-31.5,-77.38],[-29.5,-76.62],[-26.25,-76.12],[-22.0,-76.12],[-20.0,-74.88],[-14.38,-73.75],[-15.5,-73.38],[-11.0,-73.12],[-9.62,-72.0],[-11.5,-71.38],[-16.5,-71.12],[-18.75,-71.62],[-29.25,-72.38],[-32.0,-73.38],[-33.12,-74.5],[-32.5,-75.62],[-39.75,-76.12],[-43.75,-77.38],[-44.62,-78.25],[-43.75,-79.12],[-42.0,-79.62],[-37.0,-80.12]]]}},{"type":"Feature","properties":{"kind":"blob","cls":4,"id":19},"geometry":{"type":"Polygon","coordinates":[[[114.5,-50.88],[116.75,-49.88],[117.62,-48.75],[117.62,-47.75],[116.75,-46.88],[115.5,-46.38],[113.75,-46.38],[111.5,-47.38],[111.12,-48.0],[111.12,-49.5],[112.25,-50.62],[114.5,-50.88]]]}},{"type":"Feature","properties":{"kind":"blob","cls":1,"id":20},"geometry":{"type":"Polygon","coordinates":[[[163.75,-79.88],[168.0,-79.38],[170.25,-78.62],[170.62,-77.75],[168.0,-76.62],[163.5,-76.12],[162.62,-77.0],[164.0,-78.38],[164.62,-78.5],[162.0,-78.62],[161.88,-79.0],[163.75,-79.88]],[[166.62,-77.5],[169.12,-77.5],[169.0,-77.62],[166.62,-77.5]]]}},{"type":"Feature","properties":{"kind":"blob","cls":0,"id":21},"geometry":{"type":"Polygon","coordinates":[[[-122.25,19.88],[-121.25,20.12],[-120.38,21.0],[-120.38,22.75],[-121.25,23.62],[-122.75,23.88],[-124.38,22.75],[-124.38,21.0],[-122.75,21.38],[-122.12,20.5],[-122.25,19.88]]]}},{"type":"Feature","properties":{"kind":"blob","cls":4,"id":22},"geometry":{"type":"Polygon","coordinates":[[[-30.12,-78.5],[-30.0,-78.62],[-29.88,-78.5],[-30.12,-78.5]]]}},{"type":"Feature","properties":{"kind":"blob","cls":4,"id":23},"geometry":{"type":"Polygon","coordinates":[[[-60.25,-81.38],[-46.12,-81.25],[-48.25,-80.88],[-60.25,-81.38]]]}},{"type":"Feature","properties":{"kind":"blob","cls":6,"id":24},"geometry":{"type":"Polygon","coordinates":[[[-51.25,-66.62],[-49.0,-66.12],[-47.88,-65.25],[-47.88,-64.0],[-48.25,-63.38],[-50.25,-62.38],[-51.75,-62.12],[-55.75,-62.38],[-57.62,-63.5],[-57.88,-65.0],[-57.5,-65.38],[-55.5,-66.38],[-51.25,-66.62]]]}},{"type":"Feature","properties":{"kind":"blob","cls":3,"id":25},"geometry":{"type":"Polygon","coordinates":[[[-40.25,58.38],[-38.5,58.88],[-37.62,59.5],[-37.38,60.5],[-38.25,61.62],[-39.25,62.12],[-42.75,62.12],[-43.88,60.5],[-43.75,60.12],[-45.0,60.62],[-45.12,60.0],[-44.5,59.12],[-40.25,58.38]]]}},{"type":"Feature","properties":{"kind":"blob","cls":4,"id":26},"geometry":{"type":"Polygon","coordinates":[[[-46.5,52.88],[-44.5,53.62],[-43.38,54.75],[-43.38,55.75],[-44.25,56.62],[-46.0,57.12],[-48.0,57.12],[-49.75,56.62],[-50.62,55.75],[-50.62,54.5],[-48.5,53.12],[-46.5,52.88]]]}},{"type":"Feature","properties":{"kind":"blob","cls":4,"id":27},"geometry":{"type":"Polygon","coordinates":[[[-76.75,51.12],[-75.25,51.62],[-73.88,53.25],[-74.38,54.5],[-76.75,55.62],[-79.5,55.38],[-79.62,55.0],[-78.88,54.5],[-79.5,54.12],[-81.0,54.12],[-81.12,53.25],[-79.75,51.62],[-76.75,51.12]]]}},{"type":"Feature","properties":{"kind":"blob","cls":1,"id":28},"geometry":{"type":"Polygon","coordinates":[[[-61.5,-24.38],[-60.62,-23.5],[-60.38,-20.75],[-61.12,-20.0],[-60.88,-18.25],[-61.75,-17.12],[-63.38,-16.75],[-63.12,-15.5],[-64.25,-14.12],[-65.75,-13.38],[-67.0,-13.62],[-67.62,-14.25],[-67.88,-15.25],[-63.38,-18.25],[-63.88,-19.0],[-63.12,-19.75],[-63.38,-20.75],[-64.12,-21.0],[-63.62,-21.75],[-64.38,-22.75],[-64.38,-23.5],[-63.5,-24.38],[-61.5,-24.38]]]}},{"type":"Feature","properties":{"kind":"blob","cls":0,"id":29},"geometry":{"type":"Polygon","coordinates":[[[159.25,27.12],[160.62,28.75],[160.38,30.0],[159.5,30.88],[157.25,30.88],[155.88,29.25],[156.12,28.25],[157.25,27.12],[159.25,27.12]]]}},{"type":"Feature","properties":{"kind":"blob","cls":4,"id":30},"geometry":{"type":"Polygon","coordinates":[[[-50.0,66.62],[-49.88,67.0],[-51.75,70.38],[-53.88,69.25],[-53.88,68.25],[-53.0,67.38],[-50.0,66.62]]]}},{"type":"Feature","properties":{"kind":"blob","cls":4,"id":31},"geometry":{"type":"Polygon","coordinates":[[[140.0,70.88],[143.0,71.38],[144.62,72.25],[144.88,73.25],[143.75,74.12],[142.0,74.62],[136.5,74.88],[132.75,74.12],[131.62,73.25],[132.25,72.12],[133.25,71.62],[140.0,70.88]]]}},{"type":"Feature","properties":{"kind":"blob","cls":4,"id":32},"geometry":{"type":"Polygon","coordinates":[[[-89.5,55.62],[-87.38,56.5],[-92.75,59.62],[-94.75,58.88],[-95.38,58.0],[-95.38,57.25],[-94.75,56.38],[-89.5,55.62]]]}},{"type":"Feature","properties":{"kind":"blob","cls":4,"id":33},"geometry":{"type":"Polygon","coordinates":[[[-160.0,32.12],[-158.38,33.0],[-158.12,35.0],[-158.75,35.88],[-160.75,36.38],[-162.38,35.5],[-162.62,33.5],[-162.0,32.62],[-160.0,32.12]]]}},{"type":"Feature","properties":{"kind":"blob","cls":6,"id":34},"geometry":{"type":"Polygon","coordinates":[[[171.5,12.38],[173.0,12.38],[173.88,13.5],[173.38,14.25],[173.62,15.0],[172.25,15.88],[171.0,15.62],[170.12,14.5],[170.38,13.0],[171.5,12.38]]]}},{"type":"Feature","properties":{"kind":"blob","cls":0,"id":35},"geometry":{"type":"Polygon","coordinates":[[[148.25,12.12],[149.75,12.12],[150.62,13.25],[150.38,14.75],[149.0,15.62],[147.75,15.38],[146.88,14.25],[147.12,12.75],[148.25,12.12]]]}},{"type":"Feature","properties":{"kind":"blob","cls":4,"id":36},"geometry":{"type":"Polygon","coordinates":[[[-58.25,72.62],[-55.12,73.25],[-58.25,74.62],[-60.0,76.38],[-66.88,76.75],[-64.62,77.5],[-65.5,77.88],[-70.0,77.12],[-71.5,76.38],[-71.88,75.75],[-71.0,74.62],[-69.5,74.12],[-65.0,73.12],[-58.25,72.62]],[[-68.12,77.0],[-67.38,77.0],[-67.5,76.88],[-68.12,77.0]]]}},{"type":"Feature","properties":{"kind":"blob","cls":5,"id":37},"geometry":{"type":"Polygon","coordinates":[[[-106.75,76.38],[-102.0,77.38],[-100.62,78.5],[-102.5,79.62],[-106.25,79.12],[-114.0,79.12],[-115.62,79.75],[-114.0,80.38],[-112.12,80.5],[-115.25,80.62],[-120.75,79.88],[-123.12,78.5],[-122.25,77.38],[-120.75,76.88],[-118.5,76.38],[-106.75,76.38]]]}},{"type":"Feature","properties":{"kind":"blob","cls":1,"id":38},"geometry":{"type":"Polygon","coordinates":[[[-121.0,37.88],[-120.62,38.75],[-121.88,40.25],[-122.0,41.12],[-123.12,40.75],[-122.62,39.5],[-123.12,39.5],[-123.62,40.5],[-123.5,41.88],[-124.88,40.75],[-124.88,39.75],[-123.5,37.88],[-121.0,37.88]]]}},{"type":"Feature","properties":{"kind":"blob","cls":0,"id":39},"geometry":{"type":"Polygon","coordinates":[[[111.25,16.38],[112.38,17.25],[112.62,18.75],[111.75,19.88],[110.25,20.12],[108.62,19.0],[108.38,17.5],[109.25,16.38],[111.25,16.38]]]}},{"type":"Feature","properties":{"kind":"blob","cls":4,"id":40},"geometry":{"type":"Polygon","coordinates":[[[72.75,28.88],[74.5,29.62],[75.12,30.5],[75.12,32.25],[72.25,32.38],[70.5,31.88],[70.12,31.5],[70.12,30.0],[69.12,29.5],[72.75,28.88]]]}},{"type":"Feature","properties":{"kind":"blob","cls":6,"id":41},"geometry":{"type":"Polygon","coordinates":[[[166.5,-40.38],[167.62,-39.0],[167.38,-37.75],[166.5,-36.88],[165.25,-36.88],[164.75,-36.38],[162.75,-36.62],[161.62,-37.75],[161.38,-38.75],[162.75,-40.38],[166.5,-40.38]]]}},{"type":"Feature","properties":{"kind":"blob","cls":3,"id":42},"geometry":{"type":"Polygon","coordinates":[[[-122.62,41.75],[-122.5,41.62],[-122.38,41.75],[-122.62,41.75]]]}},{"type":"Feature","properties":{"kind":"blob","cls":3,"id":43},"geometry":{"type":"Polygon","coordinates":[[[-122.88,42.25],[-122.75,42.12],[-122.62,42.25],[-122.88,42.25]]]}},{"type":"Feature","properties":{"kind":"blob","cls":3,"id":44},"geometry":{"type":"Polygon","coordinates":[[[-76.0,-39.38],[-75.0,-39.38],[-74.0,-38.88],[-73.12,-37.5],[-73.38,-36.5],[-75.0,-35.38],[-76.25,-35.38],[-77.25,-35.88],[-78.12,-37.25],[-77.75,-38.38],[-77.0,-37.88],[-76.38,-38.25],[-76.0,-39.38]]]}},{"type":"Feature","properties":{"kind":"blob","cls":4,"id":45},"geometry":{"type":"Polygon","coordinates":[[[-151.25,42.38],[-150.0,42.88],[-149.12,44.25],[-149.38,45.0],[-151.25,46.12],[-153.5,45.62],[-154.38,44.25],[-154.12,43.5],[-153.5,42.88],[-151.25,42.38]]]}},{"type":"Feature","properties":{"kind":"blob","cls":1,"id":46},"geometry":{"type":"Polygon","coordinates":[[[47.75,28.88],[49.25,28.88],[50.25,29.38],[50.88,30.25],[49.5,32.38],[47.75,33.38],[47.5,32.88],[46.75,33.12],[46.38,32.75],[45.62,31.5],[45.62,30.5],[46.5,29.38],[47.75,28.88]]]}},{"type":"Feature","properties":{"kind":"blob","cls":3,"id":47},"geometry":{"type":"Polygon","coordinates":[[[-68.75,-33.12],[-68.0,-32.88],[-67.38,-32.0],[-67.5,-31.38],[-68.12,-31.5],[-67.62,-31.0],[-68.25,-30.12],[-68.62,-30.5],[-68.75,-33.12]]]}},{"type":"Feature","properties":{"kind":"blob","cls":5,"id":48},"geometry":{"type":"Polygon","coordinates":[[[93.75,25.38],[94.38,26.25],[93.0,26.88],[92.88,26.25],[93.75,25.38]]]}},{"type":"Feature","properties":{"kind":"blob","cls":4,"id":49},"geometry":{"type":"Polygon","coordinates":[[[-71.25,-32.62],[-70.62,-32.75],[-71.12,-32.0],[-71.0,-30.12],[-71.62,-31.0],[-71.25,-32.62]]]}},{"type":"Feature","properties":{"kind":"blob","cls":4,"id":50},"geometry":{"type":"MultiPolygon","coordinates":[[[[95.0,25.38],[94.88,25.25],[95.0,25.12],[95.0,25.38]]],[[[95.12,25.5],[95.88,25.5],[95.75,25.62],[95.12,25.5]]]]}},{"type":"Feature","properties":{"kind":"blob","cls":3,"id":51},"geometry":{"type":"Polygon","coordinates":[[[63.0,29.38],[63.62,30.0],[62.75,30.12],[61.88,31.0],[61.88,32.0],[62.38,32.75],[61.25,33.38],[60.62,32.75],[60.38,31.0],[60.75,30.12],[63.0,29.38]]]}},{"type":"Feature","properties":{"kind":"blob","cls":3,"id":52},"geometry":{"type":"Polygon","coordinates":[[[64.5,36.38],[65.5,36.12],[68.38,38.5],[68.0,38.62],[66.5,37.62],[66.38,38.25],[67.12,39.0],[66.75,39.38],[64.75,38.88],[63.88,37.5],[64.5,36.38]]]}},{"type":"Feature","properties":{"kind":"center","id":1,"lat":-66.5,"lon":-163.0,"mslp":949.7,"hvtl":61.7,"hvtu":8.5,"hb":-6.6,"idx":1.2,"cls":0,"psfc":949.7,"terrain":false,"radius_km":200,"name":"sym deep warm","track":"T15"},"geometry":{"type":"Point","coordinates":[-163.0,-66.5]}},{"type":"Feature","properties":{"kind":"center","id":2,"lat":-65.75,"lon":125.25,"mslp":950.9,"hvtl":42.8,"hvtu":-42.9,"hb":10.4,"idx":0.4,"cls":3,"psfc":950.9,"terrain":false,"radius_km":200,"name":"asym shallow warm","track":"T01"},"geometry":{"type":"Point","coordinates":[125.25,-65.75]}},{"type":"Feature","properties":{"kind":"center","id":3,"lat":-66.0,"lon":103.25,"mslp":958.7,"hvtl":-100.9,"hvtu":-74.3,"hb":15.9,"idx":-2.2,"cls":4,"psfc":915.2,"terrain":false,"radius_km":200,"name":"asym cold","track":"T24"},"geometry":{"type":"Point","coordinates":[103.25,-66.0]}},{"type":"Feature","properties":{"kind":"center","id":4,"lat":-59.75,"lon":-1.0,"mslp":958.7,"hvtl":62.0,"hvtu":8.0,"hb":-31.1,"idx":1.2,"cls":0,"psfc":958.7,"terrain":false,"radius_km":200,"name":"sym deep warm","track":"T23"},"geometry":{"type":"Point","coordinates":[-1.0,-59.75]}},{"type":"Feature","properties":{"kind":"center","id":5,"lat":-66.25,"lon":108.25,"mslp":959.4,"hvtl":-97.1,"hvtu":-32.3,"hb":47.4,"idx":-1.8,"cls":4,"psfc":959.4,"terrain":false,"radius_km":200,"name":"asym cold"},"geometry":{"type":"Point","coordinates":[108.25,-66.25]}},{"type":"Feature","properties":{"kind":"center","id":6,"lat":56.5,"lon":148.25,"mslp":959.7,"hvtl":160.3,"hvtu":127.7,"hb":-7.9,"idx":2.7,"cls":0,"psfc":959.7,"terrain":false,"radius_km":200,"name":"sym deep warm","track":"T26"},"geometry":{"type":"Point","coordinates":[148.25,56.5]}},{"type":"Feature","properties":{"kind":"center","id":7,"lat":-54.25,"lon":18.0,"mslp":963.8,"hvtl":-157.1,"hvtu":-254.2,"hb":100.6,"idx":-2.8,"cls":4,"psfc":963.8,"terrain":false,"radius_km":200,"name":"asym cold","track":"T16"},"geometry":{"type":"Point","coordinates":[18.0,-54.25]}},{"type":"Feature","properties":{"kind":"center","id":8,"lat":51.75,"lon":170.25,"mslp":964.0,"hvtl":-149.3,"hvtu":-399.9,"hb":64.6,"idx":-2.8,"cls":4,"psfc":964.0,"terrain":false,"radius_km":200,"name":"asym cold","track":"T07"},"geometry":{"type":"Point","coordinates":[170.25,51.75]}},{"type":"Feature","properties":{"kind":"center","id":9,"lat":-64.25,"lon":53.5,"mslp":965.8,"hvtl":-115.4,"hvtu":-218.9,"hb":8.1,"idx":-2.6,"cls":5,"psfc":965.7,"terrain":false,"radius_km":200,"name":"sym cold"},"geometry":{"type":"Point","coordinates":[53.5,-64.25]}},{"type":"Feature","properties":{"kind":"center","id":10,"lat":-70.0,"lon":-105.75,"mslp":966.0,"hvtl":-14.4,"hvtu":-41.9,"hb":32.0,"idx":-0.7,"cls":4,"psfc":966.1,"terrain":false,"radius_km":200,"name":"asym cold","track":"T34"},"geometry":{"type":"Point","coordinates":[-105.75,-70.0]}},{"type":"Feature","properties":{"kind":"center","id":11,"lat":-66.5,"lon":2.0,"mslp":966.3,"hvtl":16.5,"hvtu":-43.5,"hb":9.1,"idx":-0.1,"cls":1,"psfc":966.3,"terrain":false,"radius_km":200,"name":"sym shallow warm","track":"T04"},"geometry":{"type":"Point","coordinates":[2.0,-66.5]}},{"type":"Feature","properties":{"kind":"center","id":12,"lat":-68.25,"lon":79.25,"mslp":966.8,"hvtl":-262.2,"hvtu":-43.8,"hb":43.9,"idx":-2.4,"cls":4,"psfc":912.9,"terrain":false,"radius_km":200,"name":"asym cold","track":"T37"},"geometry":{"type":"Point","coordinates":[79.25,-68.25]}},{"type":"Feature","properties":{"kind":"center","id":13,"lat":-55.0,"lon":-119.0,"mslp":968.9,"hvtl":109.9,"hvtu":-112.8,"hb":-10.6,"idx":0.8,"cls":1,"psfc":968.9,"terrain":false,"radius_km":200,"name":"sym shallow warm","track":"T33"},"geometry":{"type":"Point","coordinates":[-119.0,-55.0]}},{"type":"Feature","properties":{"kind":"center","id":14,"lat":-57.0,"lon":91.25,"mslp":970.8,"hvtl":-386.5,"hvtu":-523.7,"hb":66.0,"idx":-3.0,"cls":4,"psfc":970.8,"terrain":false,"radius_km":200,"name":"asym cold","track":"T31"},"geometry":{"type":"Point","coordinates":[91.25,-57.0]}},{"type":"Feature","properties":{"kind":"center","id":15,"lat":-69.25,"lon":36.0,"mslp":974.1,"hvtl":-67.2,"hvtu":-147.9,"hb":12.2,"idx":-2.1,"cls":4,"psfc":970.8,"terrain":false,"radius_km":200,"name":"asym cold"},"geometry":{"type":"Point","coordinates":[36.0,-69.25]}},{"type":"Feature","properties":{"kind":"center","id":16,"lat":71.0,"lon":50.25,"mslp":974.2,"hvtl":136.6,"hvtu":-28.3,"hb":3.3,"idx":1.5,"cls":1,"psfc":974.2,"terrain":false,"radius_km":200,"name":"sym shallow warm","track":"T41"},"geometry":{"type":"Point","coordinates":[50.25,71.0]}},{"type":"Feature","properties":{"kind":"center","id":17,"lat":-65.0,"lon":-94.5,"mslp":974.9,"hvtl":-271.5,"hvtu":-230.9,"hb":48.2,"idx":-3.0,"cls":4,"psfc":974.9,"terrain":false,"radius_km":200,"name":"asym cold","track":"T43"},"geometry":{"type":"Point","coordinates":[-94.5,-65.0]}},{"type":"Feature","properties":{"kind":"center","id":18,"lat":-73.75,"lon":-14.75,"mslp":977.1,"hvtl":-267.7,"hvtu":-137.8,"hb":27.2,"idx":-2.9,"cls":4,"psfc":927.8,"terrain":false,"radius_km":200,"name":"asym cold","track":"T50"},"geometry":{"type":"Point","coordinates":[-14.75,-73.75]}},{"type":"Feature","properties":{"kind":"center","id":19,"lat":-48.5,"lon":114.5,"mslp":979.6,"hvtl":-106.0,"hvtu":-409.7,"hb":13.9,"idx":-2.6,"cls":4,"psfc":979.6,"terrain":false,"radius_km":200,"name":"asym cold","track":"T22"},"geometry":{"type":"Point","coordinates":[114.5,-48.5]}},{"type":"Feature","properties":{"kind":"center","id":20,"lat":-77.0,"lon":168.0,"mslp":981.0,"hvtl":53.8,"hvtu":-104.7,"hb":10.0,"idx":0.2,"cls":1,"psfc":981.0,"terrain":false,"radius_km":200,"name":"sym shallow warm","track":"T59"},"geometry":{"type":"Point","coordinates":[168.0,-77.0]}},{"type":"Feature","properties":{"kind":"center","id":21,"lat":22.0,"lon":-122.5,"mslp":981.9,"hvtl":47.8,"hvtu":163.8,"hb":5.0,"idx":1.8,"cls":0,"psfc":981.9,"terrain":false,"radius_km":200,"name":"sym deep warm","track":"T48"},"geometry":{"type":"Point","coordinates":[-122.5,22.0]}},{"type":"Feature","properties":{"kind":"center","id":22,"lat":-78.5,"lon":-30.0,"mslp":983.7,"hvtl":-272.9,"hvtu":-58.1,"hb":18.8,"idx":-2.5,"cls":4,"psfc":901.0,"terrain":false,"radius_km":200,"name":"asym cold","track":"T51"},"geometry":{"type":"Point","coordinates":[-30.0,-78.5]}},{"type":"Feature","properties":{"kind":"center","id":23,"lat":-81.25,"lon":-46.5,"mslp":984.6,"hvtl":-191.3,"hvtu":-12.0,"hb":15.5,"idx":-2.0,"cls":4,"psfc":968.5,"terrain":false,"radius_km":200,"name":"asym cold","track":"T58"},"geometry":{"type":"Point","coordinates":[-46.5,-81.25]}},{"type":"Feature","properties":{"kind":"center","id":24,"lat":-64.25,"lon":-53.25,"mslp":984.9,"hvtl":-13.1,"hvtu":1.6,"hb":4.8,"idx":-0.2,"cls":6,"psfc":984.9,"terrain":false,"radius_km":200,"name":"shallow cold"},"geometry":{"type":"Point","coordinates":[-53.25,-64.25]}},{"type":"Feature","properties":{"kind":"center","id":25,"lat":60.25,"lon":-41.25,"mslp":986.9,"hvtl":115.9,"hvtu":-265.6,"hb":30.5,"idx":0.7,"cls":3,"psfc":986.9,"terrain":false,"radius_km":200,"name":"asym shallow warm","track":"T62"},"geometry":{"type":"Point","coordinates":[-41.25,60.25]}},{"type":"Feature","properties":{"kind":"center","id":26,"lat":55.0,"lon":-47.25,"mslp":991.3,"hvtl":-58.7,"hvtu":-273.8,"hb":19.9,"idx":-2.0,"cls":4,"psfc":991.3,"terrain":false,"radius_km":200,"name":"asym cold","track":"T44"},"geometry":{"type":"Point","coordinates":[-47.25,55.0]}},{"type":"Feature","properties":{"kind":"center","id":27,"lat":53.25,"lon":-77.75,"mslp":996.8,"hvtl":-53.5,"hvtu":-16.3,"hb":25.3,"idx":-1.1,"cls":4,"psfc":977.4,"terrain":false,"radius_km":200,"name":"asym cold","track":"T88"},"geometry":{"type":"Point","coordinates":[-77.75,53.25]}},{"type":"Feature","properties":{"kind":"center","id":28,"lat":-18.75,"lon":-63.25,"mslp":998.4,"hvtl":34.2,"hvtu":-129.2,"hb":-3.5,"idx":-0.2,"cls":1,"psfc":944.3,"terrain":false,"radius_km":200,"name":"sym shallow warm","track":"T87"},"geometry":{"type":"Point","coordinates":[-63.25,-18.75]}},{"type":"Feature","properties":{"kind":"center","id":29,"lat":29.0,"lon":158.25,"mslp":999.5,"hvtl":107.8,"hvtu":16.2,"hb":6.5,"idx":1.7,"cls":0,"psfc":999.5,"terrain":false,"radius_km":200,"name":"sym deep warm","track":"T40"},"geometry":{"type":"Point","coordinates":[158.25,29.0]}},{"type":"Feature","properties":{"kind":"center","id":30,"lat":70.0,"lon":-52.0,"mslp":1001.4,"hvtl":-26.2,"hvtu":-146.0,"hb":31.4,"idx":-1.4,"cls":4,"psfc":987.4,"terrain":false,"radius_km":200,"name":"asym cold"},"geometry":{"type":"Point","coordinates":[-52.0,70.0]}},{"type":"Feature","properties":{"kind":"center","id":31,"lat":73.0,"lon":138.25,"mslp":1001.6,"hvtl":-31.8,"hvtu":-167.8,"hb":36.9,"idx":-1.5,"cls":4,"psfc":1001.6,"terrain":false,"radius_km":200,"name":"asym cold"},"geometry":{"type":"Point","coordinates":[138.25,73.0]}},{"type":"Feature","properties":{"kind":"center","id":32,"lat":57.5,"lon":-90.25,"mslp":1001.7,"hvtl":-21.2,"hvtu":-1.5,"hb":16.2,"idx":-0.4,"cls":4,"psfc":1001.7,"terrain":false,"radius_km":200,"name":"asym cold","track":"T89"},"geometry":{"type":"Point","coordinates":[-90.25,57.5]}},{"type":"Feature","properties":{"kind":"center","id":33,"lat":34.25,"lon":-160.25,"mslp":1002.1,"hvtl":-2.8,"hvtu":-242.1,"hb":57.7,"idx":-1.0,"cls":4,"psfc":1002.1,"terrain":false,"radius_km":200,"name":"asym cold","track":"T81"},"geometry":{"type":"Point","coordinates":[-160.25,34.25]}},{"type":"Feature","properties":{"kind":"center","id":34,"lat":14.0,"lon":172.0,"mslp":1003.6,"hvtl":-7.2,"hvtu":28.0,"hb":-4.7,"idx":0.1,"cls":6,"psfc":1003.6,"terrain":false,"radius_km":200,"name":"shallow cold"},"geometry":{"type":"Point","coordinates":[172.0,14.0]}},{"type":"Feature","properties":{"kind":"center","id":35,"lat":13.75,"lon":148.75,"mslp":1004.0,"hvtl":20.1,"hvtu":27.4,"hb":2.5,"idx":0.7,"cls":0,"psfc":1004.0,"terrain":false,"radius_km":200,"name":"sym deep warm","track":"T08"},"geometry":{"type":"Point","coordinates":[148.75,13.75]}},{"type":"Feature","properties":{"kind":"center","id":36,"lat":75.75,"lon":-61.0,"mslp":1006.2,"hvtl":-16.9,"hvtu":-121.3,"hb":17.3,"idx":-1.2,"cls":4,"psfc":1006.2,"terrain":false,"radius_km":200,"name":"asym cold","track":"T115"},"geometry":{"type":"Point","coordinates":[-61.0,75.75]}},{"type":"Feature","properties":{"kind":"center","id":37,"lat":78.25,"lon":-112.25,"mslp":1006.7,"hvtl":-68.4,"hvtu":-28.5,"hb":3.5,"idx":-1.5,"cls":5,"psfc":1006.5,"terrain":false,"radius_km":200,"name":"sym cold","track":"T116"},"geometry":{"type":"Point","coordinates":[-112.25,78.25]}},{"type":"Feature","properties":{"kind":"center","id":38,"lat":39.75,"lon":-122.0,"mslp":1007.3,"hvtl":58.1,"hvtu":-155.4,"hb":7.6,"idx":0.1,"cls":1,"psfc":1002.2,"terrain":false,"radius_km":200,"name":"sym shallow warm"},"geometry":{"type":"Point","coordinates":[-122.0,39.75]}},{"type":"Feature","properties":{"kind":"center","id":39,"lat":18.25,"lon":110.75,"mslp":1008.8,"hvtl":41.7,"hvtu":39.3,"hb":-16.9,"idx":1.2,"cls":0,"psfc":1008.8,"terrain":false,"radius_km":200,"name":"sym deep warm"},"geometry":{"type":"Point","coordinates":[110.75,18.25]}},{"type":"Feature","properties":{"kind":"center","id":40,"lat":31.0,"lon":71.5,"mslp":1009.3,"hvtl":-22.9,"hvtu":-50.8,"hb":19.3,"idx":-0.9,"cls":4,"psfc":992.2,"terrain":false,"radius_km":200,"name":"asym cold","track":"T108"},"geometry":{"type":"Point","coordinates":[71.5,31.0]}},{"type":"Feature","properties":{"kind":"center","id":41,"lat":-38.5,"lon":164.25,"mslp":1009.3,"hvtl":-23.3,"hvtu":16.6,"hb":19.2,"idx":-0.3,"cls":6,"psfc":1009.3,"terrain":false,"radius_km":200,"name":"shallow cold","track":"T107"},"geometry":{"type":"Point","coordinates":[164.25,-38.5]}},{"type":"Feature","properties":{"kind":"center","id":42,"lat":41.75,"lon":-122.5,"mslp":1009.4,"hvtl":163.1,"hvtu":-154.9,"hb":33.0,"idx":0.9,"cls":3,"psfc":911.3,"terrain":true,"radius_km":200,"name":"asym shallow warm"},"geometry":{"type":"Point","coordinates":[-122.5,41.75]}},{"type":"Feature","properties":{"kind":"center","id":43,"lat":42.25,"lon":-122.75,"mslp":1011.7,"hvtl":180.1,"hvtu":-156.4,"hb":37.7,"idx":1.0,"cls":3,"psfc":912.9,"terrain":true,"radius_km":200,"name":"asym shallow warm"},"geometry":{"type":"Point","coordinates":[-122.75,42.25]}},{"type":"Feature","properties":{"kind":"center","id":44,"lat":-37.25,"lon":-75.75,"mslp":1012.1,"hvtl":64.1,"hvtu":-98.0,"hb":27.2,"idx":0.4,"cls":3,"psfc":1012.1,"terrain":false,"radius_km":200,"name":"asym shallow warm","track":"T92"},"geometry":{"type":"Point","coordinates":[-75.75,-37.25]}},{"type":"Feature","properties":{"kind":"center","id":45,"lat":43.75,"lon":-152.25,"mslp":1012.7,"hvtl":-161.1,"hvtu":-301.7,"hb":73.9,"idx":-2.8,"cls":4,"psfc":1012.7,"terrain":false,"radius_km":200,"name":"asym cold","track":"T68"},"geometry":{"type":"Point","coordinates":[-152.25,43.75]}},{"type":"Feature","properties":{"kind":"center","id":46,"lat":29.5,"lon":49.0,"mslp":1013.2,"hvtl":2.4,"hvtu":-35.2,"hb":9.4,"idx":-0.3,"cls":1,"psfc":1013.2,"terrain":false,"radius_km":200,"name":"sym shallow warm","track":"T122"},"geometry":{"type":"Point","coordinates":[49.0,29.5]}},{"type":"Feature","properties":{"kind":"center","id":47,"lat":-30.5,"lon":-68.0,"mslp":1013.9,"hvtl":102.1,"hvtu":-315.0,"hb":63.0,"idx":0.5,"cls":3,"psfc":922.1,"terrain":true,"radius_km":200,"name":"asym shallow warm"},"geometry":{"type":"Point","coordinates":[-68.0,-30.5]}},{"type":"Feature","properties":{"kind":"center","id":48,"lat":26.75,"lon":93.0,"mslp":1014.5,"hvtl":-31.7,"hvtu":-68.3,"hb":6.0,"idx":-1.2,"cls":5,"psfc":1004.8,"terrain":false,"radius_km":200,"name":"sym cold"},"geometry":{"type":"Point","coordinates":[93.0,26.75]}},{"type":"Feature","properties":{"kind":"center","id":49,"lat":-30.75,"lon":-71.0,"mslp":1014.5,"hvtl":-41.6,"hvtu":-282.1,"hb":34.7,"idx":-1.8,"cls":4,"psfc":933.8,"terrain":false,"radius_km":200,"name":"asym cold","track":"T99"},"geometry":{"type":"Point","coordinates":[-71.0,-30.75]}},{"type":"Feature","properties":{"kind":"center","id":50,"lat":25.5,"lon":95.5,"mslp":1014.6,"hvtl":-31.9,"hvtu":-97.0,"hb":10.1,"idx":-1.4,"cls":4,"psfc":990.7,"terrain":false,"radius_km":200,"name":"asym cold","track":"T124"},"geometry":{"type":"Point","coordinates":[95.5,25.5]}},{"type":"Feature","properties":{"kind":"center","id":51,"lat":31.25,"lon":61.75,"mslp":1014.7,"hvtl":99.0,"hvtu":-61.7,"hb":17.7,"idx":1.0,"cls":3,"psfc":960.1,"terrain":false,"radius_km":200,"name":"asym shallow warm","track":"T129"},"geometry":{"type":"Point","coordinates":[61.75,31.25]}},{"type":"Feature","properties":{"kind":"center","id":52,"lat":37.5,"lon":67.0,"mslp":1021.0,"hvtl":158.9,"hvtu":-256.3,"hb":63.5,"idx":0.9,"cls":3,"psfc":983.2,"terrain":false,"radius_km":200,"name":"asym shallow warm","track":"T125"},"geometry":{"type":"Point","coordinates":[67.0,37.5]}}]}