{"type":"FeatureCollection","features":[{"type":"Feature","properties":{"kind":"blob","cls":3,"id":1},"geometry":{"type":"Polygon","coordinates":[[[2.5,-63.88],[4.75,-63.12],[6.12,-61.5],[5.88,-60.0],[4.25,-58.88],[3.0,-58.62],[0.75,-58.62],[-1.5,-59.38],[-2.62,-60.5],[-2.12,-61.0],[-2.88,-61.5],[-2.88,-62.0],[-1.75,-63.12],[2.5,-63.88]]]}},{"type":"Feature","properties":{"kind":"blob","cls":4,"id":2},"geometry":{"type":"Polygon","coordinates":[[[-126.75,-70.88],[-124.5,-69.62],[-122.75,-70.12],[-118.25,-69.88],[-116.75,-69.38],[-115.88,-68.5],[-115.88,-68.0],[-116.5,-67.12],[-118.25,-66.38],[-122.75,-66.12],[-125.0,-66.62],[-126.0,-67.12],[-126.5,-67.88],[-130.5,-67.38],[-132.25,-67.62],[-134.62,-69.0],[-134.0,-70.12],[-133.0,-70.62],[-126.75,-70.88]]]}},{"type":"Feature","properties":{"kind":"blob","cls":0,"id":3},"geometry":{"type":"Polygon","coordinates":[[[147.75,22.12],[148.62,23.0],[148.62,24.5],[147.75,25.38],[146.25,25.62],[144.62,24.5],[144.62,23.0],[145.5,22.12],[147.75,22.12]],[[145.38,23.25],[145.38,23.75],[145.75,24.12],[146.12,23.5],[145.38,23.25]]]}},{"type":"Feature","properties":{"kind":"blob","cls":3,"id":4},"geometry":{"type":"Polygon","coordinates":[[[-140.5,-63.12],[-138.38,-61.75],[-138.38,-60.75],[-140.25,-59.38],[-142.5,-59.12],[-143.25,-58.38],[-145.0,-57.88],[-148.25,-58.38],[-149.38,-59.5],[-149.12,-60.75],[-148.25,-61.38],[-147.0,-61.62],[-144.5,-63.12],[-140.5,-63.12]]]}},{"type":"Feature","properties":{"kind":"blob","cls":4,"id":5},"geometry":{"type":"Polygon","coordinates":[[[-158.25,-82.88],[-150.75,-82.62],[-145.88,-82.0],[-150.75,-81.88],[-151.25,-81.38],[-146.75,-81.38],[-144.0,-81.88],[-141.25,-81.38],[-140.88,-81.0],[-142.5,-79.38],[-147.5,-79.62],[-148.5,-78.88],[-153.5,-78.88],[-157.5,-79.62],[-160.0,-80.62],[-160.62,-81.25],[-158.25,-82.88]]]}},{"type":"Feature","properties":{"kind":"blob","cls":4,"id":6},"geometry":{"type":"Polygon","coordinates":[[[124.25,-55.12],[125.75,-54.62],[126.88,-53.25],[126.62,-52.5],[125.75,-51.62],[124.25,-51.12],[121.75,-51.12],[120.25,-51.62],[119.38,-52.5],[119.38,-53.5],[120.25,-54.38],[124.25,-55.12]]]}},{"type":"Feature","properties":{"kind":"blob","cls":6,"id":7},"geometry":{"type":"Polygon","coordinates":[[[173.5,-79.12],[176.5,-78.38],[177.38,-77.5],[175.75,-76.38],[170.75,-75.62],[164.5,-75.88],[162.62,-77.0],[164.12,-78.0],[164.0,-78.38],[165.12,-78.5],[163.25,-78.88],[173.5,-79.12]],[[166.62,-77.5],[169.12,-77.5],[169.0,-77.62],[166.62,-77.5]]]}},{"type":"Feature","properties":{"kind":"blob","cls":4,"id":8},"geometry":{"type":"Polygon","coordinates":[[[169.5,-71.38],[172.75,-71.38],[174.12,-70.5],[174.38,-69.5],[173.5,-68.62],[171.5,-67.88],[168.0,-67.38],[163.25,-67.62],[160.75,-68.38],[159.88,-69.25],[160.0,-70.12],[161.0,-70.38],[162.25,-71.38],[162.62,-71.25],[162.12,-70.75],[162.75,-70.38],[163.75,-71.12],[164.5,-71.12],[164.5,-70.62],[166.25,-70.62],[169.5,-71.38]]]}},{"type":"Feature","properties":{"kind":"blob","cls":4,"id":9},"geometry":{"type":"Polygon","coordinates":[[[137.25,-66.62],[139.5,-66.12],[141.12,-65.0],[141.12,-64.0],[138.75,-62.62],[136.25,-62.12],[132.75,-62.38],[130.62,-63.5],[130.38,-64.5],[130.75,-65.12],[132.75,-66.12],[137.25,-66.62]]]}},{"type":"Feature","properties":{"kind":"blob","cls":1,"id":10},"geometry":{"type":"Polygon","coordinates":[[[104.0,-64.88],[107.0,-64.12],[108.12,-63.25],[108.12,-61.75],[106.0,-60.12],[103.0,-59.88],[99.75,-60.88],[98.38,-61.75],[98.12,-63.25],[98.75,-63.88],[104.0,-64.88]]]}},{"type":"Feature","properties":{"kind":"blob","cls":0,"id":11},"geometry":{"type":"Polygon","coordinates":[[[179.88,22.75],[180.0,25.88],[179.12,25.0],[179.12,23.5],[179.88,22.75]]]}},{"type":"Feature","properties":{"kind":"blob","cls":0,"id":11},"geometry":{"type":"Polygon","coordinates":[[[-179.75,25.88],[-180.0,22.62],[-178.0,22.62],[-177.12,23.5],[-177.12,25.0],[-178.75,26.12],[-179.75,25.88]]]}},{"type":"Feature","properties":{"kind":"blob","cls":4,"id":12},"geometry":{"type":"Polygon","coordinates":[[[-109.0,-59.62],[-107.0,-58.88],[-106.38,-58.0],[-106.88,-56.0],[-107.75,-55.12],[-109.5,-54.62],[-112.5,-55.12],[-113.62,-56.25],[-113.88,-57.75],[-113.0,-58.88],[-109.0,-59.62]]]}},{"type":"Feature","properties":{"kind":"blob","cls":1,"id":13},"geometry":{"type":"Polygon","coordinates":[[[-167.0,53.62],[-165.25,54.12],[-164.38,55.0],[-164.38,56.0],[-165.25,56.88],[-167.0,57.38],[-168.0,56.88],[-169.75,56.88],[-170.62,56.0],[-170.62,55.0],[-169.75,54.12],[-167.0,53.62]]]}},{"type":"Feature","properties":{"kind":"blob","cls":1,"id":14},"geometry":{"type":"Polygon","coordinates":[[[72.0,-59.88],[74.5,-58.88],[75.38,-57.75],[75.38,-56.75],[74.25,-55.62],[72.0,-54.88],[70.25,-54.88],[68.0,-55.62],[66.88,-56.75],[66.88,-58.0],[67.5,-58.88],[72.0,-59.88]]]}},{"type":"Feature","properties":{"kind":"blob","cls":3,"id":15},"geometry":{"type":"Polygon","coordinates":[[[1.75,66.62],[4.25,67.12],[6.12,68.25],[6.38,69.0],[5.88,70.5],[4.0,71.88],[0.5,72.38],[-2.5,70.12],[-6.25,70.12],[-6.62,70.5],[-6.38,71.25],[-7.0,71.38],[-8.88,70.0],[-8.88,69.5],[-7.75,68.38],[-4.25,67.12],[1.75,66.62]]]}},{"type":"Feature","properties":{"kind":"blob","cls":4,"id":16},"geometry":{"type":"Polygon","coordinates":[[[80.0,-67.88],[81.25,-68.12],[85.88,-67.25],[84.25,-67.12],[80.0,-67.88]]]}},{"type":"Feature","properties":{"kind":"blob","cls":4,"id":17},"geometry":{"type":"MultiPolygon","coordinates":[[[[77.62,-68.75],[78.5,-68.88],[79.12,-68.5],[78.5,-68.38],[77.62,-68.75]]],[[[79.25,-68.12],[79.12,-68.25],[79.5,-68.38],[79.25,-68.12]]]]}},{"type":"Feature","properties":{"kind":"blob","cls":0,"id":18},"geometry":{"type":"Polygon","coordinates":[[[-114.0,18.62],[-112.75,18.62],[-111.88,19.75],[-112.12,21.25],[-113.5,22.12],[-114.75,21.88],[-115.62,20.75],[-115.62,19.75],[-115.25,19.38],[-114.5,20.12],[-113.5,20.12],[-113.12,19.75],[-113.12,19.25],[-114.0,18.62]]]}},{"type":"Feature","properties":{"kind":"blob","cls":4,"id":19},"geometry":{"type":"Polygon","coordinates":[[[78.5,-52.38],[79.62,-51.5],[79.88,-50.5],[79.0,-49.38],[78.0,-48.88],[74.5,-48.88],[73.38,-49.75],[73.12,-51.0],[74.0,-52.12],[78.5,-52.38]]]}},{"type":"Feature","properties":{"kind":"blob","cls":4,"id":20},"geometry":{"type":"Polygon","coordinates":[[[-24.75,57.88],[-23.0,58.38],[-20.62,60.0],[-20.62,61.0],[-22.25,62.12],[-23.5,62.38],[-25.5,62.38],[-28.0,61.62],[-29.38,60.75],[-29.62,59.5],[-28.5,58.38],[-24.75,57.88]]]}},{"type":"Feature","properties":{"kind":"blob","cls":4,"id":21},"geometry":{"type":"Polygon","coordinates":[[[35.0,75.62],[40.25,76.38],[45.25,78.62],[45.62,79.75],[43.75,80.62],[39.75,81.38],[30.25,81.62],[24.25,80.88],[21.75,79.88],[20.62,78.5],[22.25,76.62],[25.25,75.88],[35.0,75.62]]]}},{"type":"Feature","properties":{"kind":"blob","cls":4,"id":22},"geometry":{"type":"Polygon","coordinates":[[[62.0,55.88],[65.5,55.88],[66.88,56.75],[67.12,58.0],[66.5,58.88],[65.5,59.38],[61.75,59.38],[59.88,58.25],[59.62,57.25],[60.25,56.38],[62.0,55.88]]]}},{"type":"Feature","properties":{"kind":"blob","cls":5,"id":23},"geometry":{"type":"Polygon","coordinates":[[[-154.5,62.62],[-153.5,62.38],[-150.75,63.62],[-147.38,64.25],[-150.0,65.12],[-152.75,64.88],[-154.62,63.75],[-154.5,62.62]]]}},{"type":"Feature","properties":{"kind":"blob","cls":5,"id":24},"geometry":{"type":"Polygon","coordinates":[[[-151.75,61.62],[-149.25,61.62],[-149.62,62.0],[-149.38,63.0],[-152.0,62.62],[-152.38,62.0],[-151.75,61.62]]]}},{"type":"Feature","properties":{"kind":"blob","cls":5,"id":25},"geometry":{"type":"Polygon","coordinates":[[[124.5,65.88],[126.62,67.0],[126.62,68.0],[124.5,68.12],[123.88,68.75],[124.5,69.38],[123.0,69.62],[118.25,69.38],[116.12,68.25],[116.12,67.0],[116.5,66.62],[118.25,65.88],[124.5,65.88]]]}},{"type":"Feature","properties":{"kind":"blob","cls":1,"id":26},"geometry":{"type":"Polygon","coordinates":[[[-34.75,59.12],[-32.88,60.5],[-32.88,61.5],[-33.75,62.38],[-36.0,63.12],[-39.25,63.12],[-41.5,62.38],[-42.38,61.5],[-42.38,60.5],[-40.25,59.12],[-34.75,59.12]]]}},{"type":"Feature","properties":{"kind":"blob","cls":4,"id":27},"geometry":{"type":"Polygon","coordinates":[[[136.75,60.88],[136.62,61.25],[137.5,62.12],[138.12,62.25],[136.0,64.38],[135.38,64.0],[135.75,63.62],[132.25,64.12],[131.12,63.25],[131.12,62.25],[131.75,61.62],[136.75,60.88]]]}},{"type":"Feature","properties":{"kind":"blob","cls":4,"id":28},"geometry":{"type":"MultiPolygon","coordinates":[[[[-59.0,66.88],[-56.25,66.62],[-53.75,67.12],[-52.25,67.88],[-51.62,69.0],[-52.25,69.88],[-53.5,69.62],[-54.0,69.88],[-53.12,70.25],[-53.75,70.62],[-56.25,71.12],[-61.25,70.88],[-63.62,69.5],[-63.0,67.88],[-59.0,66.88]]],[[[-52.75,70.12],[-52.88,70.0],[-52.75,69.88],[-52.75,70.12]]]]}},{"type":"Feature","properties":{"kind":"blob","cls":3,"id":29},"geometry":{"type":"Polygon","coordinates":[[[-46.5,-39.88],[-44.88,-38.75],[-44.62,-37.5],[-45.75,-36.12],[-47.75,-35.88],[-49.62,-37.25],[-49.62,-38.75],[-48.75,-39.62],[-46.5,-39.88]]]}},{"type":"Feature","properties":{"kind":"blob","cls":3,"id":30},"geometry":{"type":"Polygon","coordinates":[[[-81.25,50.12],[-79.75,50.62],[-78.62,51.75],[-78.62,52.75],[-79.5,53.62],[-81.0,54.12],[-82.75,54.12],[-84.25,53.62],[-85.12,52.75],[-85.12,51.75],[-84.0,50.62],[-81.25,50.12]]]}},{"type":"Feature","properties":{"kind":"blob","cls":3,"id":31},"geometry":{"type":"Polygon","coordinates":[[[-58.0,-53.88],[-56.38,-52.5],[-56.38,-51.0],[-57.25,-50.12],[-58.75,-49.62],[-62.5,-49.88],[-64.12,-51.25],[-63.12,-52.0],[-63.12,-53.75],[-58.0,-53.88]]]}},{"type":"Feature","properties":{"kind":"blob","cls":1,"id":32},"geometry":{"type":"Polygon","coordinates":[[[-26.75,67.38],[-24.62,68.5],[-30.25,68.62],[-32.62,67.5],[-26.75,67.38]]]}},{"type":"Feature","properties":{"kind":"blob","cls":4,"id":33},"geometry":{"type":"Polygon","coordinates":[[[-55.12,73.25],[-58.0,74.38],[-60.5,76.38],[-64.88,76.5],[-61.5,73.88],[-55.12,73.25]]]}},{"type":"Feature","properties":{"kind":"blob","cls":4,"id":34},"geometry":{"type":"Polygon","coordinates":[[[-126.25,64.12],[-125.62,64.75],[-125.62,65.75],[-126.75,66.62],[-129.0,67.12],[-134.5,66.88],[-136.38,65.75],[-135.5,65.12],[-134.5,65.12],[-134.0,65.62],[-131.75,65.62],[-127.75,65.12],[-126.25,64.12]]]}},{"type":"Feature","properties":{"kind":"blob","cls":4,"id":35},"geometry":{"type":"Polygon","coordinates":[[[-63.75,-19.12],[-63.5,-19.38],[-63.12,-19.0],[-63.38,-17.5],[-64.5,-16.62],[-66.0,-16.38],[-65.5,-17.12],[-64.0,-17.62],[-63.38,-18.25],[-63.75,-19.12]]]}},{"type":"Feature","properties":{"kind":"blob","cls":4,"id":36},"geometry":{"type":"Polygon","coordinates":[[[-94.5,-44.12],[-93.0,-43.38],[-92.62,-42.75],[-92.88,-41.25],[-94.5,-40.38],[-96.0,-40.38],[-97.5,-41.12],[-97.88,-42.75],[-97.5,-43.38],[-94.5,-44.12]]]}},{"type":"Feature","properties":{"kind":"blob","cls":5,"id":37},"geometry":{"type":"Polygon","coordinates":[[[-66.25,-16.12],[-65.62,-15.25],[-65.88,-13.75],[-67.25,-12.88],[-68.5,-13.12],[-69.12,-13.75],[-68.5,-13.88],[-67.88,-15.25],[-66.25,-16.12]]]}},{"type":"Feature","properties":{"kind":"blob","cls":4,"id":38},"geometry":{"type":"Polygon","coordinates":[[[-92.5,-38.38],[-90.5,-38.62],[-89.5,-38.12],[-88.62,-37.25],[-88.62,-35.75],[-90.25,-34.62],[-92.0,-34.62],[-93.0,-35.12],[-93.88,-36.0],[-93.88,-37.5],[-92.5,-38.38]]]}},{"type":"Feature","properties":{"kind":"blob","cls":4,"id":39},"geometry":{"type":"MultiPolygon","coordinates":[[[[-64.25,-22.62],[-64.38,-22.75],[-64.25,-22.88],[-64.25,-22.62]]],[[[-64.0,-22.62],[-63.38,-22.0],[-63.5,-20.88],[-64.12,-21.0],[-63.62,-21.5],[-64.0,-22.62]]]]}},{"type":"Feature","properties":{"kind":"blob","cls":4,"id":40},"geometry":{"type":"Polygon","coordinates":[[[78.0,55.12],[79.75,55.62],[80.88,56.75],[80.62,58.0],[78.25,59.12],[76.25,59.12],[74.25,58.38],[73.62,57.5],[73.88,56.5],[75.5,55.38],[78.0,55.12]]]}},{"type":"Feature","properties":{"kind":"blob","cls":3,"id":41},"geometry":{"type":"Polygon","coordinates":[[[-67.25,-30.88],[-66.12,-29.5],[-66.75,-28.12],[-66.62,-29.0],[-67.38,-29.75],[-67.25,-30.88]]]}},{"type":"Feature","properties":{"kind":"blob","cls":4,"id":42},"geometry":{"type":"MultiPolygon","coordinates":[[[[-65.5,-27.12],[-64.88,-26.75],[-65.25,-26.12],[-65.38,-26.25],[-65.5,-27.12]]],[[[-64.75,-26.62],[-64.38,-26.25],[-64.5,-24.62],[-65.12,-25.75],[-64.75,-26.62]]],[[[-64.62,-24.5],[-64.75,-24.38],[-64.88,-24.5],[-64.62,-24.5]]]]}},{"type":"Feature","properties":{"kind":"blob","cls":3,"id":43},"geometry":{"type":"Polygon","coordinates":[[[-68.25,-31.88],[-68.12,-31.25],[-67.62,-31.0],[-68.25,-29.88],[-68.62,-30.75],[-68.25,-31.88]]]}},{"type":"Feature","properties":{"kind":"blob","cls":3,"id":44},"geometry":{"type":"Polygon","coordinates":[[[-66.25,-35.62],[-64.62,-34.75],[-64.38,-33.25],[-64.75,-32.62],[-65.0,-33.12],[-65.5,-32.12],[-67.0,-31.88],[-68.62,-32.75],[-68.88,-33.5],[-68.38,-33.5],[-68.38,-35.0],[-66.25,-35.62]],[[-66.38,-32.75],[-65.75,-32.38],[-65.62,-33.0],[-66.38,-32.75]]]}},{"type":"Feature","properties":{"kind":"blob","cls":4,"id":45},"geometry":{"type":"Polygon","coordinates":[[[-121.75,57.12],[-120.62,58.0],[-120.62,59.0],[-123.0,60.38],[-124.75,60.38],[-124.62,59.0],[-123.38,58.25],[-123.25,57.62],[-121.75,57.12]]]}},{"type":"Feature","properties":{"kind":"blob","cls":5,"id":46},"geometry":{"type":"MultiPolygon","coordinates":[[[[68.75,26.62],[69.62,27.5],[70.0,28.62],[71.0,28.38],[73.25,29.38],[74.12,30.5],[74.12,31.5],[73.62,32.25],[72.25,32.38],[70.5,31.88],[69.75,29.62],[68.75,29.62],[67.75,30.12],[67.12,28.75],[67.12,27.5],[66.38,26.75],[68.75,26.62]]],[[[68.75,30.12],[68.62,30.0],[68.75,29.88],[68.75,30.12]]]]}},{"type":"Feature","properties":{"kind":"blob","cls":0,"id":47},"geometry":{"type":"Polygon","coordinates":[[[-77.75,79.62],[-80.62,80.0],[-74.25,81.12],[-69.0,80.88],[-68.38,81.25],[-68.38,81.75],[-69.0,82.12],[-71.0,82.12],[-80.25,81.12],[-83.25,81.12],[-84.12,81.5],[-82.5,81.88],[-79.0,81.88],[-79.62,82.25],[-78.5,82.62],[-74.75,82.38],[-71.88,82.75],[-79.75,83.38],[-93.5,82.12],[-94.12,81.75],[-94.0,81.12],[-92.0,80.38],[-77.75,79.62]]]}},{"type":"Feature","properties":{"kind":"blob","cls":4,"id":48},"geometry":{"type":"Polygon","coordinates":[[[132.5,39.12],[133.62,40.25],[133.62,41.75],[131.75,43.62],[130.0,43.88],[128.5,43.12],[128.12,42.5],[128.75,42.62],[129.0,41.88],[129.62,42.0],[129.12,41.0],[128.38,40.5],[129.5,39.38],[132.5,39.12]]]}},{"type":"Feature","properties":{"kind":"blob","cls":4,"id":49},"geometry":{"type":"MultiPolygon","coordinates":[[[[82.25,44.38],[83.5,44.62],[84.0,45.38],[83.0,45.12],[82.38,45.75],[82.75,46.12],[83.75,46.12],[84.12,46.75],[81.25,47.12],[80.25,47.62],[79.12,46.75],[78.88,45.75],[79.25,45.38],[81.75,45.88],[82.38,45.25],[81.38,45.0],[82.25,44.38]]],[[[81.0,47.88],[80.88,47.75],[81.0,47.62],[81.0,47.88]]]]}},{"type":"Feature","properties":{"kind":"blob","cls":4,"id":50},"geometry":{"type":"Polygon","coordinates":[[[-148.0,75.12],[-144.0,76.12],[-143.38,77.25],[-144.0,77.88],[-145.75,78.38],[-151.0,79.12],[-158.25,78.88],[-160.75,78.38],[-162.12,77.5],[-162.12,76.75],[-161.5,76.12],[-157.75,75.12],[-148.0,75.12]],[[-160.25,76.12],[-161.12,77.0],[-159.25,77.88],[-155.5,78.12],[-152.75,77.88],[-150.88,77.0],[-152.25,76.12],[-160.25,76.12]]]}},{"type":"Feature","properties":{"kind":"blob","cls":0,"id":51},"geometry":{"type":"Polygon","coordinates":[[[42.75,11.88],[43.12,12.5],[42.88,14.25],[41.25,15.38],[40.0,15.12],[40.12,13.0],[41.25,13.12],[42.75,11.88]]]}},{"type":"Feature","properties":{"kind":"blob","cls":4,"id":52},"geometry":{"type":"Polygon","coordinates":[[[39.0,22.62],[39.88,23.5],[39.88,24.75],[39.0,25.88],[37.75,26.12],[36.12,25.0],[36.12,23.5],[36.75,22.88],[39.0,22.62]],[[39.0,24.38],[38.88,24.5],[39.0,24.62],[39.0,24.38]],[[39.5,23.62],[39.38,23.75],[39.5,23.88],[39.5,23.62]]]}},{"type":"Feature","properties":{"kind":"blob","cls":1,"id":53},"geometry":{"type":"Polygon","coordinates":[[[65.5,28.12],[65.5,28.88],[65.38,28.75],[65.5,28.12]]]}},{"type":"Feature","properties":{"kind":"blob","cls":5,"id":54},"geometry":{"type":"Polygon","coordinates":[[[86.5,24.88],[88.12,26.0],[88.38,26.75],[85.25,27.38],[84.5,27.88],[83.0,27.88],[81.0,28.88],[80.12,28.0],[79.88,27.0],[81.0,25.38],[86.5,24.88]]]}},{"type":"Feature","properties":{"kind":"blob","cls":3,"id":55},"geometry":{"type":"Polygon","coordinates":[[[58.75,28.62],[59.88,29.25],[59.88,31.0],[59.5,31.38],[58.75,31.38],[57.88,30.75],[57.88,29.75],[58.38,29.5],[58.75,28.62]]]}},{"type":"Feature","properties":{"kind":"blob","cls":1,"id":56},"geometry":{"type":"Polygon","coordinates":[[[62.62,30.0],[62.75,29.88],[62.88,30.0],[62.62,30.0]]]}},{"type":"Feature","properties":{"kind":"blob","cls":1,"id":57},"geometry":{"type":"Polygon","coordinates":[[[65.62,29.25],[65.75,29.12],[65.88,29.5],[65.62,29.25]]]}},{"type":"Feature","properties":{"kind":"blob","cls":4,"id":58},"geometry":{"type":"Polygon","coordinates":[[[82.88,47.5],[83.0,47.38],[83.12,47.5],[82.88,47.5]]]}},{"type":"Feature","properties":{"kind":"blob","cls":4,"id":59},"geometry":{"type":"Polygon","coordinates":[[[82.12,47.75],[82.25,47.62],[82.38,47.75],[82.12,47.75]]]}},{"type":"Feature","properties":{"kind":"blob","cls":3,"id":60},"geometry":{"type":"Polygon","coordinates":[[[-71.0,-31.12],[-71.0,-29.38],[-71.38,-30.0],[-71.0,-31.12]]]}},{"type":"Feature","properties":{"kind":"blob","cls":3,"id":61},"geometry":{"type":"Polygon","coordinates":[[[60.38,31.0],[60.5,30.88],[60.62,31.25],[60.38,31.0]]]}},{"type":"Feature","properties":{"kind":"blob","cls":3,"id":62},"geometry":{"type":"Polygon","coordinates":[[[65.75,37.12],[67.0,37.12],[68.38,38.5],[66.38,37.75],[66.62,38.75],[67.12,39.0],[66.88,39.25],[68.5,40.12],[66.75,39.88],[65.62,38.75],[65.38,37.75],[65.75,37.12]]]}},{"type":"Feature","properties":{"kind":"center","id":1,"lat":-61.25,"lon":1.25,"mslp":938.5,"hvtl":291.1,"hvtu":-173.5,"hb":98.1,"idx":1.0,"cls":3,"psfc":938.5,"terrain":false,"radius_km":200,"name":"asym shallow warm","track":"T04"},"geometry":{"type":"Point","coordinates":[1.25,-61.25]}},{"type":"Feature","properties":{"kind":"center","id":2,"lat":-68.0,"lon":-121.25,"mslp":939.8,"hvtl":-59.9,"hvtu":-31.4,"hb":19.0,"idx":-1.4,"cls":4,"psfc":939.8,"terrain":false,"radius_km":200,"name":"asym cold","track":"T05"},"geometry":{"type":"Point","coordinates":[-121.25,-68.0]}},{"type":"Feature","properties":{"kind":"center","id":3,"lat":23.75,"lon":146.5,"mslp":941.7,"hvtl":142.8,"hvtu":247.0,"hb":-3.5,"idx":2.8,"cls":0,"psfc":941.7,"terrain":false,"radius_km":200,"name":"sym deep warm","track":"T07"},"geometry":{"type":"Point","coordinates":[146.5,23.75]}},{"type":"Feature","properties":{"kind":"center","id":4,"lat":-61.25,"lon":-142.75,"mslp":950.4,"hvtl":280.4,"hvtu":-36.5,"hb":35.8,"idx":1.6,"cls":3,"psfc":950.4,"terrain":false,"radius_km":200,"name":"asym shallow warm","track":"T10"},"geometry":{"type":"Point","coordinates":[-142.75,-61.25]}},{"type":"Feature","properties":{"kind":"center","id":5,"lat":-80.75,"lon":-141.5,"mslp":958.8,"hvtl":-368.0,"hvtu":-83.9,"hb":27.3,"idx":-2.7,"cls":4,"psfc":917.6,"terrain":false,"radius_km":200,"name":"asym cold","track":"T25"},"geometry":{"type":"Point","coordinates":[-141.5,-80.75]}},{"type":"Feature","properties":{"kind":"center","id":6,"lat":-53.0,"lon":122.75,"mslp":959.5,"hvtl":-133.5,"hvtu":-184.5,"hb":44.6,"idx":-2.7,"cls":4,"psfc":959.5,"terrain":false,"radius_km":200,"name":"asym cold"},"geometry":{"type":"Point","coordinates":[122.75,-53.0]}},{"type":"Feature","properties":{"kind":"center","id":7,"lat":-77.5,"lon":169.25,"mslp":962.0,"hvtl":-236.0,"hvtu":42.7,"hb":45.6,"idx":-1.6,"cls":6,"psfc":900.8,"terrain":false,"radius_km":200,"name":"shallow cold","track":"T13"},"geometry":{"type":"Point","coordinates":[169.25,-77.5]}},{"type":"Feature","properties":{"kind":"center","id":8,"lat":-69.75,"lon":167.25,"mslp":965.1,"hvtl":-430.7,"hvtu":-280.3,"hb":105.9,"idx":-3.0,"cls":4,"psfc":965.1,"terrain":false,"radius_km":200,"name":"asym cold","track":"T29"},"geometry":{"type":"Point","coordinates":[167.25,-69.75]}},{"type":"Feature","properties":{"kind":"center","id":9,"lat":-64.5,"lon":136.25,"mslp":965.6,"hvtl":-163.2,"hvtu":-300.9,"hb":72.9,"idx":-2.8,"cls":4,"psfc":965.6,"terrain":false,"radius_km":200,"name":"asym cold","track":"T27"},"geometry":{"type":"Point","coordinates":[136.25,-64.5]}},{"type":"Feature","properties":{"kind":"center","id":10,"lat":-62.25,"lon":105.75,"mslp":967.8,"hvtl":97.4,"hvtu":-196.8,"hb":-3.9,"idx":0.5,"cls":1,"psfc":967.8,"terrain":false,"radius_km":200,"name":"sym shallow warm","track":"T21"},"geometry":{"type":"Point","coordinates":[105.75,-62.25]}},{"type":"Feature","properties":{"kind":"center","id":11,"lat":24.25,"lon":-179.0,"mslp":968.7,"hvtl":92.4,"hvtu":340.3,"hb":-0.5,"idx":2.5,"cls":0,"psfc":968.7,"terrain":false,"radius_km":200,"name":"sym deep warm","track":"T40"},"geometry":{"type":"Point","coordinates":[-179.0,24.25]}},{"type":"Feature","properties":{"kind":"center","id":12,"lat":-57.5,"lon":-110.25,"mslp":972.0,"hvtl":-255.1,"hvtu":-250.8,"hb":52.5,"idx":-3.0,"cls":4,"psfc":972.0,"terrain":false,"radius_km":200,"name":"asym cold","track":"T34"},"geometry":{"type":"Point","coordinates":[-110.25,-57.5]}},{"type":"Feature","properties":{"kind":"center","id":13,"lat":55.5,"lon":-167.5,"mslp":972.8,"hvtl":8.7,"hvtu":-113.4,"hb":3.9,"idx":-0.6,"cls":1,"psfc":972.8,"terrain":false,"radius_km":200,"name":"sym shallow warm","track":"T35"},"geometry":{"type":"Point","coordinates":[-167.5,55.5]}},{"type":"Feature","properties":{"kind":"center","id":14,"lat":-57.25,"lon":71.0,"mslp":973.9,"hvtl":110.8,"hvtu":-189.4,"hb":0.2,"idx":0.7,"cls":1,"psfc":973.9,"terrain":false,"radius_km":200,"name":"sym shallow warm","track":"T49"},"geometry":{"type":"Point","coordinates":[71.0,-57.25]}},{"type":"Feature","properties":{"kind":"center","id":15,"lat":70.5,"lon":-0.25,"mslp":978.8,"hvtl":47.1,"hvtu":-31.6,"hb":21.8,"idx":0.6,"cls":3,"psfc":978.8,"terrain":false,"radius_km":200,"name":"asym shallow warm","track":"T41"},"geometry":{"type":"Point","coordinates":[-0.25,70.5]}},{"type":"Feature","properties":{"kind":"center","id":16,"lat":-68.0,"lon":80.75,"mslp":979.3,"hvtl":-111.3,"hvtu":-38.7,"hb":14.9,"idx":-2.0,"cls":4,"psfc":924.6,"terrain":false,"radius_km":200,"name":"asym cold"},"geometry":{"type":"Point","coordinates":[80.75,-68.0]}},{"type":"Feature","properties":{"kind":"center","id":17,"lat":-68.25,"lon":79.5,"mslp":979.6,"hvtl":-110.3,"hvtu":-38.4,"hb":17.0,"idx":-2.0,"cls":4,"psfc":912.6,"terrain":false,"radius_km":200,"name":"asym cold","track":"T52"},"geometry":{"type":"Point","coordinates":[79.5,-68.25]}},{"type":"Feature","properties":{"kind":"center","id":18,"lat":20.25,"lon":-113.75,"mslp":979.6,"hvtl":84.2,"hvtu":206.3,"hb":6.2,"idx":2.3,"cls":0,"psfc":979.6,"terrain":false,"radius_km":200,"name":"sym deep warm","track":"T48"},"geometry":{"type":"Point","coordinates":[-113.75,20.25]}},{"type":"Feature","properties":{"kind":"center","id":19,"lat":-50.75,"lon":76.25,"mslp":982.7,"hvtl":-322.2,"hvtu":-521.9,"hb":77.4,"idx":-3.0,"cls":4,"psfc":982.7,"terrain":false,"radius_km":200,"name":"asym cold","track":"T12"},"geometry":{"type":"Point","coordinates":[76.25,-50.75]}},{"type":"Feature","properties":{"kind":"center","id":20,"lat":60.25,"lon":-25.5,"mslp":986.1,"hvtl":-161.9,"hvtu":-440.4,"hb":68.6,"idx":-2.8,"cls":4,"psfc":986.1,"terrain":false,"radius_km":200,"name":"asym cold","track":"T55"},"geometry":{"type":"Point","coordinates":[-25.5,60.25]}},{"type":"Feature","properties":{"kind":"center","id":21,"lat":78.25,"lon":32.0,"mslp":987.1,"hvtl":-22.5,"hvtu":-173.9,"hb":34.1,"idx":-1.4,"cls":4,"psfc":987.1,"terrain":false,"radius_km":200,"name":"asym cold","track":"T61"},"geometry":{"type":"Point","coordinates":[32.0,78.25]}},{"type":"Feature","properties":{"kind":"center","id":22,"lat":57.5,"lon":63.5,"mslp":991.0,"hvtl":-35.0,"hvtu":-183.9,"hb":48.1,"idx":-1.6,"cls":4,"psfc":976.8,"terrain":false,"radius_km":200,"name":"asym cold","track":"T77"},"geometry":{"type":"Point","coordinates":[63.5,57.5]}},{"type":"Feature","properties":{"kind":"center","id":23,"lat":62.5,"lon":-153.5,"mslp":991.1,"hvtl":-23.3,"hvtu":-80.8,"hb":-1.9,"idx":-1.1,"cls":5,"psfc":912.6,"terrain":false,"radius_km":200,"name":"sym cold"},"geometry":{"type":"Point","coordinates":[-153.5,62.5]}},{"type":"Feature","properties":{"kind":"center","id":24,"lat":61.75,"lon":-149.5,"mslp":991.4,"hvtl":-77.2,"hvtu":-78.9,"hb":8.0,"idx":-2.0,"cls":5,"psfc":920.8,"terrain":false,"radius_km":200,"name":"sym cold"},"geometry":{"type":"Point","coordinates":[-149.5,61.75]}},{"type":"Feature","properties":{"kind":"center","id":25,"lat":67.5,"lon":121.0,"mslp":991.5,"hvtl":-118.2,"hvtu":-43.9,"hb":-5.9,"idx":-2.1,"cls":5,"psfc":954.8,"terrain":false,"radius_km":200,"name":"sym cold","track":"T56"},"geometry":{"type":"Point","coordinates":[121.0,67.5]}},{"type":"Feature","properties":{"kind":"center","id":26,"lat":61.0,"lon":-37.5,"mslp":991.7,"hvtl":72.6,"hvtu":-261.6,"hb":-8.6,"idx":0.3,"cls":1,"psfc":991.7,"terrain":false,"radius_km":200,"name":"sym shallow warm","track":"T78"},"geometry":{"type":"Point","coordinates":[-37.5,61.0]}},{"type":"Feature","properties":{"kind":"center","id":27,"lat":62.75,"lon":135.75,"mslp":991.7,"hvtl":-232.4,"hvtu":-221.9,"hb":57.4,"idx":-2.9,"cls":4,"psfc":971.6,"terrain":false,"radius_km":200,"name":"asym cold","track":"T79"},"geometry":{"type":"Point","coordinates":[135.75,62.75]}},{"type":"Feature","properties":{"kind":"center","id":28,"lat":69.0,"lon":-57.5,"mslp":993.8,"hvtl":-0.3,"hvtu":-21.5,"hb":24.5,"idx":-0.2,"cls":4,"psfc":993.8,"terrain":false,"radius_km":200,"name":"asym cold","track":"T69"},"geometry":{"type":"Point","coordinates":[-57.5,69.0]}},{"type":"Feature","properties":{"kind":"center","id":29,"lat":-38.0,"lon":-47.25,"mslp":997.1,"hvtl":126.4,"hvtu":-264.5,"hb":47.3,"idx":0.7,"cls":3,"psfc":997.1,"terrain":false,"radius_km":200,"name":"asym shallow warm","track":"T16"},"geometry":{"type":"Point","coordinates":[-47.25,-38.0]}},{"type":"Feature","properties":{"kind":"center","id":30,"lat":52.25,"lon":-81.75,"mslp":997.5,"hvtl":3.9,"hvtu":-244.3,"hb":37.0,"idx":-0.9,"cls":3,"psfc":996.1,"terrain":false,"radius_km":200,"name":"asym shallow warm","track":"T57"},"geometry":{"type":"Point","coordinates":[-81.75,52.25]}},{"type":"Feature","properties":{"kind":"center","id":31,"lat":-51.75,"lon":-60.0,"mslp":998.0,"hvtl":52.5,"hvtu":-21.0,"hb":12.1,"idx":0.8,"cls":3,"psfc":986.0,"terrain":false,"radius_km":200,"name":"asym shallow warm","track":"T86"},"geometry":{"type":"Point","coordinates":[-60.0,-51.75]}},{"type":"Feature","properties":{"kind":"center","id":32,"lat":68.0,"lon":-31.0,"mslp":998.2,"hvtl":129.8,"hvtu":-192.1,"hb":3.8,"idx":0.8,"cls":1,"psfc":997.4,"terrain":false,"radius_km":200,"name":"sym shallow warm"},"geometry":{"type":"Point","coordinates":[-31.0,68.0]}},{"type":"Feature","properties":{"kind":"center","id":33,"lat":73.25,"lon":-55.75,"mslp":999.4,"hvtl":-95.4,"hvtu":-29.3,"hb":36.3,"idx":-1.8,"cls":4,"psfc":994.3,"terrain":false,"radius_km":200,"name":"asym cold","track":"T75"},"geometry":{"type":"Point","coordinates":[-55.75,73.25]}},{"type":"Feature","properties":{"kind":"center","id":34,"lat":65.0,"lon":-127.5,"mslp":999.5,"hvtl":-33.5,"hvtu":-266.3,"hb":51.0,"idx":-1.6,"cls":4,"psfc":916.5,"terrain":false,"radius_km":200,"name":"asym cold","track":"T85"},"geometry":{"type":"Point","coordinates":[-127.5,65.0]}},{"type":"Feature","properties":{"kind":"center","id":35,"lat":-18.75,"lon":-63.25,"mslp":1001.4,"hvtl":-90.1,"hvtu":-4.7,"hb":27.9,"idx":-1.5,"cls":4,"psfc":947.4,"terrain":false,"radius_km":200,"name":"asym cold","track":"T87"},"geometry":{"type":"Point","coordinates":[-63.25,-18.75]}},{"type":"Feature","properties":{"kind":"center","id":36,"lat":-42.25,"lon":-95.25,"mslp":1001.5,"hvtl":-49.4,"hvtu":-122.5,"hb":23.6,"idx":-1.8,"cls":4,"psfc":1001.5,"terrain":false,"radius_km":200,"name":"asym cold"},"geometry":{"type":"Point","coordinates":[-95.25,-42.25]}},{"type":"Feature","properties":{"kind":"center","id":37,"lat":-15.75,"lon":-66.0,"mslp":1001.7,"hvtl":-88.1,"hvtu":-57.0,"hb":0.8,"idx":-1.9,"cls":5,"psfc":977.4,"terrain":false,"radius_km":200,"name":"sym cold"},"geometry":{"type":"Point","coordinates":[-66.0,-15.75]}},{"type":"Feature","properties":{"kind":"center","id":38,"lat":-36.75,"lon":-91.5,"mslp":1001.9,"hvtl":-131.3,"hvtu":-344.4,"hb":31.0,"idx":-2.7,"cls":4,"psfc":1001.9,"terrain":false,"radius_km":200,"name":"asym cold","track":"T92"},"geometry":{"type":"Point","coordinates":[-91.5,-36.75]}},{"type":"Feature","properties":{"kind":"center","id":39,"lat":-21.0,"lon":-64.0,"mslp":1002.2,"hvtl":-121.9,"hvtu":-23.1,"hb":46.1,"idx":-1.9,"cls":4,"psfc":913.4,"terrain":false,"radius_km":200,"name":"asym cold"},"geometry":{"type":"Point","coordinates":[-64.0,-21.0]}},{"type":"Feature","properties":{"kind":"center","id":40,"lat":57.25,"lon":76.75,"mslp":1003.7,"hvtl":-299.2,"hvtu":-322.2,"hb":64.5,"idx":-3.0,"cls":4,"psfc":987.9,"terrain":false,"radius_km":200,"name":"asym cold","track":"T91"},"geometry":{"type":"Point","coordinates":[76.75,57.25]}},{"type":"Feature","properties":{"kind":"center","id":41,"lat":-28.25,"lon":-66.75,"mslp":1003.9,"hvtl":5.3,"hvtu":-191.0,"hb":28.4,"idx":-0.9,"cls":3,"psfc":915.5,"terrain":false,"radius_km":200,"name":"asym shallow warm","track":"T93"},"geometry":{"type":"Point","coordinates":[-66.75,-28.25]}},{"type":"Feature","properties":{"kind":"center","id":42,"lat":-24.5,"lon":-64.75,"mslp":1004.3,"hvtl":-160.4,"hvtu":-144.2,"hb":41.5,"idx":-2.7,"cls":4,"psfc":919.7,"terrain":false,"radius_km":200,"name":"asym cold","track":"T98"},"geometry":{"type":"Point","coordinates":[-64.75,-24.5]}},{"type":"Feature","properties":{"kind":"center","id":43,"lat":-30.0,"lon":-68.25,"mslp":1004.4,"hvtl":39.9,"hvtu":-257.5,"hb":24.7,"idx":-0.2,"cls":3,"psfc":900.2,"terrain":true,"radius_km":200,"name":"asym shallow warm"},"geometry":{"type":"Point","coordinates":[-68.25,-30.0]}},{"type":"Feature","properties":{"kind":"center","id":44,"lat":-33.75,"lon":-66.75,"mslp":1004.6,"hvtl":94.9,"hvtu":-278.8,"hb":29.7,"idx":0.5,"cls":3,"psfc":956.6,"terrain":false,"radius_km":200,"name":"asym shallow warm"},"geometry":{"type":"Point","coordinates":[-66.75,-33.75]}},{"type":"Feature","properties":{"kind":"center","id":45,"lat":58.5,"lon":-123.75,"mslp":1004.9,"hvtl":-214.3,"hvtu":-251.3,"hb":48.6,"idx":-2.9,"cls":4,"psfc":906.4,"terrain":true,"radius_km":200,"name":"asym cold"},"geometry":{"type":"Point","coordinates":[-123.75,58.5]}},{"type":"Feature","properties":{"kind":"center","id":46,"lat":28.5,"lon":67.5,"mslp":1005.5,"hvtl":-14.5,"hvtu":-52.6,"hb":3.5,"idx":-0.8,"cls":5,"psfc":996.8,"terrain":false,"radius_km":200,"name":"sym cold","track":"T111"},"geometry":{"type":"Point","coordinates":[67.5,28.5]}},{"type":"Feature","properties":{"kind":"center","id":47,"lat":81.0,"lon":-83.0,"mslp":1005.6,"hvtl":11.6,"hvtu":5.1,"hb":1.8,"idx":0.3,"cls":0,"psfc":916.6,"terrain":false,"radius_km":200,"name":"sym deep warm"},"geometry":{"type":"Point","coordinates":[-83.0,81.0]}},{"type":"Feature","properties":{"kind":"center","id":48,"lat":41.0,"lon":131.25,"mslp":1007.3,"hvtl":-114.4,"hvtu":-432.6,"hb":50.6,"idx":-2.6,"cls":4,"psfc":1007.3,"terrain":false,"radius_km":200,"name":"asym cold","track":"T26"},"geometry":{"type":"Point","coordinates":[131.25,41.0]}},{"type":"Feature","properties":{"kind":"center","id":49,"lat":46.0,"lon":81.75,"mslp":1007.4,"hvtl":-213.5,"hvtu":-95.5,"hb":30.1,"idx":-2.7,"cls":4,"psfc":966.9,"terrain":false,"radius_km":200,"name":"asym cold"},"geometry":{"type":"Point","coordinates":[81.75,46.0]}},{"type":"Feature","properties":{"kind":"center","id":50,"lat":76.25,"lon":-152.0,"mslp":1007.5,"hvtl":-73.6,"hvtu":-59.3,"hb":13.1,"idx":-1.8,"cls":4,"psfc":1007.5,"terrain":false,"radius_km":200,"name":"asym cold","track":"T117"},"geometry":{"type":"Point","coordinates":[-152.0,76.25]}},{"type":"Feature","properties":{"kind":"center","id":51,"lat":13.5,"lon":41.0,"mslp":1009.0,"hvtl":131.4,"hvtu":14.6,"hb":5.9,"idx":1.9,"cls":0,"psfc":1012.6,"terrain":false,"radius_km":200,"name":"sym deep warm"},"geometry":{"type":"Point","coordinates":[41.0,13.5]}},{"type":"Feature","properties":{"kind":"center","id":52,"lat":24.25,"lon":38.0,"mslp":1009.7,"hvtl":-14.7,"hvtu":-93.1,"hb":18.1,"idx":-1.0,"cls":4,"psfc":1005.3,"terrain":false,"radius_km":200,"name":"asym cold"},"geometry":{"type":"Point","coordinates":[38.0,24.25]}},{"type":"Feature","properties":{"kind":"center","id":53,"lat":28.5,"lon":65.5,"mslp":1009.7,"hvtl":15.0,"hvtu":-47.1,"hb":8.9,"idx":-0.1,"cls":1,"psfc":929.9,"terrain":false,"radius_km":200,"name":"sym shallow warm","track":"T105"},"geometry":{"type":"Point","coordinates":[65.5,28.5]}},{"type":"Feature","properties":{"kind":"center","id":54,"lat":27.25,"lon":81.25,"mslp":1009.8,"hvtl":-6.5,"hvtu":-118.5,"hb":3.1,"idx":-1.0,"cls":5,"psfc":996.1,"terrain":false,"radius_km":200,"name":"sym cold"},"geometry":{"type":"Point","coordinates":[81.25,27.25]}},{"type":"Feature","properties":{"kind":"center","id":55,"lat":30.0,"lon":59.0,"mslp":1010.6,"hvtl":299.5,"hvtu":-93.2,"hb":30.1,"idx":1.3,"cls":3,"psfc":973.2,"terrain":false,"radius_km":200,"name":"asym shallow warm","track":"T126"},"geometry":{"type":"Point","coordinates":[59.0,30.0]}},{"type":"Feature","properties":{"kind":"center","id":56,"lat":30.0,"lon":62.75,"mslp":1010.7,"hvtl":266.8,"hvtu":-75.9,"hb":3.6,"idx":1.3,"cls":1,"psfc":944.7,"terrain":false,"radius_km":200,"name":"sym shallow warm","track":"T109"},"geometry":{"type":"Point","coordinates":[62.75,30.0]}},{"type":"Feature","properties":{"kind":"center","id":57,"lat":29.5,"lon":65.75,"mslp":1011.1,"hvtl":23.0,"hvtu":-57.8,"hb":7.8,"idx":-0.1,"cls":1,"psfc":911.6,"terrain":true,"radius_km":200,"name":"sym shallow warm"},"geometry":{"type":"Point","coordinates":[65.75,29.5]}},{"type":"Feature","properties":{"kind":"center","id":58,"lat":47.5,"lon":83.0,"mslp":1011.3,"hvtl":-174.1,"hvtu":-100.0,"hb":40.0,"idx":-2.6,"cls":4,"psfc":910.7,"terrain":true,"radius_km":200,"name":"asym cold"},"geometry":{"type":"Point","coordinates":[83.0,47.5]}},{"type":"Feature","properties":{"kind":"center","id":59,"lat":47.75,"lon":82.25,"mslp":1012.6,"hvtl":-191.0,"hvtu":-122.3,"hb":50.2,"idx":-2.8,"cls":4,"psfc":906.5,"terrain":true,"radius_km":200,"name":"asym cold"},"geometry":{"type":"Point","coordinates":[82.25,47.75]}},{"type":"Feature","properties":{"kind":"center","id":60,"lat":-30.5,"lon":-71.25,"mslp":1014.1,"hvtl":67.1,"hvtu":-269.4,"hb":36.1,"idx":0.2,"cls":3,"psfc":960.8,"terrain":false,"radius_km":200,"name":"asym shallow warm"},"geometry":{"type":"Point","coordinates":[-71.25,-30.5]}},{"type":"Feature","properties":{"kind":"center","id":61,"lat":31.25,"lon":60.5,"mslp":1015.6,"hvtl":342.3,"hvtu":-110.4,"hb":60.8,"idx":1.2,"cls":3,"psfc":917.5,"terrain":true,"radius_km":200,"name":"asym shallow warm"},"geometry":{"type":"Point","coordinates":[60.5,31.25]}},{"type":"Feature","properties":{"kind":"center","id":62,"lat":38.0,"lon":67.75,"mslp":1016.7,"hvtl":79.7,"hvtu":-216.0,"hb":71.2,"idx":0.4,"cls":3,"psfc":961.4,"terrain":false,"radius_km":200,"name":"asym shallow warm","track":"T128"},"geometry":{"type":"Point","coordinates":[67.75,38.0]}}]}