{"type":"FeatureCollection","features":[{"type":"Feature","properties":{"kind":"blob","cls":0,"id":1},"geometry":{"type":"Polygon","coordinates":[[[-135.5,-69.38],[-133.25,-68.88],[-131.88,-68.0],[-131.62,-67.0],[-132.5,-66.12],[-133.75,-65.62],[-138.0,-65.38],[-140.25,-65.88],[-141.62,-67.0],[-141.0,-68.38],[-139.25,-69.12],[-135.5,-69.38]],[[-138.0,-68.12],[-139.0,-67.88],[-139.12,-67.5],[-137.5,-67.38],[-136.88,-67.75],[-138.0,-68.12]]]}},{"type":"Feature","properties":{"kind":"blob","cls":1,"id":2},"geometry":{"type":"Polygon","coordinates":[[[83.5,-63.88],[85.75,-63.12],[86.62,-62.25],[86.62,-60.25],[84.75,-58.88],[82.25,-58.12],[77.25,-58.38],[74.88,-60.0],[74.88,-61.0],[75.75,-62.12],[78.25,-63.38],[83.5,-63.88]],[[82.5,-61.38],[81.38,-61.0],[82.75,-60.38],[85.75,-60.38],[86.12,-60.75],[85.25,-61.12],[82.5,-61.38]]]}},{"type":"Feature","properties":{"kind":"blob","cls":4,"id":3},"geometry":{"type":"Polygon","coordinates":[[[170.25,-67.38],[176.0,-66.38],[178.12,-65.0],[178.12,-64.0],[176.25,-62.88],[173.5,-62.38],[168.0,-62.38],[165.25,-62.88],[162.38,-64.5],[162.12,-65.25],[163.0,-66.38],[165.25,-67.12],[170.25,-67.38]]]}},{"type":"Feature","properties":{"kind":"blob","cls":3,"id":4},"geometry":{"type":"Polygon","coordinates":[[[-50.25,-73.38],[-43.0,-73.38],[-40.0,-72.38],[-39.38,-71.25],[-40.0,-70.62],[-42.0,-69.88],[-49.75,-69.62],[-52.5,-70.12],[-54.38,-71.25],[-54.38,-72.25],[-53.5,-72.88],[-50.25,-73.38]]]}},{"type":"Feature","properties":{"kind":"blob","cls":4,"id":5},"geometry":{"type":"Polygon","coordinates":[[[-56.25,-69.88],[-52.25,-69.88],[-50.75,-69.38],[-49.88,-68.5],[-49.88,-68.0],[-50.75,-67.12],[-52.25,-66.62],[-56.0,-66.38],[-59.0,-67.12],[-59.88,-68.0],[-59.88,-68.5],[-59.0,-69.38],[-56.25,-69.88]]]}},{"type":"Feature","properties":{"kind":"blob","cls":1,"id":6},"geometry":{"type":"Polygon","coordinates":[[[144.0,-63.62],[145.88,-62.25],[145.88,-61.75],[143.75,-60.12],[139.25,-60.12],[137.38,-61.5],[137.38,-62.25],[139.25,-63.62],[144.0,-63.62]]]}},{"type":"Feature","properties":{"kind":"blob","cls":0,"id":7},"geometry":{"type":"MultiPolygon","coordinates":[[[[-97.75,10.88],[-97.88,10.75],[-97.5,10.62],[-97.75,10.88]]],[[[-97.38,11.0],[-96.75,10.88],[-95.88,12.0],[-96.12,13.5],[-97.5,14.38],[-98.75,14.12],[-99.38,13.5],[-99.62,12.5],[-98.75,12.88],[-97.5,12.62],[-97.12,12.25],[-97.38,11.0]]]]}},{"type":"Feature","properties":{"kind":"blob","cls":4,"id":8},"geometry":{"type":"Polygon","coordinates":[[[31.0,-63.12],[32.62,-62.0],[32.62,-60.75],[31.0,-59.62],[26.0,-59.12],[23.75,-59.88],[22.88,-60.75],[22.88,-61.75],[23.5,-62.38],[24.5,-62.88],[31.0,-63.12]]]}},{"type":"Feature","properties":{"kind":"blob","cls":4,"id":9},"geometry":{"type":"Polygon","coordinates":[[[-6.75,-71.62],[-4.75,-70.88],[-4.12,-70.0],[-4.75,-69.12],[-5.75,-68.62],[-10.75,-68.12],[-13.5,-68.62],[-14.5,-69.12],[-15.12,-70.0],[-14.5,-70.88],[-13.5,-71.38],[-6.75,-71.62]]]}},{"type":"Feature","properties":{"kind":"blob","cls":4,"id":10},"geometry":{"type":"Polygon","coordinates":[[[-74.5,-74.12],[-71.25,-73.38],[-67.0,-73.12],[-66.38,-72.0],[-67.5,-71.62],[-69.75,-71.88],[-73.25,-71.38],[-76.25,-71.88],[-80.12,-73.5],[-74.5,-74.12]]]}},{"type":"Feature","properties":{"kind":"blob","cls":4,"id":11},"geometry":{"type":"Polygon","coordinates":[[[120.5,-66.88],[121.12,-65.5],[120.25,-64.62],[119.0,-64.12],[113.5,-63.88],[111.25,-64.38],[110.25,-65.12],[105.0,-64.88],[102.75,-65.38],[101.88,-66.0],[106.5,-66.62],[111.25,-66.62],[111.5,-66.12],[113.5,-66.12],[114.0,-66.62],[120.5,-66.88]]]}},{"type":"Feature","properties":{"kind":"blob","cls":4,"id":12},"geometry":{"type":"Polygon","coordinates":[[[59.25,-54.12],[62.25,-54.12],[64.12,-52.75],[64.12,-51.75],[63.25,-50.88],[61.75,-50.38],[59.0,-50.38],[57.25,-50.88],[55.5,-50.12],[54.0,-50.12],[52.5,-50.62],[51.38,-51.75],[51.38,-52.75],[52.75,-53.88],[55.75,-54.12],[57.75,-53.62],[59.25,-54.12]]]}},{"type":"Feature","properties":{"kind":"blob","cls":4,"id":13},"geometry":{"type":"Polygon","coordinates":[[[111.0,77.12],[117.5,77.62],[122.0,78.62],[132.0,77.38],[139.0,77.38],[145.0,78.12],[147.0,79.12],[147.12,79.75],[143.25,81.12],[136.0,81.88],[123.5,81.62],[122.0,82.12],[116.5,82.62],[106.0,82.62],[99.25,81.88],[95.75,80.38],[95.12,79.75],[95.12,78.75],[96.75,77.88],[111.0,77.12]]]}},{"type":"Feature","properties":{"kind":"blob","cls":4,"id":14},"geometry":{"type":"Polygon","coordinates":[[[-32.0,-78.88],[-30.88,-78.75],[-31.0,-78.62],[-32.0,-78.88]]]}},{"type":"Feature","properties":{"kind":"blob","cls":3,"id":15},"geometry":{"type":"Polygon","coordinates":[[[-53.5,66.62],[-51.25,66.38],[-50.38,66.75],[-51.5,69.38],[-53.88,68.25],[-53.88,67.0],[-53.5,66.62]],[[-52.88,67.25],[-52.12,67.25],[-52.25,67.12],[-52.88,67.25]]]}},{"type":"Feature","properties":{"kind":"blob","cls":3,"id":16},"geometry":{"type":"Polygon","coordinates":[[[-69.38,-76.25],[-73.25,-76.12],[-72.62,-75.75],[-72.75,-75.38],[-74.5,-75.38],[-76.0,-74.88],[-78.75,-74.88],[-79.38,-75.25],[-76.75,-76.12],[-69.38,-76.25]]]}},{"type":"Feature","properties":{"kind":"blob","cls":3,"id":17},"geometry":{"type":"Polygon","coordinates":[[[-52.88,66.0],[-52.75,65.88],[-52.62,66.0],[-52.88,66.0]]]}},{"type":"Feature","properties":{"kind":"blob","cls":5,"id":18},"geometry":{"type":"Polygon","coordinates":[[[-79.0,-79.38],[-77.5,-79.38],[-76.38,-78.5],[-76.75,-78.12],[-78.75,-78.38],[-79.12,-78.75],[-79.0,-79.38]]]}},{"type":"Feature","properties":{"kind":"blob","cls":3,"id":19},"geometry":{"type":"Polygon","coordinates":[[[-36.75,57.12],[-35.12,58.25],[-35.12,59.25],[-35.75,59.88],[-37.75,60.62],[-41.0,60.38],[-42.62,59.25],[-42.62,58.25],[-41.0,57.12],[-36.75,57.12]]]}},{"type":"Feature","properties":{"kind":"blob","cls":1,"id":20},"geometry":{"type":"Polygon","coordinates":[[[-143.0,52.38],[-139.25,53.62],[-138.38,54.5],[-138.38,55.5],[-137.12,56.75],[-137.12,57.25],[-138.25,58.38],[-140.0,58.88],[-142.75,58.62],[-143.75,58.12],[-143.62,57.0],[-144.0,56.62],[-146.25,56.62],[-146.88,56.0],[-147.38,54.5],[-146.75,53.12],[-143.0,52.38]]]}},{"type":"Feature","properties":{"kind":"blob","cls":4,"id":21},"geometry":{"type":"Polygon","coordinates":[[[-63.0,61.88],[-61.75,62.38],[-60.88,63.5],[-62.25,64.88],[-66.25,65.88],[-70.0,65.62],[-71.88,64.25],[-71.88,63.75],[-70.5,62.62],[-69.75,63.62],[-69.25,63.62],[-68.12,62.75],[-68.0,62.12],[-63.0,61.88]],[[-66.0,63.88],[-66.12,64.0],[-66.0,64.12],[-66.0,63.88]]]}},{"type":"Feature","properties":{"kind":"blob","cls":3,"id":22},"geometry":{"type":"Polygon","coordinates":[[[-50.5,64.88],[-50.12,65.75],[-51.75,65.88],[-52.12,65.5],[-51.5,65.12],[-50.5,64.88]]]}},{"type":"Feature","properties":{"kind":"blob","cls":0,"id":23},"geometry":{"type":"Polygon","coordinates":[[[88.25,15.88],[89.75,15.88],[90.62,17.0],[90.38,18.5],[89.0,19.38],[88.5,19.38],[86.88,17.75],[87.12,16.5],[88.25,15.88]]]}},{"type":"Feature","properties":{"kind":"blob","cls":1,"id":24},"geometry":{"type":"MultiPolygon","coordinates":[[[[156.88,53.75],[157.0,53.62],[157.12,54.25],[156.88,53.75]]],[[[162.75,51.62],[165.75,52.88],[166.62,54.0],[166.38,55.25],[164.0,56.38],[160.75,56.38],[161.12,55.0],[160.5,54.88],[160.25,56.38],[159.0,56.12],[157.88,54.75],[158.0,54.12],[158.62,54.0],[158.0,53.62],[157.75,54.12],[157.12,53.25],[158.5,52.38],[162.75,51.62]],[[159.12,54.5],[159.0,54.38],[158.88,54.5],[159.12,54.5]],[[159.75,54.38],[159.38,54.75],[159.75,54.88],[159.75,54.38]]]]}},{"type":"Feature","properties":{"kind":"blob","cls":0,"id":25},"geometry":{"type":"Polygon","coordinates":[[[144.38,12.0],[144.75,11.62],[146.12,12.5],[146.38,14.25],[145.5,15.38],[144.0,15.62],[142.62,14.75],[142.38,13.0],[142.75,12.38],[144.25,12.88],[144.62,12.5],[144.38,12.0]]]}},{"type":"Feature","properties":{"kind":"blob","cls":4,"id":26},"geometry":{"type":"Polygon","coordinates":[[[-114.25,65.88],[-108.5,65.88],[-106.0,66.88],[-105.62,67.25],[-105.62,68.25],[-109.0,69.88],[-115.5,70.12],[-118.5,69.38],[-119.88,68.0],[-119.25,67.12],[-117.75,66.38],[-114.25,65.88]]]}},{"type":"Feature","properties":{"kind":"blob","cls":1,"id":27},"geometry":{"type":"Polygon","coordinates":[[[160.75,58.38],[162.75,59.38],[163.38,60.0],[163.38,61.0],[161.75,62.12],[158.25,62.38],[156.0,61.88],[155.5,61.12],[154.25,60.88],[153.88,60.25],[154.0,59.38],[157.25,59.62],[158.75,59.38],[160.75,58.38]],[[161.75,59.38],[161.62,59.5],[162.0,59.62],[161.75,59.38]]]}},{"type":"Feature","properties":{"kind":"blob","cls":3,"id":28},"geometry":{"type":"Polygon","coordinates":[[[179.75,47.62],[180.0,50.12],[179.0,50.88],[176.0,50.88],[174.62,49.5],[174.88,48.0],[176.25,47.12],[178.25,46.88],[179.75,47.62]]]}},{"type":"Feature","properties":{"kind":"blob","cls":3,"id":28},"geometry":{"type":"Polygon","coordinates":[[[-180.0,50.12],[-180.0,47.62],[-179.62,48.25],[-180.0,50.12]]]}},{"type":"Feature","properties":{"kind":"blob","cls":4,"id":29},"geometry":{"type":"Polygon","coordinates":[[[-31.75,-33.38],[-30.5,-32.88],[-29.88,-32.0],[-29.88,-31.0],[-30.75,-29.62],[-33.75,-28.38],[-35.38,-29.5],[-35.62,-30.5],[-34.62,-32.5],[-31.75,-33.38]]]}},{"type":"Feature","properties":{"kind":"blob","cls":4,"id":30},"geometry":{"type":"Polygon","coordinates":[[[113.5,-40.38],[115.12,-39.25],[115.38,-38.0],[114.88,-37.0],[114.0,-36.12],[112.0,-35.88],[110.25,-34.62],[108.25,-35.12],[107.62,-35.75],[107.62,-37.25],[109.25,-38.38],[110.0,-38.38],[111.5,-40.12],[113.5,-40.38]]]}},{"type":"Feature","properties":{"kind":"blob","cls":4,"id":31},"geometry":{"type":"Polygon","coordinates":[[[17.75,-27.62],[18.25,-26.88],[18.88,-26.75],[18.75,-26.38],[17.88,-26.5],[18.0,-25.62],[17.12,-26.75],[17.75,-27.62]]]}},{"type":"Feature","properties":{"kind":"blob","cls":3,"id":32},"geometry":{"type":"Polygon","coordinates":[[[-126.75,-25.88],[-125.88,-25.0],[-125.88,-23.5],[-127.5,-22.38],[-128.75,-22.62],[-129.62,-23.5],[-129.62,-25.0],[-128.75,-25.88],[-126.75,-25.88]]]}},{"type":"Feature","properties":{"kind":"blob","cls":2,"id":33},"geometry":{"type":"Polygon","coordinates":[[[41.38,11.5],[41.5,11.12],[42.25,11.38],[42.88,12.0],[43.12,13.75],[42.0,15.12],[41.25,15.38],[39.88,14.5],[39.88,12.0],[41.38,11.5]]]}},{"type":"Feature","properties":{"kind":"blob","cls":4,"id":34},"geometry":{"type":"Polygon","coordinates":[[[-84.75,-40.88],[-82.88,-39.5],[-82.62,-38.25],[-84.0,-36.62],[-86.5,-36.38],[-88.38,-37.75],[-88.38,-39.5],[-87.5,-40.38],[-84.75,-40.88]]]}},{"type":"Feature","properties":{"kind":"blob","cls":4,"id":35},"geometry":{"type":"Polygon","coordinates":[[[20.88,-30.25],[21.25,-30.62],[21.88,-30.0],[21.0,-29.38],[20.88,-30.25]]]}},{"type":"Feature","properties":{"kind":"blob","cls":3,"id":36},"geometry":{"type":"Polygon","coordinates":[[[37.75,0.62],[38.38,1.75],[38.12,3.0],[36.75,4.12],[35.25,3.62],[35.25,3.12],[36.0,3.38],[36.38,3.0],[37.38,1.75],[37.75,0.62]]]}},{"type":"Feature","properties":{"kind":"blob","cls":2,"id":37},"geometry":{"type":"Polygon","coordinates":[[[-101.75,15.88],[-100.25,15.88],[-99.38,17.0],[-99.5,17.38],[-100.0,17.12],[-101.0,17.62],[-101.25,18.38],[-100.5,17.88],[-99.38,18.0],[-100.12,18.25],[-100.75,19.38],[-101.75,18.88],[-102.75,19.62],[-103.12,19.25],[-102.38,18.5],[-103.25,18.38],[-103.5,19.12],[-103.88,17.5],[-103.0,16.38],[-101.75,15.88]]]}},{"type":"Feature","properties":{"kind":"blob","cls":4,"id":38},"geometry":{"type":"Polygon","coordinates":[[[19.12,-27.75],[19.25,-28.12],[19.88,-28.0],[19.5,-27.62],[19.12,-27.75]]]}},{"type":"Feature","properties":{"kind":"blob","cls":1,"id":39},"geometry":{"type":"Polygon","coordinates":[[[-105.0,19.12],[-104.38,19.5],[-105.12,20.5],[-104.38,21.5],[-106.25,23.62],[-107.62,22.5],[-107.62,20.5],[-106.75,19.62],[-105.0,19.12]]]}},{"type":"Feature","properties":{"kind":"blob","cls":4,"id":40},"geometry":{"type":"Polygon","coordinates":[[[-110.0,48.12],[-107.75,48.62],[-106.88,49.75],[-107.12,50.75],[-109.0,52.12],[-114.25,52.88],[-114.62,52.25],[-113.12,50.5],[-113.38,49.75],[-112.0,49.12],[-111.0,49.12],[-110.88,48.75],[-111.38,48.5],[-110.0,48.12]],[[-110.62,49.5],[-110.5,49.88],[-108.62,49.75],[-109.0,49.38],[-110.62,49.5]]]}},{"type":"Feature","properties":{"kind":"blob","cls":4,"id":41},"geometry":{"type":"Polygon","coordinates":[[[-64.5,-17.38],[-64.38,-17.0],[-65.25,-15.88],[-66.5,-15.62],[-66.62,-16.0],[-64.5,-17.38]]]}},{"type":"Feature","properties":{"kind":"blob","cls":3,"id":42},"geometry":{"type":"Polygon","coordinates":[[[53.5,36.38],[55.25,36.88],[56.38,38.0],[55.62,39.75],[54.0,40.88],[52.25,40.62],[51.12,39.25],[51.38,38.0],[52.75,36.62],[53.5,36.38]]]}},{"type":"Feature","properties":{"kind":"blob","cls":3,"id":43},"geometry":{"type":"Polygon","coordinates":[[[-71.0,-33.12],[-70.62,-32.75],[-71.12,-32.0],[-70.88,-29.75],[-71.25,-29.38],[-72.75,-29.88],[-73.38,-30.75],[-73.38,-31.75],[-72.88,-32.5],[-71.0,-33.12]]]}},{"type":"Feature","properties":{"kind":"blob","cls":1,"id":44},"geometry":{"type":"Polygon","coordinates":[[[93.5,25.38],[94.38,26.25],[92.75,26.88],[92.62,26.25],[93.5,25.38]]]}},{"type":"Feature","properties":{"kind":"blob","cls":4,"id":45},"geometry":{"type":"Polygon","coordinates":[[[23.75,-33.12],[25.0,-32.88],[25.12,-32.5],[24.25,-32.12],[21.62,-32.5],[23.75,-33.12]]]}},{"type":"Feature","properties":{"kind":"blob","cls":3,"id":46},"geometry":{"type":"Polygon","coordinates":[[[-73.0,-12.38],[-72.62,-12.25],[-72.75,-12.12],[-73.0,-12.38]]]}},{"type":"Feature","properties":{"kind":"blob","cls":5,"id":47},"geometry":{"type":"Polygon","coordinates":[[[96.62,24.5],[95.5,25.62],[94.88,25.25],[95.5,24.62],[96.62,24.5]]]}},{"type":"Feature","properties":{"kind":"blob","cls":4,"id":48},"geometry":{"type":"Polygon","coordinates":[[[-64.0,-21.38],[-63.62,-21.25],[-64.0,-20.62],[-64.0,-21.38]]]}},{"type":"Feature","properties":{"kind":"blob","cls":3,"id":49},"geometry":{"type":"Polygon","coordinates":[[[-70.12,-13.25],[-71.0,-12.12],[-72.12,-12.0],[-71.25,-13.12],[-70.12,-13.25]]]}},{"type":"Feature","properties":{"kind":"blob","cls":4,"id":50},"geometry":{"type":"Polygon","coordinates":[[[38.5,47.38],[40.25,48.12],[41.12,49.5],[40.88,50.25],[38.75,51.38],[37.25,51.38],[35.5,50.62],[34.88,49.5],[35.12,48.75],[36.5,47.62],[38.5,47.38]]]}},{"type":"Feature","properties":{"kind":"blob","cls":4,"id":51},"geometry":{"type":"Polygon","coordinates":[[[25.62,-32.5],[25.75,-32.62],[25.88,-32.25],[25.62,-32.5]]]}},{"type":"Feature","properties":{"kind":"blob","cls":4,"id":52},"geometry":{"type":"Polygon","coordinates":[[[-64.5,-23.62],[-63.62,-22.75],[-63.75,-21.62],[-64.38,-22.25],[-64.5,-23.62]]]}},{"type":"Feature","properties":{"kind":"blob","cls":3,"id":53},"geometry":{"type":"Polygon","coordinates":[[[49.0,43.38],[50.25,43.88],[51.12,45.0],[50.88,46.25],[49.0,47.38],[47.5,47.38],[46.25,46.88],[45.38,45.75],[45.38,45.0],[46.25,43.88],[49.0,43.38]]]}},{"type":"Feature","properties":{"kind":"blob","cls":3,"id":54},"geometry":{"type":"Polygon","coordinates":[[[-68.75,-32.62],[-68.0,-32.38],[-67.38,-31.5],[-68.12,-31.5],[-67.62,-31.0],[-68.25,-29.88],[-68.62,-30.5],[-68.75,-32.62]]]}},{"type":"Feature","properties":{"kind":"blob","cls":3,"id":55},"geometry":{"type":"MultiPolygon","coordinates":[[[[71.0,41.12],[70.88,41.0],[71.0,40.88],[71.0,41.12]]],[[[68.38,40.25],[69.5,39.88],[70.88,40.75],[69.62,40.5],[69.62,41.75],[70.25,42.62],[68.38,41.25],[68.38,40.25]]]]}},{"type":"Feature","properties":{"kind":"blob","cls":3,"id":56},"geometry":{"type":"Polygon","coordinates":[[[-67.62,-30.5],[-67.5,-30.62],[-67.38,-30.5],[-67.62,-30.5]]]}},{"type":"Feature","properties":{"kind":"blob","cls":4,"id":57},"geometry":{"type":"Polygon","coordinates":[[[5.75,51.88],[7.75,52.62],[8.38,53.5],[8.12,54.75],[5.75,55.88],[2.75,55.12],[1.88,54.0],[2.12,53.0],[3.5,52.12],[5.75,51.88]]]}},{"type":"Feature","properties":{"kind":"blob","cls":3,"id":58},"geometry":{"type":"Polygon","coordinates":[[[86.62,42.0],[86.75,41.88],[86.88,42.0],[86.62,42.0]]]}},{"type":"Feature","properties":{"kind":"blob","cls":3,"id":59},"geometry":{"type":"Polygon","coordinates":[[[87.88,42.75],[88.0,42.62],[88.12,42.75],[87.88,42.75]]]}},{"type":"Feature","properties":{"kind":"blob","cls":3,"id":60},"geometry":{"type":"Polygon","coordinates":[[[70.75,42.62],[71.62,42.75],[71.5,42.88],[70.75,42.62]]]}},{"type":"Feature","properties":{"kind":"blob","cls":1,"id":61},"geometry":{"type":"Polygon","coordinates":[[[86.88,44.25],[85.62,45.5],[85.5,46.62],[84.5,46.38],[84.62,46.0],[83.62,45.25],[84.25,44.62],[86.88,44.25]]]}},{"type":"Feature","properties":{"kind":"blob","cls":1,"id":62},"geometry":{"type":"Polygon","coordinates":[[[84.75,47.62],[86.0,47.38],[86.12,47.75],[85.5,47.88],[84.75,47.62]]]}},{"type":"Feature","properties":{"kind":"blob","cls":5,"id":63},"geometry":{"type":"Polygon","coordinates":[[[83.38,46.25],[83.75,45.88],[84.38,46.75],[83.75,46.88],[83.38,46.25]]]}},{"type":"Feature","properties":{"kind":"center","id":1,"lat":-67.25,"lon":-136.5,"mslp":919.1,"hvtl":76.6,"hvtu":77.3,"hb":6.2,"idx":1.9,"cls":0,"psfc":919.1,"terrain":false,"radius_km":200,"name":"sym deep warm","track":"T01"},"geometry":{"type":"Point","coordinates":[-136.5,-67.25]}},{"type":"Feature","properties":{"kind":"center","id":2,"lat":-61.25,"lon":80.0,"mslp":950.9,"hvtl":80.5,"hvtu":-70.5,"hb":-17.4,"idx":0.7,"cls":1,"psfc":950.9,"terrain":false,"radius_km":200,"name":"sym shallow warm","track":"T05"},"geometry":{"type":"Point","coordinates":[80.0,-61.25]}},{"type":"Feature","properties":{"kind":"center","id":3,"lat":-65.0,"lon":169.25,"mslp":963.5,"hvtl":-166.2,"hvtu":-91.2,"hb":77.0,"idx":-2.6,"cls":4,"psfc":963.5,"terrain":false,"radius_km":200,"name":"asym cold","track":"T08"},"geometry":{"type":"Point","coordinates":[169.25,-65.0]}},{"type":"Feature","properties":{"kind":"center","id":4,"lat":-71.75,"lon":-47.25,"mslp":967.8,"hvtl":7.7,"hvtu":-122.7,"hb":55.3,"idx":-0.7,"cls":3,"psfc":967.8,"terrain":false,"radius_km":200,"name":"asym shallow warm","track":"T22"},"geometry":{"type":"Point","coordinates":[-47.25,-71.75]}},{"type":"Feature","properties":{"kind":"center","id":5,"lat":-68.5,"lon":-54.75,"mslp":969.1,"hvtl":-178.8,"hvtu":-227.4,"hb":37.2,"idx":-2.9,"cls":4,"psfc":969.1,"terrain":false,"radius_km":200,"name":"asym cold"},"geometry":{"type":"Point","coordinates":[-54.75,-68.5]}},{"type":"Feature","properties":{"kind":"center","id":6,"lat":-62.0,"lon":141.75,"mslp":969.5,"hvtl":33.8,"hvtu":-90.5,"hb":4.7,"idx":-0.1,"cls":1,"psfc":969.5,"terrain":false,"radius_km":200,"name":"sym shallow warm"},"geometry":{"type":"Point","coordinates":[141.75,-62.0]}},{"type":"Feature","properties":{"kind":"center","id":7,"lat":12.75,"lon":-97.75,"mslp":970.3,"hvtl":168.2,"hvtu":287.6,"hb":-3.1,"idx":2.9,"cls":0,"psfc":970.3,"terrain":false,"radius_km":200,"name":"sym deep warm","track":"T24"},"geometry":{"type":"Point","coordinates":[-97.75,12.75]}},{"type":"Feature","properties":{"kind":"center","id":8,"lat":-62.25,"lon":32.25,"mslp":971.3,"hvtl":-37.4,"hvtu":-99.4,"hb":11.8,"idx":-1.5,"cls":4,"psfc":971.4,"terrain":false,"radius_km":200,"name":"asym cold","track":"T35"},"geometry":{"type":"Point","coordinates":[32.25,-62.25]}},{"type":"Feature","properties":{"kind":"center","id":9,"lat":-71.0,"lon":-14.0,"mslp":973.5,"hvtl":-80.2,"hvtu":-193.6,"hb":30.6,"idx":-2.3,"cls":4,"psfc":973.5,"terrain":false,"radius_km":200,"name":"asym cold"},"geometry":{"type":"Point","coordinates":[-14.0,-71.0]}},{"type":"Feature","properties":{"kind":"center","id":10,"lat":-72.5,"lon":-68.25,"mslp":974.5,"hvtl":-41.9,"hvtu":-71.3,"hb":59.3,"idx":-1.4,"cls":4,"psfc":970.2,"terrain":false,"radius_km":200,"name":"asym cold","track":"T16"},"geometry":{"type":"Point","coordinates":[-68.25,-72.5]}},{"type":"Feature","properties":{"kind":"center","id":11,"lat":-65.75,"lon":115.0,"mslp":974.7,"hvtl":-38.9,"hvtu":-102.8,"hb":15.8,"idx":-1.5,"cls":4,"psfc":974.6,"terrain":false,"radius_km":200,"name":"asym cold","track":"T20"},"geometry":{"type":"Point","coordinates":[115.0,-65.75]}},{"type":"Feature","properties":{"kind":"center","id":12,"lat":-52.25,"lon":60.0,"mslp":976.2,"hvtl":-324.7,"hvtu":-527.0,"hb":57.1,"idx":-3.0,"cls":4,"psfc":976.2,"terrain":false,"radius_km":200,"name":"asym cold"},"geometry":{"type":"Point","coordinates":[60.0,-52.25]}},{"type":"Feature","properties":{"kind":"center","id":13,"lat":79.75,"lon":131.75,"mslp":977.4,"hvtl":-78.7,"hvtu":-183.8,"hb":50.6,"idx":-2.3,"cls":4,"psfc":977.4,"terrain":false,"radius_km":200,"name":"asym cold","track":"T45"},"geometry":{"type":"Point","coordinates":[131.75,79.75]}},{"type":"Feature","properties":{"kind":"center","id":14,"lat":-78.75,"lon":-32.0,"mslp":978.5,"hvtl":-189.9,"hvtu":-94.9,"hb":45.7,"idx":-2.7,"cls":4,"psfc":904.5,"terrain":false,"radius_km":200,"name":"asym cold"},"geometry":{"type":"Point","coordinates":[-32.0,-78.75]}},{"type":"Feature","properties":{"kind":"center","id":15,"lat":66.5,"lon":-53.25,"mslp":984.9,"hvtl":129.8,"hvtu":-262.2,"hb":30.8,"idx":0.7,"cls":3,"psfc":926.5,"terrain":false,"radius_km":200,"name":"asym shallow warm","track":"T66"},"geometry":{"type":"Point","coordinates":[-53.25,66.5]}},{"type":"Feature","properties":{"kind":"center","id":16,"lat":-75.75,"lon":-72.75,"mslp":985.1,"hvtl":58.0,"hvtu":-65.1,"hb":62.0,"idx":0.5,"cls":3,"psfc":900.9,"terrain":false,"radius_km":200,"name":"asym shallow warm","track":"T52"},"geometry":{"type":"Point","coordinates":[-72.75,-75.75]}},{"type":"Feature","properties":{"kind":"center","id":17,"lat":66.0,"lon":-52.75,"mslp":985.9,"hvtl":98.5,"hvtu":-255.2,"hb":24.8,"idx":0.5,"cls":3,"psfc":900.7,"terrain":false,"radius_km":200,"name":"asym shallow warm"},"geometry":{"type":"Point","coordinates":[-52.75,66.0]}},{"type":"Feature","properties":{"kind":"center","id":18,"lat":-79.25,"lon":-78.75,"mslp":986.1,"hvtl":-59.5,"hvtu":-14.4,"hb":6.7,"idx":-1.2,"cls":5,"psfc":962.8,"terrain":false,"radius_km":200,"name":"sym cold"},"geometry":{"type":"Point","coordinates":[-78.75,-79.25]}},{"type":"Feature","properties":{"kind":"center","id":19,"lat":58.75,"lon":-39.0,"mslp":986.2,"hvtl":43.2,"hvtu":-204.9,"hb":15.6,"idx":-0.2,"cls":3,"psfc":986.2,"terrain":false,"radius_km":200,"name":"asym shallow warm","track":"T41"},"geometry":{"type":"Point","coordinates":[-39.0,58.75]}},{"type":"Feature","properties":{"kind":"center","id":20,"lat":57.0,"lon":-140.5,"mslp":987.1,"hvtl":12.5,"hvtu":-74.6,"hb":0.7,"idx":-0.4,"cls":1,"psfc":987.1,"terrain":false,"radius_km":200,"name":"sym shallow warm","track":"T34"},"geometry":{"type":"Point","coordinates":[-140.5,57.0]}},{"type":"Feature","properties":{"kind":"center","id":21,"lat":63.75,"lon":-66.25,"mslp":987.8,"hvtl":-95.7,"hvtu":-146.5,"hb":40.3,"idx":-2.4,"cls":4,"psfc":905.8,"terrain":false,"radius_km":200,"name":"asym cold","track":"T69"},"geometry":{"type":"Point","coordinates":[-66.25,63.75]}},{"type":"Feature","properties":{"kind":"center","id":22,"lat":65.75,"lon":-51.75,"mslp":988.0,"hvtl":39.0,"hvtu":-244.5,"hb":17.1,"idx":-0.2,"cls":3,"psfc":912.3,"terrain":false,"radius_km":200,"name":"asym shallow warm","track":"T63"},"geometry":{"type":"Point","coordinates":[-51.75,65.75]}},{"type":"Feature","properties":{"kind":"center","id":23,"lat":17.5,"lon":88.75,"mslp":990.1,"hvtl":62.8,"hvtu":106.1,"hb":5.0,"idx":1.9,"cls":0,"psfc":990.1,"terrain":false,"radius_km":200,"name":"sym deep warm","track":"T42"},"geometry":{"type":"Point","coordinates":[88.75,17.5]}},{"type":"Feature","properties":{"kind":"center","id":24,"lat":54.25,"lon":162.75,"mslp":993.2,"hvtl":21.8,"hvtu":-124.9,"hb":5.9,"idx":-0.4,"cls":1,"psfc":993.2,"terrain":false,"radius_km":200,"name":"sym shallow warm","track":"T75"},"geometry":{"type":"Point","coordinates":[162.75,54.25]}},{"type":"Feature","properties":{"kind":"center","id":25,"lat":13.75,"lon":144.5,"mslp":993.5,"hvtl":71.7,"hvtu":49.5,"hb":7.8,"idx":1.7,"cls":0,"psfc":993.5,"terrain":false,"radius_km":200,"name":"sym deep warm","track":"T50"},"geometry":{"type":"Point","coordinates":[144.5,13.75]}},{"type":"Feature","properties":{"kind":"center","id":26,"lat":68.0,"lon":-112.75,"mslp":994.5,"hvtl":-0.3,"hvtu":-195.8,"hb":61.6,"idx":-1.0,"cls":4,"psfc":994.5,"terrain":false,"radius_km":200,"name":"asym cold","track":"T77"},"geometry":{"type":"Point","coordinates":[-112.75,68.0]}},{"type":"Feature","properties":{"kind":"center","id":27,"lat":60.0,"lon":158.0,"mslp":994.7,"hvtl":126.9,"hvtu":-52.7,"hb":-10.4,"idx":1.2,"cls":1,"psfc":994.7,"terrain":false,"radius_km":200,"name":"sym shallow warm","track":"T30"},"geometry":{"type":"Point","coordinates":[158.0,60.0]}},{"type":"Feature","properties":{"kind":"center","id":28,"lat":49.0,"lon":177.5,"mslp":996.6,"hvtl":8.2,"hvtu":-279.4,"hb":29.7,"idx":-0.8,"cls":3,"psfc":996.6,"terrain":false,"radius_km":200,"name":"asym shallow warm","track":"T81"},"geometry":{"type":"Point","coordinates":[177.5,49.0]}},{"type":"Feature","properties":{"kind":"center","id":29,"lat":-31.25,"lon":-32.5,"mslp":998.5,"hvtl":-19.0,"hvtu":-281.9,"hb":79.5,"idx":-1.4,"cls":4,"psfc":998.5,"terrain":false,"radius_km":200,"name":"asym cold","track":"T76"},"geometry":{"type":"Point","coordinates":[-32.5,-31.25]}},{"type":"Feature","properties":{"kind":"center","id":30,"lat":-38.0,"lon":112.75,"mslp":999.7,"hvtl":-202.3,"hvtu":-133.1,"hb":65.0,"idx":-2.8,"cls":4,"psfc":999.7,"terrain":false,"radius_km":200,"name":"asym cold","track":"T53"},"geometry":{"type":"Point","coordinates":[112.75,-38.0]}},{"type":"Feature","properties":{"kind":"center","id":31,"lat":-26.5,"lon":18.75,"mslp":1007.0,"hvtl":-50.4,"hvtu":-91.0,"hb":58.3,"idx":-1.7,"cls":4,"psfc":901.6,"terrain":true,"radius_km":200,"name":"asym cold"},"geometry":{"type":"Point","coordinates":[18.75,-26.5]}},{"type":"Feature","properties":{"kind":"center","id":32,"lat":-24.25,"lon":-127.75,"mslp":1007.2,"hvtl":28.4,"hvtu":-233.9,"hb":31.4,"idx":-0.4,"cls":3,"psfc":1007.2,"terrain":false,"radius_km":200,"name":"asym shallow warm","track":"T85"},"geometry":{"type":"Point","coordinates":[-127.75,-24.25]}},{"type":"Feature","properties":{"kind":"center","id":33,"lat":13.5,"lon":41.0,"mslp":1007.3,"hvtl":91.9,"hvtu":12.7,"hb":11.2,"idx":1.6,"cls":2,"psfc":1010.8,"terrain":false,"radius_km":200,"name":"asym deep warm"},"geometry":{"type":"Point","coordinates":[41.0,13.5]}},{"type":"Feature","properties":{"kind":"center","id":34,"lat":-38.5,"lon":-86.0,"mslp":1007.4,"hvtl":-90.0,"hvtu":-170.4,"hb":20.8,"idx":-2.4,"cls":4,"psfc":1007.4,"terrain":false,"radius_km":200,"name":"asym cold","track":"T102"},"geometry":{"type":"Point","coordinates":[-86.0,-38.5]}},{"type":"Feature","properties":{"kind":"center","id":35,"lat":-30.0,"lon":21.75,"mslp":1008.0,"hvtl":-161.7,"hvtu":-122.9,"hb":85.5,"idx":-2.7,"cls":4,"psfc":903.2,"terrain":true,"radius_km":200,"name":"asym cold"},"geometry":{"type":"Point","coordinates":[21.75,-30.0]}},{"type":"Feature","properties":{"kind":"center","id":36,"lat":2.75,"lon":36.5,"mslp":1008.3,"hvtl":106.8,"hvtu":-4.7,"hb":10.1,"idx":1.5,"cls":3,"psfc":964.0,"terrain":false,"radius_km":200,"name":"asym shallow warm"},"geometry":{"type":"Point","coordinates":[36.5,2.75]}},{"type":"Feature","properties":{"kind":"center","id":37,"lat":16.0,"lon":-100.75,"mslp":1008.3,"hvtl":164.2,"hvtu":307.3,"hb":17.8,"idx":2.9,"cls":2,"psfc":1008.3,"terrain":false,"radius_km":200,"name":"asym deep warm","track":"T107"},"geometry":{"type":"Point","coordinates":[-100.75,16.0]}},{"type":"Feature","properties":{"kind":"center","id":38,"lat":-28.0,"lon":19.75,"mslp":1008.4,"hvtl":-88.4,"hvtu":-108.1,"hb":95.6,"idx":-2.2,"cls":4,"psfc":916.4,"terrain":true,"radius_km":200,"name":"asym cold"},"geometry":{"type":"Point","coordinates":[19.75,-28.0]}},{"type":"Feature","properties":{"kind":"center","id":39,"lat":21.5,"lon":-105.5,"mslp":1008.5,"hvtl":46.4,"hvtu":-123.6,"hb":2.4,"idx":0.0,"cls":1,"psfc":1008.5,"terrain":false,"radius_km":200,"name":"sym shallow warm","track":"T106"},"geometry":{"type":"Point","coordinates":[-105.5,21.5]}},{"type":"Feature","properties":{"kind":"center","id":40,"lat":50.0,"lon":-112.5,"mslp":1009.8,"hvtl":-112.4,"hvtu":-185.1,"hb":18.9,"idx":-2.6,"cls":4,"psfc":916.0,"terrain":true,"radius_km":200,"name":"asym cold"},"geometry":{"type":"Point","coordinates":[-112.5,50.0]}},{"type":"Feature","properties":{"kind":"center","id":41,"lat":-17.0,"lon":-64.5,"mslp":1009.8,"hvtl":-219.0,"hvtu":-76.8,"hb":22.5,"idx":-2.6,"cls":4,"psfc":984.4,"terrain":false,"radius_km":200,"name":"asym cold"},"geometry":{"type":"Point","coordinates":[-64.5,-17.0]}},{"type":"Feature","properties":{"kind":"center","id":42,"lat":38.25,"lon":54.0,"mslp":1010.4,"hvtl":13.9,"hvtu":-80.8,"hb":41.2,"idx":-0.4,"cls":3,"psfc":1011.9,"terrain":false,"radius_km":200,"name":"asym shallow warm"},"geometry":{"type":"Point","coordinates":[54.0,38.25]}},{"type":"Feature","properties":{"kind":"center","id":43,"lat":-30.5,"lon":-71.25,"mslp":1010.7,"hvtl":81.9,"hvtu":-232.7,"hb":33.6,"idx":0.4,"cls":3,"psfc":957.9,"terrain":false,"radius_km":200,"name":"asym shallow warm"},"geometry":{"type":"Point","coordinates":[-71.25,-30.5]}},{"type":"Feature","properties":{"kind":"center","id":44,"lat":26.25,"lon":92.75,"mslp":1011.5,"hvtl":5.3,"hvtu":-161.4,"hb":1.6,"idx":-0.8,"cls":1,"psfc":997.9,"terrain":false,"radius_km":200,"name":"sym shallow warm","track":"T111"},"geometry":{"type":"Point","coordinates":[92.75,26.25]}},{"type":"Feature","properties":{"kind":"center","id":45,"lat":-32.5,"lon":22.5,"mslp":1011.8,"hvtl":-232.0,"hvtu":-190.8,"hb":81.1,"idx":-2.9,"cls":4,"psfc":921.0,"terrain":true,"radius_km":200,"name":"asym cold"},"geometry":{"type":"Point","coordinates":[22.5,-32.5]}},{"type":"Feature","properties":{"kind":"center","id":46,"lat":-12.25,"lon":-72.75,"mslp":1012.2,"hvtl":1.2,"hvtu":-0.8,"hb":12.5,"idx":0.0,"cls":3,"psfc":913.3,"terrain":true,"radius_km":200,"name":"asym shallow warm"},"geometry":{"type":"Point","coordinates":[-72.75,-12.25]}},{"type":"Feature","properties":{"kind":"center","id":47,"lat":25.25,"lon":95.25,"mslp":1012.3,"hvtl":-22.6,"hvtu":-102.8,"hb":0.3,"idx":-1.2,"cls":5,"psfc":987.6,"terrain":false,"radius_km":200,"name":"sym cold","track":"T109"},"geometry":{"type":"Point","coordinates":[95.25,25.25]}},{"type":"Feature","properties":{"kind":"center","id":48,"lat":-21.0,"lon":-63.75,"mslp":1013.3,"hvtl":-157.1,"hvtu":-206.6,"hb":23.9,"idx":-2.8,"cls":4,"psfc":924.6,"terrain":false,"radius_km":200,"name":"asym cold"},"geometry":{"type":"Point","coordinates":[-63.75,-21.0]}},{"type":"Feature","properties":{"kind":"center","id":49,"lat":-12.75,"lon":-70.5,"mslp":1013.4,"hvtl":11.3,"hvtu":-26.6,"hb":17.3,"idx":-0.0,"cls":3,"psfc":979.0,"terrain":false,"radius_km":200,"name":"asym shallow warm"},"geometry":{"type":"Point","coordinates":[-70.5,-12.75]}},{"type":"Feature","properties":{"kind":"center","id":50,"lat":49.5,"lon":37.75,"mslp":1013.9,"hvtl":-19.3,"hvtu":-20.0,"hb":13.5,"idx":-0.6,"cls":4,"psfc":998.0,"terrain":false,"radius_km":200,"name":"asym cold","track":"T98"},"geometry":{"type":"Point","coordinates":[37.75,49.5]}},{"type":"Feature","properties":{"kind":"center","id":51,"lat":-32.25,"lon":25.75,"mslp":1014.0,"hvtl":-214.8,"hvtu":-145.8,"hb":87.7,"idx":-2.8,"cls":4,"psfc":903.4,"terrain":true,"radius_km":200,"name":"asym cold"},"geometry":{"type":"Point","coordinates":[25.75,-32.25]}},{"type":"Feature","properties":{"kind":"center","id":52,"lat":-21.75,"lon":-63.75,"mslp":1014.7,"hvtl":-108.7,"hvtu":-231.9,"hb":23.0,"idx":-2.6,"cls":4,"psfc":900.7,"terrain":true,"radius_km":200,"name":"asym cold"},"geometry":{"type":"Point","coordinates":[-63.75,-21.75]}},{"type":"Feature","properties":{"kind":"center","id":53,"lat":45.25,"lon":48.0,"mslp":1015.0,"hvtl":47.1,"hvtu":-118.5,"hb":21.8,"idx":0.0,"cls":3,"psfc":1018.2,"terrain":false,"radius_km":200,"name":"asym shallow warm","track":"T99"},"geometry":{"type":"Point","coordinates":[48.0,45.25]}},{"type":"Feature","properties":{"kind":"center","id":54,"lat":-30.75,"lon":-68.25,"mslp":1016.4,"hvtl":148.0,"hvtu":-273.8,"hb":29.2,"idx":0.8,"cls":3,"psfc":933.0,"terrain":false,"radius_km":200,"name":"asym shallow warm"},"geometry":{"type":"Point","coordinates":[-68.25,-30.75]}},{"type":"Feature","properties":{"kind":"center","id":55,"lat":40.25,"lon":69.75,"mslp":1017.9,"hvtl":46.3,"hvtu":-221.6,"hb":89.2,"idx":-0.1,"cls":3,"psfc":964.0,"terrain":false,"radius_km":200,"name":"asym shallow warm","track":"T115"},"geometry":{"type":"Point","coordinates":[69.75,40.25]}},{"type":"Feature","properties":{"kind":"center","id":56,"lat":-30.5,"lon":-67.5,"mslp":1019.7,"hvtl":160.5,"hvtu":-292.9,"hb":25.9,"idx":0.9,"cls":3,"psfc":905.6,"terrain":true,"radius_km":200,"name":"asym shallow warm"},"geometry":{"type":"Point","coordinates":[-67.5,-30.5]}},{"type":"Feature","properties":{"kind":"center","id":57,"lat":53.75,"lon":8.25,"mslp":1021.7,"hvtl":-19.2,"hvtu":-140.7,"hb":11.7,"idx":-1.3,"cls":4,"psfc":1021.7,"terrain":false,"radius_km":200,"name":"asym cold","track":"T116"},"geometry":{"type":"Point","coordinates":[8.25,53.75]}},{"type":"Feature","properties":{"kind":"center","id":58,"lat":42.0,"lon":86.75,"mslp":1025.0,"hvtl":145.8,"hvtu":-207.9,"hb":83.7,"idx":0.8,"cls":3,"psfc":900.0,"terrain":true,"radius_km":200,"name":"asym shallow warm"},"geometry":{"type":"Point","coordinates":[86.75,42.0]}},{"type":"Feature","properties":{"kind":"center","id":59,"lat":42.75,"lon":88.0,"mslp":1025.5,"hvtl":238.4,"hvtu":-210.1,"hb":90.5,"idx":1.0,"cls":3,"psfc":916.0,"terrain":true,"radius_km":200,"name":"asym shallow warm"},"geometry":{"type":"Point","coordinates":[88.0,42.75]}},{"type":"Feature","properties":{"kind":"center","id":60,"lat":42.75,"lon":71.5,"mslp":1026.2,"hvtl":123.1,"hvtu":-228.9,"hb":126.8,"idx":0.7,"cls":3,"psfc":926.4,"terrain":true,"radius_km":200,"name":"asym shallow warm"},"geometry":{"type":"Point","coordinates":[71.5,42.75]}},{"type":"Feature","properties":{"kind":"center","id":61,"lat":46.25,"lon":85.5,"mslp":1029.1,"hvtl":99.4,"hvtu":-64.3,"hb":-0.5,"idx":1.0,"cls":1,"psfc":974.2,"terrain":false,"radius_km":200,"name":"sym shallow warm"},"geometry":{"type":"Point","coordinates":[85.5,46.25]}},{"type":"Feature","properties":{"kind":"center","id":62,"lat":47.75,"lon":86.0,"mslp":1032.1,"hvtl":29.8,"hvtu":-39.3,"hb":-7.2,"idx":0.2,"cls":1,"psfc":957.4,"terrain":false,"radius_km":200,"name":"sym shallow warm","track":"T117"},"geometry":{"type":"Point","coordinates":[86.0,47.75]}},{"type":"Feature","properties":{"kind":"center","id":63,"lat":46.25,"lon":83.5,"mslp":1035.0,"hvtl":-13.0,"hvtu":-97.4,"hb":5.2,"idx":-1.0,"cls":5,"psfc":959.9,"terrain":false,"radius_km":200,"name":"sym cold"},"geometry":{"type":"Point","coordinates":[83.5,46.25]}}]}