{"type":"FeatureCollection","features":[{"type":"Feature","properties":{"kind":"blob","cls":3,"id":1},"geometry":{"type":"Polygon","coordinates":[[[59.0,-62.38],[62.0,-61.62],[62.88,-61.0],[63.12,-60.0],[61.75,-58.62],[59.0,-57.88],[55.5,-57.88],[52.38,-59.25],[52.12,-60.25],[53.0,-61.38],[55.75,-61.38],[56.0,-62.12],[59.0,-62.38]]]}},{"type":"Feature","properties":{"kind":"blob","cls":3,"id":2},"geometry":{"type":"Polygon","coordinates":[[[113.25,-59.12],[117.0,-59.12],[118.38,-58.25],[118.62,-57.0],[118.0,-56.12],[116.75,-55.38],[112.75,-55.38],[111.75,-54.12],[110.0,-53.62],[107.0,-53.88],[105.38,-55.0],[105.38,-56.25],[106.25,-57.12],[108.5,-57.88],[110.75,-57.62],[111.5,-58.62],[113.25,-59.12]]]}},{"type":"Feature","properties":{"kind":"blob","cls":1,"id":3},"geometry":{"type":"Polygon","coordinates":[[[-164.75,-66.88],[-164.62,-65.5],[-164.0,-64.88],[-162.0,-65.88],[-161.62,-65.25],[-162.5,-64.12],[-163.5,-63.88],[-164.75,-62.38],[-167.5,-60.62],[-170.75,-60.38],[-172.75,-60.88],[-173.62,-61.5],[-173.88,-62.75],[-172.0,-64.88],[-169.0,-66.62],[-164.75,-66.88]]]}},{"type":"Feature","properties":{"kind":"blob","cls":3,"id":4},"geometry":{"type":"Polygon","coordinates":[[[35.75,-57.88],[37.5,-57.38],[38.38,-56.5],[38.38,-55.25],[37.5,-54.38],[35.75,-53.88],[32.25,-54.38],[31.38,-55.25],[31.38,-56.5],[32.75,-57.62],[35.75,-57.88]]]}},{"type":"Feature","properties":{"kind":"blob","cls":4,"id":5},"geometry":{"type":"Polygon","coordinates":[[[-153.75,-58.38],[-152.12,-56.75],[-154.0,-54.88],[-157.0,-54.62],[-158.75,-55.12],[-159.88,-56.5],[-159.62,-57.0],[-157.75,-58.38],[-153.75,-58.38]]]}},{"type":"Feature","properties":{"kind":"blob","cls":1,"id":6},"geometry":{"type":"Polygon","coordinates":[[[-91.25,-68.88],[-89.25,-68.12],[-88.38,-67.25],[-88.38,-66.5],[-89.25,-65.62],[-91.25,-64.88],[-95.75,-64.62],[-98.5,-65.38],[-99.88,-66.5],[-99.88,-67.25],[-99.0,-68.12],[-98.25,-68.12],[-97.25,-68.88],[-91.25,-68.88]]]}},{"type":"Feature","properties":{"kind":"blob","cls":4,"id":7},"geometry":{"type":"Polygon","coordinates":[[[110.75,-66.62],[111.38,-65.5],[110.0,-64.38],[107.75,-63.88],[104.25,-63.88],[102.62,-64.25],[103.88,-65.5],[103.0,-66.12],[110.75,-66.62]]]}},{"type":"Feature","properties":{"kind":"blob","cls":4,"id":8},"geometry":{"type":"Polygon","coordinates":[[[17.0,-60.12],[19.0,-59.62],[20.62,-58.5],[20.62,-57.5],[19.75,-56.62],[17.75,-55.88],[15.5,-55.88],[13.75,-56.38],[11.62,-57.75],[11.62,-58.75],[13.25,-59.88],[17.0,-60.12]]]}},{"type":"Feature","properties":{"kind":"blob","cls":5,"id":9},"geometry":{"type":"Polygon","coordinates":[[[96.75,-66.12],[101.25,-66.38],[102.12,-66.0],[101.25,-65.88],[100.5,-64.62],[97.75,-65.38],[96.75,-66.12]]]}},{"type":"Feature","properties":{"kind":"blob","cls":1,"id":10},"geometry":{"type":"Polygon","coordinates":[[[-156.0,46.62],[-154.25,47.38],[-153.88,48.0],[-154.12,49.75],[-156.25,50.88],[-158.25,50.62],[-159.0,50.12],[-159.62,49.25],[-159.62,48.25],[-159.0,47.38],[-156.0,46.62]]]}},{"type":"Feature","properties":{"kind":"blob","cls":5,"id":11},"geometry":{"type":"Polygon","coordinates":[[[-153.75,-83.12],[-146.75,-82.62],[-140.5,-81.88],[-138.25,-81.38],[-138.12,-81.0],[-139.25,-80.12],[-142.0,-79.88],[-154.0,-79.88],[-161.5,-80.62],[-163.25,-81.12],[-163.88,-81.75],[-162.5,-82.62],[-153.75,-83.12]],[[-148.88,-81.75],[-146.62,-81.75],[-146.75,-81.88],[-148.88,-81.75]]]}},{"type":"Feature","properties":{"kind":"blob","cls":3,"id":12},"geometry":{"type":"Polygon","coordinates":[[[11.5,71.62],[13.75,72.38],[14.38,73.0],[14.38,74.0],[13.25,74.88],[11.5,75.38],[4.25,75.62],[1.0,75.12],[-0.88,74.0],[-0.88,73.5],[0.5,72.38],[3.0,71.62],[11.5,71.62]]]}},{"type":"Feature","properties":{"kind":"blob","cls":1,"id":13},"geometry":{"type":"Polygon","coordinates":[[[96.25,-58.88],[99.25,-58.88],[100.62,-58.0],[100.88,-56.75],[99.25,-55.38],[95.75,-55.38],[94.12,-56.5],[93.88,-57.5],[94.5,-58.38],[96.25,-58.88]]]}},{"type":"Feature","properties":{"kind":"blob","cls":6,"id":14},"geometry":{"type":"Polygon","coordinates":[[[-35.25,-75.88],[-31.5,-75.38],[-28.75,-74.62],[-27.62,-73.75],[-27.62,-73.25],[-28.75,-72.38],[-30.75,-71.88],[-38.75,-71.62],[-43.5,-72.62],[-45.12,-74.0],[-44.75,-74.62],[-43.0,-75.38],[-35.25,-75.88]]]}},{"type":"Feature","properties":{"kind":"blob","cls":1,"id":15},"geometry":{"type":"Polygon","coordinates":[[[-158.25,51.62],[-156.25,52.38],[-155.62,53.5],[-156.12,54.5],[-158.25,55.38],[-159.5,55.38],[-161.5,54.62],[-162.12,53.5],[-161.62,52.5],[-158.25,51.62]]]}},{"type":"Feature","properties":{"kind":"blob","cls":0,"id":16},"geometry":{"type":"Polygon","coordinates":[[[151.0,54.38],[152.38,55.5],[152.38,56.5],[150.75,57.88],[150.12,57.75],[151.12,57.0],[150.75,56.62],[149.0,56.62],[148.38,57.5],[149.5,58.12],[146.75,57.88],[145.38,56.75],[145.38,55.5],[146.75,54.38],[151.0,54.38]]]}},{"type":"Feature","properties":{"kind":"blob","cls":1,"id":17},"geometry":{"type":"Polygon","coordinates":[[[-50.0,48.38],[-48.38,49.75],[-48.12,51.0],[-49.62,52.5],[-47.12,54.5],[-47.12,55.75],[-48.0,56.62],[-50.75,57.12],[-53.0,56.62],[-53.25,55.88],[-54.0,56.12],[-55.12,55.25],[-55.62,53.5],[-55.0,52.62],[-54.12,52.25],[-54.62,50.25],[-53.5,48.62],[-50.0,48.38]],[[-51.25,51.38],[-52.38,52.75],[-52.25,54.12],[-51.12,52.75],[-51.25,51.38]]]}},{"type":"Feature","properties":{"kind":"blob","cls":4,"id":18},"geometry":{"type":"Polygon","coordinates":[[[49.0,80.12],[55.5,81.12],[56.75,81.62],[56.88,82.25],[54.5,83.12],[51.0,83.62],[36.0,83.88],[29.5,83.38],[25.25,82.38],[24.62,81.75],[25.25,81.12],[27.0,80.62],[30.5,80.12],[49.0,80.12]]]}},{"type":"Feature","properties":{"kind":"blob","cls":5,"id":19},"geometry":{"type":"Polygon","coordinates":[[[-129.0,83.38],[-104.25,83.38],[-88.5,84.88],[-86.5,85.38],[-85.62,86.0],[-88.25,86.88],[-97.5,87.62],[-129.5,87.88],[-145.0,87.12],[-150.25,86.38],[-151.88,85.5],[-151.0,84.62],[-145.75,83.88],[-129.0,83.38]]]}},{"type":"Feature","properties":{"kind":"blob","cls":4,"id":20},"geometry":{"type":"Polygon","coordinates":[[[15.0,-49.12],[17.75,-47.62],[18.62,-46.5],[18.38,-45.5],[17.25,-44.62],[14.75,-44.12],[12.25,-44.62],[10.88,-46.25],[10.88,-47.5],[12.25,-48.62],[15.0,-49.12]]]}},{"type":"Feature","properties":{"kind":"blob","cls":3,"id":21},"geometry":{"type":"Polygon","coordinates":[[[148.0,77.88],[152.25,78.88],[153.62,80.0],[153.25,80.62],[150.75,81.62],[141.75,82.62],[126.25,82.38],[120.25,81.62],[118.38,80.75],[118.5,79.88],[121.25,78.88],[126.0,78.12],[148.0,77.88]]]}},{"type":"Feature","properties":{"kind":"blob","cls":4,"id":22},"geometry":{"type":"Polygon","coordinates":[[[-107.75,-55.88],[-106.38,-55.0],[-106.12,-54.0],[-106.75,-53.12],[-109.5,-51.88],[-112.5,-51.38],[-114.0,-51.88],[-115.12,-53.25],[-114.38,-54.5],[-111.75,-55.88],[-107.75,-55.88]]]}},{"type":"Feature","properties":{"kind":"blob","cls":5,"id":23},"geometry":{"type":"Polygon","coordinates":[[[-151.75,56.12],[-147.25,56.12],[-145.88,57.0],[-145.62,58.0],[-146.25,58.88],[-148.25,59.62],[-152.5,59.38],[-153.88,58.5],[-154.12,57.5],[-153.5,56.62],[-151.75,56.12]]]}},{"type":"Feature","properties":{"kind":"blob","cls":4,"id":24},"geometry":{"type":"Polygon","coordinates":[[[-40.0,42.38],[-38.75,42.88],[-37.88,44.25],[-38.12,45.0],[-40.0,46.12],[-42.25,45.62],[-43.12,44.25],[-42.88,43.5],[-42.25,42.88],[-40.0,42.38]]]}},{"type":"Feature","properties":{"kind":"blob","cls":0,"id":25},"geometry":{"type":"Polygon","coordinates":[[[-98.0,9.88],[-96.5,9.88],[-95.62,11.0],[-95.62,12.0],[-96.5,13.12],[-97.5,11.38],[-99.0,11.12],[-99.38,11.5],[-99.12,10.5],[-98.0,9.88]]]}},{"type":"Feature","properties":{"kind":"blob","cls":4,"id":26},"geometry":{"type":"Polygon","coordinates":[[[-73.25,64.38],[-71.25,64.88],[-69.88,65.75],[-69.88,66.75],[-72.25,68.12],[-74.5,68.62],[-78.75,68.38],[-80.0,67.88],[-80.88,67.0],[-80.25,65.62],[-78.5,64.88],[-73.25,64.38]],[[-77.25,65.88],[-77.62,66.25],[-76.75,67.12],[-75.5,67.62],[-73.75,67.62],[-73.12,67.25],[-74.25,66.12],[-77.25,65.88]]]}},{"type":"Feature","properties":{"kind":"blob","cls":3,"id":27},"geometry":{"type":"Polygon","coordinates":[[[-79.62,-78.75],[-79.25,-79.12],[-78.38,-78.25],[-79.0,-77.62],[-79.62,-78.75]]]}},{"type":"Feature","properties":{"kind":"blob","cls":4,"id":28},"geometry":{"type":"Polygon","coordinates":[[[-170.5,-45.62],[-168.62,-44.5],[-168.62,-42.75],[-169.5,-41.62],[-172.0,-41.12],[-173.62,-42.0],[-173.88,-44.25],[-173.0,-45.12],[-170.5,-45.62]]]}},{"type":"Feature","properties":{"kind":"blob","cls":4,"id":29},"geometry":{"type":"Polygon","coordinates":[[[-58.5,67.62],[-56.5,68.38],[-55.12,70.0],[-55.75,70.88],[-57.25,71.62],[-60.0,72.12],[-63.5,72.12],[-66.25,71.62],[-67.75,70.88],[-68.38,70.0],[-66.75,68.38],[-64.5,67.62],[-58.5,67.62]]]}},{"type":"Feature","properties":{"kind":"blob","cls":5,"id":30},"geometry":{"type":"Polygon","coordinates":[[[163.75,54.12],[165.5,54.62],[166.38,55.5],[166.88,56.75],[166.38,58.0],[163.0,59.62],[161.0,59.62],[159.0,58.88],[158.38,57.5],[159.0,56.62],[159.88,56.75],[159.38,56.0],[160.25,55.12],[160.62,55.5],[160.12,56.0],[160.75,56.12],[161.0,54.62],[163.75,54.12]],[[160.38,57.25],[160.12,57.5],[161.0,58.62],[161.12,58.25],[160.38,57.25]]]}},{"type":"Feature","properties":{"kind":"blob","cls":2,"id":31},"geometry":{"type":"Polygon","coordinates":[[[150.75,10.38],[152.0,10.62],[152.88,11.75],[152.62,13.5],[151.25,14.38],[150.0,14.12],[149.12,13.0],[149.38,11.25],[150.75,10.38]]]}},{"type":"Feature","properties":{"kind":"blob","cls":4,"id":32},"geometry":{"type":"Polygon","coordinates":[[[179.88,44.75],[180.0,47.62],[178.5,48.38],[176.25,48.12],[174.62,46.5],[174.88,45.25],[176.75,44.12],[178.5,44.12],[179.88,44.75]]]}},{"type":"Feature","properties":{"kind":"blob","cls":4,"id":32},"geometry":{"type":"Polygon","coordinates":[[[-179.75,47.62],[-180.0,44.88],[-178.88,46.0],[-179.12,47.0],[-179.75,47.62]]]}},{"type":"Feature","properties":{"kind":"blob","cls":4,"id":33},"geometry":{"type":"Polygon","coordinates":[[[-27.25,65.62],[-21.0,65.62],[-18.5,66.88],[-18.12,67.25],[-18.12,68.25],[-20.75,69.62],[-24.0,69.88],[-25.25,69.62],[-26.25,68.88],[-30.0,68.62],[-30.62,68.0],[-30.62,67.0],[-29.75,66.12],[-27.25,65.62]]]}},{"type":"Feature","properties":{"kind":"blob","cls":0,"id":34},"geometry":{"type":"Polygon","coordinates":[[[-170.25,-13.62],[-169.0,-12.12],[-167.12,-12.5],[-167.12,-11.25],[-168.0,-10.12],[-169.5,-9.88],[-170.88,-10.75],[-171.12,-12.5],[-170.25,-13.62]]]}},{"type":"Feature","properties":{"kind":"blob","cls":3,"id":35},"geometry":{"type":"Polygon","coordinates":[[[-89.75,47.38],[-86.0,48.88],[-84.75,50.62],[-83.75,50.88],[-80.38,53.0],[-80.38,55.0],[-81.75,55.88],[-84.5,56.12],[-88.0,54.62],[-90.25,52.38],[-92.0,51.88],[-93.38,50.75],[-93.88,49.25],[-93.62,48.5],[-92.5,47.62],[-89.75,47.38]]]}},{"type":"Feature","properties":{"kind":"blob","cls":4,"id":36},"geometry":{"type":"Polygon","coordinates":[[[133.0,-27.62],[134.62,-26.5],[134.62,-24.75],[133.75,-23.88],[131.5,-23.88],[130.38,-25.0],[130.38,-26.5],[131.25,-27.38],[133.0,-27.62]]]}},{"type":"Feature","properties":{"kind":"blob","cls":6,"id":37},"geometry":{"type":"Polygon","coordinates":[[[-70.5,-13.38],[-69.62,-12.25],[-69.88,-10.5],[-71.25,-9.62],[-72.75,-9.88],[-73.62,-11.0],[-73.38,-12.0],[-72.75,-12.38],[-72.25,-11.88],[-71.25,-13.12],[-70.5,-13.38]]]}},{"type":"Feature","properties":{"kind":"blob","cls":0,"id":38},"geometry":{"type":"Polygon","coordinates":[[[-99.38,12.0],[-99.25,11.88],[-99.12,12.0],[-99.38,12.0]]]}},{"type":"Feature","properties":{"kind":"blob","cls":4,"id":39},"geometry":{"type":"Polygon","coordinates":[[[-97.25,-41.38],[-95.62,-40.25],[-95.38,-38.5],[-96.5,-37.12],[-99.25,-36.88],[-100.88,-38.0],[-100.88,-39.75],[-99.5,-41.12],[-97.25,-41.38]],[[-97.62,-38.75],[-98.38,-38.25],[-98.0,-37.62],[-97.25,-37.62],[-97.12,-38.25],[-97.62,-38.75]]]}},{"type":"Feature","properties":{"kind":"blob","cls":1,"id":40},"geometry":{"type":"Polygon","coordinates":[[[34.75,40.62],[35.25,41.12],[35.75,40.62],[37.38,41.5],[37.62,43.5],[36.75,44.62],[34.25,45.12],[32.62,44.25],[35.25,43.62],[36.12,43.0],[35.75,41.88],[33.62,41.5],[34.5,41.38],[34.75,40.62]]]}},{"type":"Feature","properties":{"kind":"blob","cls":4,"id":41},"geometry":{"type":"Polygon","coordinates":[[[-98.0,-36.38],[-96.38,-35.5],[-96.12,-34.0],[-96.75,-33.12],[-98.75,-32.62],[-100.38,-33.5],[-100.38,-35.5],[-98.0,-36.38]]]}},{"type":"Feature","properties":{"kind":"blob","cls":4,"id":42},"geometry":{"type":"Polygon","coordinates":[[[51.0,39.38],[52.12,40.5],[51.62,42.75],[49.5,44.12],[48.25,44.12],[46.62,43.25],[48.88,41.0],[48.75,40.62],[46.12,41.75],[46.38,41.0],[47.75,39.62],[51.0,39.38]]]}},{"type":"Feature","properties":{"kind":"blob","cls":1,"id":43},"geometry":{"type":"MultiPolygon","coordinates":[[[[32.75,41.62],[33.38,41.75],[33.0,42.12],[32.75,41.62]]],[[[32.5,42.38],[32.38,42.25],[32.5,42.12],[32.5,42.38]]]]}},{"type":"Feature","properties":{"kind":"blob","cls":4,"id":44},"geometry":{"type":"Polygon","coordinates":[[[131.25,62.62],[132.75,63.38],[133.12,64.0],[131.0,64.12],[130.75,64.62],[128.0,64.62],[127.75,65.88],[126.75,65.88],[125.12,65.0],[124.88,64.0],[125.25,63.38],[126.75,62.62],[131.25,62.62]]]}},{"type":"Feature","properties":{"kind":"blob","cls":1,"id":45},"geometry":{"type":"Polygon","coordinates":[[[130.75,65.38],[132.38,65.25],[131.25,65.88],[130.62,65.75],[130.75,65.38]]]}},{"type":"Feature","properties":{"kind":"blob","cls":4,"id":46},"geometry":{"type":"Polygon","coordinates":[[[132.62,65.0],[132.75,64.88],[132.88,65.0],[132.62,65.0]]]}},{"type":"Feature","properties":{"kind":"blob","cls":4,"id":47},"geometry":{"type":"Polygon","coordinates":[[[-64.0,-21.38],[-63.62,-21.25],[-64.0,-20.62],[-64.0,-21.38]]]}},{"type":"Feature","properties":{"kind":"blob","cls":1,"id":48},"geometry":{"type":"Polygon","coordinates":[[[-120.5,36.88],[-119.88,37.75],[-121.62,40.0],[-122.0,41.12],[-123.5,41.12],[-124.38,40.25],[-124.62,39.0],[-123.0,36.88],[-120.5,36.88]],[[-122.62,39.5],[-123.12,39.75],[-123.25,40.62],[-122.88,40.5],[-122.62,39.5]]]}},{"type":"Feature","properties":{"kind":"blob","cls":3,"id":49},"geometry":{"type":"Polygon","coordinates":[[[83.0,44.38],[83.38,45.0],[82.38,45.75],[82.5,46.12],[81.25,46.62],[79.0,46.12],[78.12,45.0],[78.25,44.62],[79.25,45.38],[81.75,45.88],[82.38,45.25],[81.38,45.0],[83.0,44.38]]]}},{"type":"Feature","properties":{"kind":"blob","cls":3,"id":50},"geometry":{"type":"Polygon","coordinates":[[[-121.62,41.0],[-121.5,40.88],[-121.38,41.0],[-121.62,41.0]]]}},{"type":"Feature","properties":{"kind":"center","id":1,"lat":-60.25,"lon":58.0,"mslp":950.9,"hvtl":68.9,"hvtu":-44.9,"hb":56.0,"idx":0.8,"cls":3,"psfc":950.9,"terrain":false,"radius_km":200,"name":"asym shallow warm","track":"T05"},"geometry":{"type":"Point","coordinates":[58.0,-60.25]}},{"type":"Feature","properties":{"kind":"center","id":2,"lat":-57.25,"lon":114.75,"mslp":956.9,"hvtl":2.8,"hvtu":-71.9,"hb":35.3,"idx":-0.6,"cls":3,"psfc":956.9,"terrain":false,"radius_km":200,"name":"asym shallow warm","track":"T20"},"geometry":{"type":"Point","coordinates":[114.75,-57.25]}},{"type":"Feature","properties":{"kind":"center","id":3,"lat":-63.75,"lon":-168.5,"mslp":957.2,"hvtl":85.1,"hvtu":-68.4,"hb":0.3,"idx":0.8,"cls":1,"psfc":957.2,"terrain":false,"radius_km":200,"name":"sym shallow warm","track":"T18"},"geometry":{"type":"Point","coordinates":[-168.5,-63.75]}},{"type":"Feature","properties":{"kind":"center","id":4,"lat":-55.75,"lon":35.0,"mslp":957.6,"hvtl":70.4,"hvtu":-373.4,"hb":14.8,"idx":0.2,"cls":3,"psfc":957.6,"terrain":false,"radius_km":200,"name":"asym shallow warm","track":"T21"},"geometry":{"type":"Point","coordinates":[35.0,-55.75]}},{"type":"Feature","properties":{"kind":"center","id":5,"lat":-56.5,"lon":-156.25,"mslp":957.8,"hvtl":-347.1,"hvtu":-422.9,"hb":101.9,"idx":-3.0,"cls":4,"psfc":957.8,"terrain":false,"radius_km":200,"name":"asym cold","track":"T01"},"geometry":{"type":"Point","coordinates":[-156.25,-56.5]}},{"type":"Feature","properties":{"kind":"center","id":6,"lat":-66.75,"lon":-93.5,"mslp":957.9,"hvtl":23.4,"hvtu":-96.9,"hb":8.6,"idx":-0.3,"cls":1,"psfc":957.9,"terrain":false,"radius_km":200,"name":"sym shallow warm","track":"T16"},"geometry":{"type":"Point","coordinates":[-93.5,-66.75]}},{"type":"Feature","properties":{"kind":"center","id":7,"lat":-65.75,"lon":105.75,"mslp":963.4,"hvtl":-90.7,"hvtu":-38.0,"hb":19.1,"idx":-1.8,"cls":4,"psfc":963.4,"terrain":false,"radius_km":200,"name":"asym cold","track":"T07"},"geometry":{"type":"Point","coordinates":[105.75,-65.75]}},{"type":"Feature","properties":{"kind":"center","id":8,"lat":-58.0,"lon":16.0,"mslp":965.4,"hvtl":-38.9,"hvtu":-148.7,"hb":11.3,"idx":-1.6,"cls":4,"psfc":965.4,"terrain":false,"radius_km":200,"name":"asym cold","track":"T23"},"geometry":{"type":"Point","coordinates":[16.0,-58.0]}},{"type":"Feature","properties":{"kind":"center","id":9,"lat":-66.25,"lon":100.25,"mslp":965.5,"hvtl":-115.3,"hvtu":-27.7,"hb":-15.1,"idx":-1.9,"cls":5,"psfc":958.6,"terrain":false,"radius_km":200,"name":"sym cold"},"geometry":{"type":"Point","coordinates":[100.25,-66.25]}},{"type":"Feature","properties":{"kind":"center","id":10,"lat":48.75,"lon":-156.75,"mslp":971.3,"hvtl":76.3,"hvtu":-95.9,"hb":9.2,"idx":0.5,"cls":1,"psfc":971.3,"terrain":false,"radius_km":200,"name":"sym shallow warm","track":"T34"},"geometry":{"type":"Point","coordinates":[-156.75,48.75]}},{"type":"Feature","properties":{"kind":"center","id":11,"lat":-81.75,"lon":-146.25,"mslp":971.5,"hvtl":-38.1,"hvtu":-18.0,"hb":-2.3,"idx":-0.9,"cls":5,"psfc":901.0,"terrain":false,"radius_km":200,"name":"sym cold","track":"T36"},"geometry":{"type":"Point","coordinates":[-146.25,-81.75]}},{"type":"Feature","properties":{"kind":"center","id":12,"lat":73.5,"lon":6.75,"mslp":971.6,"hvtl":55.7,"hvtu":-104.7,"hb":11.1,"idx":0.2,"cls":3,"psfc":971.6,"terrain":false,"radius_km":200,"name":"asym shallow warm","track":"T02"},"geometry":{"type":"Point","coordinates":[6.75,73.5]}},{"type":"Feature","properties":{"kind":"center","id":13,"lat":-57.0,"lon":97.5,"mslp":971.7,"hvtl":77.0,"hvtu":-124.8,"hb":-26.7,"idx":0.4,"cls":1,"psfc":971.7,"terrain":false,"radius_km":200,"name":"sym shallow warm"},"geometry":{"type":"Point","coordinates":[97.5,-57.0]}},{"type":"Feature","properties":{"kind":"center","id":14,"lat":-73.75,"lon":-37.0,"mslp":974.8,"hvtl":-44.5,"hvtu":53.5,"hb":37.6,"idx":-0.3,"cls":6,"psfc":974.8,"terrain":false,"radius_km":200,"name":"shallow cold","track":"T43"},"geometry":{"type":"Point","coordinates":[-37.0,-73.75]}},{"type":"Feature","properties":{"kind":"center","id":15,"lat":53.5,"lon":-159.0,"mslp":974.8,"hvtl":99.4,"hvtu":-120.0,"hb":-7.3,"idx":0.7,"cls":1,"psfc":974.8,"terrain":false,"radius_km":200,"name":"sym shallow warm"},"geometry":{"type":"Point","coordinates":[-159.0,53.5]}},{"type":"Feature","properties":{"kind":"center","id":16,"lat":56.25,"lon":148.75,"mslp":975.3,"hvtl":129.8,"hvtu":36.4,"hb":-3.9,"idx":2.1,"cls":0,"psfc":975.3,"terrain":false,"radius_km":200,"name":"sym deep warm","track":"T30"},"geometry":{"type":"Point","coordinates":[148.75,56.25]}},{"type":"Feature","properties":{"kind":"center","id":17,"lat":50.75,"lon":-51.5,"mslp":975.6,"hvtl":121.8,"hvtu":-27.3,"hb":-40.8,"idx":1.4,"cls":1,"psfc":975.6,"terrain":false,"radius_km":200,"name":"sym shallow warm","track":"T44"},"geometry":{"type":"Point","coordinates":[-51.5,50.75]}},{"type":"Feature","properties":{"kind":"center","id":18,"lat":82.0,"lon":40.75,"mslp":979.3,"hvtl":-101.4,"hvtu":-209.5,"hb":102.4,"idx":-2.5,"cls":4,"psfc":979.3,"terrain":false,"radius_km":200,"name":"asym cold","track":"T45"},"geometry":{"type":"Point","coordinates":[40.75,82.0]}},{"type":"Feature","properties":{"kind":"center","id":19,"lat":85.5,"lon":-122.5,"mslp":980.7,"hvtl":-5.9,"hvtu":-83.6,"hb":3.6,"idx":-0.8,"cls":5,"psfc":980.7,"terrain":false,"radius_km":200,"name":"sym cold","track":"T59"},"geometry":{"type":"Point","coordinates":[-122.5,85.5]}},{"type":"Feature","properties":{"kind":"center","id":20,"lat":-47.0,"lon":14.75,"mslp":980.9,"hvtl":-46.3,"hvtu":-489.9,"hb":50.8,"idx":-1.9,"cls":4,"psfc":980.9,"terrain":false,"radius_km":200,"name":"asym cold","track":"T31"},"geometry":{"type":"Point","coordinates":[14.75,-47.0]}},{"type":"Feature","properties":{"kind":"center","id":21,"lat":80.0,"lon":137.5,"mslp":984.3,"hvtl":39.1,"hvtu":-150.7,"hb":25.4,"idx":-0.2,"cls":3,"psfc":984.3,"terrain":false,"radius_km":200,"name":"asym shallow warm","track":"T58"},"geometry":{"type":"Point","coordinates":[137.5,80.0]}},{"type":"Feature","properties":{"kind":"center","id":22,"lat":-54.0,"lon":-110.25,"mslp":985.3,"hvtl":-319.8,"hvtu":-287.3,"hb":73.2,"idx":-3.0,"cls":4,"psfc":985.3,"terrain":false,"radius_km":200,"name":"asym cold"},"geometry":{"type":"Point","coordinates":[-110.25,-54.0]}},{"type":"Feature","properties":{"kind":"center","id":23,"lat":57.75,"lon":-150.5,"mslp":986.8,"hvtl":-21.5,"hvtu":-303.2,"hb":9.1,"idx":-1.4,"cls":5,"psfc":986.8,"terrain":false,"radius_km":200,"name":"sym cold"},"geometry":{"type":"Point","coordinates":[-150.5,57.75]}},{"type":"Feature","properties":{"kind":"center","id":24,"lat":44.25,"lon":-40.5,"mslp":990.6,"hvtl":-468.0,"hvtu":-316.8,"hb":100.9,"idx":-3.0,"cls":4,"psfc":990.6,"terrain":false,"radius_km":200,"name":"asym cold"},"geometry":{"type":"Point","coordinates":[-40.5,44.25]}},{"type":"Feature","properties":{"kind":"center","id":25,"lat":11.25,"lon":-97.5,"mslp":990.8,"hvtl":80.7,"hvtu":93.2,"hb":-1.3,"idx":2.1,"cls":0,"psfc":990.8,"terrain":false,"radius_km":200,"name":"sym deep warm","track":"T24"},"geometry":{"type":"Point","coordinates":[-97.5,11.25]}},{"type":"Feature","properties":{"kind":"center","id":26,"lat":66.25,"lon":-74.0,"mslp":993.9,"hvtl":-105.6,"hvtu":-5.4,"hb":16.6,"idx":-1.6,"cls":4,"psfc":993.2,"terrain":false,"radius_km":200,"name":"asym cold","track":"T71"},"geometry":{"type":"Point","coordinates":[-74.0,66.25]}},{"type":"Feature","properties":{"kind":"center","id":27,"lat":-78.25,"lon":-79.0,"mslp":995.2,"hvtl":85.1,"hvtu":-46.3,"hb":41.8,"idx":1.0,"cls":3,"psfc":963.4,"terrain":false,"radius_km":200,"name":"asym shallow warm","track":"T39"},"geometry":{"type":"Point","coordinates":[-79.0,-78.25]}},{"type":"Feature","properties":{"kind":"center","id":28,"lat":-43.25,"lon":-171.25,"mslp":995.8,"hvtl":-188.1,"hvtu":-207.1,"hb":56.8,"idx":-2.9,"cls":4,"psfc":995.8,"terrain":false,"radius_km":200,"name":"asym cold"},"geometry":{"type":"Point","coordinates":[-171.25,-43.25]}},{"type":"Feature","properties":{"kind":"center","id":29,"lat":69.75,"lon":-62.0,"mslp":996.3,"hvtl":-13.3,"hvtu":-170.9,"hb":21.6,"idx":-1.2,"cls":4,"psfc":996.3,"terrain":false,"radius_km":200,"name":"asym cold","track":"T73"},"geometry":{"type":"Point","coordinates":[-62.0,69.75]}},{"type":"Feature","properties":{"kind":"center","id":30,"lat":57.0,"lon":163.0,"mslp":996.5,"hvtl":-18.8,"hvtu":-221.9,"hb":7.8,"idx":-1.3,"cls":5,"psfc":996.3,"terrain":false,"radius_km":200,"name":"sym cold","track":"T75"},"geometry":{"type":"Point","coordinates":[163.0,57.0]}},{"type":"Feature","properties":{"kind":"center","id":31,"lat":12.25,"lon":151.0,"mslp":997.7,"hvtl":57.8,"hvtu":59.2,"hb":14.1,"idx":1.6,"cls":2,"psfc":997.7,"terrain":false,"radius_km":200,"name":"asym deep warm","track":"T50"},"geometry":{"type":"Point","coordinates":[151.0,12.25]}},{"type":"Feature","properties":{"kind":"center","id":32,"lat":46.25,"lon":177.75,"mslp":998.8,"hvtl":-127.2,"hvtu":-221.2,"hb":84.3,"idx":-2.7,"cls":4,"psfc":998.8,"terrain":false,"radius_km":200,"name":"asym cold","track":"T09"},"geometry":{"type":"Point","coordinates":[177.75,46.25]}},{"type":"Feature","properties":{"kind":"center","id":33,"lat":67.75,"lon":-24.75,"mslp":1001.2,"hvtl":-266.0,"hvtu":-298.6,"hb":62.4,"idx":-3.0,"cls":4,"psfc":1001.2,"terrain":false,"radius_km":200,"name":"asym cold","track":"T51"},"geometry":{"type":"Point","coordinates":[-24.75,67.75]}},{"type":"Feature","properties":{"kind":"center","id":34,"lat":-12.0,"lon":-169.0,"mslp":1001.2,"hvtl":101.8,"hvtu":11.6,"hb":7.9,"idx":1.7,"cls":0,"psfc":1001.2,"terrain":false,"radius_km":200,"name":"sym deep warm","track":"T88"},"geometry":{"type":"Point","coordinates":[-169.0,-12.0]}},{"type":"Feature","properties":{"kind":"center","id":35,"lat":53.0,"lon":-85.75,"mslp":1003.5,"hvtl":13.5,"hvtu":-414.1,"hb":90.5,"idx":-0.7,"cls":3,"psfc":987.5,"terrain":false,"radius_km":200,"name":"asym shallow warm","track":"T84"},"geometry":{"type":"Point","coordinates":[-85.75,53.0]}},{"type":"Feature","properties":{"kind":"center","id":36,"lat":-24.75,"lon":133.0,"mslp":1005.3,"hvtl":-0.5,"hvtu":-163.7,"hb":48.6,"idx":-0.9,"cls":4,"psfc":953.2,"terrain":false,"radius_km":200,"name":"asym cold"},"geometry":{"type":"Point","coordinates":[133.0,-24.75]}},{"type":"Feature","properties":{"kind":"center","id":37,"lat":-10.0,"lon":-71.0,"mslp":1006.0,"hvtl":-30.3,"hvtu":3.2,"hb":6.6,"idx":-0.6,"cls":6,"psfc":973.4,"terrain":false,"radius_km":200,"name":"shallow cold"},"geometry":{"type":"Point","coordinates":[-71.0,-10.0]}},{"type":"Feature","properties":{"kind":"center","id":38,"lat":12.0,"lon":-99.25,"mslp":1006.1,"hvtl":74.5,"hvtu":96.5,"hb":3.2,"idx":2.0,"cls":0,"psfc":1006.1,"terrain":false,"radius_km":200,"name":"sym deep warm"},"geometry":{"type":"Point","coordinates":[-99.25,12.0]}},{"type":"Feature","properties":{"kind":"center","id":39,"lat":-39.0,"lon":-98.25,"mslp":1006.7,"hvtl":-38.7,"hvtu":-97.6,"hb":14.1,"idx":-1.5,"cls":4,"psfc":1006.8,"terrain":false,"radius_km":200,"name":"asym cold","track":"T102"},"geometry":{"type":"Point","coordinates":[-98.25,-39.0]}},{"type":"Feature","properties":{"kind":"center","id":40,"lat":43.75,"lon":34.75,"mslp":1007.1,"hvtl":89.3,"hvtu":-104.6,"hb":0.6,"idx":0.6,"cls":1,"psfc":1007.1,"terrain":false,"radius_km":200,"name":"sym shallow warm","track":"T98"},"geometry":{"type":"Point","coordinates":[34.75,43.75]}},{"type":"Feature","properties":{"kind":"center","id":41,"lat":-34.5,"lon":-98.25,"mslp":1007.7,"hvtl":-83.8,"hvtu":-173.1,"hb":10.6,"idx":-2.3,"cls":4,"psfc":1007.7,"terrain":false,"radius_km":200,"name":"asym cold","track":"T90"},"geometry":{"type":"Point","coordinates":[-98.25,-34.5]}},{"type":"Feature","properties":{"kind":"center","id":42,"lat":41.5,"lon":49.25,"mslp":1008.7,"hvtl":-73.9,"hvtu":-132.5,"hb":32.0,"idx":-2.1,"cls":4,"psfc":1011.8,"terrain":false,"radius_km":200,"name":"asym cold","track":"T99"},"geometry":{"type":"Point","coordinates":[49.25,41.5]}},{"type":"Feature","properties":{"kind":"center","id":43,"lat":41.75,"lon":33.25,"mslp":1011.0,"hvtl":105.1,"hvtu":-60.3,"hb":-20.1,"idx":1.0,"cls":1,"psfc":909.2,"terrain":true,"radius_km":200,"name":"sym shallow warm"},"geometry":{"type":"Point","coordinates":[33.25,41.75]}},{"type":"Feature","properties":{"kind":"center","id":44,"lat":64.0,"lon":132.0,"mslp":1011.5,"hvtl":-55.3,"hvtu":-87.9,"hb":10.4,"idx":-1.7,"cls":4,"psfc":936.0,"terrain":false,"radius_km":200,"name":"asym cold"},"geometry":{"type":"Point","coordinates":[132.0,64.0]}},{"type":"Feature","properties":{"kind":"center","id":45,"lat":65.75,"lon":130.75,"mslp":1013.6,"hvtl":16.7,"hvtu":-108.3,"hb":8.9,"idx":-0.5,"cls":1,"psfc":909.2,"terrain":true,"radius_km":200,"name":"sym shallow warm"},"geometry":{"type":"Point","coordinates":[130.75,65.75]}},{"type":"Feature","properties":{"kind":"center","id":46,"lat":65.0,"lon":132.75,"mslp":1014.9,"hvtl":-57.8,"hvtu":-101.3,"hb":14.5,"idx":-1.8,"cls":4,"psfc":902.4,"terrain":true,"radius_km":200,"name":"asym cold"},"geometry":{"type":"Point","coordinates":[132.75,65.0]}},{"type":"Feature","properties":{"kind":"center","id":47,"lat":-21.25,"lon":-63.75,"mslp":1015.4,"hvtl":-7.6,"hvtu":-288.4,"hb":25.1,"idx":-1.1,"cls":4,"psfc":930.1,"terrain":false,"radius_km":200,"name":"asym cold"},"geometry":{"type":"Point","coordinates":[-63.75,-21.25]}},{"type":"Feature","properties":{"kind":"center","id":48,"lat":38.75,"lon":-122.0,"mslp":1017.4,"hvtl":61.8,"hvtu":-67.0,"hb":0.8,"idx":0.5,"cls":1,"psfc":1005.6,"terrain":false,"radius_km":200,"name":"sym shallow warm"},"geometry":{"type":"Point","coordinates":[-122.0,38.75]}},{"type":"Feature","properties":{"kind":"center","id":49,"lat":44.75,"lon":83.25,"mslp":1018.1,"hvtl":108.7,"hvtu":-264.4,"hb":125.5,"idx":0.6,"cls":3,"psfc":992.0,"terrain":false,"radius_km":200,"name":"asym shallow warm"},"geometry":{"type":"Point","coordinates":[83.25,44.75]}},{"type":"Feature","properties":{"kind":"center","id":50,"lat":41.0,"lon":-121.5,"mslp":1024.7,"hvtl":149.7,"hvtu":-90.5,"hb":35.0,"idx":1.1,"cls":3,"psfc":903.6,"terrain":true,"radius_km":200,"name":"asym shallow warm"},"geometry":{"type":"Point","coordinates":[-121.5,41.0]}}]}