{"type":"FeatureCollection","features":[{"type":"Feature","properties":{"kind":"blob","cls":1,"id":1},"geometry":{"type":"Polygon","coordinates":[[[179.88,-65.25],[180.0,-63.38],[178.5,-62.38],[177.0,-62.12],[173.25,-62.38],[172.0,-63.12],[170.5,-63.38],[169.38,-64.25],[169.12,-65.0],[170.25,-66.38],[173.0,-67.12],[176.25,-66.88],[179.88,-65.25]]]}},{"type":"Feature","properties":{"kind":"blob","cls":1,"id":1},"geometry":{"type":"Polygon","coordinates":[[[-180.0,-63.38],[-180.0,-65.12],[-179.38,-64.5],[-180.0,-63.38]]]}},{"type":"Feature","properties":{"kind":"blob","cls":2,"id":2},"geometry":{"type":"Polygon","coordinates":[[[-114.5,-70.62],[-112.0,-70.12],[-110.12,-68.75],[-110.12,-68.0],[-111.0,-67.12],[-112.5,-66.62],[-117.5,-66.38],[-120.5,-67.12],[-121.62,-68.25],[-121.62,-68.75],[-120.75,-69.62],[-118.75,-70.38],[-114.5,-70.62]],[[-120.62,-68.75],[-120.62,-68.0],[-119.5,-67.38],[-118.25,-67.38],[-117.12,-68.25],[-118.0,-69.12],[-120.62,-68.75]]]}},{"type":"Feature","properties":{"kind":"blob","cls":0,"id":3},"geometry":{"type":"Polygon","coordinates":[[[-31.25,60.12],[-29.12,61.5],[-28.88,62.5],[-30.0,63.62],[-32.0,64.12],[-34.25,64.12],[-36.75,63.38],[-38.5,64.38],[-39.75,64.38],[-41.5,63.62],[-42.0,62.88],[-42.88,62.75],[-42.62,61.75],[-43.12,61.25],[-42.75,60.88],[-38.5,60.88],[-37.5,61.38],[-35.75,60.12],[-31.25,60.12]]]}},{"type":"Feature","properties":{"kind":"blob","cls":3,"id":4},"geometry":{"type":"Polygon","coordinates":[[[179.75,-71.88],[180.0,-69.38],[178.62,-70.25],[178.62,-70.75],[179.75,-71.88]]]}},{"type":"Feature","properties":{"kind":"blob","cls":3,"id":4},"geometry":{"type":"Polygon","coordinates":[[[-179.88,-69.25],[-180.0,-71.88],[-178.5,-72.38],[-172.25,-72.38],[-170.5,-71.88],[-169.62,-71.0],[-169.62,-70.25],[-170.25,-69.62],[-172.25,-68.88],[-177.0,-68.62],[-179.88,-69.25]]]}},{"type":"Feature","properties":{"kind":"blob","cls":1,"id":5},"geometry":{"type":"Polygon","coordinates":[[[-3.0,-61.88],[1.5,-61.12],[3.38,-59.5],[3.38,-58.5],[1.12,-57.0],[1.38,-55.75],[0.0,-54.62],[-2.25,-54.38],[-4.75,-55.38],[-5.75,-55.38],[-7.38,-56.75],[-9.12,-59.25],[-7.5,-61.12],[-3.0,-61.88]],[[-3.0,-59.12],[-3.62,-58.75],[-3.62,-58.25],[-3.25,-57.88],[-2.25,-57.88],[-1.88,-58.5],[-3.0,-59.12]]]}},{"type":"Feature","properties":{"kind":"blob","cls":5,"id":6},"geometry":{"type":"Polygon","coordinates":[[[-114.5,-54.38],[-111.5,-54.38],[-110.12,-53.25],[-110.12,-52.0],[-110.88,-51.25],[-109.88,-50.5],[-109.62,-49.5],[-109.88,-48.75],[-111.0,-47.88],[-114.5,-47.88],[-115.62,-48.75],[-115.62,-50.5],[-116.75,-50.88],[-117.62,-51.75],[-117.62,-52.75],[-116.75,-53.62],[-114.5,-54.38]]]}},{"type":"Feature","properties":{"kind":"blob","cls":4,"id":7},"geometry":{"type":"Polygon","coordinates":[[[121.0,-66.88],[121.88,-66.5],[121.88,-65.75],[120.5,-64.88],[118.5,-64.38],[116.5,-64.38],[115.0,-64.88],[113.5,-64.12],[110.0,-63.88],[107.0,-64.62],[105.38,-65.75],[105.5,-66.38],[108.0,-66.62],[111.0,-66.62],[111.25,-66.12],[113.0,-65.88],[114.25,-66.62],[121.0,-66.88]]]}},{"type":"Feature","properties":{"kind":"blob","cls":4,"id":8},"geometry":{"type":"Polygon","coordinates":[[[95.75,-64.62],[97.5,-63.62],[99.75,-64.12],[104.25,-64.12],[107.0,-63.12],[107.38,-62.0],[106.25,-60.88],[104.25,-60.38],[98.5,-60.62],[97.0,-61.38],[96.75,-61.88],[94.5,-61.12],[90.75,-61.62],[90.75,-62.12],[93.25,-62.38],[94.62,-63.0],[94.5,-63.38],[89.62,-63.25],[90.75,-64.38],[95.75,-64.62]]]}},{"type":"Feature","properties":{"kind":"blob","cls":4,"id":9},"geometry":{"type":"Polygon","coordinates":[[[-147.5,-64.12],[-143.5,-62.62],[-140.25,-60.62],[-137.75,-59.62],[-136.88,-58.75],[-136.88,-57.5],[-137.5,-56.88],[-139.5,-56.12],[-142.0,-56.38],[-153.38,-61.75],[-153.62,-62.75],[-153.25,-63.38],[-151.75,-64.12],[-147.5,-64.12]]]}},{"type":"Feature","properties":{"kind":"blob","cls":4,"id":10},"geometry":{"type":"Polygon","coordinates":[[[25.75,-49.62],[27.0,-49.12],[27.88,-48.25],[27.88,-47.0],[27.0,-46.12],[25.75,-45.62],[23.25,-46.12],[22.38,-47.0],[22.38,-48.25],[23.25,-49.12],[25.75,-49.62]]]}},{"type":"Feature","properties":{"kind":"blob","cls":4,"id":11},"geometry":{"type":"Polygon","coordinates":[[[59.25,-57.38],[61.0,-56.88],[62.38,-55.5],[62.38,-54.5],[61.75,-53.88],[59.75,-53.12],[57.5,-53.12],[54.5,-53.88],[53.12,-55.0],[53.12,-56.0],[54.0,-56.88],[59.25,-57.38]]]}},{"type":"Feature","properties":{"kind":"blob","cls":0,"id":12},"geometry":{"type":"Polygon","coordinates":[[[148.75,29.38],[149.88,30.5],[149.88,31.5],[149.25,32.38],[147.5,32.88],[146.25,32.38],[145.62,31.5],[145.62,30.5],[146.12,29.75],[148.75,29.38]]]}},{"type":"Feature","properties":{"kind":"blob","cls":1,"id":13},"geometry":{"type":"MultiPolygon","coordinates":[[[[75.25,67.88],[80.25,67.88],[83.25,69.12],[84.12,70.0],[84.12,70.5],[83.25,71.38],[81.25,72.12],[79.75,72.12],[79.0,70.88],[78.25,70.62],[76.5,70.62],[75.25,71.12],[74.25,72.12],[73.5,72.12],[70.75,71.62],[69.12,70.5],[69.12,70.0],[70.0,69.12],[71.0,68.62],[75.25,67.88]]],[[[79.5,72.38],[79.38,72.25],[79.5,72.12],[79.5,72.38]]]]}},{"type":"Feature","properties":{"kind":"blob","cls":4,"id":14},"geometry":{"type":"Polygon","coordinates":[[[-15.75,52.88],[-13.75,53.62],[-13.12,54.5],[-13.12,55.75],[-14.0,56.62],[-15.75,57.12],[-18.5,56.62],[-19.62,55.5],[-19.62,54.5],[-19.0,53.62],[-15.75,52.88]]]}},{"type":"Feature","properties":{"kind":"blob","cls":4,"id":15},"geometry":{"type":"Polygon","coordinates":[[[-88.5,71.12],[-85.5,71.62],[-82.75,72.88],[-82.38,73.75],[-84.0,74.88],[-87.5,76.12],[-92.0,76.88],[-97.75,76.62],[-99.75,76.12],[-101.12,75.0],[-101.12,74.5],[-99.75,73.38],[-97.0,72.88],[-96.0,72.12],[-93.5,71.38],[-88.5,71.12]]]}},{"type":"Feature","properties":{"kind":"blob","cls":4,"id":16},"geometry":{"type":"Polygon","coordinates":[[[-35.0,-79.88],[-29.12,-78.5],[-35.12,-78.5],[-35.0,-78.12],[-32.75,-77.38],[-31.25,-77.38],[-29.25,-76.62],[-26.0,-76.12],[-21.38,-76.0],[-35.0,-76.12],[-40.25,-77.12],[-41.88,-78.25],[-41.0,-79.12],[-35.0,-79.88]]]}},{"type":"Feature","properties":{"kind":"blob","cls":1,"id":17},"geometry":{"type":"Polygon","coordinates":[[[-168.0,60.62],[-166.0,61.12],[-164.38,62.25],[-164.38,63.5],[-165.25,64.38],[-166.5,64.88],[-169.25,65.12],[-170.25,63.62],[-174.38,62.25],[-173.0,61.12],[-168.0,60.62]]]}},{"type":"Feature","properties":{"kind":"blob","cls":4,"id":18},"geometry":{"type":"Polygon","coordinates":[[[21.0,-70.38],[26.5,-70.62],[28.38,-70.25],[23.75,-69.88],[21.0,-70.38]]]}},{"type":"Feature","properties":{"kind":"blob","cls":3,"id":19},"geometry":{"type":"Polygon","coordinates":[[[-134.5,79.38],[-128.75,79.88],[-123.75,81.12],[-123.12,82.25],[-126.0,83.38],[-131.25,84.12],[-149.0,84.38],[-160.75,83.38],[-165.0,82.38],[-165.62,81.75],[-164.25,80.88],[-158.5,79.88],[-134.5,79.38]]]}},{"type":"Feature","properties":{"kind":"blob","cls":5,"id":20},"geometry":{"type":"Polygon","coordinates":[[[19.75,-70.88],[20.12,-70.75],[20.0,-70.62],[19.75,-70.88]]]}},{"type":"Feature","properties":{"kind":"blob","cls":4,"id":21},"geometry":{"type":"Polygon","coordinates":[[[30.25,84.38],[39.5,85.12],[42.12,86.0],[39.5,86.88],[30.25,87.62],[5.0,87.88],[-10.5,87.12],[-13.75,86.62],[-15.12,86.0],[-12.5,85.12],[-7.5,84.62],[30.25,84.38]]]}},{"type":"Feature","properties":{"kind":"blob","cls":1,"id":22},"geometry":{"type":"Polygon","coordinates":[[[138.5,-50.88],[141.0,-50.88],[143.5,-49.88],[144.62,-48.5],[144.62,-47.5],[143.25,-46.38],[141.25,-46.12],[137.75,-47.62],[136.62,-48.5],[136.38,-49.25],[137.0,-50.38],[138.5,-50.88]]]}},{"type":"Feature","properties":{"kind":"blob","cls":3,"id":23},"geometry":{"type":"Polygon","coordinates":[[[-154.75,-83.38],[-154.38,-83.25],[-154.5,-83.12],[-154.75,-83.38]]]}},{"type":"Feature","properties":{"kind":"blob","cls":4,"id":24},"geometry":{"type":"Polygon","coordinates":[[[-34.75,-59.88],[-32.62,-58.5],[-32.38,-57.5],[-33.0,-56.62],[-35.0,-55.88],[-38.5,-56.38],[-40.38,-57.75],[-40.38,-58.75],[-38.75,-59.88],[-34.75,-59.88]]]}},{"type":"Feature","properties":{"kind":"blob","cls":4,"id":25},"geometry":{"type":"Polygon","coordinates":[[[-56.5,47.12],[-53.5,47.62],[-52.38,48.5],[-52.38,50.25],[-54.5,51.38],[-59.0,51.12],[-60.38,50.0],[-60.38,48.5],[-59.25,47.62],[-56.5,47.12]]]}},{"type":"Feature","properties":{"kind":"blob","cls":4,"id":26},"geometry":{"type":"Polygon","coordinates":[[[129.75,51.38],[132.0,52.38],[132.62,53.5],[132.12,54.5],[129.0,55.62],[127.5,55.62],[126.5,55.12],[125.62,54.0],[125.88,53.0],[127.0,51.88],[129.75,51.38]],[[131.25,53.62],[131.12,53.75],[131.5,53.88],[131.25,53.62]]]}},{"type":"Feature","properties":{"kind":"blob","cls":4,"id":27},"geometry":{"type":"Polygon","coordinates":[[[-101.0,38.12],[-99.25,38.38],[-98.12,39.5],[-98.12,40.5],[-99.5,41.88],[-100.5,42.12],[-100.62,41.5],[-101.12,41.25],[-101.0,38.12]]]}},{"type":"Feature","properties":{"kind":"blob","cls":0,"id":28},"geometry":{"type":"Polygon","coordinates":[[[-25.25,14.38],[-24.38,15.5],[-24.62,17.25],[-26.0,18.12],[-26.88,17.75],[-27.38,16.25],[-28.12,15.5],[-27.25,14.38],[-25.25,14.38]]]}},{"type":"Feature","properties":{"kind":"blob","cls":4,"id":29},"geometry":{"type":"MultiPolygon","coordinates":[[[[-70.25,36.62],[-68.75,36.38],[-67.12,37.5],[-66.88,38.5],[-68.0,39.88],[-69.75,40.12],[-71.38,39.0],[-71.62,38.0],[-70.25,36.62]]],[[[-65.5,39.12],[-63.25,39.12],[-62.12,40.25],[-62.12,41.5],[-63.25,42.62],[-64.5,43.12],[-67.5,42.88],[-68.62,41.75],[-68.62,40.75],[-67.5,39.62],[-65.5,39.12]]]]}},{"type":"Feature","properties":{"kind":"blob","cls":4,"id":30},"geometry":{"type":"Polygon","coordinates":[[[-26.25,-39.62],[-23.5,-38.62],[-22.12,-37.25],[-22.12,-35.75],[-23.75,-34.62],[-24.75,-34.62],[-29.0,-36.12],[-29.88,-37.0],[-30.12,-38.0],[-29.0,-39.38],[-26.25,-39.62]]]}},{"type":"Feature","properties":{"kind":"blob","cls":1,"id":31},"geometry":{"type":"Polygon","coordinates":[[[-77.0,-53.12],[-75.5,-52.62],[-74.62,-51.75],[-74.88,-50.25],[-75.75,-49.38],[-77.25,-48.88],[-80.0,-49.38],[-81.12,-50.75],[-81.12,-51.75],[-80.25,-52.62],[-77.0,-53.12]]]}},{"type":"Feature","properties":{"kind":"blob","cls":4,"id":32},"geometry":{"type":"Polygon","coordinates":[[[23.5,-34.62],[24.75,-34.12],[25.38,-32.75],[24.5,-32.12],[21.5,-32.38],[20.5,-33.38],[20.62,-32.75],[19.88,-32.0],[19.88,-33.0],[20.5,-33.88],[23.5,-34.62]],[[23.5,-33.62],[23.38,-33.5],[23.75,-33.38],[23.5,-33.62]],[[22.5,-33.12],[22.38,-33.0],[22.5,-32.88],[22.5,-33.12]]]}},{"type":"Feature","properties":{"kind":"blob","cls":4,"id":33},"geometry":{"type":"Polygon","coordinates":[[[-69.5,-53.12],[-67.5,-52.38],[-65.88,-50.0],[-66.12,-49.0],[-67.25,-48.12],[-68.75,-47.62],[-70.75,-47.88],[-71.38,-48.25],[-71.75,-49.12],[-72.25,-48.88],[-72.62,-50.5],[-71.88,-50.5],[-72.25,-50.88],[-72.88,-50.75],[-72.88,-51.75],[-72.0,-52.62],[-69.5,-53.12]]]}},{"type":"Feature","properties":{"kind":"blob","cls":4,"id":34},"geometry":{"type":"Polygon","coordinates":[[[-85.0,44.62],[-83.75,45.12],[-82.62,46.25],[-82.62,47.25],[-83.5,48.12],[-84.75,48.62],[-86.25,48.62],[-87.5,48.12],[-88.62,47.0],[-88.62,46.0],[-87.75,45.12],[-85.0,44.62]]]}},{"type":"Feature","properties":{"kind":"blob","cls":1,"id":35},"geometry":{"type":"MultiPolygon","coordinates":[[[[37.38,1.0],[37.75,0.88],[38.12,2.0],[37.5,3.12],[36.75,3.38],[36.62,2.5],[37.38,1.0]]],[[[36.5,3.62],[36.38,3.5],[36.5,3.38],[36.5,3.62]]]]}},{"type":"Feature","properties":{"kind":"blob","cls":1,"id":36},"geometry":{"type":"Polygon","coordinates":[[[31.25,-31.62],[32.38,-30.25],[32.12,-29.25],[31.25,-28.38],[29.88,-28.75],[30.88,-29.0],[29.5,-30.88],[28.88,-31.0],[29.25,-31.62],[31.25,-31.62]]]}},{"type":"Feature","properties":{"kind":"blob","cls":4,"id":37},"geometry":{"type":"Polygon","coordinates":[[[-122.75,37.88],[-121.62,39.25],[-121.62,40.0],[-122.25,40.88],[-122.88,40.75],[-122.62,39.5],[-123.12,39.5],[-123.62,40.5],[-123.38,41.5],[-124.0,41.88],[-125.5,41.62],[-126.62,40.5],[-126.38,38.75],[-125.5,37.88],[-122.75,37.88]]]}},{"type":"Feature","properties":{"kind":"blob","cls":5,"id":38},"geometry":{"type":"MultiPolygon","coordinates":[[[[97.5,23.38],[97.38,23.25],[97.5,23.12],[97.5,23.38]]],[[[96.25,23.38],[97.25,23.38],[97.38,24.0],[95.5,25.62],[95.38,24.25],[96.25,23.38]]]]}},{"type":"Feature","properties":{"kind":"blob","cls":4,"id":39},"geometry":{"type":"Polygon","coordinates":[[[-66.38,-28.75],[-66.25,-27.62],[-67.12,-28.25],[-66.38,-28.75]]]}},{"type":"Feature","properties":{"kind":"blob","cls":1,"id":40},"geometry":{"type":"Polygon","coordinates":[[[22.5,55.88],[24.12,57.0],[24.38,58.5],[23.75,59.12],[22.5,58.62],[22.38,59.5],[21.75,59.88],[18.75,59.88],[16.25,58.88],[15.62,58.0],[15.88,57.0],[17.75,55.88],[22.5,55.88]]]}},{"type":"Feature","properties":{"kind":"blob","cls":4,"id":41},"geometry":{"type":"Polygon","coordinates":[[[-64.38,-22.5],[-64.25,-22.88],[-63.38,-22.0],[-63.38,-21.0],[-64.0,-20.62],[-64.12,-21.25],[-63.62,-21.75],[-64.38,-22.5]]]}},{"type":"Feature","properties":{"kind":"blob","cls":4,"id":42},"geometry":{"type":"Polygon","coordinates":[[[-65.88,-28.5],[-65.75,-28.62],[-65.62,-28.5],[-65.88,-28.5]]]}},{"type":"Feature","properties":{"kind":"blob","cls":4,"id":43},"geometry":{"type":"Polygon","coordinates":[[[-65.25,-28.12],[-64.62,-27.0],[-65.25,-26.12],[-65.88,-27.25],[-65.25,-28.12]]]}},{"type":"Feature","properties":{"kind":"blob","cls":1,"id":44},"geometry":{"type":"Polygon","coordinates":[[[50.25,39.62],[51.38,40.75],[51.38,41.75],[50.25,42.88],[48.5,43.12],[47.62,42.75],[47.88,41.75],[48.88,41.0],[48.75,40.62],[46.62,41.5],[46.62,40.75],[47.75,39.62],[50.25,39.62]]]}},{"type":"Feature","properties":{"kind":"center","id":1,"lat":-64.25,"lon":175.75,"mslp":945.3,"hvtl":94.2,"hvtu":-101.7,"hb":5.0,"idx":0.7,"cls":1,"psfc":945.3,"terrain":false,"radius_km":200,"name":"sym shallow warm","track":"T04"},"geometry":{"type":"Point","coordinates":[175.75,-64.25]}},{"type":"Feature","properties":{"kind":"center","id":2,"lat":-68.5,"lon":-116.0,"mslp":954.2,"hvtl":6.5,"hvtu":1.4,"hb":14.9,"idx":0.1,"cls":2,"psfc":954.2,"terrain":false,"radius_km":200,"name":"asym deep warm","track":"T12"},"geometry":{"type":"Point","coordinates":[-116.0,-68.5]}},{"type":"Feature","properties":{"kind":"center","id":3,"lat":62.5,"lon":-40.75,"mslp":954.6,"hvtl":109.3,"hvtu":24.5,"hb":9.9,"idx":1.8,"cls":0,"psfc":954.7,"terrain":false,"radius_km":200,"name":"sym deep warm","track":"T14"},"geometry":{"type":"Point","coordinates":[-40.75,62.5]}},{"type":"Feature","properties":{"kind":"center","id":4,"lat":-70.5,"lon":-175.5,"mslp":957.1,"hvtl":324.1,"hvtu":-74.2,"hb":39.4,"idx":1.4,"cls":3,"psfc":957.1,"terrain":false,"radius_km":200,"name":"asym shallow warm","track":"T15"},"geometry":{"type":"Point","coordinates":[-175.5,-70.5]}},{"type":"Feature","properties":{"kind":"center","id":5,"lat":-58.5,"lon":-1.5,"mslp":958.8,"hvtl":4.2,"hvtu":-89.0,"hb":8.0,"idx":-0.6,"cls":1,"psfc":958.8,"terrain":false,"radius_km":200,"name":"sym shallow warm","track":"T19"},"geometry":{"type":"Point","coordinates":[-1.5,-58.5]}},{"type":"Feature","properties":{"kind":"center","id":6,"lat":-49.5,"lon":-112.75,"mslp":963.1,"hvtl":-3.0,"hvtu":-232.8,"hb":-2.4,"idx":-1.0,"cls":5,"psfc":963.1,"terrain":false,"radius_km":200,"name":"sym cold","track":"T26"},"geometry":{"type":"Point","coordinates":[-112.75,-49.5]}},{"type":"Feature","properties":{"kind":"center","id":7,"lat":-66.25,"lon":110.25,"mslp":966.9,"hvtl":-307.9,"hvtu":-126.1,"hb":47.8,"idx":-2.8,"cls":4,"psfc":966.3,"terrain":false,"radius_km":200,"name":"asym cold","track":"T33"},"geometry":{"type":"Point","coordinates":[110.25,-66.25]}},{"type":"Feature","properties":{"kind":"center","id":8,"lat":-62.25,"lon":102.5,"mslp":970.4,"hvtl":-242.0,"hvtu":-17.2,"hb":47.5,"idx":-2.1,"cls":4,"psfc":970.4,"terrain":false,"radius_km":200,"name":"asym cold","track":"T38"},"geometry":{"type":"Point","coordinates":[102.5,-62.25]}},{"type":"Feature","properties":{"kind":"center","id":9,"lat":-60.75,"lon":-145.5,"mslp":972.4,"hvtl":-77.5,"hvtu":-4.8,"hb":51.2,"idx":-1.3,"cls":4,"psfc":972.4,"terrain":false,"radius_km":200,"name":"asym cold"},"geometry":{"type":"Point","coordinates":[-145.5,-60.75]}},{"type":"Feature","properties":{"kind":"center","id":10,"lat":-47.75,"lon":25.0,"mslp":974.1,"hvtl":-141.5,"hvtu":-372.4,"hb":64.9,"idx":-2.8,"cls":4,"psfc":974.1,"terrain":false,"radius_km":200,"name":"asym cold","track":"T29"},"geometry":{"type":"Point","coordinates":[25.0,-47.75]}},{"type":"Feature","properties":{"kind":"center","id":11,"lat":-55.25,"lon":58.25,"mslp":978.9,"hvtl":-409.9,"hvtu":-304.3,"hb":67.1,"idx":-3.0,"cls":4,"psfc":978.9,"terrain":false,"radius_km":200,"name":"asym cold","track":"T27"},"geometry":{"type":"Point","coordinates":[58.25,-55.25]}},{"type":"Feature","properties":{"kind":"center","id":12,"lat":31.0,"lon":147.75,"mslp":979.8,"hvtl":62.3,"hvtu":245.6,"hb":5.4,"idx":2.1,"cls":0,"psfc":979.8,"terrain":false,"radius_km":200,"name":"sym deep warm","track":"T09"},"geometry":{"type":"Point","coordinates":[147.75,31.0]}},{"type":"Feature","properties":{"kind":"center","id":13,"lat":70.0,"lon":76.25,"mslp":983.1,"hvtl":77.9,"hvtu":-26.9,"hb":-16.3,"idx":1.0,"cls":1,"psfc":977.4,"terrain":false,"radius_km":200,"name":"sym shallow warm","track":"T57"},"geometry":{"type":"Point","coordinates":[76.25,70.0]}},{"type":"Feature","properties":{"kind":"center","id":14,"lat":55.0,"lon":-16.5,"mslp":988.3,"hvtl":-414.8,"hvtu":-489.8,"hb":90.1,"idx":-3.0,"cls":4,"psfc":988.3,"terrain":false,"radius_km":200,"name":"asym cold","track":"T32"},"geometry":{"type":"Point","coordinates":[-16.5,55.0]}},{"type":"Feature","properties":{"kind":"center","id":15,"lat":73.5,"lon":-90.25,"mslp":989.7,"hvtl":-212.1,"hvtu":-205.6,"hb":57.4,"idx":-2.9,"cls":4,"psfc":989.5,"terrain":false,"radius_km":200,"name":"asym cold","track":"T68"},"geometry":{"type":"Point","coordinates":[-90.25,73.5]}},{"type":"Feature","properties":{"kind":"center","id":16,"lat":-78.5,"lon":-30.75,"mslp":990.4,"hvtl":-275.8,"hvtu":-27.3,"hb":66.7,"idx":-2.3,"cls":4,"psfc":900.6,"terrain":false,"radius_km":200,"name":"asym cold","track":"T56"},"geometry":{"type":"Point","coordinates":[-30.75,-78.5]}},{"type":"Feature","properties":{"kind":"center","id":17,"lat":62.75,"lon":-169.5,"mslp":991.0,"hvtl":22.0,"hvtu":-190.8,"hb":4.5,"idx":-0.5,"cls":1,"psfc":991.0,"terrain":false,"radius_km":200,"name":"sym shallow warm","track":"T48"},"geometry":{"type":"Point","coordinates":[-169.5,62.75]}},{"type":"Feature","properties":{"kind":"center","id":18,"lat":-70.0,"lon":23.75,"mslp":991.3,"hvtl":-60.4,"hvtu":-100.0,"hb":13.3,"idx":-1.8,"cls":4,"psfc":991.3,"terrain":false,"radius_km":200,"name":"asym cold"},"geometry":{"type":"Point","coordinates":[23.75,-70.0]}},{"type":"Feature","properties":{"kind":"center","id":19,"lat":82.25,"lon":-139.5,"mslp":991.4,"hvtl":10.2,"hvtu":-90.9,"hb":26.0,"idx":-0.5,"cls":3,"psfc":991.4,"terrain":false,"radius_km":200,"name":"asym shallow warm","track":"T72"},"geometry":{"type":"Point","coordinates":[-139.5,82.25]}},{"type":"Feature","properties":{"kind":"center","id":20,"lat":-70.75,"lon":20.0,"mslp":991.6,"hvtl":-60.2,"hvtu":-87.1,"hb":9.8,"idx":-1.8,"cls":5,"psfc":980.2,"terrain":false,"radius_km":200,"name":"sym cold"},"geometry":{"type":"Point","coordinates":[20.0,-70.75]}},{"type":"Feature","properties":{"kind":"center","id":21,"lat":86.0,"lon":14.25,"mslp":992.5,"hvtl":-190.6,"hvtu":-69.6,"hb":70.1,"idx":-2.5,"cls":4,"psfc":992.5,"terrain":false,"radius_km":200,"name":"asym cold","track":"T59"},"geometry":{"type":"Point","coordinates":[14.25,86.0]}},{"type":"Feature","properties":{"kind":"center","id":22,"lat":-48.5,"lon":141.0,"mslp":992.7,"hvtl":92.8,"hvtu":-290.4,"hb":-3.4,"idx":0.5,"cls":1,"psfc":992.7,"terrain":false,"radius_km":200,"name":"sym shallow warm","track":"T55"},"geometry":{"type":"Point","coordinates":[141.0,-48.5]}},{"type":"Feature","properties":{"kind":"center","id":23,"lat":-83.25,"lon":-154.75,"mslp":995.5,"hvtl":5.5,"hvtu":-209.8,"hb":36.5,"idx":-0.9,"cls":3,"psfc":977.9,"terrain":false,"radius_km":200,"name":"asym shallow warm","track":"T54"},"geometry":{"type":"Point","coordinates":[-154.75,-83.25]}},{"type":"Feature","properties":{"kind":"center","id":24,"lat":-58.0,"lon":-35.75,"mslp":995.5,"hvtl":-359.5,"hvtu":-225.5,"hb":58.8,"idx":-3.0,"cls":4,"psfc":995.5,"terrain":false,"radius_km":200,"name":"asym cold"},"geometry":{"type":"Point","coordinates":[-35.75,-58.0]}},{"type":"Feature","properties":{"kind":"center","id":25,"lat":49.25,"lon":-56.75,"mslp":996.5,"hvtl":-496.7,"hvtu":-386.9,"hb":141.4,"idx":-3.0,"cls":4,"psfc":960.0,"terrain":false,"radius_km":200,"name":"asym cold","track":"T10"},"geometry":{"type":"Point","coordinates":[-56.75,49.25]}},{"type":"Feature","properties":{"kind":"center","id":26,"lat":53.5,"lon":129.25,"mslp":998.0,"hvtl":-75.0,"hvtu":-166.8,"hb":50.3,"idx":-2.2,"cls":4,"psfc":950.8,"terrain":false,"radius_km":200,"name":"asym cold","track":"T83"},"geometry":{"type":"Point","coordinates":[129.25,53.5]}},{"type":"Feature","properties":{"kind":"center","id":27,"lat":40.0,"lon":-101.0,"mslp":1002.0,"hvtl":-154.4,"hvtu":-142.9,"hb":41.2,"idx":-2.7,"cls":4,"psfc":903.0,"terrain":true,"radius_km":200,"name":"asym cold"},"geometry":{"type":"Point","coordinates":[-101.0,40.0]}},{"type":"Feature","properties":{"kind":"center","id":28,"lat":16.25,"lon":-26.25,"mslp":1002.3,"hvtl":125.6,"hvtu":58.8,"hb":-5.8,"idx":2.2,"cls":0,"psfc":1002.3,"terrain":false,"radius_km":200,"name":"sym deep warm","track":"T86"},"geometry":{"type":"Point","coordinates":[-26.25,16.25]}},{"type":"Feature","properties":{"kind":"center","id":29,"lat":40.75,"lon":-64.5,"mslp":1002.6,"hvtl":-84.2,"hvtu":-182.5,"hb":39.9,"idx":-2.3,"cls":4,"psfc":1002.6,"terrain":false,"radius_km":200,"name":"asym cold","track":"T64"},"geometry":{"type":"Point","coordinates":[-64.5,40.75]}},{"type":"Feature","properties":{"kind":"center","id":30,"lat":-37.25,"lon":-25.75,"mslp":1005.1,"hvtl":-261.2,"hvtu":-324.0,"hb":87.1,"idx":-3.0,"cls":4,"psfc":1005.1,"terrain":false,"radius_km":200,"name":"asym cold","track":"T05"},"geometry":{"type":"Point","coordinates":[-25.75,-37.25]}},{"type":"Feature","properties":{"kind":"center","id":31,"lat":-51.0,"lon":-77.75,"mslp":1005.1,"hvtl":13.1,"hvtu":-63.6,"hb":4.4,"idx":-0.3,"cls":1,"psfc":1005.1,"terrain":false,"radius_km":200,"name":"sym shallow warm","track":"T79"},"geometry":{"type":"Point","coordinates":[-77.75,-51.0]}},{"type":"Feature","properties":{"kind":"center","id":32,"lat":-32.5,"lon":22.5,"mslp":1005.4,"hvtl":-361.8,"hvtu":-130.8,"hb":67.7,"idx":-2.9,"cls":4,"psfc":916.8,"terrain":false,"radius_km":200,"name":"asym cold"},"geometry":{"type":"Point","coordinates":[22.5,-32.5]}},{"type":"Feature","properties":{"kind":"center","id":33,"lat":-51.25,"lon":-70.0,"mslp":1006.7,"hvtl":-115.1,"hvtu":-181.4,"hb":48.6,"idx":-2.6,"cls":4,"psfc":986.2,"terrain":false,"radius_km":200,"name":"asym cold","track":"T105"},"geometry":{"type":"Point","coordinates":[-70.0,-51.25]}},{"type":"Feature","properties":{"kind":"center","id":34,"lat":46.5,"lon":-86.0,"mslp":1007.0,"hvtl":-158.5,"hvtu":-155.7,"hb":95.5,"idx":-2.8,"cls":4,"psfc":976.1,"terrain":false,"radius_km":200,"name":"asym cold"},"geometry":{"type":"Point","coordinates":[-86.0,46.5]}},{"type":"Feature","properties":{"kind":"center","id":35,"lat":3.0,"lon":36.75,"mslp":1008.2,"hvtl":100.4,"hvtu":-1.4,"hb":-3.5,"idx":1.5,"cls":1,"psfc":948.5,"terrain":false,"radius_km":200,"name":"sym shallow warm"},"geometry":{"type":"Point","coordinates":[36.75,3.0]}},{"type":"Feature","properties":{"kind":"center","id":36,"lat":-31.25,"lon":29.25,"mslp":1008.4,"hvtl":20.3,"hvtu":-71.6,"hb":8.4,"idx":-0.2,"cls":1,"psfc":938.0,"terrain":false,"radius_km":200,"name":"sym shallow warm"},"geometry":{"type":"Point","coordinates":[29.25,-31.25]}},{"type":"Feature","properties":{"kind":"center","id":37,"lat":37.75,"lon":-124.0,"mslp":1008.7,"hvtl":-127.8,"hvtu":-112.0,"hb":32.7,"idx":-2.5,"cls":4,"psfc":1008.7,"terrain":false,"radius_km":200,"name":"asym cold"},"geometry":{"type":"Point","coordinates":[-124.0,37.75]}},{"type":"Feature","properties":{"kind":"center","id":38,"lat":24.0,"lon":96.5,"mslp":1010.3,"hvtl":-28.4,"hvtu":-128.7,"hb":5.0,"idx":-1.4,"cls":5,"psfc":994.7,"terrain":false,"radius_km":200,"name":"sym cold","track":"T113"},"geometry":{"type":"Point","coordinates":[96.5,24.0]}},{"type":"Feature","properties":{"kind":"center","id":39,"lat":-28.25,"lon":-66.5,"mslp":1011.0,"hvtl":-120.6,"hvtu":-240.0,"hb":21.4,"idx":-2.7,"cls":4,"psfc":927.1,"terrain":false,"radius_km":200,"name":"asym cold","track":"T96"},"geometry":{"type":"Point","coordinates":[-66.5,-28.25]}},{"type":"Feature","properties":{"kind":"center","id":40,"lat":57.75,"lon":20.5,"mslp":1011.6,"hvtl":49.5,"hvtu":-213.1,"hb":-6.4,"idx":-0.1,"cls":1,"psfc":1011.6,"terrain":false,"radius_km":200,"name":"sym shallow warm","track":"T80"},"geometry":{"type":"Point","coordinates":[20.5,57.75]}},{"type":"Feature","properties":{"kind":"center","id":41,"lat":-22.0,"lon":-64.0,"mslp":1011.6,"hvtl":-217.4,"hvtu":-232.5,"hb":41.2,"idx":-2.9,"cls":4,"psfc":904.8,"terrain":true,"radius_km":200,"name":"asym cold"},"geometry":{"type":"Point","coordinates":[-64.0,-22.0]}},{"type":"Feature","properties":{"kind":"center","id":42,"lat":-28.5,"lon":-65.75,"mslp":1011.8,"hvtl":-84.8,"hvtu":-243.2,"hb":25.5,"idx":-2.4,"cls":4,"psfc":932.6,"terrain":false,"radius_km":200,"name":"asym cold","track":"T101"},"geometry":{"type":"Point","coordinates":[-65.75,-28.5]}},{"type":"Feature","properties":{"kind":"center","id":43,"lat":-26.25,"lon":-65.25,"mslp":1012.2,"hvtl":-189.3,"hvtu":-270.6,"hb":33.4,"idx":-2.9,"cls":4,"psfc":916.4,"terrain":true,"radius_km":200,"name":"asym cold"},"geometry":{"type":"Point","coordinates":[-65.25,-26.25]}},{"type":"Feature","properties":{"kind":"center","id":44,"lat":41.25,"lon":49.0,"mslp":1015.8,"hvtl":112.0,"hvtu":-104.0,"hb":8.5,"idx":0.8,"cls":1,"psfc":1007.4,"terrain":false,"radius_km":200,"name":"sym shallow warm","track":"T114"},"geometry":{"type":"Point","coordinates":[49.0,41.25]}}]}