{"type":"FeatureCollection","features":[{"type":"Feature","properties":{"kind":"blob","cls":4,"id":1},"geometry":{"type":"Polygon","coordinates":[[[-150.5,-61.88],[-148.75,-61.38],[-147.88,-60.75],[-147.38,-59.5],[-148.75,-58.12],[-150.5,-57.62],[-152.5,-57.62],[-154.25,-58.12],[-155.38,-59.25],[-155.38,-60.0],[-154.25,-61.12],[-150.5,-61.88]]]}},{"type":"Feature","properties":{"kind":"blob","cls":2,"id":2},"geometry":{"type":"Polygon","coordinates":[[[62.5,-62.38],[65.75,-62.62],[67.0,-62.38],[68.62,-61.25],[68.62,-60.25],[67.0,-59.12],[64.5,-58.62],[59.5,-58.88],[57.88,-60.0],[57.88,-61.0],[58.5,-61.62],[63.38,-61.75],[63.0,-62.38],[62.5,-62.38]]]}},{"type":"Feature","properties":{"kind":"blob","cls":3,"id":3},"geometry":{"type":"Polygon","coordinates":[[[-164.25,-62.88],[-162.12,-61.25],[-162.12,-60.25],[-164.0,-58.88],[-166.0,-58.38],[-169.25,-58.88],[-170.62,-60.0],[-170.88,-61.5],[-169.0,-62.88],[-164.25,-62.88]]]}},{"type":"Feature","properties":{"kind":"blob","cls":6,"id":4},"geometry":{"type":"Polygon","coordinates":[[[116.75,-62.38],[121.0,-62.38],[122.62,-61.25],[122.62,-60.0],[121.25,-58.88],[118.75,-58.38],[116.75,-56.88],[115.25,-56.62],[115.62,-55.0],[114.75,-54.12],[111.25,-53.62],[109.5,-54.12],[108.62,-55.0],[108.62,-56.0],[109.75,-57.12],[111.38,-57.5],[111.12,-59.25],[111.75,-59.88],[113.75,-60.62],[114.75,-61.88],[116.75,-62.38]]]}},{"type":"Feature","properties":{"kind":"blob","cls":1,"id":5},"geometry":{"type":"Polygon","coordinates":[[[-92.5,-70.38],[-89.25,-70.38],[-86.75,-69.88],[-85.12,-68.5],[-85.12,-68.0],[-87.0,-66.62],[-89.25,-66.12],[-94.25,-66.38],[-96.38,-67.5],[-96.62,-68.5],[-96.0,-69.12],[-93.5,-69.38],[-92.5,-70.38]]]}},{"type":"Feature","properties":{"kind":"blob","cls":1,"id":6},"geometry":{"type":"Polygon","coordinates":[[[42.5,-58.62],[44.25,-58.12],[45.62,-56.5],[45.38,-55.75],[44.5,-54.88],[42.75,-54.38],[39.5,-54.88],[38.12,-56.75],[39.25,-58.12],[42.5,-58.62]]]}},{"type":"Feature","properties":{"kind":"blob","cls":3,"id":7},"geometry":{"type":"Polygon","coordinates":[[[-153.75,-69.62],[-151.5,-69.12],[-150.12,-68.25],[-150.12,-67.25],[-151.75,-66.12],[-154.0,-65.62],[-158.75,-65.88],[-159.38,-69.0],[-153.75,-69.62]]]}},{"type":"Feature","properties":{"kind":"blob","cls":5,"id":8},"geometry":{"type":"Polygon","coordinates":[[[89.5,-66.62],[95.75,-66.62],[97.0,-66.38],[98.62,-65.0],[96.5,-64.38],[93.75,-64.38],[90.0,-65.62],[89.5,-66.62]]]}},{"type":"Feature","properties":{"kind":"blob","cls":3,"id":9},"geometry":{"type":"Polygon","coordinates":[[[20.0,-49.88],[21.25,-49.38],[22.12,-48.5],[22.12,-47.5],[21.25,-46.62],[20.0,-46.12],[17.75,-46.62],[16.88,-47.5],[16.88,-48.5],[17.75,-49.38],[20.0,-49.88]]]}},{"type":"Feature","properties":{"kind":"blob","cls":5,"id":10},"geometry":{"type":"Polygon","coordinates":[[[179.75,-82.62],[180.0,-79.88],[177.75,-80.12],[176.25,-80.62],[175.62,-81.25],[176.25,-81.88],[177.75,-82.38],[179.75,-82.62]]]}},{"type":"Feature","properties":{"kind":"blob","cls":5,"id":10},"geometry":{"type":"Polygon","coordinates":[[[-179.75,-79.88],[-180.0,-82.62],[-177.25,-83.12],[-152.75,-83.12],[-143.5,-82.38],[-137.62,-81.25],[-138.5,-80.38],[-153.25,-80.12],[-157.25,-79.62],[-175.0,-79.38],[-179.75,-79.88]]]}},{"type":"Feature","properties":{"kind":"blob","cls":1,"id":11},"geometry":{"type":"Polygon","coordinates":[[[-152.75,47.12],[-151.0,47.88],[-150.38,49.25],[-150.62,50.0],[-151.75,50.88],[-153.25,51.38],[-155.5,50.88],[-156.5,52.12],[-158.0,52.62],[-160.5,52.38],[-161.62,51.5],[-161.88,50.5],[-161.0,49.38],[-158.0,48.88],[-156.75,49.38],[-156.0,47.88],[-152.75,47.12]]]}},{"type":"Feature","properties":{"kind":"blob","cls":4,"id":12},"geometry":{"type":"Polygon","coordinates":[[[-37.5,-75.12],[-30.0,-75.12],[-26.75,-74.12],[-26.12,-73.0],[-27.0,-72.12],[-29.25,-71.38],[-37.0,-71.12],[-40.75,-71.88],[-42.38,-73.0],[-42.38,-73.75],[-41.25,-74.62],[-37.5,-75.12]]]}},{"type":"Feature","properties":{"kind":"blob","cls":3,"id":13},"geometry":{"type":"Polygon","coordinates":[[[14.25,73.38],[21.5,73.38],[24.0,74.12],[24.88,75.25],[23.75,76.38],[22.25,76.88],[15.25,77.38],[10.25,76.38],[8.88,75.25],[10.25,73.88],[14.25,73.38]]]}},{"type":"Feature","properties":{"kind":"blob","cls":1,"id":14},"geometry":{"type":"Polygon","coordinates":[[[-48.0,47.88],[-46.0,48.62],[-45.12,49.75],[-45.38,50.75],[-46.0,51.38],[-47.5,51.88],[-48.5,51.88],[-48.75,51.12],[-49.5,51.88],[-51.0,51.38],[-51.62,50.75],[-51.88,49.75],[-51.0,48.62],[-48.0,47.88]]]}},{"type":"Feature","properties":{"kind":"blob","cls":4,"id":15},"geometry":{"type":"Polygon","coordinates":[[[61.5,80.62],[67.75,81.62],[69.12,82.5],[67.75,83.38],[62.75,84.12],[47.25,84.38],[39.0,83.62],[36.5,82.88],[35.88,82.25],[36.5,81.62],[39.75,80.88],[61.5,80.62]]]}},{"type":"Feature","properties":{"kind":"blob","cls":0,"id":16},"geometry":{"type":"Polygon","coordinates":[[[151.25,53.62],[153.0,54.12],[153.88,55.0],[153.88,56.25],[153.0,57.12],[152.25,56.62],[151.0,56.62],[149.75,57.38],[148.0,57.12],[146.88,56.0],[146.88,55.0],[147.75,54.12],[151.25,53.62]]]}},{"type":"Feature","properties":{"kind":"blob","cls":1,"id":17},"geometry":{"type":"MultiPolygon","coordinates":[[[[5.0,-70.88],[4.88,-71.0],[5.0,-71.12],[5.0,-70.88]]],[[[5.12,-70.75],[12.0,-70.88],[13.12,-70.0],[8.75,-69.88],[5.12,-70.75]]]]}},{"type":"Feature","properties":{"kind":"blob","cls":5,"id":18},"geometry":{"type":"Polygon","coordinates":[[[-112.25,83.38],[-98.75,84.12],[-91.25,84.12],[-80.5,85.12],[-77.75,85.62],[-75.88,86.5],[-77.0,87.12],[-84.25,87.88],[-101.0,88.38],[-107.0,87.62],[-121.75,87.62],[-126.0,88.12],[-134.75,88.12],[-145.25,87.38],[-147.0,87.12],[-148.12,86.5],[-146.25,85.62],[-136.5,84.12],[-130.25,83.62],[-112.25,83.38]]]}},{"type":"Feature","properties":{"kind":"blob","cls":3,"id":19},"geometry":{"type":"Polygon","coordinates":[[[-49.75,53.62],[-47.5,54.38],[-45.88,56.0],[-45.62,57.25],[-46.75,58.38],[-48.5,58.88],[-51.75,58.38],[-52.38,57.75],[-51.88,56.25],[-52.25,56.12],[-53.25,56.88],[-53.62,55.0],[-52.75,54.12],[-49.75,53.62]]]}},{"type":"Feature","properties":{"kind":"blob","cls":3,"id":20},"geometry":{"type":"Polygon","coordinates":[[[139.5,77.62],[154.25,77.62],[158.75,78.62],[159.88,79.25],[160.12,80.0],[157.75,81.38],[153.5,82.12],[139.5,82.38],[131.25,81.38],[128.88,80.0],[130.0,78.88],[132.75,78.12],[139.5,77.62]]]}},{"type":"Feature","properties":{"kind":"blob","cls":4,"id":21},"geometry":{"type":"Polygon","coordinates":[[[-39.0,51.12],[-37.5,51.62],[-36.38,53.25],[-37.12,54.5],[-39.25,55.38],[-40.5,55.38],[-42.5,54.62],[-43.12,53.5],[-42.62,52.5],[-41.75,51.62],[-39.0,51.12]]]}},{"type":"Feature","properties":{"kind":"blob","cls":5,"id":22},"geometry":{"type":"Polygon","coordinates":[[[-150.5,56.38],[-148.88,57.5],[-148.88,58.75],[-149.5,59.38],[-151.5,60.12],[-154.25,59.88],[-156.12,58.5],[-156.12,57.5],[-154.5,56.38],[-150.5,56.38]],[[-155.0,58.12],[-155.12,58.25],[-155.0,58.38],[-155.0,58.12]]]}},{"type":"Feature","properties":{"kind":"blob","cls":4,"id":23},"geometry":{"type":"Polygon","coordinates":[[[-103.75,-57.12],[-102.0,-56.62],[-101.12,-55.75],[-101.12,-54.75],[-102.0,-53.88],[-105.5,-52.62],[-108.5,-53.38],[-109.12,-54.25],[-108.88,-55.25],[-107.0,-56.62],[-103.75,-57.12]]]}},{"type":"Feature","properties":{"kind":"blob","cls":0,"id":24},"geometry":{"type":"MultiPolygon","coordinates":[[[[-98.25,9.88],[-96.5,9.88],[-95.62,10.75],[-95.38,12.5],[-96.0,13.38],[-96.38,13.25],[-96.62,12.25],[-97.75,11.38],[-98.88,11.75],[-98.75,13.12],[-99.12,12.75],[-99.38,11.0],[-98.25,9.88]]],[[[-98.38,13.25],[-98.5,13.38],[-98.62,13.25],[-98.38,13.25]]],[[[-98.12,13.5],[-98.25,13.62],[-98.38,13.5],[-98.12,13.5]]]]}},{"type":"Feature","properties":{"kind":"blob","cls":4,"id":25},"geometry":{"type":"Polygon","coordinates":[[[-37.0,46.62],[-35.25,47.38],[-34.88,48.0],[-35.12,49.5],[-37.0,50.38],[-38.0,50.38],[-39.75,49.62],[-40.12,49.0],[-39.88,47.5],[-37.0,46.62]]]}},{"type":"Feature","properties":{"kind":"blob","cls":4,"id":26},"geometry":{"type":"Polygon","coordinates":[[[-57.25,-81.62],[-55.12,-81.5],[-55.25,-81.38],[-57.25,-81.62]]]}},{"type":"Feature","properties":{"kind":"blob","cls":6,"id":27},"geometry":{"type":"Polygon","coordinates":[[[-78.25,63.38],[-76.0,63.88],[-74.62,64.75],[-75.25,64.88],[-75.62,65.5],[-74.38,66.25],[-76.25,67.38],[-79.25,67.62],[-81.5,67.12],[-83.38,65.75],[-83.62,65.25],[-82.75,64.12],[-78.25,63.38]]]}},{"type":"Feature","properties":{"kind":"blob","cls":3,"id":28},"geometry":{"type":"Polygon","coordinates":[[[-79.5,-78.88],[-79.0,-79.12],[-78.12,-78.25],[-78.75,-77.62],[-79.5,-78.88]]]}},{"type":"Feature","properties":{"kind":"blob","cls":1,"id":29},"geometry":{"type":"Polygon","coordinates":[[[161.0,56.62],[164.75,56.62],[166.38,57.75],[166.38,59.25],[164.75,60.38],[162.5,60.62],[161.75,61.88],[159.5,62.62],[158.25,62.62],[158.0,62.12],[156.0,62.38],[155.0,60.88],[154.38,60.75],[154.38,60.25],[155.25,59.38],[156.25,58.88],[158.5,58.62],[158.62,57.75],[159.25,57.12],[161.0,56.62]],[[161.75,59.38],[161.62,59.5],[161.75,59.62],[161.75,59.38]],[[156.75,61.88],[156.62,62.0],[156.75,62.12],[156.75,61.88]],[[160.38,57.25],[160.12,57.5],[161.0,58.62],[161.12,58.25],[160.38,57.25]]]}},{"type":"Feature","properties":{"kind":"blob","cls":4,"id":30},"geometry":{"type":"Polygon","coordinates":[[[-58.5,67.88],[-56.5,68.62],[-55.62,69.5],[-55.62,70.0],[-56.5,71.12],[-58.25,71.88],[-61.0,72.38],[-64.25,72.38],[-65.75,70.88],[-68.0,70.38],[-69.5,70.62],[-69.88,70.0],[-68.88,69.5],[-69.38,69.25],[-68.5,68.62],[-66.25,67.88],[-58.5,67.88]]]}},{"type":"Feature","properties":{"kind":"blob","cls":4,"id":31},"geometry":{"type":"Polygon","coordinates":[[[-84.25,43.88],[-82.88,45.0],[-82.62,46.0],[-83.12,47.0],[-82.62,47.5],[-82.62,48.5],[-85.0,50.62],[-87.0,50.88],[-89.62,49.5],[-89.88,48.0],[-89.62,46.5],[-87.25,44.12],[-84.25,43.88]]]}},{"type":"Feature","properties":{"kind":"blob","cls":2,"id":32},"geometry":{"type":"Polygon","coordinates":[[[150.25,10.62],[151.62,11.5],[151.88,13.0],[151.0,14.12],[149.5,14.38],[148.12,13.5],[147.88,12.0],[148.5,11.12],[150.25,10.62]]]}},{"type":"Feature","properties":{"kind":"blob","cls":4,"id":33},"geometry":{"type":"Polygon","coordinates":[[[-166.75,-45.12],[-165.5,-44.62],[-164.88,-43.75],[-165.12,-42.25],[-167.0,-41.12],[-169.5,-41.62],[-170.12,-42.5],[-170.12,-43.75],[-169.5,-44.62],[-166.75,-45.12]]]}},{"type":"Feature","properties":{"kind":"blob","cls":4,"id":34},"geometry":{"type":"Polygon","coordinates":[[[179.75,43.62],[180.0,48.12],[179.25,48.12],[177.25,47.38],[176.62,46.75],[176.38,45.75],[177.5,44.38],[179.75,43.62]]]}},{"type":"Feature","properties":{"kind":"blob","cls":4,"id":34},"geometry":{"type":"Polygon","coordinates":[[[-179.75,48.12],[-180.0,43.62],[-176.75,43.38],[-175.5,43.88],[-174.62,44.75],[-174.38,45.75],[-175.25,46.88],[-179.75,48.12]]]}},{"type":"Feature","properties":{"kind":"blob","cls":2,"id":35},"geometry":{"type":"Polygon","coordinates":[[[-170.75,-13.88],[-169.5,-12.12],[-168.0,-12.12],[-167.5,-12.62],[-167.38,-12.25],[-168.25,-11.12],[-170.25,-11.12],[-171.12,-12.25],[-170.75,-13.88]]]}},{"type":"Feature","properties":{"kind":"blob","cls":4,"id":36},"geometry":{"type":"Polygon","coordinates":[[[-79.5,51.12],[-78.0,52.38],[-76.5,52.88],[-76.0,53.62],[-75.0,53.88],[-74.12,54.75],[-74.12,56.0],[-75.0,56.88],[-76.75,57.38],[-78.75,57.38],[-80.5,56.88],[-84.12,53.25],[-84.12,52.25],[-83.25,51.38],[-79.5,51.12]]]}},{"type":"Feature","properties":{"kind":"blob","cls":0,"id":37},"geometry":{"type":"Polygon","coordinates":[[[87.5,11.88],[89.0,11.88],[89.88,13.0],[89.62,14.5],[88.25,15.38],[87.0,15.12],[86.12,14.0],[86.38,12.5],[87.5,11.88]]]}},{"type":"Feature","properties":{"kind":"blob","cls":4,"id":38},"geometry":{"type":"Polygon","coordinates":[[[-42.75,-29.12],[-41.0,-28.62],[-40.12,-27.75],[-40.12,-26.25],[-41.75,-25.12],[-45.0,-25.38],[-45.88,-26.25],[-46.12,-27.5],[-45.0,-28.88],[-42.75,-29.12]]]}},{"type":"Feature","properties":{"kind":"blob","cls":3,"id":39},"geometry":{"type":"Polygon","coordinates":[[[36.25,41.12],[38.12,42.25],[38.38,43.75],[37.75,44.62],[35.25,45.12],[35.62,44.0],[33.38,43.0],[33.75,41.88],[34.5,41.88],[34.5,41.38],[36.25,41.12]]]}},{"type":"Feature","properties":{"kind":"blob","cls":4,"id":40},"geometry":{"type":"Polygon","coordinates":[[[50.5,39.38],[51.88,40.75],[51.88,42.0],[50.5,43.38],[48.5,43.62],[47.12,42.75],[48.88,41.0],[48.75,40.62],[46.38,41.5],[46.38,41.0],[48.0,39.38],[50.5,39.38]]]}},{"type":"Feature","properties":{"kind":"blob","cls":5,"id":41},"geometry":{"type":"Polygon","coordinates":[[[-97.75,-40.38],[-97.12,-40.0],[-97.12,-39.0],[-96.5,-38.38],[-95.62,-38.5],[-95.88,-37.25],[-96.75,-36.38],[-98.75,-36.12],[-100.62,-37.5],[-100.62,-39.25],[-99.75,-40.12],[-97.75,-40.38]]]}},{"type":"Feature","properties":{"kind":"blob","cls":1,"id":42},"geometry":{"type":"Polygon","coordinates":[[[31.25,-31.12],[32.75,-30.62],[33.88,-29.25],[33.88,-28.75],[32.75,-28.38],[31.75,-26.88],[30.88,-27.5],[31.38,-27.75],[31.0,-28.62],[29.88,-28.75],[30.88,-29.0],[29.88,-30.25],[30.0,-30.88],[31.25,-31.12]]]}},{"type":"Feature","properties":{"kind":"blob","cls":1,"id":43},"geometry":{"type":"Polygon","coordinates":[[[154.62,61.5],[154.75,61.38],[154.88,61.5],[154.62,61.5]]]}},{"type":"Feature","properties":{"kind":"blob","cls":4,"id":44},"geometry":{"type":"Polygon","coordinates":[[[-24.0,66.62],[-18.0,66.62],[-15.5,67.38],[-14.62,68.25],[-14.62,68.75],[-15.25,69.62],[-17.75,70.62],[-23.5,70.88],[-25.38,70.5],[-25.25,70.12],[-23.75,69.88],[-27.88,68.5],[-26.75,67.12],[-24.0,66.62]]]}},{"type":"Feature","properties":{"kind":"blob","cls":3,"id":45},"geometry":{"type":"MultiPolygon","coordinates":[[[[-110.5,27.12],[-109.38,28.5],[-109.62,29.75],[-110.25,30.12],[-110.5,29.88],[-110.88,30.75],[-111.5,31.12],[-112.75,30.88],[-113.62,30.0],[-113.5,29.62],[-111.75,29.62],[-111.38,29.25],[-111.62,28.25],[-112.88,27.25],[-110.5,27.12]]],[[[-113.75,29.62],[-113.88,29.5],[-113.75,29.38],[-113.75,29.62]]]]}},{"type":"Feature","properties":{"kind":"blob","cls":5,"id":46},"geometry":{"type":"Polygon","coordinates":[[[96.0,24.12],[96.62,24.5],[95.25,25.62],[94.38,24.75],[96.0,24.12]]]}},{"type":"Feature","properties":{"kind":"blob","cls":5,"id":47},"geometry":{"type":"Polygon","coordinates":[[[93.88,26.25],[94.0,25.88],[94.38,26.0],[94.25,26.38],[93.88,26.25]]]}},{"type":"Feature","properties":{"kind":"blob","cls":1,"id":48},"geometry":{"type":"Polygon","coordinates":[[[47.5,-16.62],[49.25,-16.62],[50.12,-15.5],[50.12,-14.25],[49.25,-13.12],[47.25,-13.12],[46.12,-14.5],[46.38,-16.0],[47.5,-16.62]],[[48.38,-14.5],[49.0,-13.62],[49.38,-14.75],[48.38,-14.5]]]}},{"type":"Feature","properties":{"kind":"blob","cls":4,"id":49},"geometry":{"type":"Polygon","coordinates":[[[-26.0,70.12],[-25.62,70.25],[-25.75,70.38],[-26.0,70.12]]]}},{"type":"Feature","properties":{"kind":"blob","cls":3,"id":50},"geometry":{"type":"MultiPolygon","coordinates":[[[[71.0,41.12],[70.88,41.0],[71.0,40.88],[71.0,41.12]]],[[[68.62,40.25],[69.5,39.88],[70.88,40.75],[69.62,40.5],[69.62,41.75],[70.25,42.62],[68.62,41.25],[68.62,40.25]]]]}},{"type":"Feature","properties":{"kind":"blob","cls":4,"id":51},"geometry":{"type":"MultiPolygon","coordinates":[[[[119.5,45.12],[119.38,44.75],[119.5,44.62],[119.88,45.0],[119.5,45.12]]],[[[115.75,44.62],[116.75,44.38],[117.0,45.12],[117.75,44.62],[119.5,45.38],[120.0,45.12],[120.38,46.25],[119.5,46.12],[119.12,46.75],[119.62,47.25],[118.25,47.88],[116.25,47.62],[114.88,46.25],[115.88,46.0],[116.12,45.5],[115.62,45.0],[115.75,44.62]],[[116.88,45.75],[116.75,45.62],[116.62,45.75],[116.88,45.75]],[[117.38,45.75],[117.25,45.62],[117.12,45.75],[117.38,45.75]]]]}},{"type":"Feature","properties":{"kind":"blob","cls":4,"id":52},"geometry":{"type":"MultiPolygon","coordinates":[[[[10.5,56.62],[12.25,57.12],[13.88,58.25],[13.88,59.75],[12.75,60.88],[11.0,61.38],[9.25,61.38],[8.38,60.75],[8.5,59.88],[7.0,59.12],[6.88,59.75],[6.25,60.12],[5.38,59.25],[5.38,58.0],[6.0,57.38],[10.5,56.62]]],[[[6.5,60.38],[6.38,60.25],[6.5,60.12],[6.5,60.38]]]]}},{"type":"Feature","properties":{"kind":"blob","cls":4,"id":53},"geometry":{"type":"Polygon","coordinates":[[[-64.0,-21.38],[-63.62,-21.0],[-64.0,-20.62],[-64.0,-21.38]]]}},{"type":"Feature","properties":{"kind":"blob","cls":4,"id":54},"geometry":{"type":"Polygon","coordinates":[[[6.88,60.5],[7.0,60.38],[7.12,60.5],[6.88,60.5]]]}},{"type":"Feature","properties":{"kind":"blob","cls":4,"id":55},"geometry":{"type":"Polygon","coordinates":[[[70.75,42.62],[71.62,42.75],[71.5,42.88],[70.75,42.62]]]}},{"type":"Feature","properties":{"kind":"center","id":1,"lat":-59.75,"lon":-151.5,"mslp":938.1,"hvtl":-65.7,"hvtu":-411.7,"hb":77.0,"idx":-2.2,"cls":4,"psfc":938.1,"terrain":false,"radius_km":200,"name":"asym cold","track":"T01"},"geometry":{"type":"Point","coordinates":[-151.5,-59.75]}},{"type":"Feature","properties":{"kind":"center","id":2,"lat":-60.75,"lon":62.5,"mslp":948.9,"hvtl":27.6,"hvtu":12.6,"hb":65.6,"idx":0.7,"cls":2,"psfc":948.9,"terrain":false,"radius_km":200,"name":"asym deep warm","track":"T05"},"geometry":{"type":"Point","coordinates":[62.5,-60.75]}},{"type":"Feature","properties":{"kind":"center","id":3,"lat":-61.0,"lon":-166.75,"mslp":957.4,"hvtl":63.0,"hvtu":-133.5,"hb":13.5,"idx":0.2,"cls":3,"psfc":957.3,"terrain":false,"radius_km":200,"name":"asym shallow warm","track":"T18"},"geometry":{"type":"Point","coordinates":[-166.75,-61.0]}},{"type":"Feature","properties":{"kind":"center","id":4,"lat":-58.75,"lon":115.0,"mslp":957.8,"hvtl":-8.2,"hvtu":24.8,"hb":32.7,"idx":0.1,"cls":6,"psfc":957.8,"terrain":false,"radius_km":200,"name":"shallow cold","track":"T20"},"geometry":{"type":"Point","coordinates":[115.0,-58.75]}},{"type":"Feature","properties":{"kind":"center","id":5,"lat":-68.25,"lon":-91.0,"mslp":958.9,"hvtl":18.8,"hvtu":-59.8,"hb":8.8,"idx":-0.2,"cls":1,"psfc":958.9,"terrain":false,"radius_km":200,"name":"sym shallow warm","track":"T16"},"geometry":{"type":"Point","coordinates":[-91.0,-68.25]}},{"type":"Feature","properties":{"kind":"center","id":6,"lat":-56.5,"lon":41.75,"mslp":959.5,"hvtl":65.9,"hvtu":-350.3,"hb":6.2,"idx":0.2,"cls":1,"psfc":959.5,"terrain":false,"radius_km":200,"name":"sym shallow warm","track":"T21"},"geometry":{"type":"Point","coordinates":[41.75,-56.5]}},{"type":"Feature","properties":{"kind":"center","id":7,"lat":-67.0,"lon":-158.25,"mslp":959.6,"hvtl":173.0,"hvtu":-48.3,"hb":36.7,"idx":1.4,"cls":3,"psfc":959.6,"terrain":false,"radius_km":200,"name":"asym shallow warm"},"geometry":{"type":"Point","coordinates":[-158.25,-67.0]}},{"type":"Feature","properties":{"kind":"center","id":8,"lat":-66.5,"lon":95.25,"mslp":966.9,"hvtl":-107.9,"hvtu":-38.9,"hb":8.8,"idx":-2.0,"cls":5,"psfc":954.6,"terrain":false,"radius_km":200,"name":"sym cold"},"geometry":{"type":"Point","coordinates":[95.25,-66.5]}},{"type":"Feature","properties":{"kind":"center","id":9,"lat":-48.0,"lon":19.5,"mslp":973.7,"hvtl":125.8,"hvtu":-475.4,"hb":40.0,"idx":0.7,"cls":3,"psfc":973.7,"terrain":false,"radius_km":200,"name":"asym shallow warm","track":"T31"},"geometry":{"type":"Point","coordinates":[19.5,-48.0]}},{"type":"Feature","properties":{"kind":"center","id":10,"lat":-81.75,"lon":-160.25,"mslp":974.2,"hvtl":-49.5,"hvtu":-15.3,"hb":5.0,"idx":-1.1,"cls":5,"psfc":965.9,"terrain":false,"radius_km":200,"name":"sym cold","track":"T36"},"geometry":{"type":"Point","coordinates":[-160.25,-81.75]}},{"type":"Feature","properties":{"kind":"center","id":11,"lat":49.0,"lon":-153.5,"mslp":974.6,"hvtl":14.6,"hvtu":-97.5,"hb":8.1,"idx":-0.5,"cls":1,"psfc":974.6,"terrain":false,"radius_km":200,"name":"sym shallow warm","track":"T34"},"geometry":{"type":"Point","coordinates":[-153.5,49.0]}},{"type":"Feature","properties":{"kind":"center","id":12,"lat":-73.25,"lon":-35.25,"mslp":974.9,"hvtl":-97.1,"hvtu":-47.9,"hb":35.9,"idx":-1.9,"cls":4,"psfc":974.9,"terrain":false,"radius_km":200,"name":"asym cold","track":"T43"},"geometry":{"type":"Point","coordinates":[-35.25,-73.25]}},{"type":"Feature","properties":{"kind":"center","id":13,"lat":75.0,"lon":17.0,"mslp":976.1,"hvtl":41.4,"hvtu":-178.1,"hb":12.1,"idx":-0.2,"cls":3,"psfc":976.1,"terrain":false,"radius_km":200,"name":"asym shallow warm","track":"T02"},"geometry":{"type":"Point","coordinates":[17.0,75.0]}},{"type":"Feature","properties":{"kind":"center","id":14,"lat":50.0,"lon":-48.5,"mslp":976.8,"hvtl":24.8,"hvtu":-67.1,"hb":-18.1,"idx":-0.1,"cls":1,"psfc":976.8,"terrain":false,"radius_km":200,"name":"sym shallow warm","track":"T44"},"geometry":{"type":"Point","coordinates":[-48.5,50.0]}},{"type":"Feature","properties":{"kind":"center","id":15,"lat":82.5,"lon":51.5,"mslp":977.6,"hvtl":-96.8,"hvtu":-180.0,"hb":105.0,"idx":-2.4,"cls":4,"psfc":977.6,"terrain":false,"radius_km":200,"name":"asym cold","track":"T45"},"geometry":{"type":"Point","coordinates":[51.5,82.5]}},{"type":"Feature","properties":{"kind":"center","id":16,"lat":55.5,"lon":150.25,"mslp":978.7,"hvtl":118.9,"hvtu":0.1,"hb":-6.6,"idx":1.7,"cls":0,"psfc":978.7,"terrain":false,"radius_km":200,"name":"sym deep warm","track":"T30"},"geometry":{"type":"Point","coordinates":[150.25,55.5]}},{"type":"Feature","properties":{"kind":"center","id":17,"lat":-70.0,"lon":13.0,"mslp":981.5,"hvtl":72.0,"hvtu":-93.2,"hb":-9.3,"idx":0.5,"cls":1,"psfc":978.4,"terrain":false,"radius_km":200,"name":"sym shallow warm"},"geometry":{"type":"Point","coordinates":[13.0,-70.0]}},{"type":"Feature","properties":{"kind":"center","id":18,"lat":86.0,"lon":-114.25,"mslp":981.8,"hvtl":-17.0,"hvtu":-91.8,"hb":-6.8,"idx":-1.1,"cls":5,"psfc":981.8,"terrain":false,"radius_km":200,"name":"sym cold","track":"T59"},"geometry":{"type":"Point","coordinates":[-114.25,86.0]}},{"type":"Feature","properties":{"kind":"center","id":19,"lat":56.25,"lon":-49.75,"mslp":982.3,"hvtl":3.0,"hvtu":-72.2,"hb":61.7,"idx":-0.6,"cls":3,"psfc":982.3,"terrain":false,"radius_km":200,"name":"asym shallow warm","track":"T63"},"geometry":{"type":"Point","coordinates":[-49.75,56.25]}},{"type":"Feature","properties":{"kind":"center","id":20,"lat":80.0,"lon":145.25,"mslp":984.1,"hvtl":58.7,"hvtu":-144.4,"hb":27.7,"idx":0.2,"cls":3,"psfc":984.1,"terrain":false,"radius_km":200,"name":"asym shallow warm","track":"T58"},"geometry":{"type":"Point","coordinates":[145.25,80.0]}},{"type":"Feature","properties":{"kind":"center","id":21,"lat":54.5,"lon":-42.5,"mslp":984.3,"hvtl":-433.9,"hvtu":-199.8,"hb":90.0,"idx":-3.0,"cls":4,"psfc":984.3,"terrain":false,"radius_km":200,"name":"asym cold","track":"T41"},"geometry":{"type":"Point","coordinates":[-42.5,54.5]}},{"type":"Feature","properties":{"kind":"center","id":22,"lat":58.0,"lon":-152.5,"mslp":985.7,"hvtl":-36.8,"hvtu":-267.6,"hb":8.2,"idx":-1.7,"cls":5,"psfc":982.0,"terrain":false,"radius_km":200,"name":"sym cold"},"geometry":{"type":"Point","coordinates":[-152.5,58.0]}},{"type":"Feature","properties":{"kind":"center","id":23,"lat":-55.5,"lon":-104.0,"mslp":986.1,"hvtl":-297.9,"hvtu":-292.9,"hb":67.6,"idx":-3.0,"cls":4,"psfc":986.1,"terrain":false,"radius_km":200,"name":"asym cold"},"geometry":{"type":"Point","coordinates":[-104.0,-55.5]}},{"type":"Feature","properties":{"kind":"center","id":24,"lat":11.5,"lon":-97.5,"mslp":986.8,"hvtl":93.5,"hvtu":115.5,"hb":3.6,"idx":2.3,"cls":0,"psfc":986.7,"terrain":false,"radius_km":200,"name":"sym deep warm","track":"T24"},"geometry":{"type":"Point","coordinates":[-97.5,11.5]}},{"type":"Feature","properties":{"kind":"center","id":25,"lat":50.0,"lon":-38.0,"mslp":987.8,"hvtl":-452.2,"hvtu":-232.8,"hb":104.6,"idx":-3.0,"cls":4,"psfc":987.8,"terrain":false,"radius_km":200,"name":"asym cold"},"geometry":{"type":"Point","coordinates":[-38.0,50.0]}},{"type":"Feature","properties":{"kind":"center","id":26,"lat":-81.5,"lon":-55.25,"mslp":990.8,"hvtl":-33.2,"hvtu":-28.3,"hb":29.5,"idx":-0.9,"cls":4,"psfc":973.7,"terrain":false,"radius_km":200,"name":"asym cold"},"geometry":{"type":"Point","coordinates":[-55.25,-81.5]}},{"type":"Feature","properties":{"kind":"center","id":27,"lat":65.5,"lon":-78.75,"mslp":992.9,"hvtl":-27.7,"hvtu":117.0,"hb":11.2,"idx":0.3,"cls":6,"psfc":992.9,"terrain":false,"radius_km":200,"name":"shallow cold","track":"T71"},"geometry":{"type":"Point","coordinates":[-78.75,65.5]}},{"type":"Feature","properties":{"kind":"center","id":28,"lat":-78.25,"lon":-79.0,"mslp":992.9,"hvtl":113.2,"hvtu":-44.9,"hb":37.5,"idx":1.2,"cls":3,"psfc":961.3,"terrain":false,"radius_km":200,"name":"asym shallow warm","track":"T39"},"geometry":{"type":"Point","coordinates":[-79.0,-78.25]}},{"type":"Feature","properties":{"kind":"center","id":29,"lat":58.5,"lon":162.25,"mslp":995.8,"hvtl":63.1,"hvtu":-174.5,"hb":4.4,"idx":0.2,"cls":1,"psfc":993.3,"terrain":false,"radius_km":200,"name":"sym shallow warm","track":"T75"},"geometry":{"type":"Point","coordinates":[162.25,58.5]}},{"type":"Feature","properties":{"kind":"center","id":30,"lat":69.75,"lon":-62.25,"mslp":997.0,"hvtl":-5.9,"hvtu":-215.0,"hb":21.7,"idx":-1.1,"cls":4,"psfc":997.0,"terrain":false,"radius_km":200,"name":"asym cold","track":"T73"},"geometry":{"type":"Point","coordinates":[-62.25,69.75]}},{"type":"Feature","properties":{"kind":"center","id":31,"lat":46.0,"lon":-85.5,"mslp":998.4,"hvtl":-313.1,"hvtu":-439.1,"hb":92.3,"idx":-3.0,"cls":4,"psfc":977.3,"terrain":false,"radius_km":200,"name":"asym cold","track":"T78"},"geometry":{"type":"Point","coordinates":[-85.5,46.0]}},{"type":"Feature","properties":{"kind":"center","id":32,"lat":12.5,"lon":150.0,"mslp":999.1,"hvtl":36.7,"hvtu":64.5,"hb":10.3,"idx":1.3,"cls":2,"psfc":999.1,"terrain":false,"radius_km":200,"name":"asym deep warm","track":"T50"},"geometry":{"type":"Point","coordinates":[150.0,12.5]}},{"type":"Feature","properties":{"kind":"center","id":33,"lat":-43.25,"lon":-167.5,"mslp":999.7,"hvtl":-281.8,"hvtu":-217.1,"hb":66.8,"idx":-3.0,"cls":4,"psfc":999.7,"terrain":false,"radius_km":200,"name":"asym cold"},"geometry":{"type":"Point","coordinates":[-167.5,-43.25]}},{"type":"Feature","properties":{"kind":"center","id":34,"lat":45.75,"lon":-178.5,"mslp":1000.9,"hvtl":-184.0,"hvtu":-210.4,"hb":85.7,"idx":-2.9,"cls":4,"psfc":1000.9,"terrain":false,"radius_km":200,"name":"asym cold","track":"T09"},"geometry":{"type":"Point","coordinates":[-178.5,45.75]}},{"type":"Feature","properties":{"kind":"center","id":35,"lat":-12.0,"lon":-168.75,"mslp":1001.0,"hvtl":29.5,"hvtu":46.6,"hb":10.8,"idx":1.0,"cls":2,"psfc":1001.0,"terrain":false,"radius_km":200,"name":"asym deep warm","track":"T88"},"geometry":{"type":"Point","coordinates":[-168.75,-12.0]}},{"type":"Feature","properties":{"kind":"center","id":36,"lat":55.5,"lon":-78.0,"mslp":1001.6,"hvtl":-221.1,"hvtu":-440.6,"hb":91.4,"idx":-3.0,"cls":4,"psfc":1001.6,"terrain":false,"radius_km":200,"name":"asym cold","track":"T84"},"geometry":{"type":"Point","coordinates":[-78.0,55.5]}},{"type":"Feature","properties":{"kind":"center","id":37,"lat":13.5,"lon":88.0,"mslp":1002.7,"hvtl":26.4,"hvtu":50.7,"hb":2.0,"idx":1.0,"cls":0,"psfc":1002.7,"terrain":false,"radius_km":200,"name":"sym deep warm","track":"T42"},"geometry":{"type":"Point","coordinates":[88.0,13.5]}},{"type":"Feature","properties":{"kind":"center","id":38,"lat":-27.0,"lon":-44.0,"mslp":1004.6,"hvtl":-12.6,"hvtu":-191.8,"hb":58.4,"idx":-1.2,"cls":4,"psfc":1004.6,"terrain":false,"radius_km":200,"name":"asym cold","track":"T76"},"geometry":{"type":"Point","coordinates":[-44.0,-27.0]}},{"type":"Feature","properties":{"kind":"center","id":39,"lat":43.25,"lon":36.0,"mslp":1005.2,"hvtl":57.1,"hvtu":-64.0,"hb":18.7,"idx":0.5,"cls":3,"psfc":1005.2,"terrain":false,"radius_km":200,"name":"asym shallow warm","track":"T98"},"geometry":{"type":"Point","coordinates":[36.0,43.25]}},{"type":"Feature","properties":{"kind":"center","id":40,"lat":41.25,"lon":49.25,"mslp":1005.2,"hvtl":-17.4,"hvtu":-151.0,"hb":42.3,"idx":-1.3,"cls":4,"psfc":1008.1,"terrain":false,"radius_km":200,"name":"asym cold","track":"T99"},"geometry":{"type":"Point","coordinates":[49.25,41.25]}},{"type":"Feature","properties":{"kind":"center","id":41,"lat":-38.25,"lon":-98.0,"mslp":1005.5,"hvtl":-35.3,"hvtu":-129.9,"hb":1.4,"idx":-1.5,"cls":5,"psfc":1005.5,"terrain":false,"radius_km":200,"name":"sym cold","track":"T102"},"geometry":{"type":"Point","coordinates":[-98.0,-38.25]}},{"type":"Feature","properties":{"kind":"center","id":42,"lat":-29.25,"lon":31.0,"mslp":1006.4,"hvtl":43.3,"hvtu":-6.1,"hb":-7.3,"idx":0.8,"cls":1,"psfc":946.1,"terrain":false,"radius_km":200,"name":"sym shallow warm"},"geometry":{"type":"Point","coordinates":[31.0,-29.25]}},{"type":"Feature","properties":{"kind":"center","id":43,"lat":61.5,"lon":154.75,"mslp":1006.5,"hvtl":132.0,"hvtu":-122.9,"hb":-9.7,"idx":0.9,"cls":1,"psfc":906.1,"terrain":true,"radius_km":200,"name":"sym shallow warm"},"geometry":{"type":"Point","coordinates":[154.75,61.5]}},{"type":"Feature","properties":{"kind":"center","id":44,"lat":68.75,"lon":-21.0,"mslp":1007.0,"hvtl":-288.7,"hvtu":-358.5,"hb":73.6,"idx":-3.0,"cls":4,"psfc":1007.0,"terrain":false,"radius_km":200,"name":"asym cold","track":"T51"},"geometry":{"type":"Point","coordinates":[-21.0,68.75]}},{"type":"Feature","properties":{"kind":"center","id":45,"lat":27.5,"lon":-110.25,"mslp":1008.8,"hvtl":11.3,"hvtu":-179.8,"hb":19.8,"idx":-0.7,"cls":3,"psfc":1006.8,"terrain":false,"radius_km":200,"name":"asym shallow warm","track":"T106"},"geometry":{"type":"Point","coordinates":[-110.25,27.5]}},{"type":"Feature","properties":{"kind":"center","id":46,"lat":25.5,"lon":95.5,"mslp":1008.9,"hvtl":-80.6,"hvtu":-127.8,"hb":5.0,"idx":-2.2,"cls":5,"psfc":985.3,"terrain":false,"radius_km":200,"name":"sym cold","track":"T109"},"geometry":{"type":"Point","coordinates":[95.5,25.5]}},{"type":"Feature","properties":{"kind":"center","id":47,"lat":26.25,"lon":94.0,"mslp":1009.3,"hvtl":-36.6,"hvtu":-135.7,"hb":4.6,"idx":-1.6,"cls":5,"psfc":988.5,"terrain":false,"radius_km":200,"name":"sym cold","track":"T111"},"geometry":{"type":"Point","coordinates":[94.0,26.25]}},{"type":"Feature","properties":{"kind":"center","id":48,"lat":-14.75,"lon":48.25,"mslp":1009.7,"hvtl":109.2,"hvtu":-109.2,"hb":-20.6,"idx":0.8,"cls":1,"psfc":988.2,"terrain":false,"radius_km":200,"name":"sym shallow warm"},"geometry":{"type":"Point","coordinates":[48.25,-14.75]}},{"type":"Feature","properties":{"kind":"center","id":49,"lat":70.25,"lon":-25.75,"mslp":1011.7,"hvtl":-338.5,"hvtu":-363.8,"hb":77.7,"idx":-3.0,"cls":4,"psfc":902.5,"terrain":true,"radius_km":200,"name":"asym cold"},"geometry":{"type":"Point","coordinates":[-25.75,70.25]}},{"type":"Feature","properties":{"kind":"center","id":50,"lat":40.75,"lon":70.75,"mslp":1012.1,"hvtl":31.0,"hvtu":-296.2,"hb":136.4,"idx":-0.4,"cls":3,"psfc":953.7,"terrain":false,"radius_km":200,"name":"asym shallow warm"},"geometry":{"type":"Point","coordinates":[70.75,40.75]}},{"type":"Feature","properties":{"kind":"center","id":51,"lat":45.75,"lon":116.25,"mslp":1014.3,"hvtl":-112.7,"hvtu":-255.7,"hb":79.4,"idx":-2.6,"cls":4,"psfc":910.3,"terrain":true,"radius_km":200,"name":"asym cold"},"geometry":{"type":"Point","coordinates":[116.25,45.75]}},{"type":"Feature","properties":{"kind":"center","id":52,"lat":58.5,"lon":9.25,"mslp":1016.1,"hvtl":-21.2,"hvtu":-352.0,"hb":55.0,"idx":-1.4,"cls":4,"psfc":1016.1,"terrain":false,"radius_km":200,"name":"asym cold","track":"T116"},"geometry":{"type":"Point","coordinates":[9.25,58.5]}},{"type":"Feature","properties":{"kind":"center","id":53,"lat":-21.0,"lon":-64.0,"mslp":1018.7,"hvtl":-40.0,"hvtu":-265.6,"hb":22.7,"idx":-1.8,"cls":4,"psfc":926.4,"terrain":true,"radius_km":200,"name":"asym cold"},"geometry":{"type":"Point","coordinates":[-64.0,-21.0]}},{"type":"Feature","properties":{"kind":"center","id":54,"lat":60.5,"lon":7.0,"mslp":1021.3,"hvtl":-42.9,"hvtu":-413.0,"hb":52.2,"idx":-1.8,"cls":4,"psfc":913.5,"terrain":true,"radius_km":200,"name":"asym cold"},"geometry":{"type":"Point","coordinates":[7.0,60.5]}},{"type":"Feature","properties":{"kind":"center","id":55,"lat":42.75,"lon":71.5,"mslp":1023.4,"hvtl":-49.3,"hvtu":-299.5,"hb":158.6,"idx":-1.9,"cls":4,"psfc":925.7,"terrain":true,"radius_km":200,"name":"asym cold"},"geometry":{"type":"Point","coordinates":[71.5,42.75]}}]}