{"type":"FeatureCollection","features":[{"type":"Feature","properties":{"kind":"blob","cls":4,"id":1},"geometry":{"type":"Polygon","coordinates":[[[-127.25,-61.62],[-125.5,-61.12],[-124.12,-59.75],[-124.38,-58.75],[-125.5,-57.62],[-127.25,-57.12],[-129.5,-57.12],[-131.25,-57.62],[-132.12,-58.5],[-132.12,-59.5],[-130.5,-61.12],[-127.25,-61.62]]]}},{"type":"Feature","properties":{"kind":"blob","cls":4,"id":2},"geometry":{"type":"Polygon","coordinates":[[[-153.25,-82.62],[-148.12,-82.0],[-151.5,-81.88],[-152.0,-81.38],[-144.25,-81.62],[-142.38,-81.0],[-143.38,-80.25],[-143.5,-79.62],[-148.25,-79.62],[-149.25,-78.88],[-151.75,-78.88],[-153.0,-78.62],[-153.5,-78.12],[-157.38,-77.75],[-157.0,-77.38],[-154.75,-77.12],[-153.25,-77.62],[-148.0,-77.88],[-145.0,-77.62],[-145.0,-76.88],[-151.0,-75.62],[-157.0,-75.38],[-163.0,-76.38],[-164.62,-77.5],[-164.0,-78.38],[-163.0,-78.88],[-157.88,-79.75],[-162.0,-80.38],[-164.12,-81.25],[-164.12,-81.75],[-163.25,-82.38],[-153.25,-82.62]]]}},{"type":"Feature","properties":{"kind":"blob","cls":3,"id":3},"geometry":{"type":"Polygon","coordinates":[[[-11.75,-55.38],[-8.5,-55.38],[-7.12,-54.5],[-6.88,-53.5],[-9.0,-50.88],[-10.0,-50.38],[-13.75,-50.38],[-15.38,-51.75],[-15.38,-53.25],[-14.0,-54.62],[-11.75,-55.38]]]}},{"type":"Feature","properties":{"kind":"blob","cls":4,"id":4},"geometry":{"type":"Polygon","coordinates":[[[-127.5,-70.38],[-125.0,-69.88],[-123.12,-68.5],[-123.12,-68.0],[-123.75,-67.12],[-125.5,-66.38],[-129.75,-66.12],[-133.5,-67.12],[-134.38,-68.0],[-134.38,-68.75],[-133.5,-69.62],[-127.5,-70.38]]]}},{"type":"Feature","properties":{"kind":"blob","cls":4,"id":5},"geometry":{"type":"Polygon","coordinates":[[[-166.25,-65.12],[-164.25,-64.62],[-163.12,-63.75],[-163.12,-62.75],[-165.0,-61.62],[-168.5,-61.38],[-170.5,-61.88],[-171.62,-62.75],[-171.62,-63.75],[-171.0,-64.38],[-166.25,-65.12]]]}},{"type":"Feature","properties":{"kind":"blob","cls":4,"id":6},"geometry":{"type":"Polygon","coordinates":[[[109.5,-66.62],[111.75,-66.12],[113.12,-65.0],[113.12,-64.0],[110.75,-62.62],[107.25,-62.38],[106.62,-62.75],[109.75,-63.38],[110.38,-64.0],[110.0,-64.38],[107.5,-64.38],[105.25,-63.88],[103.62,-64.0],[103.62,-65.0],[104.0,-65.38],[106.25,-66.38],[109.5,-66.62]]]}},{"type":"Feature","properties":{"kind":"blob","cls":0,"id":7},"geometry":{"type":"Polygon","coordinates":[[[146.25,19.38],[147.75,19.38],[148.62,20.5],[148.38,22.0],[147.0,22.88],[145.38,22.25],[146.38,21.75],[145.75,21.12],[145.38,21.25],[145.25,22.12],[144.88,21.5],[145.12,20.0],[146.25,19.38]]]}},{"type":"Feature","properties":{"kind":"blob","cls":4,"id":8},"geometry":{"type":"Polygon","coordinates":[[[-19.25,-72.38],[-16.5,-71.88],[-15.5,-71.38],[-14.38,-70.0],[-15.0,-69.12],[-16.0,-68.62],[-18.75,-68.12],[-23.75,-68.38],[-26.12,-69.5],[-26.38,-70.5],[-25.75,-71.12],[-23.25,-72.12],[-19.25,-72.38]]]}},{"type":"Feature","properties":{"kind":"blob","cls":4,"id":9},"geometry":{"type":"Polygon","coordinates":[[[89.0,-57.12],[92.25,-57.12],[94.75,-56.38],[96.12,-55.5],[96.38,-54.0],[95.25,-52.62],[93.25,-51.88],[91.25,-51.88],[89.5,-52.38],[87.0,-53.62],[86.12,-54.5],[86.12,-55.75],[87.0,-56.62],[89.0,-57.12]]]}},{"type":"Feature","properties":{"kind":"blob","cls":4,"id":10},"geometry":{"type":"Polygon","coordinates":[[[128.0,-61.62],[129.75,-61.12],[130.88,-60.0],[130.88,-59.5],[129.75,-58.38],[127.0,-57.38],[125.0,-57.38],[123.25,-57.88],[122.12,-59.25],[122.38,-59.75],[123.5,-60.88],[128.0,-61.62]]]}},{"type":"Feature","properties":{"kind":"blob","cls":1,"id":11},"geometry":{"type":"Polygon","coordinates":[[[175.25,50.38],[176.75,50.88],[177.62,51.75],[177.62,53.25],[176.75,54.12],[175.25,54.62],[172.5,54.12],[171.38,53.0],[171.38,51.75],[172.25,50.88],[175.25,50.38]]]}},{"type":"Feature","properties":{"kind":"blob","cls":0,"id":12},"geometry":{"type":"Polygon","coordinates":[[[-171.0,21.38],[-170.12,22.25],[-170.12,23.75],[-171.75,24.88],[-173.0,24.62],[-173.88,23.75],[-173.88,22.25],[-173.0,21.38],[-171.0,21.38]]]}},{"type":"Feature","properties":{"kind":"blob","cls":0,"id":13},"geometry":{"type":"Polygon","coordinates":[[[-111.0,18.12],[-110.12,19.25],[-110.38,20.75],[-111.75,21.62],[-113.0,21.38],[-113.88,20.25],[-113.75,19.62],[-112.5,19.88],[-112.12,19.5],[-112.12,19.0],[-113.12,18.25],[-111.0,18.12]]]}},{"type":"Feature","properties":{"kind":"blob","cls":4,"id":14},"geometry":{"type":"Polygon","coordinates":[[[170.25,-73.62],[173.0,-73.12],[174.62,-72.25],[174.62,-71.25],[173.0,-70.38],[170.25,-69.88],[165.0,-70.38],[170.62,-71.75],[169.88,-72.25],[170.25,-72.62],[169.25,-73.12],[168.5,-72.88],[166.62,-73.25],[170.25,-73.62]]]}},{"type":"Feature","properties":{"kind":"blob","cls":4,"id":15},"geometry":{"type":"Polygon","coordinates":[[[45.75,-64.88],[47.75,-64.38],[49.12,-63.25],[49.12,-62.25],[47.75,-61.12],[45.75,-60.62],[41.75,-60.88],[40.12,-61.75],[39.88,-63.25],[40.5,-63.88],[45.75,-64.88]]]}},{"type":"Feature","properties":{"kind":"blob","cls":4,"id":16},"geometry":{"type":"Polygon","coordinates":[[[-27.0,61.62],[-24.0,62.38],[-21.38,64.0],[-21.38,65.25],[-23.0,66.38],[-25.25,66.88],[-29.75,66.12],[-32.12,64.25],[-32.12,63.5],[-31.25,62.38],[-27.0,61.62]]]}},{"type":"Feature","properties":{"kind":"blob","cls":5,"id":17},"geometry":{"type":"Polygon","coordinates":[[[14.12,-70.5],[14.25,-70.88],[23.5,-70.62],[24.25,-70.38],[24.38,-69.75],[25.75,-68.62],[28.38,-67.75],[19.25,-67.88],[15.0,-69.38],[14.12,-70.5]]]}},{"type":"Feature","properties":{"kind":"blob","cls":6,"id":18},"geometry":{"type":"Polygon","coordinates":[[[116.5,71.62],[122.0,71.62],[124.25,72.38],[124.88,73.5],[123.75,74.38],[122.0,74.88],[116.75,75.12],[113.0,74.38],[111.88,73.5],[111.88,73.0],[113.0,72.12],[116.5,71.62]],[[119.5,72.62],[119.38,73.0],[122.0,73.12],[122.62,72.75],[122.25,72.38],[119.5,72.62]]]}},{"type":"Feature","properties":{"kind":"blob","cls":6,"id":19},"geometry":{"type":"Polygon","coordinates":[[[164.0,-70.88],[164.5,-71.12],[164.62,-70.75],[164.25,-70.62],[164.0,-70.88]]]}},{"type":"Feature","properties":{"kind":"blob","cls":3,"id":20},"geometry":{"type":"Polygon","coordinates":[[[-55.25,64.88],[-53.5,65.62],[-52.88,67.0],[-53.75,67.88],[-55.5,68.62],[-59.25,68.88],[-61.5,68.38],[-63.38,67.0],[-62.5,65.62],[-60.75,64.88],[-55.25,64.88]]]}},{"type":"Feature","properties":{"kind":"blob","cls":4,"id":21},"geometry":{"type":"Polygon","coordinates":[[[-104.75,-48.88],[-103.5,-48.38],[-102.62,-47.5],[-102.62,-46.25],[-103.5,-45.38],[-104.75,-44.88],[-107.25,-45.38],[-108.12,-46.25],[-108.12,-47.5],[-107.25,-48.38],[-104.75,-48.88]]]}},{"type":"Feature","properties":{"kind":"blob","cls":4,"id":22},"geometry":{"type":"Polygon","coordinates":[[[-152.25,52.88],[-149.75,53.88],[-148.38,55.25],[-148.38,56.5],[-149.5,57.62],[-151.25,58.12],[-155.0,57.38],[-155.25,56.62],[-156.38,56.25],[-156.62,54.5],[-155.75,53.62],[-152.25,52.88]]]}},{"type":"Feature","properties":{"kind":"blob","cls":4,"id":23},"geometry":{"type":"Polygon","coordinates":[[[-51.38,69.75],[-52.0,70.38],[-53.38,70.5],[-51.88,70.75],[-53.0,71.88],[-54.25,71.88],[-54.0,72.62],[-57.25,74.12],[-58.62,73.25],[-58.88,72.75],[-58.12,71.25],[-57.25,70.62],[-55.0,69.88],[-51.38,69.75]]]}},{"type":"Feature","properties":{"kind":"blob","cls":5,"id":24},"geometry":{"type":"Polygon","coordinates":[[[-68.75,72.88],[-68.88,74.0],[-68.38,75.0],[-66.38,76.5],[-68.75,77.12],[-74.0,76.88],[-76.0,76.38],[-77.38,75.25],[-77.38,74.75],[-76.25,73.88],[-73.75,73.12],[-68.75,72.88]]]}},{"type":"Feature","properties":{"kind":"blob","cls":4,"id":25},"geometry":{"type":"Polygon","coordinates":[[[-66.0,73.38],[-63.0,73.38],[-60.25,74.12],[-59.12,75.0],[-60.75,76.38],[-62.0,76.38],[-63.75,74.62],[-66.0,73.38]]]}},{"type":"Feature","properties":{"kind":"blob","cls":1,"id":26},"geometry":{"type":"Polygon","coordinates":[[[-19.0,70.38],[-16.25,70.88],[-14.25,71.88],[-13.38,72.75],[-13.38,73.5],[-14.5,74.38],[-16.25,74.88],[-21.5,75.12],[-21.38,74.75],[-22.0,74.38],[-23.5,74.38],[-24.38,73.75],[-24.38,73.0],[-24.88,72.5],[-24.12,72.0],[-25.38,71.25],[-24.5,70.62],[-19.0,70.38]],[[-23.62,73.75],[-22.88,73.75],[-23.0,73.62],[-23.62,73.75]]]}},{"type":"Feature","properties":{"kind":"blob","cls":4,"id":27},"geometry":{"type":"Polygon","coordinates":[[[151.25,73.12],[154.0,74.12],[154.62,75.25],[151.75,76.88],[148.5,77.38],[147.75,78.38],[146.75,78.88],[144.25,79.38],[134.25,79.38],[131.75,78.88],[130.38,78.0],[130.75,77.12],[131.75,76.62],[135.0,75.88],[138.5,75.62],[140.75,73.88],[143.5,73.12],[151.25,73.12]]]}},{"type":"Feature","properties":{"kind":"blob","cls":4,"id":28},"geometry":{"type":"Polygon","coordinates":[[[-62.25,-24.12],[-61.38,-23.25],[-61.38,-21.75],[-62.88,-20.5],[-61.62,-19.75],[-61.38,-18.0],[-62.25,-16.88],[-63.0,-16.62],[-64.62,-17.25],[-63.38,-18.25],[-63.88,-19.0],[-63.12,-19.5],[-63.38,-20.75],[-64.12,-21.0],[-63.62,-21.75],[-64.38,-22.75],[-64.62,-24.0],[-62.25,-24.12]]]}},{"type":"Feature","properties":{"kind":"blob","cls":1,"id":29},"geometry":{"type":"Polygon","coordinates":[[[-25.88,71.5],[-25.75,71.38],[-25.62,71.5],[-25.88,71.5]]]}},{"type":"Feature","properties":{"kind":"blob","cls":4,"id":30},"geometry":{"type":"Polygon","coordinates":[[[-66.5,76.88],[-66.12,77.0],[-66.25,77.12],[-66.5,76.88]]]}},{"type":"Feature","properties":{"kind":"blob","cls":4,"id":31},"geometry":{"type":"Polygon","coordinates":[[[145.5,56.88],[147.5,57.62],[148.62,59.25],[148.12,60.25],[147.5,60.88],[146.5,60.62],[146.0,61.12],[144.5,60.62],[144.5,60.12],[143.25,60.88],[141.5,60.38],[140.5,61.12],[139.38,60.25],[139.38,59.25],[140.75,57.88],[145.5,56.88]]]}},{"type":"Feature","properties":{"kind":"blob","cls":3,"id":32},"geometry":{"type":"Polygon","coordinates":[[[-67.0,-30.12],[-65.75,-29.88],[-64.88,-29.0],[-64.62,-28.0],[-65.5,-26.88],[-65.88,-27.5],[-65.38,-28.75],[-65.75,-28.38],[-66.38,-28.75],[-66.5,-27.62],[-66.88,-28.0],[-66.62,-29.0],[-67.0,-30.12]]]}},{"type":"Feature","properties":{"kind":"blob","cls":4,"id":33},"geometry":{"type":"Polygon","coordinates":[[[67.5,77.62],[72.5,78.12],[75.25,79.12],[75.38,79.75],[72.75,81.12],[69.0,81.62],[66.25,82.62],[59.0,83.38],[49.5,83.12],[46.0,82.62],[43.88,81.75],[44.0,81.12],[45.0,80.62],[49.25,80.12],[52.5,78.88],[59.25,77.88],[67.5,77.62]]]}},{"type":"Feature","properties":{"kind":"blob","cls":5,"id":34},"geometry":{"type":"Polygon","coordinates":[[[-56.75,-65.88],[-55.25,-65.12],[-54.38,-64.25],[-54.38,-63.75],[-56.25,-62.38],[-57.75,-62.12],[-61.25,-62.38],[-63.38,-63.5],[-63.62,-64.5],[-63.25,-65.12],[-60.0,-63.88],[-59.0,-63.88],[-62.38,-65.25],[-61.75,-65.88],[-56.75,-65.88]]]}},{"type":"Feature","properties":{"kind":"blob","cls":4,"id":35},"geometry":{"type":"Polygon","coordinates":[[[-55.25,-29.38],[-54.12,-28.0],[-54.38,-27.0],[-56.0,-25.88],[-57.25,-26.12],[-58.38,-27.5],[-58.12,-28.5],[-57.25,-29.38],[-55.25,-29.38]]]}},{"type":"Feature","properties":{"kind":"blob","cls":1,"id":36},"geometry":{"type":"Polygon","coordinates":[[[-66.38,-15.75],[-66.38,-14.75],[-67.25,-13.62],[-68.5,-13.38],[-69.12,-13.75],[-68.12,-14.25],[-67.5,-15.62],[-66.38,-15.75]]]}},{"type":"Feature","properties":{"kind":"blob","cls":4,"id":37},"geometry":{"type":"Polygon","coordinates":[[[-68.5,-38.12],[-67.5,-38.12],[-65.88,-37.0],[-65.88,-35.5],[-66.5,-34.88],[-67.5,-34.38],[-68.62,-34.5],[-68.12,-36.25],[-68.5,-37.12],[-69.25,-37.12],[-69.38,-37.5],[-68.5,-38.12]]]}},{"type":"Feature","properties":{"kind":"blob","cls":1,"id":38},"geometry":{"type":"Polygon","coordinates":[[[-74.0,-12.38],[-74.0,-11.62],[-74.12,-11.75],[-74.0,-12.38]]]}},{"type":"Feature","properties":{"kind":"blob","cls":1,"id":39},"geometry":{"type":"Polygon","coordinates":[[[-72.75,-12.38],[-72.12,-11.25],[-73.0,-10.12],[-74.25,-9.88],[-74.12,-10.75],[-72.75,-12.38]]]}},{"type":"Feature","properties":{"kind":"blob","cls":4,"id":40},"geometry":{"type":"Polygon","coordinates":[[[59.75,55.88],[64.25,55.88],[65.88,57.0],[66.12,58.0],[65.5,58.88],[63.5,59.62],[59.5,59.38],[57.62,58.25],[57.38,57.25],[58.0,56.38],[59.75,55.88]]]}},{"type":"Feature","properties":{"kind":"blob","cls":1,"id":41},"geometry":{"type":"Polygon","coordinates":[[[-74.38,-11.25],[-74.25,-11.38],[-74.12,-11.25],[-74.38,-11.25]]]}},{"type":"Feature","properties":{"kind":"blob","cls":4,"id":42},"geometry":{"type":"Polygon","coordinates":[[[68.0,47.88],[69.75,48.62],[70.62,49.75],[70.38,51.0],[69.75,51.62],[68.25,52.12],[65.5,51.62],[64.62,50.75],[64.38,49.5],[65.75,48.12],[68.0,47.88]]]}},{"type":"Feature","properties":{"kind":"blob","cls":4,"id":43},"geometry":{"type":"Polygon","coordinates":[[[68.5,25.38],[69.38,26.25],[69.88,27.25],[69.5,29.38],[71.5,28.88],[73.12,29.75],[73.62,30.5],[73.62,31.5],[73.0,32.38],[70.5,31.88],[69.75,29.62],[68.75,29.62],[68.0,30.12],[67.38,29.75],[66.88,27.0],[65.62,26.75],[65.62,26.25],[66.5,25.38],[68.5,25.38]]]}},{"type":"Feature","properties":{"kind":"blob","cls":1,"id":44},"geometry":{"type":"Polygon","coordinates":[[[-75.12,-10.25],[-75.0,-10.62],[-74.62,-10.5],[-74.75,-10.12],[-75.12,-10.25]]]}},{"type":"Feature","properties":{"kind":"blob","cls":6,"id":45},"geometry":{"type":"Polygon","coordinates":[[[-146.5,73.12],[-143.75,74.12],[-143.12,75.25],[-143.75,75.88],[-145.75,76.62],[-149.25,77.12],[-160.5,76.62],[-162.5,76.12],[-163.38,75.5],[-157.25,75.38],[-155.75,74.88],[-155.75,74.38],[-156.5,74.12],[-161.12,73.75],[-159.25,73.12],[-146.5,73.12]]]}},{"type":"Feature","properties":{"kind":"blob","cls":1,"id":46},"geometry":{"type":"Polygon","coordinates":[[[59.25,28.38],[59.88,29.0],[59.88,31.0],[59.5,31.38],[57.88,30.75],[57.88,29.75],[59.25,28.38]]]}},{"type":"Feature","properties":{"kind":"blob","cls":4,"id":47},"geometry":{"type":"Polygon","coordinates":[[[-96.25,47.12],[-94.0,48.12],[-93.12,49.5],[-93.38,50.25],[-95.5,51.38],[-97.0,51.38],[-98.75,50.62],[-99.62,49.25],[-99.38,48.5],[-98.25,47.38],[-96.25,47.12]]]}},{"type":"Feature","properties":{"kind":"blob","cls":4,"id":48},"geometry":{"type":"Polygon","coordinates":[[[39.5,22.12],[39.88,22.5],[40.0,23.88],[40.38,23.25],[40.38,24.75],[40.0,25.12],[39.75,24.88],[39.25,25.88],[38.5,26.12],[37.0,25.88],[36.12,25.0],[36.12,23.25],[37.25,22.12],[39.5,22.12]],[[39.0,24.38],[38.88,24.5],[39.0,24.62],[39.0,24.38]],[[39.5,23.62],[39.38,23.75],[39.5,23.88],[39.5,23.62]]]}},{"type":"Feature","properties":{"kind":"blob","cls":5,"id":49},"geometry":{"type":"Polygon","coordinates":[[[84.5,25.12],[86.38,27.0],[84.5,27.88],[82.25,28.12],[81.5,28.88],[79.75,29.12],[78.25,30.12],[77.12,28.5],[77.38,27.25],[79.75,25.38],[84.5,25.12]]]}},{"type":"Feature","properties":{"kind":"blob","cls":0,"id":50},"geometry":{"type":"Polygon","coordinates":[[[41.38,11.5],[41.5,11.12],[42.25,11.38],[42.88,12.0],[43.12,13.5],[42.25,14.62],[40.75,14.88],[39.88,14.5],[39.88,12.0],[41.38,11.5]]]}},{"type":"Feature","properties":{"kind":"blob","cls":5,"id":51},"geometry":{"type":"Polygon","coordinates":[[[65.5,28.12],[65.5,28.88],[65.38,28.75],[65.5,28.12]]]}},{"type":"Feature","properties":{"kind":"blob","cls":5,"id":52},"geometry":{"type":"MultiPolygon","coordinates":[[[[61.75,30.62],[61.88,30.75],[61.5,31.38],[61.75,30.62]]],[[[61.25,31.62],[61.12,31.5],[61.25,31.38],[61.25,31.62]]]]}},{"type":"Feature","properties":{"kind":"blob","cls":5,"id":53},"geometry":{"type":"Polygon","coordinates":[[[94.0,25.62],[94.38,26.25],[93.0,26.88],[92.88,26.5],[94.0,25.62]]]}},{"type":"Feature","properties":{"kind":"blob","cls":4,"id":54},"geometry":{"type":"Polygon","coordinates":[[[122.25,38.62],[123.62,40.0],[123.62,41.0],[122.25,42.38],[119.75,42.38],[118.38,41.0],[118.38,40.0],[119.75,38.62],[122.25,38.62]]]}},{"type":"Feature","properties":{"kind":"blob","cls":5,"id":55},"geometry":{"type":"Polygon","coordinates":[[[63.0,29.62],[63.62,30.0],[62.5,30.38],[62.38,30.0],[63.0,29.62]]]}},{"type":"Feature","properties":{"kind":"blob","cls":4,"id":56},"geometry":{"type":"Polygon","coordinates":[[[61.75,32.12],[62.12,32.75],[61.5,33.38],[61.12,32.5],[61.75,32.12]]]}},{"type":"Feature","properties":{"kind":"blob","cls":4,"id":57},"geometry":{"type":"Polygon","coordinates":[[[65.0,35.88],[67.25,37.38],[67.88,38.25],[66.5,37.62],[66.38,38.25],[67.12,39.0],[66.0,39.88],[62.75,39.38],[61.38,37.5],[62.25,36.12],[65.0,35.88]]]}},{"type":"Feature","properties":{"kind":"blob","cls":5,"id":58},"geometry":{"type":"Polygon","coordinates":[[[65.62,29.25],[65.75,29.12],[65.88,29.25],[65.62,29.25]]]}},{"type":"Feature","properties":{"kind":"blob","cls":1,"id":59},"geometry":{"type":"Polygon","coordinates":[[[58.0,28.12],[58.38,28.25],[57.75,28.88],[58.0,28.12]]]}},{"type":"Feature","properties":{"kind":"blob","cls":1,"id":60},"geometry":{"type":"Polygon","coordinates":[[[60.38,31.0],[60.5,30.88],[60.62,31.25],[60.38,31.0]]]}},{"type":"Feature","properties":{"kind":"blob","cls":3,"id":61},"geometry":{"type":"Polygon","coordinates":[[[150.25,-44.62],[152.0,-44.88],[153.62,-44.0],[153.88,-42.5],[153.25,-41.12],[151.75,-40.38],[150.0,-40.38],[148.38,-41.25],[148.38,-43.75],[150.25,-44.62]]]}},{"type":"Feature","properties":{"kind":"blob","cls":1,"id":62},"geometry":{"type":"Polygon","coordinates":[[[106.5,30.62],[106.5,31.62],[106.38,31.5],[106.5,30.62]]]}},{"type":"Feature","properties":{"kind":"blob","cls":3,"id":63},"geometry":{"type":"Polygon","coordinates":[[[69.0,-31.12],[70.12,-30.0],[70.38,-29.0],[69.25,-27.62],[67.5,-27.38],[65.88,-28.5],[65.75,-29.88],[66.0,-29.38],[67.5,-29.38],[67.88,-29.75],[67.25,-30.38],[65.88,-30.0],[66.75,-31.12],[69.0,-31.12]]]}},{"type":"Feature","properties":{"kind":"center","id":1,"lat":-59.0,"lon":-128.5,"mslp":944.1,"hvtl":-2.2,"hvtu":-153.2,"hb":70.8,"idx":-1.0,"cls":4,"psfc":944.1,"terrain":false,"radius_km":200,"name":"asym cold","track":"T05"},"geometry":{"type":"Point","coordinates":[-128.5,-59.0]}},{"type":"Feature","properties":{"kind":"center","id":2,"lat":-82.0,"lon":-148.25,"mslp":949.0,"hvtl":-306.6,"hvtu":-64.8,"hb":35.1,"idx":-2.6,"cls":4,"psfc":901.0,"terrain":false,"radius_km":200,"name":"asym cold","track":"T13"},"geometry":{"type":"Point","coordinates":[-148.25,-82.0]}},{"type":"Feature","properties":{"kind":"center","id":3,"lat":-52.75,"lon":-12.0,"mslp":949.7,"hvtl":253.5,"hvtu":-50.9,"hb":55.1,"idx":1.5,"cls":3,"psfc":949.7,"terrain":false,"radius_km":200,"name":"asym shallow warm"},"geometry":{"type":"Point","coordinates":[-12.0,-52.75]}},{"type":"Feature","properties":{"kind":"center","id":4,"lat":-68.25,"lon":-129.0,"mslp":950.4,"hvtl":-96.1,"hvtu":-100.6,"hb":45.3,"idx":-2.3,"cls":4,"psfc":950.4,"terrain":false,"radius_km":200,"name":"asym cold","track":"T09"},"geometry":{"type":"Point","coordinates":[-129.0,-68.25]}},{"type":"Feature","properties":{"kind":"center","id":5,"lat":-63.25,"lon":-167.25,"mslp":956.1,"hvtl":-104.0,"hvtu":-162.2,"hb":57.7,"idx":-2.5,"cls":4,"psfc":956.1,"terrain":false,"radius_km":200,"name":"asym cold","track":"T10"},"geometry":{"type":"Point","coordinates":[-167.25,-63.25]}},{"type":"Feature","properties":{"kind":"center","id":6,"lat":-64.5,"lon":108.5,"mslp":956.7,"hvtl":-8.0,"hvtu":-76.6,"hb":16.7,"idx":-0.8,"cls":4,"psfc":956.7,"terrain":false,"radius_km":200,"name":"asym cold","track":"T21"},"geometry":{"type":"Point","coordinates":[108.5,-64.5]}},{"type":"Feature","properties":{"kind":"center","id":7,"lat":21.0,"lon":146.75,"mslp":959.1,"hvtl":119.9,"hvtu":202.7,"hb":1.6,"idx":2.6,"cls":0,"psfc":959.1,"terrain":false,"radius_km":200,"name":"sym deep warm","track":"T07"},"geometry":{"type":"Point","coordinates":[146.75,21.0]}},{"type":"Feature","properties":{"kind":"center","id":8,"lat":-70.0,"lon":-20.5,"mslp":964.5,"hvtl":-300.0,"hvtu":-51.1,"hb":46.2,"idx":-2.5,"cls":4,"psfc":964.5,"terrain":false,"radius_km":200,"name":"asym cold"},"geometry":{"type":"Point","coordinates":[-20.5,-70.0]}},{"type":"Feature","properties":{"kind":"center","id":9,"lat":-54.5,"lon":91.5,"mslp":964.8,"hvtl":-327.1,"hvtu":-364.0,"hb":55.0,"idx":-3.0,"cls":4,"psfc":964.8,"terrain":false,"radius_km":200,"name":"asym cold"},"geometry":{"type":"Point","coordinates":[91.5,-54.5]}},{"type":"Feature","properties":{"kind":"center","id":10,"lat":-59.5,"lon":126.25,"mslp":966.7,"hvtl":-302.7,"hvtu":-301.5,"hb":66.6,"idx":-3.0,"cls":4,"psfc":966.7,"terrain":false,"radius_km":200,"name":"asym cold","track":"T27"},"geometry":{"type":"Point","coordinates":[126.25,-59.5]}},{"type":"Feature","properties":{"kind":"center","id":11,"lat":52.5,"lon":174.5,"mslp":967.9,"hvtl":10.9,"hvtu":-310.1,"hb":0.3,"idx":-0.8,"cls":1,"psfc":967.9,"terrain":false,"radius_km":200,"name":"sym shallow warm","track":"T35"},"geometry":{"type":"Point","coordinates":[174.5,52.5]}},{"type":"Feature","properties":{"kind":"center","id":12,"lat":23.0,"lon":-172.0,"mslp":973.0,"hvtl":98.0,"hvtu":264.0,"hb":-4.8,"idx":2.5,"cls":0,"psfc":973.0,"terrain":false,"radius_km":200,"name":"sym deep warm","track":"T40"},"geometry":{"type":"Point","coordinates":[-172.0,23.0]}},{"type":"Feature","properties":{"kind":"center","id":13,"lat":19.75,"lon":-112.0,"mslp":973.9,"hvtl":65.3,"hvtu":228.7,"hb":7.1,"idx":2.1,"cls":0,"psfc":973.9,"terrain":false,"radius_km":200,"name":"sym deep warm","track":"T48"},"geometry":{"type":"Point","coordinates":[-112.0,19.75]}},{"type":"Feature","properties":{"kind":"center","id":14,"lat":-73.5,"lon":167.75,"mslp":974.2,"hvtl":-119.0,"hvtu":-19.4,"hb":12.2,"idx":-1.9,"cls":4,"psfc":968.4,"terrain":false,"radius_km":200,"name":"asym cold","track":"T29"},"geometry":{"type":"Point","coordinates":[167.75,-73.5]}},{"type":"Feature","properties":{"kind":"center","id":15,"lat":-62.75,"lon":44.25,"mslp":975.3,"hvtl":-133.1,"hvtu":-70.8,"hb":30.2,"idx":-2.3,"cls":4,"psfc":975.3,"terrain":false,"radius_km":200,"name":"asym cold"},"geometry":{"type":"Point","coordinates":[44.25,-62.75]}},{"type":"Feature","properties":{"kind":"center","id":16,"lat":64.75,"lon":-26.25,"mslp":977.6,"hvtl":-66.3,"hvtu":-190.0,"hb":31.4,"idx":-2.1,"cls":4,"psfc":977.6,"terrain":false,"radius_km":200,"name":"asym cold","track":"T41"},"geometry":{"type":"Point","coordinates":[-26.25,64.75]}},{"type":"Feature","properties":{"kind":"center","id":17,"lat":-68.5,"lon":26.25,"mslp":978.5,"hvtl":-7.6,"hvtu":-60.3,"hb":0.5,"idx":-0.7,"cls":5,"psfc":978.5,"terrain":false,"radius_km":200,"name":"sym cold"},"geometry":{"type":"Point","coordinates":[26.25,-68.5]}},{"type":"Feature","properties":{"kind":"center","id":18,"lat":73.25,"lon":118.25,"mslp":978.7,"hvtl":-40.3,"hvtu":61.1,"hb":-18.9,"idx":-0.2,"cls":6,"psfc":976.4,"terrain":false,"radius_km":200,"name":"shallow cold","track":"T56"},"geometry":{"type":"Point","coordinates":[118.25,73.25]}},{"type":"Feature","properties":{"kind":"center","id":19,"lat":-70.75,"lon":164.25,"mslp":982.7,"hvtl":-155.0,"hvtu":38.6,"hb":29.5,"idx":-1.5,"cls":6,"psfc":936.9,"terrain":false,"radius_km":200,"name":"shallow cold"},"geometry":{"type":"Point","coordinates":[164.25,-70.75]}},{"type":"Feature","properties":{"kind":"center","id":20,"lat":66.75,"lon":-58.25,"mslp":988.0,"hvtl":17.7,"hvtu":-13.3,"hb":22.8,"idx":0.2,"cls":3,"psfc":988.0,"terrain":false,"radius_km":200,"name":"asym shallow warm","track":"T69"},"geometry":{"type":"Point","coordinates":[-58.25,66.75]}},{"type":"Feature","properties":{"kind":"center","id":21,"lat":-47.0,"lon":-105.5,"mslp":989.8,"hvtl":-56.1,"hvtu":-103.8,"hb":35.5,"idx":-1.8,"cls":4,"psfc":989.8,"terrain":false,"radius_km":200,"name":"asym cold","track":"T71"},"geometry":{"type":"Point","coordinates":[-105.5,-47.0]}},{"type":"Feature","properties":{"kind":"center","id":22,"lat":55.25,"lon":-152.75,"mslp":992.4,"hvtl":-1.4,"hvtu":-97.4,"hb":24.8,"idx":-0.8,"cls":4,"psfc":992.4,"terrain":false,"radius_km":200,"name":"asym cold","track":"T74"},"geometry":{"type":"Point","coordinates":[-152.75,55.25]}},{"type":"Feature","properties":{"kind":"center","id":23,"lat":70.75,"lon":-52.0,"mslp":992.7,"hvtl":-177.3,"hvtu":-66.9,"hb":43.7,"idx":-2.5,"cls":4,"psfc":984.6,"terrain":false,"radius_km":200,"name":"asym cold","track":"T75"},"geometry":{"type":"Point","coordinates":[-52.0,70.75]}},{"type":"Feature","properties":{"kind":"center","id":24,"lat":74.75,"lon":-69.25,"mslp":993.3,"hvtl":-89.6,"hvtu":-75.9,"hb":-0.3,"idx":-2.1,"cls":5,"psfc":993.3,"terrain":false,"radius_km":200,"name":"sym cold"},"geometry":{"type":"Point","coordinates":[-69.25,74.75]}},{"type":"Feature","properties":{"kind":"center","id":25,"lat":73.75,"lon":-62.75,"mslp":993.9,"hvtl":-207.2,"hvtu":-54.4,"hb":45.2,"idx":-2.4,"cls":4,"psfc":993.9,"terrain":false,"radius_km":200,"name":"asym cold"},"geometry":{"type":"Point","coordinates":[-62.75,73.75]}},{"type":"Feature","properties":{"kind":"center","id":26,"lat":70.75,"lon":-20.75,"mslp":994.0,"hvtl":87.4,"hvtu":-190.2,"hb":9.4,"idx":0.5,"cls":1,"psfc":994.0,"terrain":false,"radius_km":200,"name":"sym shallow warm"},"geometry":{"type":"Point","coordinates":[-20.75,70.75]}},{"type":"Feature","properties":{"kind":"center","id":27,"lat":74.75,"lon":147.25,"mslp":994.8,"hvtl":-118.2,"hvtu":-86.2,"hb":33.9,"idx":-2.4,"cls":4,"psfc":994.8,"terrain":false,"radius_km":200,"name":"asym cold","track":"T82"},"geometry":{"type":"Point","coordinates":[147.25,74.75]}},{"type":"Feature","properties":{"kind":"center","id":28,"lat":-22.25,"lon":-63.5,"mslp":995.1,"hvtl":-63.8,"hvtu":-243.7,"hb":19.8,"idx":-2.1,"cls":4,"psfc":948.3,"terrain":false,"radius_km":200,"name":"asym cold"},"geometry":{"type":"Point","coordinates":[-63.5,-22.25]}},{"type":"Feature","properties":{"kind":"center","id":29,"lat":71.5,"lon":-25.75,"mslp":997.0,"hvtl":48.5,"hvtu":-120.5,"hb":6.3,"idx":0.1,"cls":1,"psfc":907.2,"terrain":false,"radius_km":200,"name":"sym shallow warm"},"geometry":{"type":"Point","coordinates":[-25.75,71.5]}},{"type":"Feature","properties":{"kind":"center","id":30,"lat":77.0,"lon":-66.5,"mslp":997.5,"hvtl":-85.8,"hvtu":-49.0,"hb":12.7,"idx":-1.8,"cls":4,"psfc":901.1,"terrain":true,"radius_km":200,"name":"asym cold"},"geometry":{"type":"Point","coordinates":[-66.5,77.0]}},{"type":"Feature","properties":{"kind":"center","id":31,"lat":59.25,"lon":144.75,"mslp":997.6,"hvtl":-48.7,"hvtu":-173.7,"hb":17.3,"idx":-1.8,"cls":4,"psfc":996.9,"terrain":false,"radius_km":200,"name":"asym cold","track":"T79"},"geometry":{"type":"Point","coordinates":[144.75,59.25]}},{"type":"Feature","properties":{"kind":"center","id":32,"lat":-28.25,"lon":-66.75,"mslp":998.3,"hvtl":180.9,"hvtu":-211.0,"hb":37.2,"idx":0.9,"cls":3,"psfc":911.2,"terrain":false,"radius_km":200,"name":"asym shallow warm","track":"T93"},"geometry":{"type":"Point","coordinates":[-66.75,-28.25]}},{"type":"Feature","properties":{"kind":"center","id":33,"lat":80.0,"lon":63.0,"mslp":999.1,"hvtl":-160.5,"hvtu":-159.8,"hb":73.3,"idx":-2.8,"cls":4,"psfc":999.1,"terrain":false,"radius_km":200,"name":"asym cold"},"geometry":{"type":"Point","coordinates":[63.0,80.0]}},{"type":"Feature","properties":{"kind":"center","id":34,"lat":-64.25,"lon":-57.75,"mslp":1000.0,"hvtl":-4.4,"hvtu":-107.7,"hb":-7.3,"idx":-0.9,"cls":5,"psfc":909.0,"terrain":true,"radius_km":200,"name":"sym cold"},"geometry":{"type":"Point","coordinates":[-57.75,-64.25]}},{"type":"Feature","properties":{"kind":"center","id":35,"lat":-27.75,"lon":-56.25,"mslp":1000.2,"hvtl":-60.6,"hvtu":-145.8,"hb":37.1,"idx":-2.0,"cls":4,"psfc":989.9,"terrain":false,"radius_km":200,"name":"asym cold","track":"T16"},"geometry":{"type":"Point","coordinates":[-56.25,-27.75]}},{"type":"Feature","properties":{"kind":"center","id":36,"lat":-14.5,"lon":-67.75,"mslp":1002.7,"hvtl":6.9,"hvtu":-141.0,"hb":5.2,"idx":-0.7,"cls":1,"psfc":958.8,"terrain":false,"radius_km":200,"name":"sym shallow warm","track":"T87"},"geometry":{"type":"Point","coordinates":[-67.75,-14.5]}},{"type":"Feature","properties":{"kind":"center","id":37,"lat":-36.25,"lon":-68.0,"mslp":1004.7,"hvtl":-219.3,"hvtu":-151.9,"hb":36.2,"idx":-2.9,"cls":4,"psfc":911.5,"terrain":true,"radius_km":200,"name":"asym cold"},"geometry":{"type":"Point","coordinates":[-68.0,-36.25]}},{"type":"Feature","properties":{"kind":"center","id":38,"lat":-11.75,"lon":-74.0,"mslp":1005.1,"hvtl":41.3,"hvtu":-59.8,"hb":9.6,"idx":0.2,"cls":1,"psfc":932.4,"terrain":false,"radius_km":200,"name":"sym shallow warm"},"geometry":{"type":"Point","coordinates":[-74.0,-11.75]}},{"type":"Feature","properties":{"kind":"center","id":39,"lat":-10.75,"lon":-73.25,"mslp":1005.2,"hvtl":41.3,"hvtu":-35.3,"hb":-6.0,"idx":0.4,"cls":1,"psfc":972.0,"terrain":false,"radius_km":200,"name":"sym shallow warm"},"geometry":{"type":"Point","coordinates":[-73.25,-10.75]}},{"type":"Feature","properties":{"kind":"center","id":40,"lat":57.5,"lon":61.25,"mslp":1006.3,"hvtl":-48.9,"hvtu":-134.7,"hb":39.0,"idx":-1.8,"cls":4,"psfc":980.0,"terrain":false,"radius_km":200,"name":"asym cold"},"geometry":{"type":"Point","coordinates":[61.25,57.5]}},{"type":"Feature","properties":{"kind":"center","id":41,"lat":-11.25,"lon":-74.25,"mslp":1006.5,"hvtl":32.2,"hvtu":-42.7,"hb":5.2,"idx":0.2,"cls":1,"psfc":901.5,"terrain":true,"radius_km":200,"name":"sym shallow warm"},"geometry":{"type":"Point","coordinates":[-74.25,-11.25]}},{"type":"Feature","properties":{"kind":"center","id":42,"lat":50.25,"lon":67.5,"mslp":1007.0,"hvtl":-470.1,"hvtu":-320.4,"hb":96.9,"idx":-3.0,"cls":4,"psfc":966.9,"terrain":false,"radius_km":200,"name":"asym cold","track":"T77"},"geometry":{"type":"Point","coordinates":[67.5,50.25]}},{"type":"Feature","properties":{"kind":"center","id":43,"lat":30.75,"lon":70.75,"mslp":1007.9,"hvtl":-30.3,"hvtu":-88.2,"hb":14.1,"idx":-1.3,"cls":4,"psfc":991.0,"terrain":false,"radius_km":200,"name":"asym cold","track":"T111"},"geometry":{"type":"Point","coordinates":[70.75,30.75]}},{"type":"Feature","properties":{"kind":"center","id":44,"lat":-10.25,"lon":-75.0,"mslp":1008.2,"hvtl":32.2,"hvtu":-20.5,"hb":0.7,"idx":0.4,"cls":1,"psfc":967.3,"terrain":false,"radius_km":200,"name":"sym shallow warm"},"geometry":{"type":"Point","coordinates":[-75.0,-10.25]}},{"type":"Feature","properties":{"kind":"center","id":45,"lat":75.0,"lon":-151.5,"mslp":1009.4,"hvtl":-111.1,"hvtu":17.5,"hb":4.8,"idx":-1.4,"cls":6,"psfc":1009.4,"terrain":false,"radius_km":200,"name":"shallow cold","track":"T117"},"geometry":{"type":"Point","coordinates":[-151.5,75.0]}},{"type":"Feature","properties":{"kind":"center","id":46,"lat":30.75,"lon":58.25,"mslp":1010.2,"hvtl":31.5,"hvtu":-97.4,"hb":-1.4,"idx":-0.1,"cls":1,"psfc":980.7,"terrain":false,"radius_km":200,"name":"sym shallow warm"},"geometry":{"type":"Point","coordinates":[58.25,30.75]}},{"type":"Feature","properties":{"kind":"center","id":47,"lat":49.5,"lon":-96.25,"mslp":1010.2,"hvtl":-198.2,"hvtu":-229.6,"hb":64.9,"idx":-2.9,"cls":4,"psfc":972.1,"terrain":false,"radius_km":200,"name":"asym cold","track":"T57"},"geometry":{"type":"Point","coordinates":[-96.25,49.5]}},{"type":"Feature","properties":{"kind":"center","id":48,"lat":24.0,"lon":38.25,"mslp":1010.3,"hvtl":-2.6,"hvtu":-104.0,"hb":26.5,"idx":-0.8,"cls":4,"psfc":1008.2,"terrain":false,"radius_km":200,"name":"asym cold"},"geometry":{"type":"Point","coordinates":[38.25,24.0]}},{"type":"Feature","properties":{"kind":"center","id":49,"lat":27.0,"lon":78.25,"mslp":1010.7,"hvtl":-32.5,"hvtu":-122.3,"hb":-1.4,"idx":-1.5,"cls":5,"psfc":992.4,"terrain":false,"radius_km":200,"name":"sym cold"},"geometry":{"type":"Point","coordinates":[78.25,27.0]}},{"type":"Feature","properties":{"kind":"center","id":50,"lat":13.0,"lon":41.25,"mslp":1010.9,"hvtl":70.8,"hvtu":40.3,"hb":5.2,"idx":1.6,"cls":0,"psfc":1010.9,"terrain":false,"radius_km":200,"name":"sym deep warm"},"geometry":{"type":"Point","coordinates":[41.25,13.0]}},{"type":"Feature","properties":{"kind":"center","id":51,"lat":28.5,"lon":65.5,"mslp":1012.2,"hvtl":-20.0,"hvtu":-63.0,"hb":-0.2,"idx":-1.0,"cls":5,"psfc":932.1,"terrain":false,"radius_km":200,"name":"sym cold"},"geometry":{"type":"Point","coordinates":[65.5,28.5]}},{"type":"Feature","properties":{"kind":"center","id":52,"lat":31.0,"lon":61.75,"mslp":1012.2,"hvtl":-20.5,"hvtu":-81.5,"hb":3.2,"idx":-1.1,"cls":5,"psfc":957.3,"terrain":false,"radius_km":200,"name":"sym cold","track":"T126"},"geometry":{"type":"Point","coordinates":[61.75,31.0]}},{"type":"Feature","properties":{"kind":"center","id":53,"lat":26.75,"lon":93.0,"mslp":1012.2,"hvtl":-16.7,"hvtu":-107.4,"hb":10.0,"idx":-1.1,"cls":5,"psfc":1002.6,"terrain":false,"radius_km":200,"name":"sym cold"},"geometry":{"type":"Point","coordinates":[93.0,26.75]}},{"type":"Feature","properties":{"kind":"center","id":54,"lat":40.5,"lon":121.0,"mslp":1012.3,"hvtl":-129.0,"hvtu":-342.9,"hb":57.6,"idx":-2.7,"cls":4,"psfc":1012.2,"terrain":false,"radius_km":200,"name":"asym cold","track":"T26"},"geometry":{"type":"Point","coordinates":[121.0,40.5]}},{"type":"Feature","properties":{"kind":"center","id":55,"lat":30.0,"lon":62.5,"mslp":1012.4,"hvtl":-20.4,"hvtu":-62.4,"hb":0.5,"idx":-1.0,"cls":5,"psfc":954.0,"terrain":false,"radius_km":200,"name":"sym cold"},"geometry":{"type":"Point","coordinates":[62.5,30.0]}},{"type":"Feature","properties":{"kind":"center","id":56,"lat":32.25,"lon":61.75,"mslp":1012.5,"hvtl":-5.4,"hvtu":-75.0,"hb":18.1,"idx":-0.7,"cls":4,"psfc":943.8,"terrain":false,"radius_km":200,"name":"asym cold","track":"T109"},"geometry":{"type":"Point","coordinates":[61.75,32.25]}},{"type":"Feature","properties":{"kind":"center","id":57,"lat":36.0,"lon":62.75,"mslp":1012.6,"hvtl":-128.7,"hvtu":-89.5,"hb":67.5,"idx":-2.4,"cls":4,"psfc":964.2,"terrain":false,"radius_km":200,"name":"asym cold","track":"T128"},"geometry":{"type":"Point","coordinates":[62.75,36.0]}},{"type":"Feature","properties":{"kind":"center","id":58,"lat":29.25,"lon":65.75,"mslp":1013.9,"hvtl":-16.9,"hvtu":-57.6,"hb":0.2,"idx":-0.9,"cls":5,"psfc":904.5,"terrain":true,"radius_km":200,"name":"sym cold"},"geometry":{"type":"Point","coordinates":[65.75,29.25]}},{"type":"Feature","properties":{"kind":"center","id":59,"lat":28.5,"lon":57.75,"mslp":1014.1,"hvtl":48.0,"hvtu":-55.3,"hb":-21.0,"idx":0.4,"cls":1,"psfc":944.4,"terrain":false,"radius_km":200,"name":"sym shallow warm"},"geometry":{"type":"Point","coordinates":[57.75,28.5]}},{"type":"Feature","properties":{"kind":"center","id":60,"lat":31.0,"lon":60.5,"mslp":1014.3,"hvtl":11.1,"hvtu":-98.1,"hb":2.8,"idx":-0.5,"cls":1,"psfc":914.7,"terrain":true,"radius_km":200,"name":"sym shallow warm"},"geometry":{"type":"Point","coordinates":[60.5,31.0]}},{"type":"Feature","properties":{"kind":"center","id":61,"lat":-42.5,"lon":150.75,"mslp":1015.3,"hvtl":12.5,"hvtu":-127.8,"hb":23.4,"idx":-0.6,"cls":3,"psfc":1015.3,"terrain":false,"radius_km":200,"name":"asym shallow warm","track":"T127"},"geometry":{"type":"Point","coordinates":[150.75,-42.5]}},{"type":"Feature","properties":{"kind":"center","id":62,"lat":30.75,"lon":106.5,"mslp":1016.9,"hvtl":119.9,"hvtu":-272.3,"hb":9.1,"idx":0.7,"cls":1,"psfc":967.0,"terrain":false,"radius_km":200,"name":"sym shallow warm"},"geometry":{"type":"Point","coordinates":[106.5,30.75]}},{"type":"Feature","properties":{"kind":"center","id":63,"lat":-29.25,"lon":67.75,"mslp":1017.1,"hvtl":34.9,"hvtu":-152.4,"hb":28.1,"idx":-0.2,"cls":3,"psfc":1017.1,"terrain":false,"radius_km":200,"name":"asym shallow warm"},"geometry":{"type":"Point","coordinates":[67.75,-29.25]}}]}