{"type":"FeatureCollection","features":[{"type":"Feature","properties":{"kind":"blob","cls":1,"id":1},"geometry":{"type":"Polygon","coordinates":[[[120.0,-66.38],[126.0,-66.62],[129.0,-66.12],[130.88,-65.0],[130.88,-64.0],[128.25,-62.62],[125.25,-62.12],[120.75,-62.38],[118.25,-63.38],[117.62,-64.0],[117.75,-64.38],[121.12,-64.75],[119.75,-65.38],[117.88,-65.5],[120.0,-66.38]]]}},{"type":"Feature","properties":{"kind":"blob","cls":1,"id":2},"geometry":{"type":"Polygon","coordinates":[[[-169.75,-68.38],[-163.5,-68.38],[-162.25,-67.88],[-161.12,-66.5],[-161.75,-65.12],[-165.5,-63.88],[-171.25,-64.12],[-173.38,-65.25],[-173.88,-66.5],[-173.25,-67.38],[-172.25,-67.88],[-170.25,-67.88],[-169.75,-68.38]]]}},{"type":"Feature","properties":{"kind":"blob","cls":4,"id":3},"geometry":{"type":"MultiPolygon","coordinates":[[[[-1.75,-61.62],[-1.88,-61.75],[-1.75,-61.88],[-1.75,-61.62]]],[[[1.25,-62.12],[3.5,-61.38],[4.12,-60.5],[3.88,-59.25],[1.25,-58.12],[-0.75,-58.12],[-3.38,-59.25],[-3.62,-60.5],[-3.0,-61.38],[-2.0,-61.62],[-1.5,-60.88],[-1.0,-60.88],[1.25,-62.12]]]]}},{"type":"Feature","properties":{"kind":"blob","cls":1,"id":4},"geometry":{"type":"Polygon","coordinates":[[[150.5,54.88],[152.12,56.5],[150.5,58.12],[146.0,58.12],[144.38,56.5],[145.5,55.12],[150.5,54.88]],[[147.75,56.62],[146.62,57.25],[147.0,57.62],[148.0,57.62],[148.38,57.0],[147.75,56.62]]]}},{"type":"Feature","properties":{"kind":"blob","cls":3,"id":5},"geometry":{"type":"Polygon","coordinates":[[[1.5,-68.38],[6.25,-68.38],[7.5,-67.88],[8.38,-66.75],[3.25,-64.62],[0.5,-64.88],[-1.62,-66.0],[-1.88,-67.0],[-1.0,-67.88],[1.5,-68.38]]]}},{"type":"Feature","properties":{"kind":"blob","cls":3,"id":6},"geometry":{"type":"Polygon","coordinates":[[[42.75,-67.12],[47.25,-67.12],[48.5,-66.62],[49.38,-65.75],[49.38,-65.25],[48.5,-64.38],[47.25,-63.88],[43.0,-63.62],[40.75,-64.12],[39.38,-65.25],[39.38,-65.75],[40.25,-66.62],[42.75,-67.12]]]}},{"type":"Feature","properties":{"kind":"blob","cls":0,"id":7},"geometry":{"type":"Polygon","coordinates":[[[-120.0,-57.88],[-118.25,-57.38],[-117.38,-56.5],[-117.38,-55.25],[-118.25,-54.38],[-120.0,-53.88],[-123.25,-54.38],[-124.38,-55.5],[-124.38,-56.5],[-123.0,-57.62],[-120.0,-57.88]]]}},{"type":"Feature","properties":{"kind":"blob","cls":4,"id":8},"geometry":{"type":"Polygon","coordinates":[[[164.75,45.38],[166.0,45.88],[166.88,46.75],[166.88,48.5],[166.0,49.38],[164.75,49.88],[162.25,49.38],[160.88,48.0],[160.88,46.75],[161.75,45.88],[164.75,45.38]]]}},{"type":"Feature","properties":{"kind":"blob","cls":4,"id":9},"geometry":{"type":"Polygon","coordinates":[[[12.5,-53.88],[15.5,-53.88],[16.88,-52.75],[16.88,-51.75],[15.5,-50.38],[14.0,-49.62],[11.75,-49.38],[10.25,-49.88],[9.38,-50.75],[9.38,-52.0],[10.75,-53.38],[12.5,-53.88]]]}},{"type":"Feature","properties":{"kind":"blob","cls":4,"id":10},"geometry":{"type":"Polygon","coordinates":[[[-106.0,-68.38],[-104.75,-67.88],[-103.62,-66.5],[-105.5,-64.12],[-106.75,-63.62],[-110.0,-63.38],[-112.75,-64.12],[-113.62,-65.25],[-113.62,-67.0],[-112.25,-68.12],[-106.0,-68.38]]]}},{"type":"Feature","properties":{"kind":"blob","cls":4,"id":11},"geometry":{"type":"Polygon","coordinates":[[[69.0,-68.62],[76.62,-68.75],[74.75,-67.88],[73.0,-67.62],[69.25,-67.88],[69.38,-68.5],[69.0,-68.62]]]}},{"type":"Feature","properties":{"kind":"blob","cls":4,"id":12},"geometry":{"type":"Polygon","coordinates":[[[-108.75,-74.38],[-104.0,-74.38],[-101.75,-73.62],[-101.12,-72.75],[-103.0,-70.88],[-106.5,-70.12],[-111.75,-70.62],[-113.0,-71.12],[-113.88,-72.0],[-113.88,-72.75],[-112.25,-73.88],[-108.75,-74.38]]]}},{"type":"Feature","properties":{"kind":"blob","cls":1,"id":13},"geometry":{"type":"Polygon","coordinates":[[[27.0,-70.12],[28.5,-70.38],[33.62,-69.75],[27.25,-69.38],[27.0,-70.12]]]}},{"type":"Feature","properties":{"kind":"blob","cls":4,"id":14},"geometry":{"type":"Polygon","coordinates":[[[31.25,-68.38],[33.38,-68.25],[33.25,-68.12],[31.25,-68.38]]]}},{"type":"Feature","properties":{"kind":"blob","cls":4,"id":15},"geometry":{"type":"Polygon","coordinates":[[[152.25,-68.62],[154.5,-68.12],[155.88,-67.0],[155.88,-66.5],[155.0,-65.62],[153.0,-64.88],[146.75,-64.62],[143.75,-65.62],[143.12,-66.5],[144.25,-67.62],[152.25,-68.62]]]}},{"type":"Feature","properties":{"kind":"blob","cls":4,"id":16},"geometry":{"type":"Polygon","coordinates":[[[66.5,-67.88],[66.88,-67.0],[65.25,-65.62],[62.0,-64.88],[58.25,-65.12],[55.88,-66.25],[56.0,-67.12],[66.5,-67.88]]]}},{"type":"Feature","properties":{"kind":"blob","cls":1,"id":17},"geometry":{"type":"Polygon","coordinates":[[[49.75,68.62],[52.5,69.12],[54.38,70.5],[54.38,71.0],[53.5,71.88],[51.25,72.62],[47.25,72.88],[43.0,71.88],[42.12,71.0],[42.12,70.5],[43.0,69.62],[45.5,68.88],[49.75,68.62]]]}},{"type":"Feature","properties":{"kind":"blob","cls":4,"id":18},"geometry":{"type":"Polygon","coordinates":[[[-36.75,-80.12],[-30.62,-78.75],[-35.38,-78.5],[-33.0,-77.38],[-31.5,-77.38],[-29.5,-76.62],[-26.25,-76.12],[-22.0,-76.12],[-20.0,-74.88],[-14.38,-73.75],[-15.5,-73.38],[-11.75,-73.38],[-10.62,-72.75],[-11.75,-72.38],[-14.25,-72.38],[-17.75,-72.88],[-19.25,-73.62],[-20.25,-73.12],[-23.5,-72.62],[-28.5,-72.88],[-33.0,-74.38],[-39.0,-75.62],[-42.0,-77.12],[-43.5,-77.38],[-44.38,-78.25],[-43.5,-79.12],[-41.75,-79.62],[-36.75,-80.12]]]}},{"type":"Feature","properties":{"kind":"blob","cls":2,"id":19},"geometry":{"type":"MultiPolygon","coordinates":[[[[-10.0,-72.12],[-10.12,-72.25],[-10.0,-72.38],[-10.0,-72.12]]],[[[-9.88,-72.0],[-7.75,-72.12],[-4.75,-71.38],[-1.5,-71.62],[0.38,-71.25],[-5.5,-70.88],[-9.88,-72.0]]]]}},{"type":"Feature","properties":{"kind":"blob","cls":3,"id":20},"geometry":{"type":"Polygon","coordinates":[[[177.0,-82.38],[178.5,-81.88],[179.12,-81.25],[178.5,-80.62],[177.0,-80.12],[173.75,-79.62],[163.75,-79.38],[162.88,-79.75],[164.5,-80.62],[168.25,-81.62],[177.0,-82.38]]]}},{"type":"Feature","properties":{"kind":"blob","cls":4,"id":21},"geometry":{"type":"Polygon","coordinates":[[[111.75,-51.12],[113.5,-50.38],[114.12,-49.5],[114.12,-47.5],[113.25,-46.62],[112.0,-46.12],[109.5,-46.62],[108.12,-47.75],[107.38,-49.25],[108.0,-50.38],[111.75,-51.12]]]}},{"type":"Feature","properties":{"kind":"blob","cls":1,"id":22},"geometry":{"type":"Polygon","coordinates":[[[163.0,-77.62],[163.75,-77.62],[168.25,-76.88],[169.5,-76.38],[170.12,-75.25],[169.25,-74.12],[167.75,-73.88],[166.75,-74.62],[164.5,-75.12],[162.62,-77.0],[163.0,-77.62]]]}},{"type":"Feature","properties":{"kind":"blob","cls":1,"id":23},"geometry":{"type":"Polygon","coordinates":[[[-51.0,53.12],[-49.0,53.88],[-48.12,54.75],[-48.12,55.75],[-49.0,56.62],[-50.75,57.12],[-54.0,56.62],[-54.88,55.75],[-54.88,54.5],[-53.25,53.38],[-51.0,53.12]]]}},{"type":"Feature","properties":{"kind":"blob","cls":0,"id":24},"geometry":{"type":"Polygon","coordinates":[[[-121.5,19.62],[-120.5,19.88],[-119.38,21.0],[-119.38,22.5],[-121.25,23.88],[-122.5,23.62],[-123.62,22.25],[-123.62,20.75],[-122.25,20.88],[-121.5,19.62]]]}},{"type":"Feature","properties":{"kind":"blob","cls":4,"id":25},"geometry":{"type":"Polygon","coordinates":[[[-30.0,-78.62],[-29.62,-78.5],[-29.75,-78.38],[-30.0,-78.62]]]}},{"type":"Feature","properties":{"kind":"blob","cls":4,"id":26},"geometry":{"type":"Polygon","coordinates":[[[-72.0,-69.38],[-69.75,-68.38],[-69.38,-68.0],[-69.38,-67.0],[-71.5,-65.88],[-75.25,-65.62],[-78.25,-66.38],[-79.62,-67.25],[-79.62,-68.25],[-79.25,-68.62],[-77.5,-69.38],[-72.0,-69.38]]]}},{"type":"Feature","properties":{"kind":"blob","cls":4,"id":27},"geometry":{"type":"Polygon","coordinates":[[[-59.75,-81.38],[-45.62,-81.25],[-47.25,-80.88],[-59.75,-81.38]]]}},{"type":"Feature","properties":{"kind":"blob","cls":1,"id":28},"geometry":{"type":"Polygon","coordinates":[[[-55.25,-66.62],[-53.0,-66.12],[-51.62,-65.0],[-51.62,-64.0],[-52.0,-63.38],[-53.5,-62.62],[-55.0,-62.38],[-59.75,-62.62],[-61.38,-63.5],[-61.5,-64.62],[-60.0,-63.88],[-58.88,-64.0],[-61.0,-64.62],[-61.25,-65.12],[-59.75,-66.12],[-55.25,-66.62]],[[-57.75,-64.38],[-57.88,-64.25],[-57.75,-64.12],[-57.75,-64.38]]]}},{"type":"Feature","properties":{"kind":"blob","cls":4,"id":29},"geometry":{"type":"Polygon","coordinates":[[[-39.75,57.88],[-38.0,58.38],[-35.88,60.0],[-35.88,61.0],[-37.5,62.12],[-38.75,62.38],[-42.0,62.12],[-43.0,61.62],[-44.0,60.38],[-44.5,60.62],[-44.88,60.25],[-44.88,59.5],[-43.75,58.38],[-39.75,57.88]]]}},{"type":"Feature","properties":{"kind":"blob","cls":1,"id":30},"geometry":{"type":"MultiPolygon","coordinates":[[[[-64.75,-24.38],[-64.88,-24.5],[-64.75,-24.62],[-64.75,-24.38]]],[[[-65.75,-27.62],[-64.5,-26.88],[-63.0,-26.88],[-61.88,-25.75],[-61.88,-24.0],[-62.62,-23.25],[-61.38,-22.25],[-61.38,-20.75],[-62.12,-20.0],[-61.62,-19.25],[-61.62,-18.25],[-62.5,-17.12],[-63.25,-16.88],[-64.62,-17.25],[-63.38,-18.25],[-63.88,-19.0],[-63.12,-19.75],[-63.38,-20.75],[-64.12,-21.0],[-63.62,-21.75],[-64.62,-23.75],[-64.12,-24.25],[-65.12,-25.75],[-64.62,-26.0],[-65.0,-26.62],[-65.38,-26.25],[-65.75,-27.62]]]]}},{"type":"Feature","properties":{"kind":"blob","cls":4,"id":31},"geometry":{"type":"Polygon","coordinates":[[[-76.5,50.88],[-75.12,52.0],[-75.12,53.0],[-76.25,54.12],[-78.25,54.88],[-81.25,54.38],[-82.62,53.25],[-82.62,52.0],[-81.75,51.12],[-76.5,50.88]]]}},{"type":"Feature","properties":{"kind":"blob","cls":0,"id":32},"geometry":{"type":"Polygon","coordinates":[[[160.25,26.38],[161.62,28.0],[161.38,29.25],[160.5,30.12],[158.5,30.12],[157.12,28.5],[157.38,27.25],[158.25,26.38],[160.25,26.38]]]}},{"type":"Feature","properties":{"kind":"blob","cls":3,"id":33},"geometry":{"type":"Polygon","coordinates":[[[-53.25,62.88],[-51.5,63.12],[-49.38,64.5],[-50.12,65.0],[-49.88,65.5],[-50.25,65.88],[-52.25,65.62],[-52.88,66.25],[-49.62,66.5],[-51.75,70.62],[-53.12,70.25],[-52.75,69.62],[-54.0,69.88],[-54.62,69.25],[-54.88,68.25],[-54.12,67.25],[-54.5,66.62],[-55.38,66.5],[-54.12,65.0],[-53.25,62.88]]]}},{"type":"Feature","properties":{"kind":"blob","cls":6,"id":34},"geometry":{"type":"Polygon","coordinates":[[[-90.5,55.88],[-88.38,56.75],[-91.75,58.12],[-94.75,60.12],[-96.25,59.62],[-96.88,59.0],[-96.88,58.0],[-96.25,57.38],[-94.25,56.38],[-90.5,55.88]]]}},{"type":"Feature","properties":{"kind":"blob","cls":4,"id":35},"geometry":{"type":"Polygon","coordinates":[[[139.75,70.88],[141.75,71.62],[142.38,72.75],[141.75,73.62],[139.5,74.38],[134.25,74.62],[130.5,73.88],[129.38,72.75],[130.0,71.88],[131.5,71.12],[139.75,70.88]]]}},{"type":"Feature","properties":{"kind":"blob","cls":1,"id":36},"geometry":{"type":"Polygon","coordinates":[[[-56.38,63.25],[-57.75,65.88],[-58.62,65.25],[-58.62,64.25],[-56.38,63.25]]]}},{"type":"Feature","properties":{"kind":"blob","cls":1,"id":37},"geometry":{"type":"Polygon","coordinates":[[[-88.0,58.12],[-87.88,58.5],[-89.0,59.62],[-90.0,60.12],[-90.62,60.0],[-88.5,58.38],[-88.0,58.12]]]}},{"type":"Feature","properties":{"kind":"blob","cls":0,"id":38},"geometry":{"type":"Polygon","coordinates":[[[146.75,11.12],[148.25,11.12],[149.12,12.25],[149.12,13.25],[148.25,14.38],[145.75,13.88],[145.38,13.25],[145.62,11.75],[146.75,11.12]]]}},{"type":"Feature","properties":{"kind":"blob","cls":5,"id":39},"geometry":{"type":"Polygon","coordinates":[[[-112.75,76.38],[-108.25,76.88],[-106.5,77.38],[-105.5,78.12],[-102.75,78.62],[-101.62,79.25],[-101.62,79.75],[-103.75,80.62],[-112.5,79.12],[-120.5,78.88],[-123.12,79.75],[-122.0,80.38],[-120.0,80.62],[-106.12,81.0],[-109.5,81.38],[-117.25,81.38],[-125.0,80.38],[-127.38,79.25],[-127.0,78.12],[-125.25,77.38],[-121.75,76.62],[-112.75,76.38]]]}},{"type":"Feature","properties":{"kind":"blob","cls":2,"id":40},"geometry":{"type":"Polygon","coordinates":[[[167.25,-41.12],[168.38,-40.0],[168.88,-38.5],[167.5,-36.88],[165.0,-36.62],[163.38,-37.75],[163.38,-40.0],[164.25,-40.88],[167.25,-41.12]],[[165.88,-38.5],[165.12,-38.0],[165.25,-37.12],[166.12,-37.5],[165.88,-38.5]]]}},{"type":"Feature","properties":{"kind":"blob","cls":2,"id":41},"geometry":{"type":"Polygon","coordinates":[[[41.38,11.5],[41.5,11.12],[42.25,11.38],[42.88,12.0],[43.12,13.5],[41.75,15.38],[40.5,15.62],[39.62,15.25],[40.12,13.25],[39.88,12.0],[41.38,11.5]]]}},{"type":"Feature","properties":{"kind":"blob","cls":4,"id":42},"geometry":{"type":"Polygon","coordinates":[[[96.5,59.62],[98.12,60.75],[98.38,61.5],[97.5,62.62],[94.25,63.62],[91.5,63.38],[90.5,62.88],[89.62,62.0],[90.12,60.75],[91.75,59.62],[96.5,59.62]]]}},{"type":"Feature","properties":{"kind":"blob","cls":3,"id":43},"geometry":{"type":"Polygon","coordinates":[[[-68.75,-33.12],[-68.0,-32.88],[-67.38,-32.0],[-67.5,-31.38],[-68.12,-31.5],[-67.62,-31.0],[-68.25,-29.88],[-68.62,-30.5],[-68.75,-33.12]]]}},{"type":"Feature","properties":{"kind":"blob","cls":5,"id":44},"geometry":{"type":"MultiPolygon","coordinates":[[[[66.75,25.12],[68.5,25.12],[69.62,26.25],[70.25,29.12],[71.25,28.88],[74.0,29.88],[74.62,30.75],[74.62,32.25],[72.0,32.38],[70.25,31.88],[70.12,30.0],[69.75,29.62],[68.75,29.62],[67.75,30.12],[67.12,28.75],[67.12,27.5],[66.5,26.88],[65.38,26.75],[65.62,26.0],[66.75,25.12]]],[[[68.75,30.12],[68.62,30.0],[68.75,29.88],[68.75,30.12]]]]}},{"type":"Feature","properties":{"kind":"blob","cls":4,"id":45},"geometry":{"type":"Polygon","coordinates":[[[116.0,44.38],[116.5,44.38],[116.75,45.12],[118.25,44.88],[120.0,45.38],[120.38,46.5],[118.75,45.88],[119.62,47.25],[119.25,47.88],[118.0,48.38],[116.25,48.12],[114.88,47.25],[115.12,46.25],[116.12,45.75],[116.0,44.38]],[[116.62,45.75],[116.75,46.12],[118.38,46.0],[117.5,45.62],[116.62,45.75]],[[119.75,45.62],[119.62,45.75],[119.75,45.88],[119.75,45.62]]]}},{"type":"Feature","properties":{"kind":"blob","cls":1,"id":46},"geometry":{"type":"Polygon","coordinates":[[[1.5,44.38],[3.38,46.0],[3.38,47.75],[2.5,48.62],[0.0,49.12],[-1.75,48.38],[-2.62,47.5],[-2.88,46.0],[-1.75,44.62],[1.5,44.38]]]}},{"type":"Feature","properties":{"kind":"blob","cls":4,"id":47},"geometry":{"type":"Polygon","coordinates":[[[-71.25,-32.62],[-70.62,-32.75],[-71.12,-32.0],[-71.0,-30.38],[-71.62,-30.75],[-71.25,-32.62]]]}},{"type":"Feature","properties":{"kind":"blob","cls":5,"id":48},"geometry":{"type":"Polygon","coordinates":[[[97.38,23.5],[97.38,24.25],[95.75,25.62],[93.62,24.75],[94.5,23.88],[97.38,23.5]]]}},{"type":"Feature","properties":{"kind":"blob","cls":3,"id":49},"geometry":{"type":"Polygon","coordinates":[[[-71.12,-30.0],[-71.0,-30.12],[-70.88,-30.0],[-71.12,-30.0]]]}},{"type":"Feature","properties":{"kind":"blob","cls":5,"id":50},"geometry":{"type":"Polygon","coordinates":[[[92.75,25.38],[93.75,25.38],[94.38,26.25],[93.25,26.88],[92.0,26.88],[92.12,26.0],[92.75,25.38]]]}},{"type":"Feature","properties":{"kind":"blob","cls":5,"id":51},"geometry":{"type":"Polygon","coordinates":[[[65.5,28.12],[65.5,28.88],[65.38,28.75],[65.5,28.12]]]}},{"type":"Feature","properties":{"kind":"blob","cls":4,"id":52},"geometry":{"type":"MultiPolygon","coordinates":[[[[119.25,44.62],[119.12,44.5],[119.25,44.38],[119.25,44.62]]],[[[119.62,44.75],[119.5,44.88],[119.38,44.75],[119.62,44.75]]],[[[119.88,45.0],[119.75,45.12],[119.62,45.0],[119.88,45.0]]]]}},{"type":"Feature","properties":{"kind":"blob","cls":3,"id":53},"geometry":{"type":"Polygon","coordinates":[[[63.0,29.62],[63.88,30.0],[62.12,30.75],[61.88,31.75],[62.38,32.75],[61.25,33.38],[60.62,32.75],[60.38,31.0],[61.0,30.12],[63.0,29.62]]]}},{"type":"Feature","properties":{"kind":"blob","cls":4,"id":54},"geometry":{"type":"Polygon","coordinates":[[[103.12,52.25],[102.25,52.88],[101.62,52.75],[102.25,52.38],[103.12,52.25]]]}},{"type":"Feature","properties":{"kind":"blob","cls":5,"id":55},"geometry":{"type":"Polygon","coordinates":[[[65.88,29.25],[65.75,29.88],[65.62,29.5],[65.88,29.25]]]}},{"type":"Feature","properties":{"kind":"blob","cls":4,"id":56},"geometry":{"type":"Polygon","coordinates":[[[-20.75,70.38],[-18.0,70.88],[-16.75,71.38],[-16.12,72.5],[-17.25,73.38],[-19.0,73.88],[-24.75,73.88],[-25.38,72.5],[-24.12,72.0],[-26.38,71.5],[-25.88,71.25],[-26.0,70.88],[-20.75,70.38]]]}},{"type":"Feature","properties":{"kind":"blob","cls":3,"id":57},"geometry":{"type":"Polygon","coordinates":[[[55.88,35.0],[55.0,35.62],[54.62,35.25],[54.75,35.12],[55.88,35.0]]]}},{"type":"Feature","properties":{"kind":"center","id":1,"lat":-64.0,"lon":123.75,"mslp":947.1,"hvtl":110.6,"hvtu":-50.6,"hb":-3.6,"idx":1.1,"cls":1,"psfc":947.1,"terrain":false,"radius_km":200,"name":"sym shallow warm","track":"T01"},"geometry":{"type":"Point","coordinates":[123.75,-64.0]}},{"type":"Feature","properties":{"kind":"center","id":2,"lat":-66.25,"lon":-167.25,"mslp":950.6,"hvtl":142.1,"hvtu":-81.2,"hb":-22.7,"idx":1.1,"cls":1,"psfc":950.6,"terrain":false,"radius_km":200,"name":"sym shallow warm","track":"T15"},"geometry":{"type":"Point","coordinates":[-167.25,-66.25]}},{"type":"Feature","properties":{"kind":"center","id":3,"lat":-60.25,"lon":0.0,"mslp":957.7,"hvtl":-60.0,"hvtu":-1.4,"hb":23.3,"idx":-1.1,"cls":4,"psfc":957.7,"terrain":false,"radius_km":200,"name":"asym cold","track":"T23"},"geometry":{"type":"Point","coordinates":[0.0,-60.25]}},{"type":"Feature","properties":{"kind":"center","id":4,"lat":56.5,"lon":148.5,"mslp":962.0,"hvtl":197.5,"hvtu":-48.5,"hb":-16.3,"idx":1.5,"cls":1,"psfc":962.0,"terrain":false,"radius_km":200,"name":"sym shallow warm","track":"T26"},"geometry":{"type":"Point","coordinates":[148.5,56.5]}},{"type":"Feature","properties":{"kind":"center","id":5,"lat":-66.5,"lon":3.25,"mslp":964.4,"hvtl":2.6,"hvtu":-42.3,"hb":14.3,"idx":-0.3,"cls":3,"psfc":964.4,"terrain":false,"radius_km":200,"name":"asym shallow warm","track":"T04"},"geometry":{"type":"Point","coordinates":[3.25,-66.5]}},{"type":"Feature","properties":{"kind":"center","id":6,"lat":-65.5,"lon":44.25,"mslp":964.7,"hvtl":27.4,"hvtu":-217.5,"hb":24.5,"idx":-0.4,"cls":3,"psfc":964.7,"terrain":false,"radius_km":200,"name":"asym shallow warm","track":"T30"},"geometry":{"type":"Point","coordinates":[44.25,-65.5]}},{"type":"Feature","properties":{"kind":"center","id":7,"lat":-56.0,"lon":-120.75,"mslp":965.4,"hvtl":135.7,"hvtu":27.1,"hb":-5.3,"idx":2.0,"cls":0,"psfc":965.4,"terrain":false,"radius_km":200,"name":"sym deep warm","track":"T33"},"geometry":{"type":"Point","coordinates":[-120.75,-56.0]}},{"type":"Feature","properties":{"kind":"center","id":8,"lat":47.75,"lon":164.0,"mslp":967.4,"hvtl":-50.7,"hvtu":-339.9,"hb":104.7,"idx":-1.9,"cls":4,"psfc":967.4,"terrain":false,"radius_km":200,"name":"asym cold","track":"T07"},"geometry":{"type":"Point","coordinates":[164.0,47.75]}},{"type":"Feature","properties":{"kind":"center","id":9,"lat":-51.75,"lon":12.75,"mslp":967.9,"hvtl":-194.2,"hvtu":-243.3,"hb":100.2,"idx":-2.9,"cls":4,"psfc":967.9,"terrain":false,"radius_km":200,"name":"asym cold","track":"T16"},"geometry":{"type":"Point","coordinates":[12.75,-51.75]}},{"type":"Feature","properties":{"kind":"center","id":10,"lat":-66.5,"lon":-108.75,"mslp":967.9,"hvtl":-68.3,"hvtu":-112.6,"hb":36.4,"idx":-2.0,"cls":4,"psfc":967.9,"terrain":false,"radius_km":200,"name":"asym cold","track":"T18"},"geometry":{"type":"Point","coordinates":[-108.75,-66.5]}},{"type":"Feature","properties":{"kind":"center","id":11,"lat":-68.75,"lon":76.5,"mslp":968.3,"hvtl":-241.1,"hvtu":-60.1,"hb":34.8,"idx":-2.5,"cls":4,"psfc":968.3,"terrain":false,"radius_km":200,"name":"asym cold","track":"T37"},"geometry":{"type":"Point","coordinates":[76.5,-68.75]}},{"type":"Feature","properties":{"kind":"center","id":12,"lat":-72.25,"lon":-107.75,"mslp":971.6,"hvtl":-14.2,"hvtu":-76.7,"hb":28.1,"idx":-0.9,"cls":4,"psfc":971.6,"terrain":false,"radius_km":200,"name":"asym cold","track":"T34"},"geometry":{"type":"Point","coordinates":[-107.75,-72.25]}},{"type":"Feature","properties":{"kind":"center","id":13,"lat":-69.75,"lon":32.0,"mslp":971.9,"hvtl":5.5,"hvtu":-89.1,"hb":-7.3,"idx":-0.6,"cls":1,"psfc":969.2,"terrain":false,"radius_km":200,"name":"sym shallow warm"},"geometry":{"type":"Point","coordinates":[32.0,-69.75]}},{"type":"Feature","properties":{"kind":"center","id":14,"lat":-68.25,"lon":31.25,"mslp":971.9,"hvtl":-13.2,"hvtu":-167.8,"hb":14.0,"idx":-1.2,"cls":4,"psfc":971.9,"terrain":false,"radius_km":200,"name":"asym cold","track":"T19"},"geometry":{"type":"Point","coordinates":[31.25,-68.25]}},{"type":"Feature","properties":{"kind":"center","id":15,"lat":-66.75,"lon":149.75,"mslp":971.9,"hvtl":-122.8,"hvtu":-317.1,"hb":34.5,"idx":-2.7,"cls":4,"psfc":971.9,"terrain":false,"radius_km":200,"name":"asym cold"},"geometry":{"type":"Point","coordinates":[149.75,-66.75]}},{"type":"Feature","properties":{"kind":"center","id":16,"lat":-67.25,"lon":60.25,"mslp":972.2,"hvtl":-338.9,"hvtu":-46.5,"hb":82.0,"idx":-2.4,"cls":4,"psfc":970.6,"terrain":false,"radius_km":200,"name":"asym cold"},"geometry":{"type":"Point","coordinates":[60.25,-67.25]}},{"type":"Feature","properties":{"kind":"center","id":17,"lat":70.75,"lon":48.25,"mslp":972.8,"hvtl":103.3,"hvtu":-33.3,"hb":4.4,"idx":1.2,"cls":1,"psfc":972.9,"terrain":false,"radius_km":200,"name":"sym shallow warm","track":"T41"},"geometry":{"type":"Point","coordinates":[48.25,70.75]}},{"type":"Feature","properties":{"kind":"center","id":18,"lat":-73.75,"lon":-14.5,"mslp":976.3,"hvtl":-275.8,"hvtu":-151.1,"hb":21.1,"idx":-2.9,"cls":4,"psfc":929.0,"terrain":false,"radius_km":200,"name":"asym cold","track":"T50"},"geometry":{"type":"Point","coordinates":[-14.5,-73.75]}},{"type":"Feature","properties":{"kind":"center","id":19,"lat":-71.25,"lon":0.25,"mslp":977.1,"hvtl":16.0,"hvtu":9.1,"hb":13.4,"idx":0.4,"cls":2,"psfc":970.2,"terrain":false,"radius_km":200,"name":"asym deep warm"},"geometry":{"type":"Point","coordinates":[0.25,-71.25]}},{"type":"Feature","properties":{"kind":"center","id":20,"lat":-81.25,"lon":172.0,"mslp":978.9,"hvtl":57.9,"hvtu":-147.9,"hb":12.6,"idx":0.1,"cls":3,"psfc":971.9,"terrain":false,"radius_km":200,"name":"asym shallow warm","track":"T05"},"geometry":{"type":"Point","coordinates":[172.0,-81.25]}},{"type":"Feature","properties":{"kind":"center","id":21,"lat":-48.75,"lon":111.0,"mslp":979.4,"hvtl":-125.9,"hvtu":-407.0,"hb":24.7,"idx":-2.7,"cls":4,"psfc":979.4,"terrain":false,"radius_km":200,"name":"asym cold","track":"T22"},"geometry":{"type":"Point","coordinates":[111.0,-48.75]}},{"type":"Feature","properties":{"kind":"center","id":22,"lat":-75.5,"lon":165.25,"mslp":980.1,"hvtl":5.1,"hvtu":-108.6,"hb":-15.2,"idx":-0.7,"cls":1,"psfc":980.0,"terrain":false,"radius_km":200,"name":"sym shallow warm","track":"T59"},"geometry":{"type":"Point","coordinates":[165.25,-75.5]}},{"type":"Feature","properties":{"kind":"center","id":23,"lat":55.25,"lon":-51.5,"mslp":981.1,"hvtl":111.4,"hvtu":-194.6,"hb":0.5,"idx":0.7,"cls":1,"psfc":981.1,"terrain":false,"radius_km":200,"name":"sym shallow warm","track":"T44"},"geometry":{"type":"Point","coordinates":[-51.5,55.25]}},{"type":"Feature","properties":{"kind":"center","id":24,"lat":21.75,"lon":-121.5,"mslp":982.8,"hvtl":51.8,"hvtu":162.1,"hb":4.1,"idx":1.9,"cls":0,"psfc":982.8,"terrain":false,"radius_km":200,"name":"sym deep warm","track":"T48"},"geometry":{"type":"Point","coordinates":[-121.5,21.75]}},{"type":"Feature","properties":{"kind":"center","id":25,"lat":-78.5,"lon":-30.0,"mslp":984.2,"hvtl":-192.0,"hvtu":-97.7,"hb":12.8,"idx":-2.7,"cls":4,"psfc":902.6,"terrain":false,"radius_km":200,"name":"asym cold","track":"T51"},"geometry":{"type":"Point","coordinates":[-30.0,-78.5]}},{"type":"Feature","properties":{"kind":"center","id":26,"lat":-68.0,"lon":-75.25,"mslp":984.6,"hvtl":-91.3,"hvtu":-86.6,"hb":18.8,"idx":-2.1,"cls":4,"psfc":984.6,"terrain":false,"radius_km":200,"name":"asym cold","track":"T65"},"geometry":{"type":"Point","coordinates":[-75.25,-68.0]}},{"type":"Feature","properties":{"kind":"center","id":27,"lat":-81.0,"lon":-49.75,"mslp":986.7,"hvtl":-141.7,"hvtu":-44.4,"hb":22.7,"idx":-2.2,"cls":4,"psfc":971.9,"terrain":false,"radius_km":200,"name":"asym cold","track":"T58"},"geometry":{"type":"Point","coordinates":[-49.75,-81.0]}},{"type":"Feature","properties":{"kind":"center","id":28,"lat":-64.5,"lon":-56.5,"mslp":986.8,"hvtl":8.3,"hvtu":-108.0,"hb":2.9,"idx":-0.6,"cls":1,"psfc":986.8,"terrain":false,"radius_km":200,"name":"sym shallow warm"},"geometry":{"type":"Point","coordinates":[-56.5,-64.5]}},{"type":"Feature","properties":{"kind":"center","id":29,"lat":60.0,"lon":-40.75,"mslp":991.6,"hvtl":-35.2,"hvtu":-386.2,"hb":59.2,"idx":-1.7,"cls":4,"psfc":991.6,"terrain":false,"radius_km":200,"name":"asym cold","track":"T62"},"geometry":{"type":"Point","coordinates":[-40.75,60.0]}},{"type":"Feature","properties":{"kind":"center","id":30,"lat":-18.75,"lon":-63.5,"mslp":995.8,"hvtl":44.0,"hvtu":-47.7,"hb":1.1,"idx":0.4,"cls":1,"psfc":921.2,"terrain":false,"radius_km":200,"name":"sym shallow warm","track":"T87"},"geometry":{"type":"Point","coordinates":[-63.5,-18.75]}},{"type":"Feature","properties":{"kind":"center","id":31,"lat":52.5,"lon":-79.0,"mslp":996.0,"hvtl":-96.0,"hvtu":-119.0,"hb":36.3,"idx":-2.3,"cls":4,"psfc":996.0,"terrain":false,"radius_km":200,"name":"asym cold","track":"T88"},"geometry":{"type":"Point","coordinates":[-79.0,52.5]}},{"type":"Feature","properties":{"kind":"center","id":32,"lat":28.25,"lon":159.5,"mslp":996.8,"hvtl":68.3,"hvtu":35.5,"hb":7.9,"idx":1.5,"cls":0,"psfc":996.9,"terrain":false,"radius_km":200,"name":"sym deep warm","track":"T40"},"geometry":{"type":"Point","coordinates":[159.5,28.25]}},{"type":"Feature","properties":{"kind":"center","id":33,"lat":64.75,"lon":-54.0,"mslp":998.2,"hvtl":152.3,"hvtu":-122.2,"hb":21.8,"idx":1.0,"cls":3,"psfc":998.2,"terrain":false,"radius_km":200,"name":"asym shallow warm"},"geometry":{"type":"Point","coordinates":[-54.0,64.75]}},{"type":"Feature","properties":{"kind":"center","id":34,"lat":58.25,"lon":-92.25,"mslp":1000.2,"hvtl":-35.0,"hvtu":16.8,"hb":22.3,"idx":-0.5,"cls":6,"psfc":1000.2,"terrain":false,"radius_km":200,"name":"shallow cold","track":"T89"},"geometry":{"type":"Point","coordinates":[-92.25,58.25]}},{"type":"Feature","properties":{"kind":"center","id":35,"lat":72.75,"lon":136.0,"mslp":1001.0,"hvtl":-31.5,"hvtu":-176.5,"hb":36.5,"idx":-1.6,"cls":4,"psfc":1001.0,"terrain":false,"radius_km":200,"name":"asym cold"},"geometry":{"type":"Point","coordinates":[136.0,72.75]}},{"type":"Feature","properties":{"kind":"center","id":36,"lat":63.25,"lon":-56.5,"mslp":1001.1,"hvtl":201.4,"hvtu":-90.6,"hb":-37.9,"idx":1.2,"cls":1,"psfc":1001.1,"terrain":false,"radius_km":200,"name":"sym shallow warm"},"geometry":{"type":"Point","coordinates":[-56.5,63.25]}},{"type":"Feature","properties":{"kind":"center","id":37,"lat":58.5,"lon":-88.5,"mslp":1003.0,"hvtl":70.6,"hvtu":-108.8,"hb":-12.1,"idx":0.4,"cls":1,"psfc":1003.0,"terrain":false,"radius_km":200,"name":"sym shallow warm"},"geometry":{"type":"Point","coordinates":[-88.5,58.5]}},{"type":"Feature","properties":{"kind":"center","id":38,"lat":12.75,"lon":147.25,"mslp":1003.1,"hvtl":13.5,"hvtu":25.5,"hb":-3.3,"idx":0.5,"cls":0,"psfc":1003.1,"terrain":false,"radius_km":200,"name":"sym deep warm","track":"T08"},"geometry":{"type":"Point","coordinates":[147.25,12.75]}},{"type":"Feature","properties":{"kind":"center","id":39,"lat":78.75,"lon":-117.25,"mslp":1006.4,"hvtl":-45.5,"hvtu":-32.8,"hb":0.5,"idx":-1.2,"cls":5,"psfc":1006.4,"terrain":false,"radius_km":200,"name":"sym cold","track":"T116"},"geometry":{"type":"Point","coordinates":[-117.25,78.75]}},{"type":"Feature","properties":{"kind":"center","id":40,"lat":-38.75,"lon":166.0,"mslp":1008.5,"hvtl":4.9,"hvtu":26.7,"hb":37.7,"idx":0.4,"cls":2,"psfc":1008.5,"terrain":false,"radius_km":200,"name":"asym deep warm","track":"T107"},"geometry":{"type":"Point","coordinates":[166.0,-38.75]}},{"type":"Feature","properties":{"kind":"center","id":41,"lat":13.25,"lon":40.75,"mslp":1008.6,"hvtl":41.9,"hvtu":22.6,"hb":11.0,"idx":1.0,"cls":2,"psfc":1011.3,"terrain":false,"radius_km":200,"name":"asym deep warm"},"geometry":{"type":"Point","coordinates":[40.75,13.25]}},{"type":"Feature","properties":{"kind":"center","id":42,"lat":61.75,"lon":93.5,"mslp":1008.6,"hvtl":-92.1,"hvtu":-22.0,"hb":20.5,"idx":-1.7,"cls":4,"psfc":959.7,"terrain":false,"radius_km":200,"name":"asym cold","track":"T77"},"geometry":{"type":"Point","coordinates":[93.5,61.75]}},{"type":"Feature","properties":{"kind":"center","id":43,"lat":-30.0,"lon":-68.25,"mslp":1009.3,"hvtl":103.2,"hvtu":-302.7,"hb":61.1,"idx":0.6,"cls":3,"psfc":904.0,"terrain":true,"radius_km":200,"name":"asym shallow warm"},"geometry":{"type":"Point","coordinates":[-68.25,-30.0]}},{"type":"Feature","properties":{"kind":"center","id":44,"lat":28.5,"lon":67.5,"mslp":1009.5,"hvtl":-37.0,"hvtu":-35.9,"hb":1.7,"idx":-1.1,"cls":5,"psfc":1000.8,"terrain":false,"radius_km":200,"name":"sym cold","track":"T108"},"geometry":{"type":"Point","coordinates":[67.5,28.5]}},{"type":"Feature","properties":{"kind":"center","id":45,"lat":46.25,"lon":117.25,"mslp":1010.4,"hvtl":-229.3,"hvtu":-270.2,"hb":87.1,"idx":-3.0,"cls":4,"psfc":905.2,"terrain":true,"radius_km":200,"name":"asym cold"},"geometry":{"type":"Point","coordinates":[117.25,46.25]}},{"type":"Feature","properties":{"kind":"center","id":46,"lat":46.25,"lon":0.0,"mslp":1011.4,"hvtl":131.0,"hvtu":-109.0,"hb":-5.5,"idx":0.9,"cls":1,"psfc":995.4,"terrain":false,"radius_km":200,"name":"sym shallow warm","track":"T121"},"geometry":{"type":"Point","coordinates":[0.0,46.25]}},{"type":"Feature","properties":{"kind":"center","id":47,"lat":-32.75,"lon":-70.75,"mslp":1012.5,"hvtl":-64.1,"hvtu":-247.4,"hb":37.3,"idx":-2.1,"cls":4,"psfc":912.3,"terrain":true,"radius_km":200,"name":"asym cold"},"geometry":{"type":"Point","coordinates":[-70.75,-32.75]}},{"type":"Feature","properties":{"kind":"center","id":48,"lat":24.0,"lon":96.5,"mslp":1013.3,"hvtl":-11.2,"hvtu":-99.9,"hb":8.3,"idx":-1.0,"cls":5,"psfc":997.5,"terrain":false,"radius_km":200,"name":"sym cold","track":"T124"},"geometry":{"type":"Point","coordinates":[96.5,24.0]}},{"type":"Feature","properties":{"kind":"center","id":49,"lat":-30.0,"lon":-71.0,"mslp":1013.6,"hvtl":48.1,"hvtu":-298.9,"hb":40.4,"idx":-0.1,"cls":3,"psfc":932.7,"terrain":false,"radius_km":200,"name":"asym shallow warm","track":"T99"},"geometry":{"type":"Point","coordinates":[-71.0,-30.0]}},{"type":"Feature","properties":{"kind":"center","id":50,"lat":26.5,"lon":92.5,"mslp":1013.7,"hvtl":-41.5,"hvtu":-71.0,"hb":3.3,"idx":-1.4,"cls":5,"psfc":1006.5,"terrain":false,"radius_km":200,"name":"sym cold"},"geometry":{"type":"Point","coordinates":[92.5,26.5]}},{"type":"Feature","properties":{"kind":"center","id":51,"lat":28.5,"lon":65.5,"mslp":1014.2,"hvtl":-8.3,"hvtu":-41.7,"hb":5.4,"idx":-0.6,"cls":5,"psfc":933.6,"terrain":false,"radius_km":200,"name":"sym cold","track":"T105"},"geometry":{"type":"Point","coordinates":[65.5,28.5]}},{"type":"Feature","properties":{"kind":"center","id":52,"lat":44.5,"lon":119.25,"mslp":1014.5,"hvtl":-185.4,"hvtu":-212.4,"hb":73.3,"idx":-2.9,"cls":4,"psfc":910.2,"terrain":true,"radius_km":200,"name":"asym cold"},"geometry":{"type":"Point","coordinates":[119.25,44.5]}},{"type":"Feature","properties":{"kind":"center","id":53,"lat":31.0,"lon":62.0,"mslp":1015.0,"hvtl":32.5,"hvtu":-65.1,"hb":13.6,"idx":0.1,"cls":3,"psfc":959.8,"terrain":false,"radius_km":200,"name":"asym shallow warm","track":"T129"},"geometry":{"type":"Point","coordinates":[62.0,31.0]}},{"type":"Feature","properties":{"kind":"center","id":54,"lat":52.75,"lon":101.75,"mslp":1015.5,"hvtl":-124.4,"hvtu":-273.8,"hb":60.4,"idx":-2.7,"cls":4,"psfc":908.9,"terrain":true,"radius_km":200,"name":"asym cold"},"geometry":{"type":"Point","coordinates":[101.75,52.75]}},{"type":"Feature","properties":{"kind":"center","id":55,"lat":29.25,"lon":65.5,"mslp":1015.7,"hvtl":-14.3,"hvtu":-43.4,"hb":3.3,"idx":-0.7,"cls":5,"psfc":917.4,"terrain":true,"radius_km":200,"name":"sym cold"},"geometry":{"type":"Point","coordinates":[65.5,29.25]}},{"type":"Feature","properties":{"kind":"center","id":56,"lat":73.5,"lon":-19.0,"mslp":1016.6,"hvtl":-66.7,"hvtu":-236.7,"hb":25.1,"idx":-2.1,"cls":4,"psfc":1016.6,"terrain":false,"radius_km":200,"name":"asym cold"},"geometry":{"type":"Point","coordinates":[-19.0,73.5]}},{"type":"Feature","properties":{"kind":"center","id":57,"lat":35.0,"lon":55.5,"mslp":1017.6,"hvtl":54.6,"hvtu":-83.9,"hb":89.3,"idx":0.3,"cls":3,"psfc":937.5,"terrain":false,"radius_km":200,"name":"asym shallow warm"},"geometry":{"type":"Point","coordinates":[55.5,35.0]}}]}