{"type":"FeatureCollection","features":[{"type":"Feature","properties":{"kind":"blob","cls":1,"id":1},"geometry":{"type":"Polygon","coordinates":[[[-148.5,-66.88],[-147.25,-66.38],[-146.12,-65.0],[-147.25,-63.62],[-150.25,-62.62],[-153.75,-62.88],[-156.38,-64.5],[-156.62,-65.0],[-155.75,-66.12],[-154.0,-66.88],[-148.5,-66.88]]]}},{"type":"Feature","properties":{"kind":"blob","cls":1,"id":2},"geometry":{"type":"Polygon","coordinates":[[[90.0,-54.88],[91.5,-54.38],[92.38,-53.5],[92.38,-52.5],[91.25,-51.38],[89.75,-50.88],[87.25,-51.38],[86.38,-52.25],[86.38,-53.5],[87.25,-54.38],[90.0,-54.88]]]}},{"type":"Feature","properties":{"kind":"blob","cls":4,"id":3},"geometry":{"type":"Polygon","coordinates":[[[-23.5,58.88],[-21.62,60.25],[-21.62,61.25],[-22.5,62.12],[-24.75,62.88],[-26.75,62.88],[-29.0,62.12],[-29.88,61.25],[-29.88,60.25],[-27.75,58.88],[-23.5,58.88]]]}},{"type":"Feature","properties":{"kind":"blob","cls":4,"id":4},"geometry":{"type":"Polygon","coordinates":[[[10.75,-64.62],[19.0,-64.62],[21.0,-63.88],[21.62,-63.25],[21.62,-62.25],[20.0,-61.12],[18.0,-60.62],[11.0,-60.62],[8.25,-61.38],[7.12,-62.25],[7.12,-63.25],[7.75,-63.88],[10.75,-64.62]]]}},{"type":"Feature","properties":{"kind":"blob","cls":4,"id":5},"geometry":{"type":"Polygon","coordinates":[[[-93.25,-69.62],[-89.75,-68.12],[-88.62,-67.0],[-88.62,-66.5],[-89.5,-65.62],[-90.75,-65.12],[-97.25,-64.88],[-101.5,-65.62],[-103.88,-67.0],[-103.88,-68.0],[-103.25,-68.62],[-100.75,-69.62],[-93.25,-69.62]]]}},{"type":"Feature","properties":{"kind":"blob","cls":4,"id":6},"geometry":{"type":"Polygon","coordinates":[[[-145.5,-76.38],[-144.75,-75.88],[-143.0,-75.62],[-140.5,-75.88],[-139.75,-75.38],[-136.25,-75.12],[-135.88,-74.0],[-136.5,-73.38],[-139.0,-72.62],[-145.75,-72.38],[-149.25,-72.88],[-150.5,-73.38],[-151.38,-74.25],[-151.38,-74.75],[-150.25,-75.62],[-145.5,-76.38]]]}},{"type":"Feature","properties":{"kind":"blob","cls":3,"id":7},"geometry":{"type":"Polygon","coordinates":[[[5.0,77.12],[9.75,77.62],[13.0,78.38],[13.62,78.75],[12.5,79.38],[14.25,79.38],[14.38,79.75],[13.75,80.38],[11.75,81.12],[5.5,81.88],[-5.75,81.62],[-9.5,80.88],[-10.62,80.0],[-10.25,79.12],[-8.25,78.12],[-4.25,77.38],[5.0,77.12]]]}},{"type":"Feature","properties":{"kind":"blob","cls":4,"id":8},"geometry":{"type":"Polygon","coordinates":[[[-152.0,-79.62],[-147.62,-79.0],[-152.25,-78.62],[-153.75,-77.88],[-156.88,-77.75],[-156.25,-77.38],[-151.25,-77.88],[-145.5,-77.88],[-145.38,-77.5],[-146.75,-76.62],[-149.25,-76.12],[-156.25,-75.88],[-160.5,-76.38],[-162.88,-77.5],[-162.5,-78.38],[-161.5,-78.88],[-152.0,-79.62]]]}},{"type":"Feature","properties":{"kind":"blob","cls":4,"id":9},"geometry":{"type":"Polygon","coordinates":[[[107.5,-55.38],[109.5,-54.62],[110.12,-53.5],[110.12,-52.5],[108.75,-51.12],[107.25,-50.62],[104.5,-51.12],[103.38,-52.5],[103.38,-53.5],[104.25,-54.62],[107.5,-55.38]]]}},{"type":"Feature","properties":{"kind":"blob","cls":4,"id":10},"geometry":{"type":"Polygon","coordinates":[[[65.5,-54.38],[67.25,-53.88],[69.12,-52.5],[69.12,-51.25],[68.25,-50.38],[66.75,-49.88],[62.5,-49.88],[60.62,-51.5],[60.62,-53.0],[61.5,-53.88],[65.5,-54.38]]]}},{"type":"Feature","properties":{"kind":"blob","cls":2,"id":11},"geometry":{"type":"Polygon","coordinates":[[[160.0,39.88],[161.5,40.62],[161.88,41.25],[161.62,42.75],[159.75,43.88],[158.75,43.88],[157.25,43.12],[156.62,42.25],[156.62,41.25],[157.0,40.62],[160.0,39.88]]]}},{"type":"Feature","properties":{"kind":"blob","cls":6,"id":12},"geometry":{"type":"Polygon","coordinates":[[[94.25,-66.38],[96.5,-66.62],[96.12,-66.0],[96.5,-65.62],[99.75,-66.62],[101.75,-66.12],[105.0,-66.38],[105.12,-65.75],[103.75,-64.88],[101.75,-64.38],[98.25,-64.38],[94.75,-65.62],[94.25,-66.38]]]}},{"type":"Feature","properties":{"kind":"blob","cls":4,"id":13},"geometry":{"type":"Polygon","coordinates":[[[-100.5,-56.12],[-98.5,-55.38],[-97.88,-54.5],[-98.12,-53.5],[-99.0,-52.62],[-101.0,-51.88],[-102.5,-51.88],[-104.5,-52.62],[-105.12,-53.5],[-104.88,-54.5],[-104.0,-55.38],[-100.5,-56.12]]]}},{"type":"Feature","properties":{"kind":"blob","cls":4,"id":14},"geometry":{"type":"Polygon","coordinates":[[[154.0,-63.62],[155.75,-62.88],[156.88,-61.5],[156.0,-60.38],[153.75,-59.62],[148.25,-59.62],[147.0,-59.88],[145.38,-61.0],[145.12,-61.5],[146.25,-62.88],[147.25,-63.38],[154.0,-63.62]]]}},{"type":"Feature","properties":{"kind":"blob","cls":4,"id":15},"geometry":{"type":"Polygon","coordinates":[[[84.25,-44.62],[86.0,-43.88],[86.62,-43.0],[86.38,-41.5],[84.75,-40.62],[81.75,-41.38],[81.12,-42.25],[81.12,-43.25],[81.75,-44.12],[84.25,-44.62]]]}},{"type":"Feature","properties":{"kind":"blob","cls":4,"id":16},"geometry":{"type":"Polygon","coordinates":[[[49.75,-67.12],[51.5,-67.38],[51.5,-66.38],[55.0,-66.12],[55.88,-66.5],[56.0,-67.12],[58.5,-67.38],[58.88,-66.5],[58.0,-65.62],[56.75,-65.12],[53.25,-64.88],[50.5,-65.62],[49.62,-66.5],[49.75,-67.12]]]}},{"type":"Feature","properties":{"kind":"blob","cls":3,"id":17},"geometry":{"type":"Polygon","coordinates":[[[162.25,-79.38],[163.75,-79.62],[168.0,-79.12],[170.0,-78.38],[170.62,-77.5],[169.75,-76.62],[167.25,-75.62],[164.25,-75.38],[162.38,-77.0],[164.62,-78.5],[161.75,-78.62],[162.25,-79.38]],[[166.62,-77.5],[169.12,-77.5],[169.0,-77.62],[166.62,-77.5]]]}},{"type":"Feature","properties":{"kind":"blob","cls":4,"id":18},"geometry":{"type":"Polygon","coordinates":[[[11.25,-45.12],[12.5,-44.62],[13.12,-43.75],[12.88,-42.25],[10.5,-40.88],[9.0,-40.88],[7.75,-41.38],[7.12,-42.25],[7.38,-43.75],[8.75,-44.62],[11.25,-45.12]]]}},{"type":"Feature","properties":{"kind":"blob","cls":4,"id":19},"geometry":{"type":"Polygon","coordinates":[[[109.5,-45.62],[111.38,-44.5],[111.38,-42.75],[110.75,-41.88],[109.5,-41.38],[108.0,-41.38],[106.38,-42.25],[106.12,-44.5],[106.75,-45.12],[109.5,-45.62]]]}},{"type":"Feature","properties":{"kind":"blob","cls":4,"id":20},"geometry":{"type":"Polygon","coordinates":[[[-75.5,65.62],[-72.75,66.12],[-70.25,67.12],[-69.12,68.25],[-69.12,69.0],[-69.75,69.12],[-70.5,70.12],[-71.5,70.38],[-74.75,70.88],[-78.5,70.88],[-81.0,70.38],[-83.38,68.75],[-82.75,66.88],[-80.5,65.88],[-75.5,65.62]],[[-74.62,70.25],[-73.25,70.38],[-72.88,70.0],[-74.62,70.25]]]}},{"type":"Feature","properties":{"kind":"blob","cls":4,"id":21},"geometry":{"type":"Polygon","coordinates":[[[179.75,84.38],[180.0,88.88],[158.5,88.88],[137.5,88.38],[126.0,87.62],[123.12,86.75],[123.5,86.12],[125.0,85.88],[126.75,84.88],[133.38,84.0],[127.25,83.12],[125.5,82.38],[125.5,81.62],[128.25,80.62],[135.75,79.88],[148.5,80.12],[153.0,80.88],[155.0,81.62],[155.62,82.25],[155.25,82.88],[153.25,83.62],[162.5,83.62],[179.75,84.38]]]}},{"type":"Feature","properties":{"kind":"blob","cls":4,"id":21},"geometry":{"type":"Polygon","coordinates":[[[-179.75,88.88],[-180.0,84.38],[-148.75,84.62],[-136.5,85.62],[-132.5,86.38],[-132.12,86.75],[-135.0,87.62],[-143.75,88.38],[-160.5,88.88],[-179.75,88.88]]]}},{"type":"Feature","properties":{"kind":"blob","cls":4,"id":22},"geometry":{"type":"Polygon","coordinates":[[[-17.75,70.38],[-15.5,71.12],[-14.88,72.25],[-16.75,73.38],[-23.0,74.38],[-22.62,73.75],[-23.0,73.38],[-23.62,73.75],[-23.25,74.12],[-23.75,74.12],[-24.62,72.5],[-23.88,72.0],[-25.88,71.0],[-24.5,70.38],[-17.75,70.38]],[[-24.0,72.62],[-24.12,72.75],[-24.0,72.88],[-24.0,72.62]]]}},{"type":"Feature","properties":{"kind":"blob","cls":4,"id":23},"geometry":{"type":"Polygon","coordinates":[[[-58.5,73.12],[-56.12,73.5],[-59.25,74.88],[-61.0,76.38],[-66.5,76.38],[-67.25,76.88],[-69.25,76.88],[-70.62,75.75],[-69.75,74.62],[-68.25,73.88],[-58.5,73.12]]]}},{"type":"Feature","properties":{"kind":"blob","cls":4,"id":24},"geometry":{"type":"Polygon","coordinates":[[[-51.88,70.0],[-52.0,70.38],[-53.62,70.5],[-52.25,70.62],[-52.12,71.0],[-53.0,71.88],[-54.25,71.88],[-54.0,72.62],[-55.25,72.88],[-55.88,72.25],[-55.75,71.12],[-54.0,70.12],[-51.88,70.0]]]}},{"type":"Feature","properties":{"kind":"blob","cls":4,"id":25},"geometry":{"type":"Polygon","coordinates":[[[-160.75,42.38],[-158.88,43.5],[-158.88,45.25],[-160.88,46.75],[-159.25,47.38],[-158.62,48.25],[-158.62,49.5],[-159.75,50.62],[-162.75,50.88],[-163.75,50.62],[-164.88,49.5],[-164.62,47.5],[-163.62,47.0],[-165.12,46.0],[-165.38,45.0],[-164.0,42.88],[-160.75,42.38]]]}},{"type":"Feature","properties":{"kind":"blob","cls":4,"id":26},"geometry":{"type":"Polygon","coordinates":[[[144.0,45.62],[145.25,46.12],[146.12,47.0],[146.12,48.25],[145.25,49.12],[144.0,49.62],[142.5,49.62],[141.25,49.12],[140.38,48.25],[140.38,47.25],[141.5,46.12],[144.0,45.62]]]}},{"type":"Feature","properties":{"kind":"blob","cls":3,"id":27},"geometry":{"type":"Polygon","coordinates":[[[-67.25,77.12],[-65.38,77.25],[-65.5,77.38],[-67.25,77.12]]]}},{"type":"Feature","properties":{"kind":"blob","cls":4,"id":28},"geometry":{"type":"Polygon","coordinates":[[[-69.25,45.12],[-67.88,46.25],[-68.38,48.25],[-69.25,49.12],[-70.5,49.62],[-72.5,49.38],[-73.88,48.25],[-73.88,47.25],[-73.12,46.25],[-72.25,45.38],[-69.25,45.12]],[[-71.12,47.5],[-71.0,47.88],[-70.88,47.75],[-71.12,47.5]]]}},{"type":"Feature","properties":{"kind":"blob","cls":4,"id":29},"geometry":{"type":"Polygon","coordinates":[[[-109.25,68.38],[-106.5,68.88],[-104.62,70.25],[-104.62,70.75],[-105.25,71.38],[-107.25,72.12],[-112.5,72.38],[-115.25,71.88],[-116.88,70.75],[-116.88,70.25],[-116.0,69.38],[-115.0,68.88],[-109.25,68.38]]]}},{"type":"Feature","properties":{"kind":"blob","cls":4,"id":30},"geometry":{"type":"Polygon","coordinates":[[[146.5,54.88],[148.5,55.38],[150.12,56.75],[150.12,57.5],[149.25,58.62],[147.5,59.38],[143.0,59.38],[141.38,58.25],[141.12,56.75],[142.5,55.38],[146.5,54.88]]]}},{"type":"Feature","properties":{"kind":"blob","cls":0,"id":31},"geometry":{"type":"Polygon","coordinates":[[[159.5,10.38],[162.25,10.12],[162.88,11.0],[162.62,12.5],[161.25,13.38],[160.0,13.12],[159.12,12.0],[159.5,10.38]]]}},{"type":"Feature","properties":{"kind":"blob","cls":4,"id":32},"geometry":{"type":"Polygon","coordinates":[[[-63.5,-17.88],[-62.88,-17.0],[-62.88,-15.25],[-63.62,-14.0],[-66.25,-11.88],[-68.75,-11.88],[-69.38,-12.5],[-69.62,-13.5],[-68.5,-13.88],[-67.88,-15.25],[-65.5,-17.12],[-63.5,-17.88]]]}},{"type":"Feature","properties":{"kind":"blob","cls":1,"id":33},"geometry":{"type":"Polygon","coordinates":[[[159.5,-43.38],[162.0,-43.38],[163.12,-42.25],[163.12,-41.0],[162.0,-39.88],[160.75,-39.38],[159.0,-39.62],[157.88,-40.75],[157.88,-42.25],[158.25,-42.88],[159.5,-43.38]]]}},{"type":"Feature","properties":{"kind":"blob","cls":4,"id":34},"geometry":{"type":"Polygon","coordinates":[[[169.0,-46.38],[170.88,-45.25],[171.12,-44.5],[170.75,-43.88],[169.88,-44.25],[170.25,-44.88],[169.25,-44.38],[169.0,-44.88],[168.38,-45.0],[169.12,-45.25],[169.0,-45.62],[167.88,-45.0],[168.25,-44.38],[169.25,-44.12],[170.25,-43.12],[168.0,-42.62],[166.12,-43.75],[166.12,-45.25],[166.75,-45.88],[169.0,-46.38]]]}},{"type":"Feature","properties":{"kind":"blob","cls":4,"id":35},"geometry":{"type":"Polygon","coordinates":[[[-129.25,51.38],[-127.88,52.5],[-127.62,53.25],[-128.38,53.75],[-128.12,54.5],[-128.75,54.88],[-129.25,54.38],[-129.62,54.5],[-129.5,55.38],[-129.0,54.88],[-128.62,55.5],[-129.0,55.88],[-129.75,55.62],[-130.75,56.12],[-132.25,56.12],[-134.62,55.0],[-134.62,52.75],[-133.5,51.62],[-129.25,51.38]]]}},{"type":"Feature","properties":{"kind":"blob","cls":4,"id":36},"geometry":{"type":"Polygon","coordinates":[[[163.12,-47.5],[161.88,-45.0],[162.25,-44.38],[164.5,-47.12],[165.88,-45.75],[165.62,-44.75],[163.75,-43.62],[162.25,-43.62],[161.0,-44.12],[160.38,-44.75],[160.12,-45.75],[161.25,-47.12],[163.12,-47.5]]]}},{"type":"Feature","properties":{"kind":"blob","cls":1,"id":37},"geometry":{"type":"Polygon","coordinates":[[[-72.75,-12.38],[-72.5,-11.88],[-72.0,-12.12],[-71.62,-11.75],[-71.38,-10.0],[-71.75,-9.38],[-74.12,-10.0],[-74.12,-10.75],[-72.75,-12.38]]]}},{"type":"Feature","properties":{"kind":"blob","cls":4,"id":38},"geometry":{"type":"Polygon","coordinates":[[[16.5,57.62],[17.25,57.88],[18.38,59.25],[17.25,60.62],[15.5,61.12],[12.75,61.12],[11.0,60.62],[9.88,59.25],[10.12,58.75],[11.0,57.88],[16.5,57.62]]]}},{"type":"Feature","properties":{"kind":"blob","cls":0,"id":39},"geometry":{"type":"MultiPolygon","coordinates":[[[[-167.0,59.62],[-167.12,59.5],[-167.0,59.38],[-167.0,59.62]]],[[[-170.75,57.12],[-169.0,57.62],[-167.12,59.25],[-168.75,59.88],[-169.62,60.75],[-169.5,63.12],[-172.75,62.88],[-174.62,61.5],[-175.38,59.25],[-174.0,57.62],[-170.75,57.12]]]]}},{"type":"Feature","properties":{"kind":"blob","cls":4,"id":40},"geometry":{"type":"Polygon","coordinates":[[[116.25,45.88],[117.0,46.38],[118.25,46.12],[118.38,47.0],[117.0,48.12],[114.75,48.38],[114.62,48.25],[116.25,45.88]]]}},{"type":"Feature","properties":{"kind":"blob","cls":3,"id":41},"geometry":{"type":"Polygon","coordinates":[[[-26.75,16.38],[-26.12,17.0],[-25.88,18.75],[-26.75,19.88],[-28.25,20.12],[-28.88,19.75],[-27.62,18.5],[-26.75,16.38]]]}},{"type":"Feature","properties":{"kind":"blob","cls":3,"id":42},"geometry":{"type":"Polygon","coordinates":[[[-75.12,-10.25],[-75.0,-10.62],[-74.62,-10.5],[-74.75,-10.12],[-75.12,-10.25]]]}},{"type":"Feature","properties":{"kind":"blob","cls":4,"id":43},"geometry":{"type":"Polygon","coordinates":[[[-80.5,-79.38],[-79.25,-79.38],[-78.12,-78.5],[-78.75,-77.88],[-79.75,-77.62],[-80.62,-79.0],[-80.5,-79.38]]]}},{"type":"Feature","properties":{"kind":"blob","cls":4,"id":44},"geometry":{"type":"Polygon","coordinates":[[[-30.25,-79.12],[-29.88,-79.0],[-30.0,-78.88],[-30.25,-79.12]]]}},{"type":"Feature","properties":{"kind":"blob","cls":4,"id":45},"geometry":{"type":"Polygon","coordinates":[[[118.0,44.88],[118.38,45.75],[116.38,45.5],[118.0,44.88]]]}},{"type":"Feature","properties":{"kind":"blob","cls":4,"id":46},"geometry":{"type":"Polygon","coordinates":[[[-29.12,-78.75],[-29.0,-78.88],[-28.88,-78.75],[-29.12,-78.75]]]}},{"type":"Feature","properties":{"kind":"blob","cls":3,"id":47},"geometry":{"type":"Polygon","coordinates":[[[-74.0,-12.38],[-74.0,-11.62],[-74.12,-11.75],[-74.0,-12.38]]]}},{"type":"Feature","properties":{"kind":"blob","cls":3,"id":48},"geometry":{"type":"Polygon","coordinates":[[[-74.5,-11.38],[-74.12,-11.25],[-74.25,-11.12],[-74.5,-11.38]]]}},{"type":"Feature","properties":{"kind":"blob","cls":4,"id":49},"geometry":{"type":"Polygon","coordinates":[[[-127.12,52.75],[-127.0,52.62],[-126.88,52.75],[-127.12,52.75]]]}},{"type":"Feature","properties":{"kind":"blob","cls":4,"id":50},"geometry":{"type":"Polygon","coordinates":[[[-101.5,36.12],[-100.25,36.12],[-99.12,37.5],[-99.38,38.75],[-101.0,39.88],[-101.38,39.75],[-101.12,39.25],[-101.62,37.75],[-101.5,36.12]]]}},{"type":"Feature","properties":{"kind":"blob","cls":4,"id":51},"geometry":{"type":"Polygon","coordinates":[[[-128.12,55.25],[-128.0,55.12],[-127.88,55.25],[-128.12,55.25]]]}},{"type":"Feature","properties":{"kind":"blob","cls":3,"id":52},"geometry":{"type":"MultiPolygon","coordinates":[[[[47.38,41.0],[47.75,40.62],[48.38,40.75],[47.75,41.12],[47.38,41.0]]],[[[48.38,40.5],[49.75,40.38],[51.38,41.25],[51.62,43.0],[51.0,43.88],[48.5,44.38],[46.88,43.5],[46.62,43.0],[47.62,42.5],[48.12,41.5],[48.88,41.0],[48.38,40.5]]]]}},{"type":"Feature","properties":{"kind":"blob","cls":4,"id":53},"geometry":{"type":"Polygon","coordinates":[[[46.88,41.25],[47.0,41.12],[47.12,41.25],[46.88,41.25]]]}},{"type":"Feature","properties":{"kind":"blob","cls":4,"id":54},"geometry":{"type":"Polygon","coordinates":[[[102.5,52.38],[102.75,52.12],[104.62,52.25],[103.5,52.62],[102.5,52.38]]]}},{"type":"Feature","properties":{"kind":"center","id":1,"lat":-65.0,"lon":-151.5,"mslp":953.0,"hvtl":8.7,"hvtu":-56.4,"hb":-1.5,"idx":-0.3,"cls":1,"psfc":953.0,"terrain":false,"radius_km":200,"name":"sym shallow warm","track":"T04"},"geometry":{"type":"Point","coordinates":[-151.5,-65.0]}},{"type":"Feature","properties":{"kind":"center","id":2,"lat":-53.0,"lon":89.25,"mslp":956.1,"hvtl":110.0,"hvtu":-135.0,"hb":-26.3,"idx":0.7,"cls":1,"psfc":956.1,"terrain":false,"radius_km":200,"name":"sym shallow warm","track":"T13"},"geometry":{"type":"Point","coordinates":[89.25,-53.0]}},{"type":"Feature","properties":{"kind":"center","id":3,"lat":60.75,"lon":-25.75,"mslp":957.6,"hvtl":-88.9,"hvtu":-358.4,"hb":68.8,"idx":-2.4,"cls":4,"psfc":957.6,"terrain":false,"radius_km":200,"name":"asym cold","track":"T10"},"geometry":{"type":"Point","coordinates":[-25.75,60.75]}},{"type":"Feature","properties":{"kind":"center","id":4,"lat":-62.5,"lon":13.25,"mslp":961.9,"hvtl":-27.1,"hvtu":-167.9,"hb":25.5,"idx":-1.5,"cls":4,"psfc":961.9,"terrain":false,"radius_km":200,"name":"asym cold","track":"T23"},"geometry":{"type":"Point","coordinates":[13.25,-62.5]}},{"type":"Feature","properties":{"kind":"center","id":5,"lat":-67.5,"lon":-96.5,"mslp":962.7,"hvtl":-117.1,"hvtu":-225.3,"hb":27.4,"idx":-2.6,"cls":4,"psfc":962.7,"terrain":false,"radius_km":200,"name":"asym cold","track":"T11"},"geometry":{"type":"Point","coordinates":[-96.5,-67.5]}},{"type":"Feature","properties":{"kind":"center","id":6,"lat":-74.25,"lon":-143.75,"mslp":964.2,"hvtl":-103.2,"hvtu":-60.0,"hb":14.8,"idx":-2.1,"cls":4,"psfc":964.2,"terrain":false,"radius_km":200,"name":"asym cold"},"geometry":{"type":"Point","coordinates":[-143.75,-74.25]}},{"type":"Feature","properties":{"kind":"center","id":7,"lat":79.5,"lon":1.0,"mslp":966.7,"hvtl":64.2,"hvtu":-309.2,"hb":84.3,"idx":0.1,"cls":3,"psfc":966.7,"terrain":false,"radius_km":200,"name":"asym shallow warm","track":"T32"},"geometry":{"type":"Point","coordinates":[1.0,79.5]}},{"type":"Feature","properties":{"kind":"center","id":8,"lat":-76.25,"lon":-149.25,"mslp":966.9,"hvtl":-106.4,"hvtu":-127.4,"hb":14.1,"idx":-2.4,"cls":4,"psfc":962.3,"terrain":false,"radius_km":200,"name":"asym cold","track":"T28"},"geometry":{"type":"Point","coordinates":[-149.25,-76.25]}},{"type":"Feature","properties":{"kind":"center","id":9,"lat":-53.0,"lon":106.75,"mslp":967.1,"hvtl":-84.9,"hvtu":-328.8,"hb":87.8,"idx":-2.4,"cls":4,"psfc":967.1,"terrain":false,"radius_km":200,"name":"asym cold","track":"T07"},"geometry":{"type":"Point","coordinates":[106.75,-53.0]}},{"type":"Feature","properties":{"kind":"center","id":10,"lat":-52.25,"lon":64.75,"mslp":978.0,"hvtl":-27.3,"hvtu":-163.8,"hb":50.7,"idx":-1.5,"cls":4,"psfc":977.9,"terrain":false,"radius_km":200,"name":"asym cold","track":"T29"},"geometry":{"type":"Point","coordinates":[64.75,-52.25]}},{"type":"Feature","properties":{"kind":"center","id":11,"lat":41.75,"lon":159.25,"mslp":979.3,"hvtl":140.1,"hvtu":13.0,"hb":50.9,"idx":1.9,"cls":2,"psfc":979.3,"terrain":false,"radius_km":200,"name":"asym deep warm","track":"T09"},"geometry":{"type":"Point","coordinates":[159.25,41.75]}},{"type":"Feature","properties":{"kind":"center","id":12,"lat":-66.5,"lon":99.75,"mslp":980.1,"hvtl":-242.2,"hvtu":0.5,"hb":67.4,"idx":-2.0,"cls":6,"psfc":965.1,"terrain":false,"radius_km":200,"name":"shallow cold","track":"T37"},"geometry":{"type":"Point","coordinates":[99.75,-66.5]}},{"type":"Feature","properties":{"kind":"center","id":13,"lat":-54.0,"lon":-101.75,"mslp":984.4,"hvtl":-90.7,"hvtu":-143.6,"hb":51.9,"idx":-2.3,"cls":4,"psfc":984.4,"terrain":false,"radius_km":200,"name":"asym cold","track":"T39"},"geometry":{"type":"Point","coordinates":[-101.75,-54.0]}},{"type":"Feature","properties":{"kind":"center","id":14,"lat":-61.75,"lon":150.75,"mslp":984.6,"hvtl":-306.5,"hvtu":-226.1,"hb":67.0,"idx":-3.0,"cls":4,"psfc":984.6,"terrain":false,"radius_km":200,"name":"asym cold","track":"T18"},"geometry":{"type":"Point","coordinates":[150.75,-61.75]}},{"type":"Feature","properties":{"kind":"center","id":15,"lat":-44.25,"lon":82.5,"mslp":984.8,"hvtl":-523.9,"hvtu":-368.3,"hb":96.4,"idx":-3.0,"cls":4,"psfc":984.8,"terrain":false,"radius_km":200,"name":"asym cold"},"geometry":{"type":"Point","coordinates":[82.5,-44.25]}},{"type":"Feature","properties":{"kind":"center","id":16,"lat":-66.75,"lon":51.25,"mslp":985.3,"hvtl":-98.1,"hvtu":-68.5,"hb":15.7,"idx":-2.1,"cls":4,"psfc":900.8,"terrain":false,"radius_km":200,"name":"asym cold"},"geometry":{"type":"Point","coordinates":[51.25,-66.75]}},{"type":"Feature","properties":{"kind":"center","id":17,"lat":-77.5,"lon":166.0,"mslp":985.4,"hvtl":40.0,"hvtu":-178.8,"hb":49.1,"idx":-0.2,"cls":3,"psfc":981.4,"terrain":false,"radius_km":200,"name":"asym shallow warm","track":"T67"},"geometry":{"type":"Point","coordinates":[166.0,-77.5]}},{"type":"Feature","properties":{"kind":"center","id":18,"lat":-43.0,"lon":10.25,"mslp":986.7,"hvtl":-346.5,"hvtu":-370.2,"hb":75.3,"idx":-3.0,"cls":4,"psfc":986.7,"terrain":false,"radius_km":200,"name":"asym cold","track":"T05"},"geometry":{"type":"Point","coordinates":[10.25,-43.0]}},{"type":"Feature","properties":{"kind":"center","id":19,"lat":-44.25,"lon":108.75,"mslp":986.8,"hvtl":-185.3,"hvtu":-285.6,"hb":57.2,"idx":-2.9,"cls":4,"psfc":986.8,"terrain":false,"radius_km":200,"name":"asym cold","track":"T62"},"geometry":{"type":"Point","coordinates":[108.75,-44.25]}},{"type":"Feature","properties":{"kind":"center","id":20,"lat":68.5,"lon":-76.75,"mslp":987.0,"hvtl":-1.6,"hvtu":-187.2,"hb":37.0,"idx":-1.0,"cls":4,"psfc":987.0,"terrain":false,"radius_km":200,"name":"asym cold","track":"T70"},"geometry":{"type":"Point","coordinates":[-76.75,68.5]}},{"type":"Feature","properties":{"kind":"center","id":21,"lat":85.5,"lon":152.0,"mslp":988.5,"hvtl":-175.2,"hvtu":-167.5,"hb":25.6,"idx":-2.8,"cls":4,"psfc":988.5,"terrain":false,"radius_km":200,"name":"asym cold","track":"T59"},"geometry":{"type":"Point","coordinates":[152.0,85.5]}},{"type":"Feature","properties":{"kind":"center","id":22,"lat":72.0,"lon":-20.75,"mslp":988.9,"hvtl":-180.5,"hvtu":-106.6,"hb":30.4,"idx":-2.7,"cls":4,"psfc":988.9,"terrain":false,"radius_km":200,"name":"asym cold","track":"T02"},"geometry":{"type":"Point","coordinates":[-20.75,72.0]}},{"type":"Feature","properties":{"kind":"center","id":23,"lat":74.25,"lon":-60.25,"mslp":990.5,"hvtl":-92.0,"hvtu":-108.1,"hb":40.2,"idx":-2.2,"cls":4,"psfc":990.5,"terrain":false,"radius_km":200,"name":"asym cold","track":"T73"},"geometry":{"type":"Point","coordinates":[-60.25,74.25]}},{"type":"Feature","properties":{"kind":"center","id":24,"lat":71.5,"lon":-55.75,"mslp":990.6,"hvtl":-142.6,"hvtu":-78.2,"hb":43.5,"idx":-2.4,"cls":4,"psfc":989.7,"terrain":false,"radius_km":200,"name":"asym cold"},"geometry":{"type":"Point","coordinates":[-55.75,71.5]}},{"type":"Feature","properties":{"kind":"center","id":25,"lat":48.75,"lon":-162.0,"mslp":994.4,"hvtl":-43.5,"hvtu":-306.2,"hb":52.8,"idx":-1.8,"cls":4,"psfc":994.3,"terrain":false,"radius_km":200,"name":"asym cold","track":"T34"},"geometry":{"type":"Point","coordinates":[-162.0,48.75]}},{"type":"Feature","properties":{"kind":"center","id":26,"lat":47.75,"lon":143.25,"mslp":995.4,"hvtl":-205.2,"hvtu":-421.3,"hb":96.0,"idx":-2.9,"cls":4,"psfc":995.4,"terrain":false,"radius_km":200,"name":"asym cold","track":"T30"},"geometry":{"type":"Point","coordinates":[143.25,47.75]}},{"type":"Feature","properties":{"kind":"center","id":27,"lat":77.25,"lon":-67.25,"mslp":995.6,"hvtl":32.5,"hvtu":-144.5,"hb":59.4,"idx":-0.3,"cls":3,"psfc":932.5,"terrain":false,"radius_km":200,"name":"asym shallow warm","track":"T51"},"geometry":{"type":"Point","coordinates":[-67.25,77.25]}},{"type":"Feature","properties":{"kind":"center","id":28,"lat":47.75,"lon":-71.25,"mslp":999.2,"hvtl":-350.6,"hvtu":-127.9,"hb":96.4,"idx":-2.9,"cls":4,"psfc":901.6,"terrain":true,"radius_km":200,"name":"asym cold"},"geometry":{"type":"Point","coordinates":[-71.25,47.75]}},{"type":"Feature","properties":{"kind":"center","id":29,"lat":70.5,"lon":-111.0,"mslp":1000.0,"hvtl":-375.6,"hvtu":-28.5,"hb":77.1,"idx":-2.3,"cls":4,"psfc":985.0,"terrain":false,"radius_km":200,"name":"asym cold","track":"T71"},"geometry":{"type":"Point","coordinates":[-111.0,70.5]}},{"type":"Feature","properties":{"kind":"center","id":30,"lat":57.25,"lon":145.75,"mslp":1000.8,"hvtl":-68.7,"hvtu":-326.7,"hb":68.4,"idx":-2.2,"cls":4,"psfc":1000.8,"terrain":false,"radius_km":200,"name":"asym cold","track":"T87"},"geometry":{"type":"Point","coordinates":[145.75,57.25]}},{"type":"Feature","properties":{"kind":"center","id":31,"lat":11.5,"lon":161.0,"mslp":1002.0,"hvtl":6.6,"hvtu":38.5,"hb":2.7,"idx":0.5,"cls":0,"psfc":1002.0,"terrain":false,"radius_km":200,"name":"sym deep warm","track":"T50"},"geometry":{"type":"Point","coordinates":[161.0,11.5]}},{"type":"Feature","properties":{"kind":"center","id":32,"lat":-16.0,"lon":-65.25,"mslp":1002.4,"hvtl":-68.7,"hvtu":-100.2,"hb":23.6,"idx":-2.0,"cls":4,"psfc":982.0,"terrain":false,"radius_km":200,"name":"asym cold","track":"T92"},"geometry":{"type":"Point","coordinates":[-65.25,-16.0]}},{"type":"Feature","properties":{"kind":"center","id":33,"lat":-41.5,"lon":160.75,"mslp":1004.1,"hvtl":59.7,"hvtu":-152.0,"hb":7.5,"idx":0.2,"cls":1,"psfc":1004.1,"terrain":false,"radius_km":200,"name":"sym shallow warm","track":"T55"},"geometry":{"type":"Point","coordinates":[160.75,-41.5]}},{"type":"Feature","properties":{"kind":"center","id":34,"lat":-43.25,"lon":170.0,"mslp":1004.8,"hvtl":-255.5,"hvtu":-219.6,"hb":59.1,"idx":-3.0,"cls":4,"psfc":1002.4,"terrain":false,"radius_km":200,"name":"asym cold"},"geometry":{"type":"Point","coordinates":[170.0,-43.25]}},{"type":"Feature","properties":{"kind":"center","id":35,"lat":54.0,"lon":-131.5,"mslp":1004.9,"hvtl":-146.4,"hvtu":-404.9,"hb":80.1,"idx":-2.8,"cls":4,"psfc":1004.7,"terrain":false,"radius_km":200,"name":"asym cold","track":"T84"},"geometry":{"type":"Point","coordinates":[-131.5,54.0]}},{"type":"Feature","properties":{"kind":"center","id":36,"lat":-44.5,"lon":165.0,"mslp":1005.5,"hvtl":-7.9,"hvtu":-227.7,"hb":38.8,"idx":-1.1,"cls":4,"psfc":1005.5,"terrain":false,"radius_km":200,"name":"asym cold"},"geometry":{"type":"Point","coordinates":[165.0,-44.5]}},{"type":"Feature","properties":{"kind":"center","id":37,"lat":-11.75,"lon":-71.75,"mslp":1005.6,"hvtl":144.2,"hvtu":-38.3,"hb":-1.3,"idx":1.4,"cls":1,"psfc":960.0,"terrain":false,"radius_km":200,"name":"sym shallow warm"},"geometry":{"type":"Point","coordinates":[-71.75,-11.75]}},{"type":"Feature","properties":{"kind":"center","id":38,"lat":59.25,"lon":13.75,"mslp":1005.8,"hvtl":-25.5,"hvtu":-108.0,"hb":31.1,"idx":-1.3,"cls":4,"psfc":1000.3,"terrain":false,"radius_km":200,"name":"asym cold","track":"T103"},"geometry":{"type":"Point","coordinates":[13.75,59.25]}},{"type":"Feature","properties":{"kind":"center","id":39,"lat":60.25,"lon":-170.5,"mslp":1006.4,"hvtl":78.0,"hvtu":4.6,"hb":-10.5,"idx":1.4,"cls":0,"psfc":1006.4,"terrain":false,"radius_km":200,"name":"sym deep warm","track":"T89"},"geometry":{"type":"Point","coordinates":[-170.5,60.25]}},{"type":"Feature","properties":{"kind":"center","id":40,"lat":46.5,"lon":116.0,"mslp":1007.0,"hvtl":-127.1,"hvtu":-148.5,"hb":41.7,"idx":-2.6,"cls":4,"psfc":917.6,"terrain":false,"radius_km":200,"name":"asym cold","track":"T83"},"geometry":{"type":"Point","coordinates":[116.0,46.5]}},{"type":"Feature","properties":{"kind":"center","id":41,"lat":18.25,"lon":-27.5,"mslp":1007.2,"hvtl":138.9,"hvtu":-28.2,"hb":12.8,"idx":1.5,"cls":3,"psfc":1007.2,"terrain":false,"radius_km":200,"name":"asym shallow warm","track":"T86"},"geometry":{"type":"Point","coordinates":[-27.5,18.25]}},{"type":"Feature","properties":{"kind":"center","id":42,"lat":-10.25,"lon":-75.0,"mslp":1007.5,"hvtl":128.1,"hvtu":-4.0,"hb":26.8,"idx":1.7,"cls":3,"psfc":966.2,"terrain":false,"radius_km":200,"name":"asym shallow warm"},"geometry":{"type":"Point","coordinates":[-75.0,-10.25]}},{"type":"Feature","properties":{"kind":"center","id":43,"lat":-78.0,"lon":-79.75,"mslp":1007.7,"hvtl":-182.8,"hvtu":-230.8,"hb":103.2,"idx":-2.9,"cls":4,"psfc":986.4,"terrain":false,"radius_km":200,"name":"asym cold","track":"T49"},"geometry":{"type":"Point","coordinates":[-79.75,-78.0]}},{"type":"Feature","properties":{"kind":"center","id":44,"lat":-79.0,"lon":-30.25,"mslp":1008.2,"hvtl":-208.7,"hvtu":-255.1,"hb":53.6,"idx":-2.9,"cls":4,"psfc":974.1,"terrain":false,"radius_km":200,"name":"asym cold","track":"T61"},"geometry":{"type":"Point","coordinates":[-30.25,-79.0]}},{"type":"Feature","properties":{"kind":"center","id":45,"lat":45.5,"lon":116.5,"mslp":1008.3,"hvtl":-150.6,"hvtu":-145.4,"hb":38.5,"idx":-2.7,"cls":4,"psfc":908.6,"terrain":true,"radius_km":200,"name":"asym cold"},"geometry":{"type":"Point","coordinates":[116.5,45.5]}},{"type":"Feature","properties":{"kind":"center","id":46,"lat":-78.75,"lon":-29.0,"mslp":1008.6,"hvtl":-183.5,"hvtu":-256.1,"hb":48.2,"idx":-2.9,"cls":4,"psfc":952.0,"terrain":false,"radius_km":200,"name":"asym cold"},"geometry":{"type":"Point","coordinates":[-29.0,-78.75]}},{"type":"Feature","properties":{"kind":"center","id":47,"lat":-12.0,"lon":-74.0,"mslp":1009.0,"hvtl":150.5,"hvtu":-37.1,"hb":39.1,"idx":1.5,"cls":3,"psfc":932.2,"terrain":false,"radius_km":200,"name":"asym shallow warm","track":"T97"},"geometry":{"type":"Point","coordinates":[-74.0,-12.0]}},{"type":"Feature","properties":{"kind":"center","id":48,"lat":-11.25,"lon":-74.25,"mslp":1009.6,"hvtl":133.9,"hvtu":-24.7,"hb":30.9,"idx":1.5,"cls":3,"psfc":902.6,"terrain":true,"radius_km":200,"name":"asym shallow warm"},"geometry":{"type":"Point","coordinates":[-74.25,-11.25]}},{"type":"Feature","properties":{"kind":"center","id":49,"lat":52.75,"lon":-127.0,"mslp":1009.7,"hvtl":-112.8,"hvtu":-280.2,"hb":33.9,"idx":-2.6,"cls":4,"psfc":900.9,"terrain":true,"radius_km":200,"name":"asym cold"},"geometry":{"type":"Point","coordinates":[-127.0,52.75]}},{"type":"Feature","properties":{"kind":"center","id":50,"lat":37.5,"lon":-101.5,"mslp":1009.8,"hvtl":-49.5,"hvtu":-258.7,"hb":32.6,"idx":-1.9,"cls":4,"psfc":902.9,"terrain":true,"radius_km":200,"name":"asym cold"},"geometry":{"type":"Point","coordinates":[-101.5,37.5]}},{"type":"Feature","properties":{"kind":"center","id":51,"lat":55.25,"lon":-128.0,"mslp":1011.9,"hvtl":-79.8,"hvtu":-396.9,"hb":52.3,"idx":-2.3,"cls":4,"psfc":918.1,"terrain":true,"radius_km":200,"name":"asym cold"},"geometry":{"type":"Point","coordinates":[-128.0,55.25]}},{"type":"Feature","properties":{"kind":"center","id":52,"lat":42.5,"lon":49.25,"mslp":1013.0,"hvtl":21.5,"hvtu":-113.8,"hb":39.2,"idx":-0.4,"cls":3,"psfc":1016.2,"terrain":false,"radius_km":200,"name":"asym shallow warm","track":"T114"},"geometry":{"type":"Point","coordinates":[49.25,42.5]}},{"type":"Feature","properties":{"kind":"center","id":53,"lat":41.25,"lon":47.0,"mslp":1016.9,"hvtl":-143.7,"hvtu":-132.5,"hb":50.1,"idx":-2.7,"cls":4,"psfc":966.1,"terrain":false,"radius_km":200,"name":"asym cold"},"geometry":{"type":"Point","coordinates":[47.0,41.25]}},{"type":"Feature","properties":{"kind":"center","id":54,"lat":52.25,"lon":104.5,"mslp":1020.2,"hvtl":-208.1,"hvtu":-152.8,"hb":37.4,"idx":-2.8,"cls":4,"psfc":955.2,"terrain":false,"radius_km":200,"name":"asym cold"},"geometry":{"type":"Point","coordinates":[104.5,52.25]}}]}