{"type":"FeatureCollection","features":[{"type":"Feature","properties":{"kind":"blob","cls":4,"id":1},"geometry":{"type":"Polygon","coordinates":[[[117.5,-65.88],[119.12,-65.0],[119.38,-64.0],[118.0,-62.62],[115.5,-61.88],[113.25,-61.88],[110.75,-62.62],[110.12,-63.25],[110.62,-63.75],[109.88,-64.0],[110.38,-65.0],[112.0,-65.88],[117.5,-65.88]]]}},{"type":"Feature","properties":{"kind":"blob","cls":5,"id":2},"geometry":{"type":"Polygon","coordinates":[[[-8.0,66.88],[-5.5,67.38],[-4.12,68.25],[-4.12,69.25],[-6.5,70.38],[-11.75,70.62],[-14.25,70.12],[-15.62,69.25],[-15.62,68.25],[-15.25,67.88],[-13.25,67.12],[-8.0,66.88]]]}},{"type":"Feature","properties":{"kind":"blob","cls":3,"id":3},"geometry":{"type":"Polygon","coordinates":[[[-100.25,-65.12],[-99.0,-64.62],[-98.12,-63.5],[-99.25,-62.12],[-102.25,-61.12],[-106.5,-61.38],[-108.38,-62.5],[-108.38,-63.75],[-107.75,-64.38],[-106.0,-65.12],[-100.25,-65.12]]]}},{"type":"Feature","properties":{"kind":"blob","cls":3,"id":4},"geometry":{"type":"Polygon","coordinates":[[[180.0,-65.62],[180.0,-64.12],[179.62,-65.0],[180.0,-65.62]]]}},{"type":"Feature","properties":{"kind":"blob","cls":3,"id":4},"geometry":{"type":"Polygon","coordinates":[[[-179.88,-64.0],[-180.0,-65.62],[-179.5,-66.12],[-176.25,-67.12],[-171.5,-66.88],[-169.5,-66.12],[-168.62,-65.0],[-169.5,-63.88],[-170.5,-63.38],[-173.75,-62.62],[-177.75,-62.88],[-179.88,-64.0]]]}},{"type":"Feature","properties":{"kind":"blob","cls":1,"id":5},"geometry":{"type":"Polygon","coordinates":[[[100.0,-54.38],[101.5,-53.88],[102.38,-53.0],[102.38,-51.75],[101.5,-50.88],[100.0,-50.38],[97.0,-50.88],[96.12,-51.75],[96.12,-53.0],[97.0,-53.88],[100.0,-54.38]]]}},{"type":"Feature","properties":{"kind":"blob","cls":3,"id":6},"geometry":{"type":"Polygon","coordinates":[[[-117.5,-65.38],[-113.75,-65.38],[-112.5,-64.88],[-111.38,-63.5],[-112.25,-62.38],[-114.75,-61.62],[-117.25,-61.62],[-119.75,-62.38],[-120.38,-63.0],[-120.62,-64.0],[-119.75,-64.88],[-117.5,-65.38]]]}},{"type":"Feature","properties":{"kind":"blob","cls":3,"id":7},"geometry":{"type":"Polygon","coordinates":[[[9.25,-64.12],[11.25,-63.62],[12.62,-62.25],[11.38,-61.5],[11.38,-61.0],[12.38,-60.25],[10.75,-59.12],[9.5,-58.88],[7.5,-58.88],[5.25,-59.62],[4.62,-60.25],[3.88,-62.5],[5.0,-63.62],[9.25,-64.12]]]}},{"type":"Feature","properties":{"kind":"blob","cls":4,"id":8},"geometry":{"type":"Polygon","coordinates":[[[37.25,-58.88],[41.25,-58.88],[42.62,-58.0],[42.88,-56.75],[41.5,-55.38],[40.0,-54.62],[35.75,-54.62],[33.88,-56.5],[35.5,-58.38],[37.25,-58.88]]]}},{"type":"Feature","properties":{"kind":"blob","cls":1,"id":9},"geometry":{"type":"Polygon","coordinates":[[[148.75,53.62],[150.5,54.12],[151.38,55.0],[151.38,56.0],[149.75,57.38],[145.75,57.38],[144.38,56.25],[144.38,55.0],[145.25,54.12],[148.75,53.62]],[[145.12,55.5],[145.25,55.88],[146.5,55.88],[146.88,55.5],[146.75,55.12],[145.12,55.5]]]}},{"type":"Feature","properties":{"kind":"blob","cls":5,"id":10},"geometry":{"type":"Polygon","coordinates":[[[-115.0,-74.88],[-100.0,-74.38],[-99.62,-74.0],[-104.0,-73.12],[-109.5,-73.12],[-113.5,-73.88],[-114.25,-72.88],[-116.5,-72.12],[-123.25,-71.88],[-123.38,-73.0],[-124.0,-73.62],[-125.88,-74.5],[-115.0,-74.88]]]}},{"type":"Feature","properties":{"kind":"blob","cls":4,"id":11},"geometry":{"type":"Polygon","coordinates":[[[110.0,-50.88],[111.75,-50.12],[112.12,-49.5],[111.88,-47.5],[109.75,-46.38],[108.0,-46.62],[106.75,-47.38],[106.38,-48.0],[106.62,-49.75],[107.75,-50.62],[110.0,-50.88]]]}},{"type":"Feature","properties":{"kind":"blob","cls":3,"id":12},"geometry":{"type":"Polygon","coordinates":[[[-156.0,48.12],[-154.62,49.5],[-154.88,50.5],[-155.75,51.38],[-157.25,51.88],[-160.0,51.38],[-160.88,50.25],[-160.88,49.5],[-159.5,48.12],[-156.0,48.12]],[[-159.38,49.5],[-159.0,49.88],[-158.12,49.5],[-158.25,49.12],[-159.38,49.5]]]}},{"type":"Feature","properties":{"kind":"blob","cls":4,"id":13},"geometry":{"type":"Polygon","coordinates":[[[-146.75,-82.62],[-142.25,-82.12],[-139.25,-81.62],[-138.38,-81.0],[-140.25,-79.12],[-148.25,-79.38],[-150.12,-80.25],[-150.12,-80.75],[-149.62,-81.0],[-150.12,-81.25],[-150.12,-81.75],[-146.75,-82.62]],[[-148.88,-81.75],[-146.62,-81.75],[-146.75,-81.88],[-148.88,-81.75]]]}},{"type":"Feature","properties":{"kind":"blob","cls":4,"id":14},"geometry":{"type":"Polygon","coordinates":[[[-84.5,-72.12],[-81.75,-71.62],[-80.12,-70.5],[-79.88,-69.0],[-82.25,-67.62],[-87.25,-67.38],[-91.0,-68.38],[-91.88,-69.25],[-92.12,-70.0],[-91.5,-70.88],[-88.75,-71.88],[-84.5,-72.12]]]}},{"type":"Feature","properties":{"kind":"blob","cls":4,"id":15},"geometry":{"type":"Polygon","coordinates":[[[20.0,-51.88],[21.5,-51.38],[22.38,-50.25],[22.12,-49.25],[20.5,-47.88],[17.5,-47.88],[16.38,-48.75],[16.12,-50.0],[17.25,-51.38],[20.0,-51.88]]]}},{"type":"Feature","properties":{"kind":"blob","cls":4,"id":16},"geometry":{"type":"Polygon","coordinates":[[[-56.25,49.62],[-53.75,50.62],[-51.38,52.5],[-50.88,53.5],[-51.12,54.75],[-51.75,55.38],[-53.75,56.12],[-55.5,56.12],[-57.5,55.38],[-58.38,54.5],[-58.62,53.25],[-59.88,52.0],[-59.88,51.0],[-59.0,50.12],[-56.25,49.62]]]}},{"type":"Feature","properties":{"kind":"blob","cls":4,"id":17},"geometry":{"type":"Polygon","coordinates":[[[-33.0,63.12],[-30.25,63.62],[-28.75,64.38],[-25.75,64.62],[-23.62,65.75],[-23.62,66.75],[-25.25,67.88],[-27.25,68.38],[-31.0,68.12],[-35.0,66.38],[-36.5,66.12],[-39.62,64.5],[-38.75,63.62],[-33.0,63.12]]]}},{"type":"Feature","properties":{"kind":"blob","cls":4,"id":18},"geometry":{"type":"Polygon","coordinates":[[[-45.0,-76.62],[-40.25,-75.88],[-38.5,-75.12],[-37.88,-74.0],[-39.0,-72.88],[-41.0,-72.12],[-45.75,-71.38],[-49.75,-71.38],[-54.5,-72.38],[-56.38,-74.0],[-55.75,-75.12],[-54.0,-75.88],[-45.0,-76.62]]]}},{"type":"Feature","properties":{"kind":"blob","cls":4,"id":19},"geometry":{"type":"Polygon","coordinates":[[[93.25,81.12],[101.25,81.62],[106.75,82.38],[108.0,82.88],[108.38,83.5],[106.75,84.38],[103.75,84.88],[92.25,85.62],[70.0,85.38],[64.25,84.62],[62.38,83.75],[63.25,82.88],[67.0,82.12],[93.25,81.12]]]}},{"type":"Feature","properties":{"kind":"blob","cls":5,"id":20},"geometry":{"type":"Polygon","coordinates":[[[179.75,80.62],[180.0,86.88],[170.25,86.38],[164.0,85.62],[159.5,84.62],[158.38,83.75],[159.25,83.12],[162.25,82.38],[179.75,80.62]]]}},{"type":"Feature","properties":{"kind":"blob","cls":5,"id":20},"geometry":{"type":"Polygon","coordinates":[[[-179.75,86.88],[-180.0,80.62],[-168.25,80.88],[-158.0,82.62],[-118.75,83.88],[-113.0,84.62],[-110.88,85.5],[-113.0,86.38],[-117.5,86.88],[-135.25,86.88],[-159.75,87.62],[-179.75,86.88]]]}},{"type":"Feature","properties":{"kind":"blob","cls":4,"id":21},"geometry":{"type":"Polygon","coordinates":[[[159.75,-69.88],[161.38,-68.5],[161.38,-67.0],[160.0,-66.12],[157.75,-65.62],[153.75,-65.88],[151.0,-67.12],[149.62,-68.25],[155.25,-69.38],[159.75,-69.88]]]}},{"type":"Feature","properties":{"kind":"blob","cls":4,"id":22},"geometry":{"type":"Polygon","coordinates":[[[-36.75,-80.38],[-28.88,-78.5],[-35.0,-78.62],[-35.0,-78.12],[-30.38,-77.0],[-32.5,-76.62],[-37.5,-76.62],[-42.75,-77.38],[-44.62,-78.5],[-43.5,-79.38],[-41.75,-79.88],[-36.75,-80.38]]]}},{"type":"Feature","properties":{"kind":"blob","cls":4,"id":23},"geometry":{"type":"Polygon","coordinates":[[[3.0,-46.62],[4.25,-46.12],[5.38,-44.5],[5.12,-43.5],[4.0,-42.38],[2.75,-41.88],[-0.25,-42.62],[-0.88,-43.25],[-1.12,-44.25],[-0.25,-45.62],[3.0,-46.62]]]}},{"type":"Feature","properties":{"kind":"blob","cls":4,"id":24},"geometry":{"type":"Polygon","coordinates":[[[-172.0,-50.88],[-170.88,-50.0],[-170.88,-48.5],[-172.5,-47.38],[-175.75,-46.38],[-178.0,-46.88],[-178.88,-47.75],[-178.62,-49.5],[-177.0,-50.62],[-172.0,-50.88]]]}},{"type":"Feature","properties":{"kind":"blob","cls":1,"id":25},"geometry":{"type":"Polygon","coordinates":[[[-55.75,66.12],[-54.0,66.88],[-53.38,67.5],[-53.12,68.5],[-54.75,69.88],[-59.0,70.88],[-63.75,70.62],[-65.88,69.5],[-65.88,68.5],[-64.25,67.12],[-61.75,66.12],[-55.75,66.12]]]}},{"type":"Feature","properties":{"kind":"blob","cls":4,"id":26},"geometry":{"type":"Polygon","coordinates":[[[172.0,43.38],[173.25,43.88],[174.12,45.0],[173.88,46.0],[172.0,47.12],[170.5,47.12],[169.25,46.62],[168.62,46.0],[168.38,45.0],[169.25,43.88],[172.0,43.38]]]}},{"type":"Feature","properties":{"kind":"blob","cls":1,"id":27},"geometry":{"type":"Polygon","coordinates":[[[-86.5,65.38],[-84.25,65.88],[-82.38,67.0],[-82.38,68.0],[-84.5,69.12],[-88.75,69.38],[-91.0,68.88],[-92.38,68.0],[-92.38,67.0],[-91.5,66.12],[-86.5,65.38]]]}},{"type":"Feature","properties":{"kind":"blob","cls":6,"id":28},"geometry":{"type":"Polygon","coordinates":[[[-97.5,8.62],[-96.12,9.5],[-95.38,11.0],[-95.38,12.25],[-96.25,13.38],[-98.25,13.38],[-100.62,11.75],[-100.75,10.38],[-100.25,11.12],[-98.25,12.38],[-97.0,12.62],[-96.62,12.25],[-96.88,11.25],[-97.75,10.38],[-100.38,9.5],[-97.5,8.62]]]}},{"type":"Feature","properties":{"kind":"blob","cls":0,"id":29},"geometry":{"type":"Polygon","coordinates":[[[-169.62,-13.75],[-169.25,-14.12],[-167.88,-13.25],[-167.62,-11.5],[-168.5,-10.38],[-170.0,-10.12],[-171.38,-11.0],[-170.5,-11.12],[-169.62,-12.0],[-169.62,-13.75]]]}},{"type":"Feature","properties":{"kind":"blob","cls":1,"id":30},"geometry":{"type":"Polygon","coordinates":[[[-104.25,-38.62],[-102.75,-38.88],[-102.0,-38.12],[-101.75,-38.38],[-101.12,-37.75],[-101.12,-36.25],[-102.75,-35.12],[-104.0,-35.12],[-105.0,-35.62],[-105.62,-36.25],[-105.62,-37.75],[-104.25,-38.62]]]}},{"type":"Feature","properties":{"kind":"blob","cls":4,"id":31},"geometry":{"type":"Polygon","coordinates":[[[68.0,25.12],[69.5,25.62],[70.38,26.5],[70.62,27.75],[69.5,29.12],[67.5,29.62],[66.88,27.0],[65.62,26.75],[66.75,25.38],[68.0,25.12]]]}},{"type":"Feature","properties":{"kind":"blob","cls":4,"id":32},"geometry":{"type":"Polygon","coordinates":[[[76.0,28.12],[77.5,28.12],[78.62,29.5],[76.25,31.88],[75.25,32.38],[71.12,32.0],[70.62,31.25],[70.62,30.0],[71.75,28.62],[75.0,28.62],[76.0,28.12]]]}},{"type":"Feature","properties":{"kind":"blob","cls":1,"id":33},"geometry":{"type":"Polygon","coordinates":[[[171.5,-39.88],[172.62,-38.5],[172.38,-37.25],[170.75,-36.12],[168.0,-36.38],[167.12,-37.25],[166.88,-38.25],[168.25,-39.88],[171.5,-39.88]]]}},{"type":"Feature","properties":{"kind":"blob","cls":6,"id":34},"geometry":{"type":"Polygon","coordinates":[[[152.5,10.12],[154.0,10.12],[154.88,11.25],[154.62,12.75],[153.25,13.62],[152.0,13.38],[151.12,12.25],[151.38,10.75],[152.5,10.12]]]}},{"type":"Feature","properties":{"kind":"blob","cls":3,"id":35},"geometry":{"type":"Polygon","coordinates":[[[-99.5,52.12],[-97.0,53.12],[-95.88,54.5],[-95.88,56.0],[-96.75,56.88],[-98.5,57.38],[-101.25,57.12],[-103.75,56.12],[-104.38,55.5],[-104.12,54.0],[-103.25,53.12],[-99.5,52.12]]]}},{"type":"Feature","properties":{"kind":"blob","cls":4,"id":36},"geometry":{"type":"Polygon","coordinates":[[[129.75,-30.62],[130.62,-29.75],[130.88,-28.5],[129.88,-27.25],[129.62,-26.25],[128.5,-25.12],[127.25,-24.88],[125.62,-26.0],[125.38,-27.75],[127.75,-30.62],[129.75,-30.62]]]}},{"type":"Feature","properties":{"kind":"blob","cls":4,"id":37},"geometry":{"type":"Polygon","coordinates":[[[40.75,40.88],[42.0,41.88],[44.62,42.0],[40.25,43.38],[39.75,44.12],[42.5,44.12],[44.25,42.88],[44.38,43.25],[42.0,44.62],[38.25,44.62],[37.12,43.75],[36.88,42.25],[37.5,41.38],[40.75,40.88]]]}},{"type":"Feature","properties":{"kind":"blob","cls":4,"id":38},"geometry":{"type":"Polygon","coordinates":[[[44.25,32.38],[45.5,32.88],[46.12,33.75],[46.12,35.0],[45.0,36.12],[42.0,37.12],[40.88,36.25],[40.88,34.75],[42.5,32.88],[44.25,32.38]]]}},{"type":"Feature","properties":{"kind":"blob","cls":1,"id":39},"geometry":{"type":"Polygon","coordinates":[[[32.75,-30.38],[34.12,-28.75],[33.88,-27.5],[33.0,-26.62],[31.5,-26.38],[30.88,-27.5],[31.38,-27.75],[30.88,-28.0],[31.12,-28.5],[29.88,-28.75],[30.88,-29.0],[30.38,-30.0],[32.75,-30.38]]]}},{"type":"Feature","properties":{"kind":"blob","cls":5,"id":40},"geometry":{"type":"Polygon","coordinates":[[[95.5,23.38],[96.88,24.25],[95.5,25.62],[94.25,24.62],[93.5,25.12],[93.38,24.5],[94.12,24.25],[94.25,23.62],[95.5,23.38]]]}},{"type":"Feature","properties":{"kind":"blob","cls":5,"id":41},"geometry":{"type":"Polygon","coordinates":[[[93.5,25.38],[94.38,26.25],[93.75,26.38],[93.5,25.38]]]}},{"type":"Feature","properties":{"kind":"blob","cls":4,"id":42},"geometry":{"type":"Polygon","coordinates":[[[85.62,44.25],[85.12,44.75],[84.75,46.38],[84.38,46.25],[84.62,45.75],[84.25,45.38],[83.5,45.12],[82.38,45.75],[82.75,46.12],[83.75,46.12],[84.0,46.88],[82.75,46.88],[81.12,46.0],[82.38,45.25],[81.38,45.0],[82.25,44.38],[85.62,44.25]]]}},{"type":"Feature","properties":{"kind":"blob","cls":3,"id":43},"geometry":{"type":"Polygon","coordinates":[[[-64.38,-22.5],[-64.25,-22.88],[-63.38,-22.0],[-63.38,-21.0],[-64.0,-20.62],[-64.12,-21.25],[-63.62,-21.5],[-64.38,-22.5]]]}},{"type":"Feature","properties":{"kind":"center","id":1,"lat":-64.0,"lon":114.5,"mslp":950.8,"hvtl":-3.0,"hvtu":-107.4,"hb":24.0,"idx":-0.9,"cls":4,"psfc":950.8,"terrain":false,"radius_km":200,"name":"asym cold","track":"T07"},"geometry":{"type":"Point","coordinates":[114.5,-64.0]}},{"type":"Feature","properties":{"kind":"center","id":2,"lat":68.75,"lon":-9.75,"mslp":955.6,"hvtl":-9.5,"hvtu":-21.7,"hb":9.2,"idx":-0.4,"cls":5,"psfc":955.6,"terrain":false,"radius_km":200,"name":"sym cold","track":"T02"},"geometry":{"type":"Point","coordinates":[-9.75,68.75]}},{"type":"Feature","properties":{"kind":"center","id":3,"lat":-63.25,"lon":-103.5,"mslp":955.8,"hvtl":88.4,"hvtu":-137.3,"hb":10.5,"idx":0.5,"cls":3,"psfc":955.8,"terrain":false,"radius_km":200,"name":"asym shallow warm","track":"T16"},"geometry":{"type":"Point","coordinates":[-103.5,-63.25]}},{"type":"Feature","properties":{"kind":"center","id":4,"lat":-64.75,"lon":-175.5,"mslp":956.6,"hvtl":228.0,"hvtu":-93.0,"hb":29.5,"idx":1.2,"cls":3,"psfc":956.6,"terrain":false,"radius_km":200,"name":"asym shallow warm","track":"T18"},"geometry":{"type":"Point","coordinates":[-175.5,-64.75]}},{"type":"Feature","properties":{"kind":"center","id":5,"lat":-52.25,"lon":99.25,"mslp":959.7,"hvtl":36.8,"hvtu":-30.1,"hb":6.2,"idx":0.4,"cls":1,"psfc":959.7,"terrain":false,"radius_km":200,"name":"sym shallow warm","track":"T13"},"geometry":{"type":"Point","coordinates":[99.25,-52.25]}},{"type":"Feature","properties":{"kind":"center","id":6,"lat":-63.25,"lon":-111.75,"mslp":960.2,"hvtl":90.3,"hvtu":-112.5,"hb":13.3,"idx":0.6,"cls":3,"psfc":960.2,"terrain":false,"radius_km":200,"name":"asym shallow warm"},"geometry":{"type":"Point","coordinates":[-111.75,-63.25]}},{"type":"Feature","properties":{"kind":"center","id":7,"lat":-61.75,"lon":8.5,"mslp":960.4,"hvtl":31.3,"hvtu":-124.9,"hb":17.3,"idx":-0.2,"cls":3,"psfc":960.4,"terrain":false,"radius_km":200,"name":"asym shallow warm","track":"T23"},"geometry":{"type":"Point","coordinates":[8.5,-61.75]}},{"type":"Feature","properties":{"kind":"center","id":8,"lat":-56.75,"lon":38.0,"mslp":962.9,"hvtl":-114.5,"hvtu":-420.6,"hb":89.3,"idx":-2.6,"cls":4,"psfc":962.9,"terrain":false,"radius_km":200,"name":"asym cold","track":"T05"},"geometry":{"type":"Point","coordinates":[38.0,-56.75]}},{"type":"Feature","properties":{"kind":"center","id":9,"lat":55.5,"lon":148.0,"mslp":965.0,"hvtl":141.1,"hvtu":-13.1,"hb":3.8,"idx":1.6,"cls":1,"psfc":965.0,"terrain":false,"radius_km":200,"name":"sym shallow warm","track":"T30"},"geometry":{"type":"Point","coordinates":[148.0,55.5]}},{"type":"Feature","properties":{"kind":"center","id":10,"lat":-74.5,"lon":-107.5,"mslp":965.7,"hvtl":-43.7,"hvtu":-18.9,"hb":2.7,"idx":-1.0,"cls":5,"psfc":965.5,"terrain":false,"radius_km":200,"name":"sym cold","track":"T11"},"geometry":{"type":"Point","coordinates":[-107.5,-74.5]}},{"type":"Feature","properties":{"kind":"center","id":11,"lat":-48.75,"lon":109.25,"mslp":965.9,"hvtl":-190.6,"hvtu":-184.4,"hb":52.5,"idx":-2.9,"cls":4,"psfc":965.9,"terrain":false,"radius_km":200,"name":"asym cold","track":"T20"},"geometry":{"type":"Point","coordinates":[109.25,-48.75]}},{"type":"Feature","properties":{"kind":"center","id":12,"lat":49.75,"lon":-157.75,"mslp":968.0,"hvtl":164.8,"hvtu":-47.6,"hb":37.5,"idx":1.4,"cls":3,"psfc":968.0,"terrain":false,"radius_km":200,"name":"asym shallow warm","track":"T34"},"geometry":{"type":"Point","coordinates":[-157.75,49.75]}},{"type":"Feature","properties":{"kind":"center","id":13,"lat":-79.75,"lon":-147.0,"mslp":971.3,"hvtl":-64.5,"hvtu":-177.3,"hb":31.8,"idx":-2.1,"cls":4,"psfc":940.2,"terrain":false,"radius_km":200,"name":"asym cold","track":"T36"},"geometry":{"type":"Point","coordinates":[-147.0,-79.75]}},{"type":"Feature","properties":{"kind":"center","id":14,"lat":-69.75,"lon":-86.0,"mslp":973.5,"hvtl":-66.2,"hvtu":-122.8,"hb":16.2,"idx":-2.0,"cls":4,"psfc":973.6,"terrain":false,"radius_km":200,"name":"asym cold","track":"T39"},"geometry":{"type":"Point","coordinates":[-86.0,-69.75]}},{"type":"Feature","properties":{"kind":"center","id":15,"lat":-49.75,"lon":19.25,"mslp":976.3,"hvtl":-345.2,"hvtu":-442.2,"hb":77.3,"idx":-3.0,"cls":4,"psfc":976.2,"terrain":false,"radius_km":200,"name":"asym cold","track":"T21"},"geometry":{"type":"Point","coordinates":[19.25,-49.75]}},{"type":"Feature","properties":{"kind":"center","id":16,"lat":53.75,"lon":-54.75,"mslp":979.9,"hvtl":-56.2,"hvtu":-155.9,"hb":86.1,"idx":-1.9,"cls":4,"psfc":979.9,"terrain":false,"radius_km":200,"name":"asym cold","track":"T44"},"geometry":{"type":"Point","coordinates":[-54.75,53.75]}},{"type":"Feature","properties":{"kind":"center","id":17,"lat":65.25,"lon":-35.25,"mslp":983.0,"hvtl":-57.3,"hvtu":-198.5,"hb":21.7,"idx":-2.0,"cls":4,"psfc":982.9,"terrain":false,"radius_km":200,"name":"asym cold","track":"T51"},"geometry":{"type":"Point","coordinates":[-35.25,65.25]}},{"type":"Feature","properties":{"kind":"center","id":18,"lat":-74.25,"lon":-47.25,"mslp":983.2,"hvtl":-90.5,"hvtu":-82.3,"hb":41.6,"idx":-2.1,"cls":4,"psfc":983.2,"terrain":false,"radius_km":200,"name":"asym cold","track":"T43"},"geometry":{"type":"Point","coordinates":[-47.25,-74.25]}},{"type":"Feature","properties":{"kind":"center","id":19,"lat":83.5,"lon":85.0,"mslp":984.6,"hvtl":-114.6,"hvtu":-217.3,"hb":56.8,"idx":-2.6,"cls":4,"psfc":984.6,"terrain":false,"radius_km":200,"name":"asym cold","track":"T58"},"geometry":{"type":"Point","coordinates":[85.0,83.5]}},{"type":"Feature","properties":{"kind":"center","id":20,"lat":84.5,"lon":-172.75,"mslp":985.7,"hvtl":-117.7,"hvtu":-83.6,"hb":-3.6,"idx":-2.3,"cls":5,"psfc":985.7,"terrain":false,"radius_km":200,"name":"sym cold","track":"T59"},"geometry":{"type":"Point","coordinates":[-172.75,84.5]}},{"type":"Feature","properties":{"kind":"center","id":21,"lat":-68.75,"lon":155.25,"mslp":987.4,"hvtl":-494.3,"hvtu":-312.3,"hb":117.2,"idx":-3.0,"cls":4,"psfc":986.6,"terrain":false,"radius_km":200,"name":"asym cold"},"geometry":{"type":"Point","coordinates":[155.25,-68.75]}},{"type":"Feature","properties":{"kind":"center","id":22,"lat":-77.0,"lon":-31.75,"mslp":988.0,"hvtl":-132.1,"hvtu":-165.2,"hb":58.0,"idx":-2.7,"cls":4,"psfc":979.6,"terrain":false,"radius_km":200,"name":"asym cold","track":"T61"},"geometry":{"type":"Point","coordinates":[-31.75,-77.0]}},{"type":"Feature","properties":{"kind":"center","id":23,"lat":-44.5,"lon":2.25,"mslp":988.6,"hvtl":-288.1,"hvtu":-429.1,"hb":57.8,"idx":-3.0,"cls":4,"psfc":988.6,"terrain":false,"radius_km":200,"name":"asym cold","track":"T31"},"geometry":{"type":"Point","coordinates":[2.25,-44.5]}},{"type":"Feature","properties":{"kind":"center","id":24,"lat":-49.0,"lon":-175.25,"mslp":989.7,"hvtl":-237.1,"hvtu":-307.8,"hb":94.2,"idx":-3.0,"cls":4,"psfc":989.7,"terrain":false,"radius_km":200,"name":"asym cold","track":"T01"},"geometry":{"type":"Point","coordinates":[-175.25,-49.0]}},{"type":"Feature","properties":{"kind":"center","id":25,"lat":68.25,"lon":-59.0,"mslp":991.7,"hvtl":41.4,"hvtu":-218.2,"hb":7.5,"idx":-0.2,"cls":1,"psfc":991.7,"terrain":false,"radius_km":200,"name":"sym shallow warm","track":"T73"},"geometry":{"type":"Point","coordinates":[-59.0,68.25]}},{"type":"Feature","properties":{"kind":"center","id":26,"lat":45.25,"lon":171.25,"mslp":995.0,"hvtl":-21.2,"hvtu":-129.0,"hb":54.5,"idx":-1.3,"cls":4,"psfc":995.0,"terrain":false,"radius_km":200,"name":"asym cold","track":"T09"},"geometry":{"type":"Point","coordinates":[171.25,45.25]}},{"type":"Feature","properties":{"kind":"center","id":27,"lat":67.5,"lon":-87.5,"mslp":996.8,"hvtl":105.2,"hvtu":-53.4,"hb":-32.3,"idx":1.1,"cls":1,"psfc":996.0,"terrain":false,"radius_km":200,"name":"sym shallow warm","track":"T71"},"geometry":{"type":"Point","coordinates":[-87.5,67.5]}},{"type":"Feature","properties":{"kind":"center","id":28,"lat":10.5,"lon":-97.5,"mslp":1001.3,"hvtl":-0.5,"hvtu":57.2,"hb":-0.2,"idx":0.5,"cls":6,"psfc":1001.3,"terrain":false,"radius_km":200,"name":"shallow cold","track":"T24"},"geometry":{"type":"Point","coordinates":[-97.5,10.5]}},{"type":"Feature","properties":{"kind":"center","id":29,"lat":-12.0,"lon":-169.5,"mslp":1001.5,"hvtl":47.8,"hvtu":42.1,"hb":9.6,"idx":1.3,"cls":0,"psfc":1001.5,"terrain":false,"radius_km":200,"name":"sym deep warm","track":"T88"},"geometry":{"type":"Point","coordinates":[-169.5,-12.0]}},{"type":"Feature","properties":{"kind":"center","id":30,"lat":-37.0,"lon":-103.5,"mslp":1001.7,"hvtl":10.2,"hvtu":-56.1,"hb":-12.5,"idx":-0.3,"cls":1,"psfc":1001.7,"terrain":false,"radius_km":200,"name":"sym shallow warm","track":"T90"},"geometry":{"type":"Point","coordinates":[-103.5,-37.0]}},{"type":"Feature","properties":{"kind":"center","id":31,"lat":27.5,"lon":67.75,"mslp":1002.6,"hvtl":-48.1,"hvtu":-163.1,"hb":13.2,"idx":-1.8,"cls":4,"psfc":997.6,"terrain":false,"radius_km":200,"name":"asym cold"},"geometry":{"type":"Point","coordinates":[67.75,27.5]}},{"type":"Feature","properties":{"kind":"center","id":32,"lat":29.75,"lon":76.5,"mslp":1003.0,"hvtl":-100.7,"hvtu":-221.3,"hb":28.5,"idx":-2.5,"cls":4,"psfc":975.9,"terrain":false,"radius_km":200,"name":"asym cold","track":"T94"},"geometry":{"type":"Point","coordinates":[76.5,29.75]}},{"type":"Feature","properties":{"kind":"center","id":33,"lat":-38.0,"lon":169.5,"mslp":1003.5,"hvtl":3.8,"hvtu":-236.5,"hb":7.7,"idx":-0.9,"cls":1,"psfc":1003.5,"terrain":false,"radius_km":200,"name":"sym shallow warm","track":"T55"},"geometry":{"type":"Point","coordinates":[169.5,-38.0]}},{"type":"Feature","properties":{"kind":"center","id":34,"lat":11.75,"lon":153.0,"mslp":1004.1,"hvtl":-38.2,"hvtu":51.6,"hb":9.7,"idx":-0.3,"cls":6,"psfc":1004.1,"terrain":false,"radius_km":200,"name":"shallow cold","track":"T50"},"geometry":{"type":"Point","coordinates":[153.0,11.75]}},{"type":"Feature","properties":{"kind":"center","id":35,"lat":55.0,"lon":-100.5,"mslp":1004.9,"hvtl":30.9,"hvtu":-289.2,"hb":72.8,"idx":-0.4,"cls":3,"psfc":968.3,"terrain":false,"radius_km":200,"name":"asym shallow warm","track":"T84"},"geometry":{"type":"Point","coordinates":[-100.5,55.0]}},{"type":"Feature","properties":{"kind":"center","id":36,"lat":-28.75,"lon":128.75,"mslp":1005.1,"hvtl":-36.2,"hvtu":-153.9,"hb":72.3,"idx":-1.6,"cls":4,"psfc":967.6,"terrain":false,"radius_km":200,"name":"asym cold"},"geometry":{"type":"Point","coordinates":[128.75,-28.75]}},{"type":"Feature","properties":{"kind":"center","id":37,"lat":42.25,"lon":42.0,"mslp":1005.7,"hvtl":-179.0,"hvtu":-146.6,"hb":10.5,"idx":-2.8,"cls":4,"psfc":1002.3,"terrain":false,"radius_km":200,"name":"asym cold"},"geometry":{"type":"Point","coordinates":[42.0,42.25]}},{"type":"Feature","properties":{"kind":"center","id":38,"lat":32.75,"lon":43.5,"mslp":1006.5,"hvtl":-219.0,"hvtu":-84.4,"hb":33.9,"idx":-2.6,"cls":4,"psfc":1002.4,"terrain":false,"radius_km":200,"name":"asym cold"},"geometry":{"type":"Point","coordinates":[43.5,32.75]}},{"type":"Feature","properties":{"kind":"center","id":39,"lat":-28.25,"lon":31.75,"mslp":1007.5,"hvtl":126.3,"hvtu":-25.0,"hb":7.5,"idx":1.5,"cls":1,"psfc":978.3,"terrain":false,"radius_km":200,"name":"sym shallow warm"},"geometry":{"type":"Point","coordinates":[31.75,-28.25]}},{"type":"Feature","properties":{"kind":"center","id":40,"lat":25.5,"lon":95.5,"mslp":1008.3,"hvtl":-66.1,"hvtu":-135.8,"hb":4.5,"idx":-2.0,"cls":5,"psfc":984.8,"terrain":false,"radius_km":200,"name":"sym cold","track":"T108"},"geometry":{"type":"Point","coordinates":[95.5,25.5]}},{"type":"Feature","properties":{"kind":"center","id":41,"lat":25.75,"lon":93.5,"mslp":1009.0,"hvtl":-26.1,"hvtu":-144.2,"hb":4.6,"idx":-1.4,"cls":5,"psfc":982.2,"terrain":false,"radius_km":200,"name":"sym cold","track":"T110"},"geometry":{"type":"Point","coordinates":[93.5,25.75]}},{"type":"Feature","properties":{"kind":"center","id":42,"lat":45.0,"lon":83.25,"mslp":1012.5,"hvtl":-73.6,"hvtu":-223.6,"hb":101.8,"idx":-2.2,"cls":4,"psfc":972.8,"terrain":false,"radius_km":200,"name":"asym cold"},"geometry":{"type":"Point","coordinates":[83.25,45.0]}},{"type":"Feature","properties":{"kind":"center","id":43,"lat":-20.75,"lon":-64.0,"mslp":1016.1,"hvtl":6.9,"hvtu":-251.9,"hb":44.3,"idx":-0.8,"cls":3,"psfc":905.1,"terrain":true,"radius_km":200,"name":"asym shallow warm"},"geometry":{"type":"Point","coordinates":[-64.0,-20.75]}}]}