{"type":"FeatureCollection","features":[{"type":"Feature","properties":{"kind":"blob","cls":1,"id":1},"geometry":{"type":"Polygon","coordinates":[[[-131.25,-70.38],[-128.75,-69.88],[-127.38,-68.75],[-127.38,-68.25],[-128.25,-67.38],[-130.25,-66.62],[-133.75,-66.38],[-136.75,-67.12],[-137.88,-68.25],[-137.88,-68.75],[-137.0,-69.62],[-131.25,-70.38]],[[-134.0,-69.88],[-134.88,-69.25],[-133.5,-68.88],[-132.12,-69.5],[-132.5,-69.88],[-134.0,-69.88]]]}},{"type":"Feature","properties":{"kind":"blob","cls":5,"id":2},"geometry":{"type":"Polygon","coordinates":[[[98.5,-63.12],[100.62,-61.75],[100.62,-60.25],[98.5,-58.88],[97.25,-58.62],[93.0,-58.88],[91.12,-60.25],[92.12,-61.0],[91.25,-61.12],[91.12,-61.75],[93.25,-63.12],[98.5,-63.12]]]}},{"type":"Feature","properties":{"kind":"blob","cls":4,"id":3},"geometry":{"type":"Polygon","coordinates":[[[179.75,-66.12],[180.0,-61.88],[178.0,-62.38],[175.88,-63.5],[175.62,-64.5],[176.0,-65.12],[177.5,-65.88],[179.75,-66.12]]]}},{"type":"Feature","properties":{"kind":"blob","cls":4,"id":3},"geometry":{"type":"Polygon","coordinates":[[[-179.75,-61.88],[-180.0,-66.12],[-179.5,-66.38],[-173.5,-65.62],[-171.75,-64.88],[-170.62,-63.5],[-171.5,-62.38],[-174.5,-61.38],[-177.5,-61.38],[-179.75,-61.88]]]}},{"type":"Feature","properties":{"kind":"blob","cls":2,"id":4},"geometry":{"type":"Polygon","coordinates":[[[-97.75,11.12],[-96.88,12.25],[-97.12,13.75],[-98.5,14.62],[-99.75,14.38],[-100.62,13.25],[-100.62,12.25],[-99.0,12.12],[-97.75,11.12]]]}},{"type":"Feature","properties":{"kind":"blob","cls":4,"id":5},"geometry":{"type":"Polygon","coordinates":[[[-31.75,-70.62],[-28.5,-69.88],[-26.88,-68.5],[-26.88,-68.0],[-27.75,-67.12],[-30.5,-66.12],[-37.0,-65.88],[-40.0,-66.62],[-41.0,-67.12],[-41.62,-68.0],[-41.38,-69.25],[-40.5,-69.88],[-35.0,-69.62],[-31.75,-70.62]]]}},{"type":"Feature","properties":{"kind":"blob","cls":4,"id":6},"geometry":{"type":"Polygon","coordinates":[[[81.0,-52.62],[84.0,-51.88],[85.12,-51.0],[85.38,-50.0],[84.5,-48.88],[83.0,-48.38],[78.75,-49.12],[77.62,-50.0],[77.38,-51.0],[78.25,-52.12],[81.0,-52.62]]]}},{"type":"Feature","properties":{"kind":"blob","cls":3,"id":7},"geometry":{"type":"Polygon","coordinates":[[[33.75,-65.38],[39.25,-65.38],[40.5,-64.88],[41.62,-63.5],[40.25,-61.88],[36.75,-60.62],[32.75,-60.88],[29.88,-62.75],[29.62,-63.5],[30.5,-64.62],[33.75,-65.38]]]}},{"type":"Feature","properties":{"kind":"blob","cls":3,"id":8},"geometry":{"type":"Polygon","coordinates":[[[-3.75,-71.62],[0.25,-70.88],[2.5,-69.88],[3.12,-69.25],[3.12,-68.25],[1.75,-67.38],[-0.75,-66.88],[-6.5,-66.88],[-9.0,-67.38],[-11.5,-68.62],[-12.38,-69.5],[-12.38,-70.0],[-11.5,-70.88],[-3.75,-71.62]]]}},{"type":"Feature","properties":{"kind":"blob","cls":4,"id":9},"geometry":{"type":"Polygon","coordinates":[[[119.75,76.62],[127.25,76.62],[132.75,77.38],[134.75,78.12],[141.0,77.62],[152.5,77.88],[156.75,78.88],[157.88,80.0],[156.25,81.12],[152.5,81.88],[138.25,82.12],[131.25,81.38],[129.75,80.88],[117.25,80.88],[112.0,80.12],[109.38,79.0],[109.75,78.12],[112.75,77.12],[119.75,76.62]]]}},{"type":"Feature","properties":{"kind":"blob","cls":4,"id":10},"geometry":{"type":"Polygon","coordinates":[[[-74.25,-74.12],[-72.75,-73.62],[-68.38,-73.25],[-74.75,-72.88],[-78.88,-73.75],[-74.25,-74.12]]]}},{"type":"Feature","properties":{"kind":"blob","cls":0,"id":11},"geometry":{"type":"Polygon","coordinates":[[[89.0,18.12],[90.5,18.12],[91.38,19.25],[91.12,20.75],[89.75,21.62],[88.5,21.38],[87.62,20.25],[87.88,18.75],[89.0,18.12]]]}},{"type":"Feature","properties":{"kind":"blob","cls":5,"id":12},"geometry":{"type":"Polygon","coordinates":[[[49.75,-67.12],[51.0,-67.38],[51.38,-67.0],[51.25,-66.38],[57.12,-65.25],[55.5,-64.88],[51.75,-65.12],[50.5,-65.62],[49.62,-66.5],[49.75,-67.12]]]}},{"type":"Feature","properties":{"kind":"blob","cls":4,"id":13},"geometry":{"type":"Polygon","coordinates":[[[-65.0,-76.62],[-62.5,-75.88],[-61.88,-74.75],[-62.25,-74.38],[-63.25,-74.38],[-65.0,-75.38],[-68.0,-76.12],[-73.25,-76.12],[-72.62,-75.75],[-72.75,-75.38],[-74.5,-75.38],[-76.0,-74.88],[-78.75,-74.88],[-79.38,-75.25],[-78.75,-75.88],[-77.0,-76.38],[-65.0,-76.62]]]}},{"type":"Feature","properties":{"kind":"blob","cls":4,"id":14},"geometry":{"type":"Polygon","coordinates":[[[-79.0,-79.38],[-77.5,-79.38],[-76.38,-78.5],[-77.0,-77.88],[-78.5,-77.38],[-79.0,-79.38]]]}},{"type":"Feature","properties":{"kind":"blob","cls":4,"id":15},"geometry":{"type":"Polygon","coordinates":[[[-57.5,61.62],[-55.75,62.38],[-54.88,63.5],[-55.75,64.62],[-58.25,65.38],[-61.25,65.38],[-63.75,64.62],[-64.62,63.75],[-64.62,63.0],[-63.5,62.62],[-63.12,62.25],[-63.38,62.0],[-62.75,61.62],[-57.5,61.62]]]}},{"type":"Feature","properties":{"kind":"blob","cls":0,"id":16},"geometry":{"type":"Polygon","coordinates":[[[143.75,11.88],[144.62,13.0],[144.38,14.5],[143.0,15.38],[141.75,15.12],[140.88,14.0],[141.0,12.88],[142.0,13.62],[142.62,13.25],[142.62,12.75],[141.62,12.0],[143.75,11.88]]]}},{"type":"Feature","properties":{"kind":"blob","cls":4,"id":17},"geometry":{"type":"Polygon","coordinates":[[[-9.5,72.12],[-5.75,73.38],[-5.12,74.0],[-5.12,74.75],[-6.25,75.62],[-8.25,76.12],[-15.0,76.38],[-19.0,75.62],[-20.0,75.12],[-20.88,74.0],[-19.5,72.62],[-17.75,72.12],[-9.5,72.12]]]}},{"type":"Feature","properties":{"kind":"blob","cls":5,"id":18},"geometry":{"type":"Polygon","coordinates":[[[-64.5,57.62],[-63.75,57.88],[-62.62,59.25],[-63.75,60.62],[-65.5,61.12],[-67.75,61.12],[-69.5,60.62],[-70.62,59.25],[-70.38,58.75],[-69.5,57.88],[-64.5,57.62]]]}},{"type":"Feature","properties":{"kind":"blob","cls":3,"id":19},"geometry":{"type":"Polygon","coordinates":[[[-52.5,66.62],[-50.12,67.25],[-52.0,70.38],[-55.25,70.62],[-57.75,70.12],[-59.12,69.25],[-59.12,68.25],[-58.25,67.38],[-52.5,66.62]],[[-54.12,70.0],[-53.0,70.12],[-52.62,69.75],[-54.12,70.0]]]}},{"type":"Feature","properties":{"kind":"blob","cls":3,"id":20},"geometry":{"type":"Polygon","coordinates":[[[-59.25,73.62],[-57.12,74.0],[-58.25,74.38],[-60.75,76.38],[-66.25,76.38],[-68.62,77.0],[-66.25,76.88],[-64.88,77.5],[-65.75,77.88],[-70.5,77.38],[-72.62,76.25],[-72.25,75.38],[-70.75,74.62],[-67.5,73.88],[-59.25,73.62]]]}},{"type":"Feature","properties":{"kind":"blob","cls":3,"id":21},"geometry":{"type":"Polygon","coordinates":[[[116.0,-42.12],[117.38,-40.75],[117.62,-39.0],[116.5,-37.62],[113.75,-37.62],[112.38,-39.0],[112.12,-40.75],[113.5,-42.12],[116.0,-42.12]]]}},{"type":"Feature","properties":{"kind":"blob","cls":4,"id":22},"geometry":{"type":"Polygon","coordinates":[[[-108.0,64.12],[-102.5,64.12],[-100.5,65.12],[-99.88,66.5],[-101.0,67.88],[-104.25,68.88],[-110.0,68.62],[-111.25,68.12],[-112.38,67.0],[-111.88,65.75],[-110.5,64.62],[-108.0,64.12]]]}},{"type":"Feature","properties":{"kind":"blob","cls":4,"id":23},"geometry":{"type":"Polygon","coordinates":[[[-98.0,57.88],[-96.25,58.38],[-94.62,59.5],[-94.38,60.5],[-95.0,61.38],[-97.25,62.12],[-100.75,62.12],[-102.5,61.62],[-103.88,60.75],[-104.12,59.5],[-103.0,58.38],[-98.0,57.88]]]}},{"type":"Feature","properties":{"kind":"blob","cls":4,"id":24},"geometry":{"type":"Polygon","coordinates":[[[-29.75,-35.62],[-28.25,-35.62],[-27.12,-34.5],[-27.38,-32.0],[-29.25,-30.88],[-31.25,-31.38],[-32.12,-32.5],[-31.88,-34.5],[-29.75,-35.62]]]}},{"type":"Feature","properties":{"kind":"blob","cls":1,"id":25},"geometry":{"type":"Polygon","coordinates":[[[166.25,52.62],[168.25,53.38],[168.88,54.25],[168.62,55.5],[166.25,56.62],[165.0,56.62],[163.0,55.88],[162.12,54.75],[162.38,53.75],[163.75,52.88],[166.25,52.62]]]}},{"type":"Feature","properties":{"kind":"blob","cls":4,"id":26},"geometry":{"type":"Polygon","coordinates":[[[-140.25,55.12],[-138.88,56.25],[-138.62,57.25],[-140.25,58.62],[-145.0,58.62],[-146.62,57.25],[-146.62,56.75],[-145.5,55.38],[-140.25,55.12]]]}},{"type":"Feature","properties":{"kind":"blob","cls":3,"id":27},"geometry":{"type":"Polygon","coordinates":[[[179.75,48.62],[180.0,52.38],[179.25,52.12],[178.12,50.75],[178.38,49.5],[179.75,48.62]]]}},{"type":"Feature","properties":{"kind":"blob","cls":3,"id":27},"geometry":{"type":"Polygon","coordinates":[[[-179.75,52.38],[-180.0,48.62],[-177.75,48.38],[-176.25,48.88],[-175.62,49.5],[-175.38,50.75],[-176.25,51.88],[-178.25,52.62],[-179.75,52.38]]]}},{"type":"Feature","properties":{"kind":"blob","cls":4,"id":28},"geometry":{"type":"Polygon","coordinates":[[[-24.12,74.0],[-24.0,73.88],[-23.88,74.0],[-24.12,74.0]]]}},{"type":"Feature","properties":{"kind":"blob","cls":4,"id":29},"geometry":{"type":"Polygon","coordinates":[[[-122.5,56.62],[-118.5,56.62],[-116.62,58.0],[-116.62,59.0],[-117.25,59.62],[-119.25,60.38],[-123.0,60.12],[-124.38,59.25],[-124.38,58.75],[-122.12,57.25],[-122.5,56.62]]]}},{"type":"Feature","properties":{"kind":"blob","cls":4,"id":30},"geometry":{"type":"Polygon","coordinates":[[[117.75,35.12],[121.0,34.88],[122.62,36.0],[122.62,37.5],[120.25,39.12],[117.5,39.12],[115.88,38.0],[115.62,37.25],[115.88,36.25],[116.5,35.62],[117.75,35.12]]]}},{"type":"Feature","properties":{"kind":"blob","cls":4,"id":31},"geometry":{"type":"Polygon","coordinates":[[[-63.25,41.38],[-61.62,42.25],[-61.38,44.25],[-62.25,45.12],[-64.5,45.62],[-65.75,45.12],[-66.62,44.25],[-66.62,42.75],[-65.75,41.88],[-63.25,41.38]]]}},{"type":"Feature","properties":{"kind":"blob","cls":4,"id":32},"geometry":{"type":"Polygon","coordinates":[[[-126.0,-27.12],[-124.88,-26.0],[-124.88,-24.25],[-126.0,-23.12],[-128.25,-22.88],[-129.88,-24.0],[-129.88,-26.0],[-128.75,-27.12],[-126.0,-27.12]]]}},{"type":"Feature","properties":{"kind":"blob","cls":4,"id":33},"geometry":{"type":"Polygon","coordinates":[[[-66.75,36.62],[-65.12,37.75],[-64.88,39.0],[-66.0,40.38],[-67.75,40.62],[-69.38,39.5],[-69.38,37.75],[-68.5,36.88],[-66.75,36.62]]]}},{"type":"Feature","properties":{"kind":"blob","cls":4,"id":34},"geometry":{"type":"Polygon","coordinates":[[[-57.25,46.62],[-53.75,47.88],[-50.88,50.0],[-50.88,51.5],[-51.5,52.12],[-53.0,52.62],[-55.75,52.62],[-57.25,52.12],[-60.38,49.0],[-60.12,47.5],[-57.25,46.62]]]}},{"type":"Feature","properties":{"kind":"blob","cls":4,"id":35},"geometry":{"type":"Polygon","coordinates":[[[-37.0,-20.88],[-35.5,-20.88],[-34.62,-19.75],[-34.88,-18.25],[-36.25,-17.38],[-37.5,-17.62],[-38.38,-18.75],[-38.12,-20.25],[-37.0,-20.88]]]}},{"type":"Feature","properties":{"kind":"blob","cls":3,"id":36},"geometry":{"type":"Polygon","coordinates":[[[-81.5,23.62],[-80.62,24.5],[-80.62,26.0],[-82.25,27.12],[-83.5,26.88],[-84.38,26.0],[-84.38,24.5],[-83.5,23.62],[-81.5,23.62]]]}},{"type":"Feature","properties":{"kind":"blob","cls":4,"id":37},"geometry":{"type":"Polygon","coordinates":[[[-161.75,-34.38],[-159.75,-34.38],[-158.62,-33.25],[-158.62,-32.25],[-159.38,-30.75],[-161.0,-29.88],[-162.75,-30.38],[-163.38,-31.25],[-163.12,-33.75],[-161.75,-34.38]]]}},{"type":"Feature","properties":{"kind":"blob","cls":1,"id":38},"geometry":{"type":"Polygon","coordinates":[[[-105.5,18.88],[-104.38,19.5],[-105.12,20.5],[-104.38,21.5],[-106.25,23.88],[-107.25,23.62],[-108.38,22.5],[-108.12,20.0],[-107.5,19.38],[-105.5,18.88]]]}},{"type":"Feature","properties":{"kind":"blob","cls":4,"id":39},"geometry":{"type":"Polygon","coordinates":[[[7.75,40.88],[9.0,41.38],[9.88,42.5],[9.62,44.25],[8.0,45.12],[7.38,45.0],[7.75,43.88],[6.5,43.88],[5.5,44.62],[4.5,44.38],[3.88,43.5],[3.88,42.25],[4.5,41.38],[7.75,40.88]],[[9.0,42.12],[8.88,42.25],[9.0,42.38],[9.0,42.12]]]}},{"type":"Feature","properties":{"kind":"blob","cls":3,"id":40},"geometry":{"type":"Polygon","coordinates":[[[-71.5,-27.88],[-70.5,-28.12],[-70.12,-27.5],[-70.5,-23.88],[-71.5,-24.12],[-72.38,-25.0],[-72.38,-26.75],[-71.5,-27.88]]]}},{"type":"Feature","properties":{"kind":"blob","cls":3,"id":41},"geometry":{"type":"Polygon","coordinates":[[[-108.0,23.62],[-107.12,24.5],[-107.12,25.5],[-108.88,27.25],[-108.62,27.75],[-109.12,28.0],[-109.12,29.0],[-109.75,29.62],[-111.25,30.38],[-112.75,30.12],[-113.62,29.25],[-113.88,28.0],[-112.25,26.12],[-111.12,25.75],[-111.12,24.5],[-110.25,23.62],[-108.0,23.62]]]}},{"type":"Feature","properties":{"kind":"blob","cls":4,"id":42},"geometry":{"type":"Polygon","coordinates":[[[74.0,31.12],[75.62,32.0],[75.25,32.38],[72.25,32.38],[71.88,32.0],[74.0,31.12]]]}},{"type":"Feature","properties":{"kind":"blob","cls":4,"id":43},"geometry":{"type":"Polygon","coordinates":[[[-24.75,42.88],[-23.62,43.75],[-23.38,44.5],[-24.12,46.75],[-25.0,47.62],[-26.75,48.38],[-27.75,48.38],[-29.0,47.88],[-29.38,47.0],[-28.38,43.75],[-27.75,43.12],[-24.75,42.88]]]}},{"type":"Feature","properties":{"kind":"blob","cls":4,"id":44},"geometry":{"type":"MultiPolygon","coordinates":[[[[71.0,41.12],[70.88,41.0],[71.0,40.88],[71.0,41.12]]],[[[68.75,40.38],[70.25,40.12],[70.88,40.75],[69.62,40.5],[69.62,41.75],[70.5,42.88],[75.0,42.88],[74.75,43.62],[75.75,43.12],[75.88,43.5],[74.25,44.38],[72.5,44.12],[71.5,43.12],[70.25,43.88],[68.5,43.62],[67.62,43.0],[67.38,41.5],[68.75,40.38]]]]}},{"type":"Feature","properties":{"kind":"blob","cls":4,"id":45},"geometry":{"type":"Polygon","coordinates":[[[2.0,47.88],[4.0,48.62],[5.12,50.25],[4.88,51.25],[4.25,51.88],[2.75,52.38],[1.0,52.38],[-0.5,51.88],[-1.62,50.5],[-1.62,49.5],[-0.25,48.12],[2.0,47.88]]]}},{"type":"Feature","properties":{"kind":"blob","cls":4,"id":46},"geometry":{"type":"Polygon","coordinates":[[[78.25,43.62],[83.12,43.5],[81.0,44.38],[78.25,44.12],[78.25,43.62]]]}},{"type":"Feature","properties":{"kind":"blob","cls":4,"id":47},"geometry":{"type":"Polygon","coordinates":[[[77.62,44.75],[78.0,44.38],[79.25,45.38],[80.25,45.38],[81.0,45.88],[81.75,45.88],[82.38,45.25],[81.38,45.0],[82.25,44.38],[82.88,44.5],[82.88,45.0],[82.0,46.12],[79.75,46.62],[78.5,46.12],[77.62,44.75]]]}},{"type":"Feature","properties":{"kind":"center","id":1,"lat":-68.5,"lon":-132.75,"mslp":925.6,"hvtl":162.6,"hvtu":-59.1,"hb":-5.8,"idx":1.3,"cls":1,"psfc":925.6,"terrain":false,"radius_km":200,"name":"sym shallow warm","track":"T01"},"geometry":{"type":"Point","coordinates":[-132.75,-68.5]}},{"type":"Feature","properties":{"kind":"center","id":2,"lat":-60.75,"lon":95.5,"mslp":952.7,"hvtl":-10.7,"hvtu":-92.0,"hb":2.9,"idx":-0.9,"cls":5,"psfc":952.7,"terrain":false,"radius_km":200,"name":"sym cold","track":"T05"},"geometry":{"type":"Point","coordinates":[95.5,-60.75]}},{"type":"Feature","properties":{"kind":"center","id":3,"lat":-63.75,"lon":-177.25,"mslp":954.6,"hvtl":-28.4,"hvtu":-156.2,"hb":66.9,"idx":-1.5,"cls":4,"psfc":954.6,"terrain":false,"radius_km":200,"name":"asym cold","track":"T08"},"geometry":{"type":"Point","coordinates":[-177.25,-63.75]}},{"type":"Feature","properties":{"kind":"center","id":4,"lat":12.75,"lon":-98.75,"mslp":960.7,"hvtl":95.0,"hvtu":320.9,"hb":10.2,"idx":2.5,"cls":2,"psfc":960.7,"terrain":false,"radius_km":200,"name":"asym deep warm","track":"T24"},"geometry":{"type":"Point","coordinates":[-98.75,12.75]}},{"type":"Feature","properties":{"kind":"center","id":5,"lat":-68.5,"lon":-35.0,"mslp":962.6,"hvtl":-3.3,"hvtu":-99.3,"hb":14.3,"idx":-0.8,"cls":4,"psfc":962.6,"terrain":false,"radius_km":200,"name":"asym cold","track":"T22"},"geometry":{"type":"Point","coordinates":[-35.0,-68.5]}},{"type":"Feature","properties":{"kind":"center","id":6,"lat":-50.75,"lon":80.25,"mslp":970.8,"hvtl":-284.7,"hvtu":-491.5,"hb":58.1,"idx":-3.0,"cls":4,"psfc":970.8,"terrain":false,"radius_km":200,"name":"asym cold"},"geometry":{"type":"Point","coordinates":[80.25,-50.75]}},{"type":"Feature","properties":{"kind":"center","id":7,"lat":-63.25,"lon":36.0,"mslp":974.0,"hvtl":49.3,"hvtu":-70.6,"hb":13.4,"idx":0.3,"cls":3,"psfc":974.0,"terrain":false,"radius_km":200,"name":"asym shallow warm","track":"T35"},"geometry":{"type":"Point","coordinates":[36.0,-63.25]}},{"type":"Feature","properties":{"kind":"center","id":8,"lat":-69.75,"lon":-7.25,"mslp":974.9,"hvtl":53.6,"hvtu":-165.7,"hb":48.6,"idx":0.0,"cls":3,"psfc":974.9,"terrain":false,"radius_km":200,"name":"asym shallow warm"},"geometry":{"type":"Point","coordinates":[-7.25,-69.75]}},{"type":"Feature","properties":{"kind":"center","id":9,"lat":80.0,"lon":143.0,"mslp":977.5,"hvtl":-17.2,"hvtu":-188.2,"hb":52.2,"idx":-1.3,"cls":4,"psfc":977.5,"terrain":false,"radius_km":200,"name":"asym cold","track":"T45"},"geometry":{"type":"Point","coordinates":[143.0,80.0]}},{"type":"Feature","properties":{"kind":"center","id":10,"lat":-73.5,"lon":-71.5,"mslp":981.4,"hvtl":-84.0,"hvtu":-163.1,"hb":62.4,"idx":-2.3,"cls":4,"psfc":907.1,"terrain":false,"radius_km":200,"name":"asym cold","track":"T52"},"geometry":{"type":"Point","coordinates":[-71.5,-73.5]}},{"type":"Feature","properties":{"kind":"center","id":11,"lat":19.75,"lon":89.5,"mslp":981.5,"hvtl":86.7,"hvtu":141.9,"hb":7.8,"idx":2.3,"cls":0,"psfc":981.5,"terrain":false,"radius_km":200,"name":"sym deep warm","track":"T42"},"geometry":{"type":"Point","coordinates":[89.5,19.75]}},{"type":"Feature","properties":{"kind":"center","id":12,"lat":-66.75,"lon":51.0,"mslp":982.1,"hvtl":-62.9,"hvtu":-162.6,"hb":-10.8,"idx":-2.0,"cls":5,"psfc":924.1,"terrain":false,"radius_km":200,"name":"sym cold"},"geometry":{"type":"Point","coordinates":[51.0,-66.75]}},{"type":"Feature","properties":{"kind":"center","id":13,"lat":-76.0,"lon":-63.0,"mslp":985.1,"hvtl":-171.0,"hvtu":-102.3,"hb":29.4,"idx":-2.6,"cls":4,"psfc":977.2,"terrain":false,"radius_km":200,"name":"asym cold","track":"T16"},"geometry":{"type":"Point","coordinates":[-63.0,-76.0]}},{"type":"Feature","properties":{"kind":"center","id":14,"lat":-77.75,"lon":-78.5,"mslp":985.5,"hvtl":-148.9,"hvtu":-137.2,"hb":21.2,"idx":-2.7,"cls":4,"psfc":943.6,"terrain":false,"radius_km":200,"name":"asym cold"},"geometry":{"type":"Point","coordinates":[-78.5,-77.75]}},{"type":"Feature","properties":{"kind":"center","id":15,"lat":63.25,"lon":-60.5,"mslp":987.9,"hvtl":-14.4,"hvtu":-63.3,"hb":41.6,"idx":-0.8,"cls":4,"psfc":987.9,"terrain":false,"radius_km":200,"name":"asym cold","track":"T69"},"geometry":{"type":"Point","coordinates":[-60.5,63.25]}},{"type":"Feature","properties":{"kind":"center","id":16,"lat":13.5,"lon":142.75,"mslp":988.1,"hvtl":73.8,"hvtu":82.4,"hb":0.9,"idx":1.9,"cls":0,"psfc":988.0,"terrain":false,"radius_km":200,"name":"sym deep warm","track":"T50"},"geometry":{"type":"Point","coordinates":[142.75,13.5]}},{"type":"Feature","properties":{"kind":"center","id":17,"lat":74.0,"lon":-13.75,"mslp":988.1,"hvtl":-452.0,"hvtu":-378.0,"hb":116.0,"idx":-3.0,"cls":4,"psfc":988.1,"terrain":false,"radius_km":200,"name":"asym cold"},"geometry":{"type":"Point","coordinates":[-13.75,74.0]}},{"type":"Feature","properties":{"kind":"center","id":18,"lat":59.25,"lon":-66.75,"mslp":989.3,"hvtl":-30.3,"hvtu":-105.2,"hb":6.8,"idx":-1.4,"cls":5,"psfc":989.3,"terrain":false,"radius_km":200,"name":"sym cold","track":"T71"},"geometry":{"type":"Point","coordinates":[-66.75,59.25]}},{"type":"Feature","properties":{"kind":"center","id":19,"lat":68.5,"lon":-54.0,"mslp":989.8,"hvtl":69.2,"hvtu":-193.9,"hb":21.1,"idx":0.2,"cls":3,"psfc":989.8,"terrain":false,"radius_km":200,"name":"asym shallow warm","track":"T63"},"geometry":{"type":"Point","coordinates":[-54.0,68.5]}},{"type":"Feature","properties":{"kind":"center","id":20,"lat":75.75,"lon":-62.25,"mslp":993.1,"hvtl":3.8,"hvtu":-184.5,"hb":38.6,"idx":-0.9,"cls":3,"psfc":993.1,"terrain":false,"radius_km":200,"name":"asym shallow warm","track":"T66"},"geometry":{"type":"Point","coordinates":[-62.25,75.75]}},{"type":"Feature","properties":{"kind":"center","id":21,"lat":-39.75,"lon":114.75,"mslp":993.1,"hvtl":82.8,"hvtu":-46.9,"hb":25.9,"idx":0.9,"cls":3,"psfc":993.1,"terrain":false,"radius_km":200,"name":"asym shallow warm","track":"T53"},"geometry":{"type":"Point","coordinates":[114.75,-39.75]}},{"type":"Feature","properties":{"kind":"center","id":22,"lat":66.25,"lon":-105.5,"mslp":994.2,"hvtl":-128.1,"hvtu":-82.2,"hb":50.5,"idx":-2.4,"cls":4,"psfc":960.1,"terrain":false,"radius_km":200,"name":"asym cold","track":"T77"},"geometry":{"type":"Point","coordinates":[-105.5,66.25]}},{"type":"Feature","properties":{"kind":"center","id":23,"lat":60.25,"lon":-99.5,"mslp":994.5,"hvtl":-159.1,"hvtu":-143.8,"hb":22.5,"idx":-2.7,"cls":4,"psfc":960.2,"terrain":false,"radius_km":200,"name":"asym cold"},"geometry":{"type":"Point","coordinates":[-99.5,60.25]}},{"type":"Feature","properties":{"kind":"center","id":24,"lat":-33.25,"lon":-29.75,"mslp":994.5,"hvtl":-7.4,"hvtu":-310.0,"hb":83.3,"idx":-1.1,"cls":4,"psfc":994.5,"terrain":false,"radius_km":200,"name":"asym cold","track":"T76"},"geometry":{"type":"Point","coordinates":[-29.75,-33.25]}},{"type":"Feature","properties":{"kind":"center","id":25,"lat":54.75,"lon":165.5,"mslp":995.1,"hvtl":14.8,"hvtu":-104.3,"hb":9.2,"idx":-0.5,"cls":1,"psfc":995.1,"terrain":false,"radius_km":200,"name":"sym shallow warm","track":"T75"},"geometry":{"type":"Point","coordinates":[165.5,54.75]}},{"type":"Feature","properties":{"kind":"center","id":26,"lat":56.75,"lon":-142.75,"mslp":995.2,"hvtl":-21.5,"hvtu":-199.8,"hb":13.9,"idx":-1.4,"cls":4,"psfc":995.2,"terrain":false,"radius_km":200,"name":"asym cold","track":"T34"},"geometry":{"type":"Point","coordinates":[-142.75,56.75]}},{"type":"Feature","properties":{"kind":"center","id":27,"lat":50.5,"lon":-178.75,"mslp":995.5,"hvtl":97.9,"hvtu":-189.2,"hb":11.4,"idx":0.5,"cls":3,"psfc":995.6,"terrain":false,"radius_km":200,"name":"asym shallow warm","track":"T81"},"geometry":{"type":"Point","coordinates":[-178.75,50.5]}},{"type":"Feature","properties":{"kind":"center","id":28,"lat":74.0,"lon":-24.0,"mslp":998.5,"hvtl":-326.1,"hvtu":-329.8,"hb":62.8,"idx":-3.0,"cls":4,"psfc":923.8,"terrain":false,"radius_km":200,"name":"asym cold"},"geometry":{"type":"Point","coordinates":[-24.0,74.0]}},{"type":"Feature","properties":{"kind":"center","id":29,"lat":59.5,"lon":-122.25,"mslp":1001.2,"hvtl":-192.2,"hvtu":-191.3,"hb":64.2,"idx":-2.9,"cls":4,"psfc":927.8,"terrain":false,"radius_km":200,"name":"asym cold"},"geometry":{"type":"Point","coordinates":[-122.25,59.5]}},{"type":"Feature","properties":{"kind":"center","id":30,"lat":37.0,"lon":118.5,"mslp":1003.6,"hvtl":-32.2,"hvtu":-111.2,"hb":54.7,"idx":-1.4,"cls":4,"psfc":1001.8,"terrain":false,"radius_km":200,"name":"asym cold"},"geometry":{"type":"Point","coordinates":[118.5,37.0]}},{"type":"Feature","properties":{"kind":"center","id":31,"lat":43.5,"lon":-63.75,"mslp":1004.2,"hvtl":-422.8,"hvtu":-173.7,"hb":99.6,"idx":-2.9,"cls":4,"psfc":1004.2,"terrain":false,"radius_km":200,"name":"asym cold"},"geometry":{"type":"Point","coordinates":[-63.75,43.5]}},{"type":"Feature","properties":{"kind":"center","id":32,"lat":-25.0,"lon":-127.5,"mslp":1004.3,"hvtl":-15.9,"hvtu":-193.7,"hb":44.1,"idx":-1.3,"cls":4,"psfc":1004.3,"terrain":false,"radius_km":200,"name":"asym cold","track":"T85"},"geometry":{"type":"Point","coordinates":[-127.5,-25.0]}},{"type":"Feature","properties":{"kind":"center","id":33,"lat":38.75,"lon":-67.25,"mslp":1005.3,"hvtl":-350.7,"hvtu":-88.8,"hb":78.5,"idx":-2.7,"cls":4,"psfc":1005.3,"terrain":false,"radius_km":200,"name":"asym cold"},"geometry":{"type":"Point","coordinates":[-67.25,38.75]}},{"type":"Feature","properties":{"kind":"center","id":34,"lat":49.75,"lon":-55.75,"mslp":1005.7,"hvtl":-557.6,"hvtu":-230.4,"hb":128.8,"idx":-3.0,"cls":4,"psfc":1003.5,"terrain":false,"radius_km":200,"name":"asym cold"},"geometry":{"type":"Point","coordinates":[-55.75,49.75]}},{"type":"Feature","properties":{"kind":"center","id":35,"lat":-19.25,"lon":-36.5,"mslp":1006.5,"hvtl":-53.3,"hvtu":-106.1,"hb":29.4,"idx":-1.8,"cls":4,"psfc":1006.5,"terrain":false,"radius_km":200,"name":"asym cold"},"geometry":{"type":"Point","coordinates":[-36.5,-19.25]}},{"type":"Feature","properties":{"kind":"center","id":36,"lat":25.25,"lon":-82.5,"mslp":1007.8,"hvtl":59.6,"hvtu":-15.1,"hb":31.3,"idx":0.9,"cls":3,"psfc":1007.8,"terrain":false,"radius_km":200,"name":"asym shallow warm"},"geometry":{"type":"Point","coordinates":[-82.5,25.25]}},{"type":"Feature","properties":{"kind":"center","id":37,"lat":-32.5,"lon":-161.25,"mslp":1009.2,"hvtl":-48.1,"hvtu":-395.2,"hb":41.1,"idx":-1.9,"cls":4,"psfc":1009.2,"terrain":false,"radius_km":200,"name":"asym cold"},"geometry":{"type":"Point","coordinates":[-161.25,-32.5]}},{"type":"Feature","properties":{"kind":"center","id":38,"lat":21.5,"lon":-106.25,"mslp":1009.6,"hvtl":110.6,"hvtu":-121.6,"hb":3.3,"idx":0.8,"cls":1,"psfc":1009.6,"terrain":false,"radius_km":200,"name":"sym shallow warm","track":"T106"},"geometry":{"type":"Point","coordinates":[-106.25,21.5]}},{"type":"Feature","properties":{"kind":"center","id":39,"lat":42.75,"lon":6.25,"mslp":1010.9,"hvtl":-58.3,"hvtu":-159.5,"hb":63.9,"idx":-2.0,"cls":4,"psfc":1010.9,"terrain":false,"radius_km":200,"name":"asym cold"},"geometry":{"type":"Point","coordinates":[6.25,42.75]}},{"type":"Feature","properties":{"kind":"center","id":40,"lat":-26.5,"lon":-70.25,"mslp":1011.0,"hvtl":66.5,"hvtu":-152.8,"hb":36.0,"idx":0.3,"cls":3,"psfc":907.2,"terrain":true,"radius_km":200,"name":"asym shallow warm"},"geometry":{"type":"Point","coordinates":[-70.25,-26.5]}},{"type":"Feature","properties":{"kind":"center","id":41,"lat":23.75,"lon":-108.0,"mslp":1011.2,"hvtl":173.0,"hvtu":-130.9,"hb":10.2,"idx":1.0,"cls":3,"psfc":1011.2,"terrain":false,"radius_km":200,"name":"asym shallow warm"},"geometry":{"type":"Point","coordinates":[-108.0,23.75]}},{"type":"Feature","properties":{"kind":"center","id":42,"lat":31.25,"lon":74.0,"mslp":1012.6,"hvtl":-44.4,"hvtu":-206.5,"hb":18.2,"idx":-1.8,"cls":4,"psfc":989.8,"terrain":false,"radius_km":200,"name":"asym cold"},"geometry":{"type":"Point","coordinates":[74.0,31.25]}},{"type":"Feature","properties":{"kind":"center","id":43,"lat":46.25,"lon":-27.0,"mslp":1016.6,"hvtl":-88.4,"hvtu":-99.9,"hb":56.7,"idx":-2.2,"cls":4,"psfc":1016.6,"terrain":false,"radius_km":200,"name":"asym cold"},"geometry":{"type":"Point","coordinates":[-27.0,46.25]}},{"type":"Feature","properties":{"kind":"center","id":44,"lat":40.25,"lon":69.25,"mslp":1017.3,"hvtl":-59.6,"hvtu":-201.8,"hb":72.7,"idx":-2.0,"cls":4,"psfc":975.7,"terrain":false,"radius_km":200,"name":"asym cold","track":"T115"},"geometry":{"type":"Point","coordinates":[69.25,40.25]}},{"type":"Feature","properties":{"kind":"center","id":45,"lat":49.75,"lon":1.5,"mslp":1019.4,"hvtl":-44.9,"hvtu":-238.2,"hb":16.8,"idx":-1.8,"cls":4,"psfc":998.5,"terrain":false,"radius_km":200,"name":"asym cold","track":"T116"},"geometry":{"type":"Point","coordinates":[1.5,49.75]}},{"type":"Feature","properties":{"kind":"center","id":46,"lat":43.5,"lon":78.5,"mslp":1028.1,"hvtl":-67.2,"hvtu":-192.7,"hb":65.0,"idx":-2.1,"cls":4,"psfc":906.0,"terrain":true,"radius_km":200,"name":"asym cold"},"geometry":{"type":"Point","coordinates":[78.5,43.5]}},{"type":"Feature","properties":{"kind":"center","id":47,"lat":44.5,"lon":78.0,"mslp":1028.6,"hvtl":-30.0,"hvtu":-188.2,"hb":67.7,"idx":-1.5,"cls":4,"psfc":916.9,"terrain":true,"radius_km":200,"name":"asym cold"},"geometry":{"type":"Point","coordinates":[78.0,44.5]}}]}