{"type":"FeatureCollection","features":[{"type":"Feature","properties":{"kind":"blob","cls":0,"id":1},"geometry":{"type":"Polygon","coordinates":[[[146.5,-63.62],[148.38,-62.25],[148.38,-61.75],[146.25,-60.12],[141.75,-60.12],[139.62,-61.75],[139.62,-62.25],[141.5,-63.62],[146.5,-63.62]]]}},{"type":"Feature","properties":{"kind":"blob","cls":3,"id":2},"geometry":{"type":"MultiPolygon","coordinates":[[[[164.75,-68.12],[166.75,-67.62],[168.12,-66.75],[168.12,-65.75],[167.75,-65.12],[165.5,-64.12],[157.75,-61.88],[153.0,-62.12],[151.12,-63.25],[156.12,-64.75],[155.75,-65.38],[155.25,-65.38],[152.0,-64.38],[151.38,-64.5],[153.25,-65.62],[158.5,-67.38],[164.75,-68.12]]],[[[151.25,-64.12],[151.12,-64.25],[151.25,-64.38],[151.25,-64.12]]]]}},{"type":"Feature","properties":{"kind":"blob","cls":3,"id":3},"geometry":{"type":"Polygon","coordinates":[[[-22.25,-64.38],[-17.0,-64.62],[-14.75,-64.12],[-12.75,-63.12],[-12.12,-61.75],[-14.0,-60.38],[-17.5,-60.12],[-19.0,-60.62],[-22.75,-60.88],[-25.12,-62.25],[-25.12,-63.25],[-24.5,-63.88],[-22.25,-64.38]]]}},{"type":"Feature","properties":{"kind":"blob","cls":4,"id":4},"geometry":{"type":"Polygon","coordinates":[[[-119.25,-57.88],[-117.88,-56.75],[-117.88,-55.75],[-119.25,-54.62],[-123.25,-54.62],[-124.62,-55.75],[-124.62,-56.75],[-123.25,-57.88],[-119.25,-57.88]]]}},{"type":"Feature","properties":{"kind":"blob","cls":4,"id":5},"geometry":{"type":"Polygon","coordinates":[[[-116.5,-66.62],[-113.25,-66.62],[-112.0,-66.12],[-111.12,-65.0],[-112.0,-63.88],[-114.75,-63.12],[-117.75,-63.38],[-119.62,-64.5],[-119.88,-65.0],[-119.0,-66.12],[-116.5,-66.62]]]}},{"type":"Feature","properties":{"kind":"blob","cls":0,"id":6},"geometry":{"type":"Polygon","coordinates":[[[147.5,23.38],[148.75,23.62],[149.62,24.5],[149.62,26.0],[148.0,27.12],[146.12,26.5],[147.5,23.38]]]}},{"type":"Feature","properties":{"kind":"blob","cls":4,"id":7},"geometry":{"type":"Polygon","coordinates":[[[-133.0,-55.38],[-131.0,-54.62],[-129.88,-53.0],[-129.88,-51.75],[-130.75,-50.88],[-132.25,-50.38],[-134.25,-50.62],[-136.0,-51.62],[-137.38,-53.5],[-136.75,-54.62],[-133.0,-55.38]]]}},{"type":"Feature","properties":{"kind":"blob","cls":1,"id":8},"geometry":{"type":"Polygon","coordinates":[[[55.25,-65.62],[57.25,-65.12],[59.88,-63.25],[59.88,-62.25],[58.75,-61.38],[56.75,-60.88],[53.75,-60.88],[50.0,-61.88],[49.12,-62.75],[49.12,-64.0],[50.5,-65.12],[55.25,-65.62]],[[51.38,-64.0],[53.5,-63.12],[56.88,-63.0],[56.75,-63.38],[55.0,-63.88],[51.38,-64.0]]]}},{"type":"Feature","properties":{"kind":"blob","cls":3,"id":9},"geometry":{"type":"MultiPolygon","coordinates":[[[[-42.5,57.12],[-42.62,57.0],[-42.5,56.88],[-42.5,57.12]]],[[[-40.75,56.12],[-37.0,56.12],[-35.62,57.0],[-35.38,58.0],[-36.0,58.88],[-38.0,59.62],[-41.25,59.38],[-42.62,58.25],[-40.88,57.25],[-42.38,56.75],[-40.75,56.12]]]]}},{"type":"Feature","properties":{"kind":"blob","cls":4,"id":10},"geometry":{"type":"Polygon","coordinates":[[[69.25,-67.12],[74.0,-67.12],[75.25,-66.62],[76.12,-65.75],[76.12,-65.25],[75.25,-64.38],[73.5,-63.62],[70.0,-63.38],[67.75,-63.88],[65.88,-65.25],[65.88,-65.75],[66.75,-66.62],[69.25,-67.12]]]}},{"type":"Feature","properties":{"kind":"blob","cls":4,"id":11},"geometry":{"type":"Polygon","coordinates":[[[-106.5,-74.62],[-99.25,-74.38],[-98.75,-73.88],[-96.5,-73.88],[-94.75,-73.38],[-90.62,-73.5],[-93.25,-72.62],[-101.5,-72.12],[-105.5,-72.88],[-106.62,-73.5],[-106.5,-74.62]]]}},{"type":"Feature","properties":{"kind":"blob","cls":4,"id":12},"geometry":{"type":"Polygon","coordinates":[[[9.88,-70.5],[10.0,-70.88],[16.5,-70.88],[22.88,-70.5],[19.75,-69.12],[15.0,-68.88],[12.25,-69.38],[9.88,-70.5]]]}},{"type":"Feature","properties":{"kind":"blob","cls":3,"id":13},"geometry":{"type":"Polygon","coordinates":[[[18.75,-54.62],[20.25,-54.12],[21.12,-53.25],[21.12,-52.0],[20.25,-51.12],[18.25,-50.38],[15.5,-50.88],[14.38,-52.0],[14.38,-53.0],[15.5,-54.12],[18.75,-54.62]]]}},{"type":"Feature","properties":{"kind":"blob","cls":4,"id":14},"geometry":{"type":"Polygon","coordinates":[[[32.0,-70.12],[33.75,-69.88],[34.0,-69.38],[37.5,-69.38],[40.5,-68.88],[40.62,-68.5],[37.5,-67.88],[34.5,-68.88],[32.25,-69.12],[32.0,-70.12]]]}},{"type":"Feature","properties":{"kind":"blob","cls":0,"id":15},"geometry":{"type":"Polygon","coordinates":[[[-104.0,16.88],[-103.12,18.0],[-103.38,19.25],[-104.25,19.38],[-105.25,20.38],[-105.88,20.0],[-106.38,17.5],[-106.0,16.88],[-104.0,16.88]]]}},{"type":"Feature","properties":{"kind":"blob","cls":1,"id":16},"geometry":{"type":"Polygon","coordinates":[[[-176.0,58.62],[-173.25,58.38],[-171.5,58.88],[-170.62,59.5],[-170.38,61.0],[-172.5,62.38],[-174.5,62.62],[-175.0,61.88],[-177.5,62.12],[-179.12,61.0],[-179.12,60.0],[-178.5,59.38],[-176.0,58.62]]]}},{"type":"Feature","properties":{"kind":"blob","cls":4,"id":17},"geometry":{"type":"Polygon","coordinates":[[[179.75,-82.88],[180.0,-82.12],[179.0,-81.88],[170.62,-82.0],[174.5,-82.62],[179.75,-82.88]]]}},{"type":"Feature","properties":{"kind":"blob","cls":4,"id":17},"geometry":{"type":"Polygon","coordinates":[[[-179.75,-82.12],[-180.0,-82.88],[-177.75,-83.12],[-160.38,-83.25],[-170.75,-82.88],[-179.75,-82.12]]]}},{"type":"Feature","properties":{"kind":"blob","cls":4,"id":18},"geometry":{"type":"Polygon","coordinates":[[[175.75,-78.12],[179.0,-77.12],[179.38,-76.25],[178.0,-75.12],[175.0,-74.38],[167.0,-74.12],[164.75,-74.38],[164.38,-75.5],[162.38,-77.0],[163.25,-77.88],[175.75,-78.12]],[[166.62,-77.5],[169.12,-77.5],[169.0,-77.62],[166.62,-77.5]]]}},{"type":"Feature","properties":{"kind":"blob","cls":4,"id":19},"geometry":{"type":"Polygon","coordinates":[[[65.5,63.88],[67.75,64.38],[69.12,65.25],[69.38,66.75],[68.0,67.62],[66.25,67.88],[66.38,69.5],[64.0,70.88],[56.25,70.88],[54.5,70.12],[53.62,69.25],[53.62,68.25],[54.75,67.38],[56.75,66.62],[59.75,66.38],[59.88,65.5],[60.62,65.25],[60.75,64.62],[65.5,63.88]],[[61.25,65.12],[61.12,65.25],[61.25,65.38],[61.25,65.12]]]}},{"type":"Feature","properties":{"kind":"blob","cls":5,"id":20},"geometry":{"type":"Polygon","coordinates":[[[-154.62,-81.5],[-157.75,-80.62],[-164.25,-80.12],[-170.25,-80.12],[-171.62,-80.5],[-160.5,-81.38],[-154.62,-81.5]]]}},{"type":"Feature","properties":{"kind":"blob","cls":4,"id":21},"geometry":{"type":"Polygon","coordinates":[[[7.5,-52.62],[9.0,-52.12],[10.12,-50.75],[9.88,-49.75],[9.25,-49.12],[7.75,-48.62],[4.75,-49.12],[3.88,-50.0],[3.62,-51.0],[4.5,-52.12],[7.5,-52.62]]]}},{"type":"Feature","properties":{"kind":"blob","cls":4,"id":22},"geometry":{"type":"Polygon","coordinates":[[[-76.25,-68.88],[-73.0,-68.12],[-71.62,-67.0],[-71.88,-65.75],[-73.75,-64.62],[-77.0,-63.88],[-81.0,-64.12],[-83.88,-65.25],[-84.12,-66.5],[-83.5,-67.38],[-81.5,-68.38],[-76.25,-68.88]]]}},{"type":"Feature","properties":{"kind":"blob","cls":4,"id":23},"geometry":{"type":"Polygon","coordinates":[[[-38.5,-80.12],[-37.5,-80.38],[-31.38,-79.0],[-35.5,-79.12],[-38.5,-80.12]]]}},{"type":"Feature","properties":{"kind":"blob","cls":4,"id":24},"geometry":{"type":"Polygon","coordinates":[[[-22.5,50.38],[-20.5,51.12],[-19.62,52.0],[-19.62,53.5],[-20.75,54.62],[-22.25,55.12],[-24.25,55.12],[-25.75,54.62],[-26.88,53.25],[-26.62,52.5],[-25.25,50.88],[-22.5,50.38]]]}},{"type":"Feature","properties":{"kind":"blob","cls":4,"id":25},"geometry":{"type":"MultiPolygon","coordinates":[[[[-117.5,28.62],[-115.75,28.62],[-114.38,30.0],[-114.38,31.0],[-115.25,32.12],[-115.62,31.75],[-115.12,31.0],[-115.25,30.38],[-116.5,32.62],[-118.5,32.12],[-119.12,31.25],[-119.12,30.0],[-117.5,28.62]]],[[[-115.75,32.38],[-115.88,32.25],[-115.75,32.12],[-115.75,32.38]]]]}},{"type":"Feature","properties":{"kind":"blob","cls":3,"id":26},"geometry":{"type":"Polygon","coordinates":[[[55.75,74.88],[59.25,74.88],[66.25,75.88],[73.0,77.88],[74.5,78.62],[74.88,79.5],[71.5,80.88],[66.5,81.38],[61.0,81.38],[54.25,80.62],[58.25,80.12],[59.88,79.25],[59.62,77.75],[58.88,76.75],[55.75,74.88]],[[59.75,75.38],[59.62,75.5],[60.0,75.62],[59.75,75.38]]]}},{"type":"Feature","properties":{"kind":"blob","cls":1,"id":27},"geometry":{"type":"Polygon","coordinates":[[[52.12,75.0],[51.88,78.0],[51.0,79.62],[50.25,78.62],[46.75,77.88],[45.38,77.0],[45.75,76.12],[46.75,75.62],[52.12,75.0]]]}},{"type":"Feature","properties":{"kind":"blob","cls":4,"id":28},"geometry":{"type":"Polygon","coordinates":[[[179.75,84.62],[180.0,88.62],[178.0,88.88],[156.5,88.88],[139.75,88.38],[131.5,87.62],[129.38,86.75],[132.25,85.88],[148.0,84.88],[179.75,84.62]]]}},{"type":"Feature","properties":{"kind":"blob","cls":4,"id":28},"geometry":{"type":"Polygon","coordinates":[[[-179.75,88.62],[-180.0,84.62],[-161.5,85.38],[-155.25,86.12],[-153.88,86.75],[-155.25,87.38],[-161.25,88.12],[-179.75,88.62]]]}},{"type":"Feature","properties":{"kind":"blob","cls":4,"id":29},"geometry":{"type":"Polygon","coordinates":[[[-139.0,72.38],[-136.25,73.38],[-135.88,74.5],[-137.75,75.62],[-140.25,76.12],[-146.25,76.38],[-150.75,75.62],[-152.62,74.5],[-152.38,73.5],[-151.25,72.88],[-149.5,72.38],[-139.0,72.38]]]}},{"type":"Feature","properties":{"kind":"blob","cls":4,"id":30},"geometry":{"type":"Polygon","coordinates":[[[-124.0,69.62],[-121.25,70.12],[-119.25,71.12],[-118.38,72.0],[-118.38,72.5],[-119.5,73.38],[-121.75,74.12],[-127.5,74.38],[-130.5,73.88],[-132.62,72.25],[-132.62,71.25],[-131.75,70.62],[-129.75,69.88],[-124.0,69.62]]]}},{"type":"Feature","properties":{"kind":"blob","cls":1,"id":31},"geometry":{"type":"Polygon","coordinates":[[[-83.5,-48.88],[-82.25,-48.38],[-81.38,-47.5],[-81.38,-46.25],[-82.25,-45.38],[-83.5,-44.88],[-85.0,-44.88],[-86.25,-45.38],[-87.12,-46.25],[-87.12,-47.5],[-85.75,-47.38],[-85.88,-48.5],[-83.5,-48.88]]]}},{"type":"Feature","properties":{"kind":"blob","cls":4,"id":32},"geometry":{"type":"Polygon","coordinates":[[[-100.75,42.38],[-99.0,42.38],[-97.38,43.5],[-97.38,45.0],[-98.25,45.88],[-100.75,46.38],[-102.0,45.88],[-103.12,44.75],[-102.75,43.38],[-101.25,43.38],[-100.75,42.38]]]}},{"type":"Feature","properties":{"kind":"blob","cls":4,"id":33},"geometry":{"type":"Polygon","coordinates":[[[12.5,54.12],[14.25,54.62],[15.12,55.5],[15.12,56.5],[14.25,57.38],[12.5,57.88],[9.75,57.38],[8.88,56.5],[8.88,55.5],[10.25,54.38],[12.5,54.12]]]}},{"type":"Feature","properties":{"kind":"blob","cls":4,"id":34},"geometry":{"type":"Polygon","coordinates":[[[-151.25,57.38],[-149.5,57.88],[-148.38,59.25],[-149.5,60.62],[-151.25,61.12],[-152.25,61.12],[-152.75,60.38],[-153.5,60.12],[-153.75,60.62],[-154.5,60.62],[-155.62,59.25],[-155.38,58.75],[-154.5,57.88],[-151.25,57.38]],[[-150.62,59.75],[-150.0,60.38],[-149.88,60.0],[-150.62,59.75]]]}},{"type":"Feature","properties":{"kind":"blob","cls":4,"id":35},"geometry":{"type":"Polygon","coordinates":[[[-93.75,46.38],[-91.25,47.38],[-89.12,49.0],[-89.12,50.5],[-90.75,51.88],[-92.25,52.38],[-94.5,52.12],[-96.25,51.38],[-97.62,50.0],[-97.62,48.0],[-97.25,47.38],[-93.75,46.38]]]}},{"type":"Feature","properties":{"kind":"blob","cls":3,"id":36},"geometry":{"type":"Polygon","coordinates":[[[6.25,61.62],[7.75,62.38],[8.38,63.5],[7.75,64.38],[6.75,63.62],[4.0,63.62],[1.75,65.12],[0.5,64.62],[-0.38,63.75],[-0.38,62.75],[0.75,61.88],[6.25,61.62]]]}},{"type":"Feature","properties":{"kind":"blob","cls":4,"id":37},"geometry":{"type":"Polygon","coordinates":[[[-10.75,73.38],[-7.25,73.88],[-5.0,74.62],[-4.12,75.75],[-5.5,76.88],[-11.38,77.75],[-5.5,78.38],[-3.75,79.12],[-3.38,79.75],[-4.5,80.62],[-8.0,81.38],[-17.25,81.62],[-22.25,81.12],[-24.0,80.62],[-25.12,79.75],[-23.5,78.62],[-21.75,78.12],[-15.5,77.62],[-19.75,76.88],[-20.88,76.25],[-21.12,75.25],[-18.75,73.88],[-10.75,73.38]]]}},{"type":"Feature","properties":{"kind":"blob","cls":3,"id":38},"geometry":{"type":"Polygon","coordinates":[[[53.0,80.12],[53.38,80.25],[53.25,80.38],[53.0,80.12]]]}},{"type":"Feature","properties":{"kind":"blob","cls":4,"id":39},"geometry":{"type":"Polygon","coordinates":[[[28.75,57.88],[30.5,58.38],[31.88,59.25],[32.12,60.25],[31.0,61.38],[29.25,61.88],[25.75,61.38],[24.88,60.75],[24.38,59.5],[25.5,58.38],[28.75,57.88]]]}},{"type":"Feature","properties":{"kind":"blob","cls":3,"id":40},"geometry":{"type":"Polygon","coordinates":[[[-43.75,-40.88],[-42.12,-39.75],[-41.88,-38.5],[-43.0,-37.12],[-46.0,-37.12],[-46.12,-36.25],[-48.0,-34.88],[-49.25,-34.88],[-50.88,-36.0],[-51.38,-38.0],[-50.0,-39.62],[-48.25,-39.88],[-47.0,-39.38],[-46.0,-40.62],[-43.75,-40.88]]]}},{"type":"Feature","properties":{"kind":"blob","cls":3,"id":41},"geometry":{"type":"Polygon","coordinates":[[[145.5,30.62],[147.38,31.75],[147.62,33.5],[147.0,34.38],[144.75,34.88],[143.12,34.0],[142.88,32.0],[143.5,31.12],[145.5,30.62]]]}},{"type":"Feature","properties":{"kind":"blob","cls":0,"id":42},"geometry":{"type":"Polygon","coordinates":[[[-24.75,12.12],[-23.25,12.12],[-22.38,13.25],[-22.62,14.75],[-24.0,15.62],[-25.38,15.0],[-25.88,13.5],[-25.88,12.75],[-24.75,12.12]]]}},{"type":"Feature","properties":{"kind":"blob","cls":4,"id":43},"geometry":{"type":"Polygon","coordinates":[[[8.75,41.12],[10.62,42.25],[10.88,44.25],[10.38,44.25],[10.62,44.5],[10.25,44.88],[9.0,45.38],[7.5,45.38],[7.38,44.5],[7.88,44.25],[7.75,43.88],[6.5,43.62],[6.0,44.38],[5.62,44.25],[5.62,42.25],[8.75,41.12]],[[9.0,42.12],[8.88,42.25],[9.0,42.38],[9.0,42.12]]]}},{"type":"Feature","properties":{"kind":"blob","cls":4,"id":44},"geometry":{"type":"Polygon","coordinates":[[[-56.5,71.88],[-53.62,72.5],[-58.25,74.62],[-60.0,76.38],[-67.5,76.88],[-69.0,76.38],[-69.62,75.75],[-69.0,74.62],[-65.0,72.88],[-61.75,72.12],[-56.5,71.88]]]}},{"type":"Feature","properties":{"kind":"blob","cls":5,"id":45},"geometry":{"type":"Polygon","coordinates":[[[-139.5,62.12],[-138.88,62.75],[-139.5,63.12],[-141.0,63.12],[-142.38,62.75],[-139.5,62.12]]]}},{"type":"Feature","properties":{"kind":"blob","cls":4,"id":46},"geometry":{"type":"Polygon","coordinates":[[[122.25,50.12],[123.75,50.62],[124.62,51.5],[124.62,52.5],[123.75,53.38],[122.25,53.88],[119.5,53.38],[118.62,52.5],[118.62,51.5],[119.5,50.62],[122.25,50.12]],[[121.62,51.25],[122.62,51.25],[122.5,51.12],[121.62,51.25]],[[122.38,51.75],[122.75,52.12],[122.88,51.75],[122.38,51.75]]]}},{"type":"Feature","properties":{"kind":"blob","cls":4,"id":47},"geometry":{"type":"Polygon","coordinates":[[[-86.0,35.12],[-84.75,34.88],[-83.12,36.0],[-83.12,37.5],[-83.75,38.12],[-85.75,38.62],[-87.38,37.5],[-87.38,36.0],[-86.0,35.12]]]}},{"type":"Feature","properties":{"kind":"blob","cls":4,"id":48},"geometry":{"type":"Polygon","coordinates":[[[-42.25,34.38],[-41.0,34.12],[-39.38,35.25],[-39.38,36.75],[-40.0,37.38],[-42.0,37.88],[-43.62,36.75],[-43.62,35.25],[-42.25,34.38]]]}},{"type":"Feature","properties":{"kind":"blob","cls":5,"id":49},"geometry":{"type":"Polygon","coordinates":[[[-143.88,61.5],[-143.75,61.38],[-143.62,61.5],[-143.88,61.5]]]}},{"type":"Feature","properties":{"kind":"blob","cls":4,"id":50},"geometry":{"type":"Polygon","coordinates":[[[64.5,35.88],[65.0,35.88],[68.38,38.5],[68.0,38.62],[66.5,37.62],[66.38,38.25],[67.12,39.0],[66.75,39.38],[65.0,38.62],[64.12,37.25],[64.5,35.88]]]}},{"type":"Feature","properties":{"kind":"blob","cls":4,"id":51},"geometry":{"type":"Polygon","coordinates":[[[-143.25,61.12],[-142.62,61.25],[-142.75,61.38],[-143.25,61.12]]]}},{"type":"Feature","properties":{"kind":"blob","cls":4,"id":52},"geometry":{"type":"Polygon","coordinates":[[[-66.25,76.88],[-65.62,77.0],[-65.75,77.12],[-66.25,76.88]]]}},{"type":"Feature","properties":{"kind":"blob","cls":4,"id":53},"geometry":{"type":"Polygon","coordinates":[[[-139.5,59.38],[-138.12,59.75],[-139.25,60.12],[-143.38,60.25],[-142.25,59.62],[-139.5,59.38]]]}},{"type":"Feature","properties":{"kind":"blob","cls":4,"id":54},"geometry":{"type":"Polygon","coordinates":[[[-64.12,-20.75],[-64.0,-20.88],[-63.88,-20.75],[-64.12,-20.75]]]}},{"type":"Feature","properties":{"kind":"center","id":1,"lat":-62.0,"lon":144.0,"mslp":946.4,"hvtl":159.0,"hvtu":14.4,"hb":-34.1,"idx":2.0,"cls":0,"psfc":946.3,"terrain":false,"radius_km":200,"name":"sym deep warm","track":"T03"},"geometry":{"type":"Point","coordinates":[144.0,-62.0]}},{"type":"Feature","properties":{"kind":"center","id":2,"lat":-65.0,"lon":159.25,"mslp":948.8,"hvtl":82.6,"hvtu":-135.6,"hb":41.1,"idx":0.5,"cls":3,"psfc":948.8,"terrain":false,"radius_km":200,"name":"asym shallow warm","track":"T04"},"geometry":{"type":"Point","coordinates":[159.25,-65.0]}},{"type":"Feature","properties":{"kind":"center","id":3,"lat":-62.75,"lon":-19.5,"mslp":956.3,"hvtl":148.1,"hvtu":-18.6,"hb":31.3,"idx":1.6,"cls":3,"psfc":956.3,"terrain":false,"radius_km":200,"name":"asym shallow warm","track":"T19"},"geometry":{"type":"Point","coordinates":[-19.5,-62.75]}},{"type":"Feature","properties":{"kind":"center","id":4,"lat":-56.25,"lon":-121.25,"mslp":960.0,"hvtl":-25.9,"hvtu":-106.8,"hb":13.3,"idx":-1.3,"cls":4,"psfc":960.0,"terrain":false,"radius_km":200,"name":"asym cold"},"geometry":{"type":"Point","coordinates":[-121.25,-56.25]}},{"type":"Feature","properties":{"kind":"center","id":5,"lat":-63.5,"lon":-117.75,"mslp":960.8,"hvtl":-96.5,"hvtu":-70.5,"hb":52.3,"idx":-2.1,"cls":4,"psfc":960.8,"terrain":false,"radius_km":200,"name":"asym cold","track":"T12"},"geometry":{"type":"Point","coordinates":[-117.75,-63.5]}},{"type":"Feature","properties":{"kind":"center","id":6,"lat":25.25,"lon":147.75,"mslp":961.6,"hvtl":78.8,"hvtu":287.9,"hb":-0.3,"idx":2.3,"cls":0,"psfc":961.5,"terrain":false,"radius_km":200,"name":"sym deep warm","track":"T09"},"geometry":{"type":"Point","coordinates":[147.75,25.25]}},{"type":"Feature","properties":{"kind":"center","id":7,"lat":-53.25,"lon":-133.75,"mslp":965.3,"hvtl":-56.4,"hvtu":-364.5,"hb":13.3,"idx":-2.0,"cls":4,"psfc":965.3,"terrain":false,"radius_km":200,"name":"asym cold","track":"T26"},"geometry":{"type":"Point","coordinates":[-133.75,-53.25]}},{"type":"Feature","properties":{"kind":"center","id":8,"lat":-63.0,"lon":54.5,"mslp":965.9,"hvtl":5.5,"hvtu":-35.4,"hb":9.8,"idx":-0.2,"cls":1,"psfc":965.9,"terrain":false,"radius_km":200,"name":"sym shallow warm","track":"T27"},"geometry":{"type":"Point","coordinates":[54.5,-63.0]}},{"type":"Feature","properties":{"kind":"center","id":9,"lat":57.75,"lon":-39.0,"mslp":967.5,"hvtl":143.3,"hvtu":-125.5,"hb":26.2,"idx":0.9,"cls":3,"psfc":967.5,"terrain":false,"radius_km":200,"name":"asym shallow warm","track":"T14"},"geometry":{"type":"Point","coordinates":[-39.0,57.75]}},{"type":"Feature","properties":{"kind":"center","id":10,"lat":-65.5,"lon":71.0,"mslp":967.5,"hvtl":-34.1,"hvtu":-245.7,"hb":27.8,"idx":-1.6,"cls":4,"psfc":967.5,"terrain":false,"radius_km":200,"name":"asym cold"},"geometry":{"type":"Point","coordinates":[71.0,-65.5]}},{"type":"Feature","properties":{"kind":"center","id":11,"lat":-74.0,"lon":-99.75,"mslp":977.0,"hvtl":-112.8,"hvtu":-106.2,"hb":92.6,"idx":-2.4,"cls":4,"psfc":924.5,"terrain":false,"radius_km":200,"name":"asym cold","track":"T40"},"geometry":{"type":"Point","coordinates":[-99.75,-74.0]}},{"type":"Feature","properties":{"kind":"center","id":12,"lat":-70.75,"lon":16.25,"mslp":977.8,"hvtl":-236.5,"hvtu":-69.5,"hb":39.6,"idx":-2.6,"cls":4,"psfc":914.9,"terrain":false,"radius_km":200,"name":"asym cold"},"geometry":{"type":"Point","coordinates":[16.25,-70.75]}},{"type":"Feature","properties":{"kind":"center","id":13,"lat":-52.5,"lon":17.5,"mslp":978.0,"hvtl":19.2,"hvtu":-396.0,"hb":59.3,"idx":-0.6,"cls":3,"psfc":978.0,"terrain":false,"radius_km":200,"name":"asym shallow warm","track":"T46"},"geometry":{"type":"Point","coordinates":[17.5,-52.5]}},{"type":"Feature","properties":{"kind":"center","id":14,"lat":-68.75,"lon":40.5,"mslp":978.3,"hvtl":-184.9,"hvtu":-92.0,"hb":15.0,"idx":-2.6,"cls":4,"psfc":948.9,"terrain":false,"radius_km":200,"name":"asym cold"},"geometry":{"type":"Point","coordinates":[40.5,-68.75]}},{"type":"Feature","properties":{"kind":"center","id":15,"lat":18.5,"lon":-105.0,"mslp":979.5,"hvtl":130.7,"hvtu":139.8,"hb":-15.7,"idx":2.6,"cls":0,"psfc":979.5,"terrain":false,"radius_km":200,"name":"sym deep warm"},"geometry":{"type":"Point","coordinates":[-105.0,18.5]}},{"type":"Feature","properties":{"kind":"center","id":16,"lat":60.5,"lon":-174.5,"mslp":979.7,"hvtl":27.4,"hvtu":-89.4,"hb":-0.0,"idx":-0.2,"cls":1,"psfc":979.7,"terrain":false,"radius_km":200,"name":"sym shallow warm","track":"T48"},"geometry":{"type":"Point","coordinates":[-174.5,60.5]}},{"type":"Feature","properties":{"kind":"center","id":17,"lat":-83.0,"lon":-170.0,"mslp":981.0,"hvtl":-203.9,"hvtu":-75.1,"hb":12.3,"idx":-2.6,"cls":4,"psfc":972.3,"terrain":false,"radius_km":200,"name":"asym cold","track":"T54"},"geometry":{"type":"Point","coordinates":[-170.0,-83.0]}},{"type":"Feature","properties":{"kind":"center","id":18,"lat":-76.25,"lon":169.75,"mslp":981.3,"hvtl":-168.6,"hvtu":-369.2,"hb":40.7,"idx":-2.9,"cls":4,"psfc":981.3,"terrain":false,"radius_km":200,"name":"asym cold","track":"T15"},"geometry":{"type":"Point","coordinates":[169.75,-76.25]}},{"type":"Feature","properties":{"kind":"center","id":19,"lat":66.0,"lon":64.5,"mslp":983.2,"hvtl":-46.1,"hvtu":-101.3,"hb":12.5,"idx":-1.6,"cls":4,"psfc":971.3,"terrain":false,"radius_km":200,"name":"asym cold","track":"T57"},"geometry":{"type":"Point","coordinates":[64.5,66.0]}},{"type":"Feature","properties":{"kind":"center","id":20,"lat":-81.0,"lon":-164.25,"mslp":983.6,"hvtl":-70.4,"hvtu":-81.9,"hb":-1.0,"idx":-1.9,"cls":5,"psfc":975.7,"terrain":false,"radius_km":200,"name":"sym cold","track":"T60"},"geometry":{"type":"Point","coordinates":[-164.25,-81.0]}},{"type":"Feature","properties":{"kind":"center","id":21,"lat":-50.75,"lon":6.75,"mslp":984.5,"hvtl":-182.6,"hvtu":-176.8,"hb":33.8,"idx":-2.8,"cls":4,"psfc":984.5,"terrain":false,"radius_km":200,"name":"asym cold"},"geometry":{"type":"Point","coordinates":[6.75,-50.75]}},{"type":"Feature","properties":{"kind":"center","id":22,"lat":-66.5,"lon":-78.0,"mslp":986.8,"hvtl":-65.9,"hvtu":-162.9,"hb":38.6,"idx":-2.1,"cls":4,"psfc":986.7,"terrain":false,"radius_km":200,"name":"asym cold"},"geometry":{"type":"Point","coordinates":[-78.0,-66.5]}},{"type":"Feature","properties":{"kind":"center","id":23,"lat":-80.0,"lon":-37.0,"mslp":988.1,"hvtl":-76.9,"hvtu":-43.5,"hb":14.4,"idx":-1.7,"cls":4,"psfc":973.5,"terrain":false,"radius_km":200,"name":"asym cold","track":"T65"},"geometry":{"type":"Point","coordinates":[-37.0,-80.0]}},{"type":"Feature","properties":{"kind":"center","id":24,"lat":52.75,"lon":-23.0,"mslp":989.0,"hvtl":-307.1,"hvtu":-313.7,"hb":62.7,"idx":-3.0,"cls":4,"psfc":989.0,"terrain":false,"radius_km":200,"name":"asym cold","track":"T17"},"geometry":{"type":"Point","coordinates":[-23.0,52.75]}},{"type":"Feature","properties":{"kind":"center","id":25,"lat":30.25,"lon":-116.75,"mslp":990.4,"hvtl":-52.8,"hvtu":-49.3,"hb":30.8,"idx":-1.4,"cls":4,"psfc":990.4,"terrain":false,"radius_km":200,"name":"asym cold"},"geometry":{"type":"Point","coordinates":[-116.75,30.25]}},{"type":"Feature","properties":{"kind":"center","id":26,"lat":77.25,"lon":59.25,"mslp":994.0,"hvtl":105.1,"hvtu":-172.7,"hb":20.4,"idx":0.6,"cls":3,"psfc":994.0,"terrain":false,"radius_km":200,"name":"asym shallow warm","track":"T74"},"geometry":{"type":"Point","coordinates":[59.25,77.25]}},{"type":"Feature","properties":{"kind":"center","id":27,"lat":75.25,"lon":52.0,"mslp":994.1,"hvtl":198.2,"hvtu":-230.3,"hb":-16.7,"idx":0.9,"cls":1,"psfc":994.1,"terrain":false,"radius_km":200,"name":"sym shallow warm"},"geometry":{"type":"Point","coordinates":[52.0,75.25]}},{"type":"Feature","properties":{"kind":"center","id":28,"lat":86.75,"lon":168.75,"mslp":994.4,"hvtl":-56.0,"hvtu":-202.5,"hb":64.3,"idx":-2.0,"cls":4,"psfc":994.4,"terrain":false,"radius_km":200,"name":"asym cold","track":"T72"},"geometry":{"type":"Point","coordinates":[168.75,86.75]}},{"type":"Feature","properties":{"kind":"center","id":29,"lat":74.25,"lon":-145.0,"mslp":994.8,"hvtl":-86.5,"hvtu":-149.5,"hb":70.3,"idx":-2.3,"cls":4,"psfc":994.8,"terrain":false,"radius_km":200,"name":"asym cold"},"geometry":{"type":"Point","coordinates":[-145.0,74.25]}},{"type":"Feature","properties":{"kind":"center","id":30,"lat":72.5,"lon":-126.0,"mslp":995.8,"hvtl":-189.0,"hvtu":-199.9,"hb":54.6,"idx":-2.9,"cls":4,"psfc":995.8,"terrain":false,"radius_km":200,"name":"asym cold","track":"T68"},"geometry":{"type":"Point","coordinates":[-126.0,72.5]}},{"type":"Feature","properties":{"kind":"center","id":31,"lat":-46.75,"lon":-84.25,"mslp":997.1,"hvtl":61.1,"hvtu":-60.9,"hb":-4.5,"idx":0.5,"cls":1,"psfc":997.1,"terrain":false,"radius_km":200,"name":"sym shallow warm","track":"T79"},"geometry":{"type":"Point","coordinates":[-84.25,-46.75]}},{"type":"Feature","properties":{"kind":"center","id":32,"lat":44.25,"lon":-100.5,"mslp":998.9,"hvtl":-64.7,"hvtu":-166.7,"hb":74.5,"idx":-2.1,"cls":4,"psfc":937.8,"terrain":false,"radius_km":200,"name":"asym cold"},"geometry":{"type":"Point","coordinates":[-100.5,44.25]}},{"type":"Feature","properties":{"kind":"center","id":33,"lat":56.0,"lon":12.0,"mslp":999.4,"hvtl":-18.3,"hvtu":-176.2,"hb":15.1,"idx":-1.3,"cls":4,"psfc":998.7,"terrain":false,"radius_km":200,"name":"asym cold","track":"T80"},"geometry":{"type":"Point","coordinates":[12.0,56.0]}},{"type":"Feature","properties":{"kind":"center","id":34,"lat":59.25,"lon":-153.25,"mslp":999.4,"hvtl":-78.3,"hvtu":-426.7,"hb":30.6,"idx":-2.3,"cls":4,"psfc":999.4,"terrain":false,"radius_km":200,"name":"asym cold"},"geometry":{"type":"Point","coordinates":[-153.25,59.25]}},{"type":"Feature","properties":{"kind":"center","id":35,"lat":49.5,"lon":-94.5,"mslp":1000.4,"hvtl":-224.9,"hvtu":-124.6,"hb":82.8,"idx":-2.8,"cls":4,"psfc":962.3,"terrain":false,"radius_km":200,"name":"asym cold"},"geometry":{"type":"Point","coordinates":[-94.5,49.5]}},{"type":"Feature","properties":{"kind":"center","id":36,"lat":63.25,"lon":4.0,"mslp":1000.8,"hvtl":108.2,"hvtu":-195.2,"hb":12.5,"idx":0.6,"cls":3,"psfc":1000.8,"terrain":false,"radius_km":200,"name":"asym shallow warm","track":"T82"},"geometry":{"type":"Point","coordinates":[4.0,63.25]}},{"type":"Feature","properties":{"kind":"center","id":37,"lat":79.75,"lon":-14.5,"mslp":1001.1,"hvtl":-191.7,"hvtu":-154.1,"hb":77.6,"idx":-2.8,"cls":4,"psfc":1001.1,"terrain":false,"radius_km":200,"name":"asym cold","track":"T59"},"geometry":{"type":"Point","coordinates":[-14.5,79.75]}},{"type":"Feature","properties":{"kind":"center","id":38,"lat":80.25,"lon":53.25,"mslp":1001.1,"hvtl":231.7,"hvtu":-25.5,"hb":18.7,"idx":1.7,"cls":3,"psfc":987.1,"terrain":false,"radius_km":200,"name":"asym shallow warm"},"geometry":{"type":"Point","coordinates":[53.25,80.25]}},{"type":"Feature","properties":{"kind":"center","id":39,"lat":59.75,"lon":28.0,"mslp":1003.4,"hvtl":-189.3,"hvtu":-297.3,"hb":57.8,"idx":-2.9,"cls":4,"psfc":1003.1,"terrain":false,"radius_km":200,"name":"asym cold"},"geometry":{"type":"Point","coordinates":[28.0,59.75]}},{"type":"Feature","properties":{"kind":"center","id":40,"lat":-39.0,"lon":-44.5,"mslp":1005.1,"hvtl":99.4,"hvtu":-195.7,"hb":43.0,"idx":0.6,"cls":3,"psfc":1005.1,"terrain":false,"radius_km":200,"name":"asym shallow warm","track":"T93"},"geometry":{"type":"Point","coordinates":[-44.5,-39.0]}},{"type":"Feature","properties":{"kind":"center","id":41,"lat":32.75,"lon":145.0,"mslp":1005.4,"hvtl":149.2,"hvtu":-113.2,"hb":29.9,"idx":1.0,"cls":3,"psfc":1005.4,"terrain":false,"radius_km":200,"name":"asym shallow warm","track":"T91"},"geometry":{"type":"Point","coordinates":[145.0,32.75]}},{"type":"Feature","properties":{"kind":"center","id":42,"lat":13.75,"lon":-24.25,"mslp":1006.6,"hvtl":8.1,"hvtu":48.3,"hb":-8.1,"idx":0.6,"cls":0,"psfc":1006.6,"terrain":false,"radius_km":200,"name":"sym deep warm","track":"T86"},"geometry":{"type":"Point","coordinates":[-24.25,13.75]}},{"type":"Feature","properties":{"kind":"center","id":43,"lat":43.25,"lon":8.25,"mslp":1008.2,"hvtl":-89.1,"hvtu":-161.6,"hb":22.4,"idx":-2.3,"cls":4,"psfc":1008.2,"terrain":false,"radius_km":200,"name":"asym cold"},"geometry":{"type":"Point","coordinates":[8.25,43.25]}},{"type":"Feature","properties":{"kind":"center","id":44,"lat":75.5,"lon":-61.5,"mslp":1008.6,"hvtl":-127.0,"hvtu":-72.9,"hb":24.0,"idx":-2.3,"cls":4,"psfc":1008.6,"terrain":false,"radius_km":200,"name":"asym cold"},"geometry":{"type":"Point","coordinates":[-61.5,75.5]}},{"type":"Feature","properties":{"kind":"center","id":45,"lat":62.75,"lon":-142.25,"mslp":1009.4,"hvtl":-80.4,"hvtu":-376.1,"hb":0.6,"idx":-2.3,"cls":5,"psfc":924.4,"terrain":false,"radius_km":200,"name":"sym cold"},"geometry":{"type":"Point","coordinates":[-142.25,62.75]}},{"type":"Feature","properties":{"kind":"center","id":46,"lat":51.5,"lon":119.0,"mslp":1010.0,"hvtl":-226.2,"hvtu":-326.7,"hb":55.6,"idx":-3.0,"cls":4,"psfc":912.2,"terrain":true,"radius_km":200,"name":"asym cold"},"geometry":{"type":"Point","coordinates":[119.0,51.5]}},{"type":"Feature","properties":{"kind":"center","id":47,"lat":36.5,"lon":-85.25,"mslp":1010.2,"hvtl":-163.8,"hvtu":-102.7,"hb":33.7,"idx":-2.6,"cls":4,"psfc":975.1,"terrain":false,"radius_km":200,"name":"asym cold","track":"T100"},"geometry":{"type":"Point","coordinates":[-85.25,36.5]}},{"type":"Feature","properties":{"kind":"center","id":48,"lat":36.0,"lon":-41.5,"mslp":1010.2,"hvtl":-262.5,"hvtu":-156.8,"hb":50.8,"idx":-2.9,"cls":4,"psfc":1010.2,"terrain":false,"radius_km":200,"name":"asym cold"},"geometry":{"type":"Point","coordinates":[-41.5,36.0]}},{"type":"Feature","properties":{"kind":"center","id":49,"lat":61.5,"lon":-143.75,"mslp":1013.5,"hvtl":-44.4,"hvtu":-394.9,"hb":8.5,"idx":-1.8,"cls":5,"psfc":905.6,"terrain":true,"radius_km":200,"name":"sym cold"},"geometry":{"type":"Point","coordinates":[-143.75,61.5]}},{"type":"Feature","properties":{"kind":"center","id":50,"lat":37.25,"lon":66.75,"mslp":1013.7,"hvtl":-58.1,"hvtu":-140.0,"hb":30.7,"idx":-1.9,"cls":4,"psfc":981.1,"terrain":false,"radius_km":200,"name":"asym cold"},"geometry":{"type":"Point","coordinates":[66.75,37.25]}},{"type":"Feature","properties":{"kind":"center","id":51,"lat":61.25,"lon":-143.0,"mslp":1014.3,"hvtl":-65.3,"hvtu":-390.6,"hb":11.2,"idx":-2.1,"cls":4,"psfc":936.6,"terrain":false,"radius_km":200,"name":"asym cold"},"geometry":{"type":"Point","coordinates":[-143.0,61.25]}},{"type":"Feature","properties":{"kind":"center","id":52,"lat":77.0,"lon":-66.0,"mslp":1015.3,"hvtl":-96.1,"hvtu":-27.6,"hb":29.6,"idx":-1.8,"cls":4,"psfc":909.1,"terrain":true,"radius_km":200,"name":"asym cold"},"geometry":{"type":"Point","coordinates":[-66.0,77.0]}},{"type":"Feature","properties":{"kind":"center","id":53,"lat":60.0,"lon":-142.75,"mslp":1015.3,"hvtl":-124.8,"hvtu":-370.7,"hb":27.5,"idx":-2.7,"cls":4,"psfc":1014.6,"terrain":false,"radius_km":200,"name":"asym cold"},"geometry":{"type":"Point","coordinates":[-142.75,60.0]}},{"type":"Feature","properties":{"kind":"center","id":54,"lat":-20.75,"lon":-64.0,"mslp":1018.3,"hvtl":-108.4,"hvtu":-102.9,"hb":34.9,"idx":-2.4,"cls":4,"psfc":906.6,"terrain":true,"radius_km":200,"name":"asym cold"},"geometry":{"type":"Point","coordinates":[-64.0,-20.75]}}]}