{"type":"FeatureCollection","features":[{"type":"Feature","properties":{"kind":"blob","cls":1,"id":1},"geometry":{"type":"Polygon","coordinates":[[[151.75,-66.12],[153.62,-65.0],[153.62,-63.75],[152.5,-62.62],[150.0,-61.88],[147.5,-61.88],[145.0,-62.62],[143.88,-64.0],[144.12,-65.0],[145.75,-65.12],[146.25,-66.12],[151.75,-66.12]]]}},{"type":"Feature","properties":{"kind":"blob","cls":3,"id":2},"geometry":{"type":"Polygon","coordinates":[[[107.75,-62.12],[109.5,-61.62],[110.38,-61.0],[110.62,-60.0],[109.25,-58.62],[106.75,-57.62],[104.0,-57.38],[102.25,-57.88],[101.12,-59.25],[101.38,-59.75],[102.25,-60.62],[103.0,-60.62],[103.25,-61.38],[107.75,-62.12]]]}},{"type":"Feature","properties":{"kind":"blob","cls":3,"id":3},"geometry":{"type":"Polygon","coordinates":[[[17.0,-68.38],[18.25,-67.88],[19.38,-66.5],[18.75,-65.38],[15.75,-64.38],[12.0,-64.38],[10.0,-64.88],[8.62,-65.75],[8.38,-66.5],[9.0,-67.38],[11.0,-68.38],[17.0,-68.38]]]}},{"type":"Feature","properties":{"kind":"blob","cls":3,"id":4},"geometry":{"type":"Polygon","coordinates":[[[7.25,-62.12],[9.0,-61.62],[9.88,-61.0],[10.12,-59.75],[9.0,-58.62],[7.25,-58.12],[5.0,-58.12],[3.25,-58.62],[2.38,-59.25],[2.12,-60.5],[2.75,-61.38],[7.25,-62.12]]]}},{"type":"Feature","properties":{"kind":"blob","cls":3,"id":5},"geometry":{"type":"Polygon","coordinates":[[[105.75,-56.88],[107.75,-56.12],[108.62,-54.75],[108.38,-53.5],[106.0,-52.38],[104.5,-52.38],[102.5,-53.12],[101.88,-54.0],[101.88,-55.5],[103.5,-56.62],[105.75,-56.88]]]}},{"type":"Feature","properties":{"kind":"blob","cls":0,"id":6},"geometry":{"type":"Polygon","coordinates":[[[146.0,27.88],[147.12,29.25],[146.88,30.5],[146.0,31.38],[143.5,31.38],[142.38,30.0],[142.62,29.0],[143.75,27.88],[146.0,27.88]]]}},{"type":"Feature","properties":{"kind":"blob","cls":4,"id":7},"geometry":{"type":"Polygon","coordinates":[[[23.75,-62.38],[25.38,-61.25],[25.38,-60.25],[23.75,-59.12],[22.5,-58.88],[20.5,-58.88],[18.25,-59.62],[17.62,-60.25],[17.62,-61.25],[19.25,-62.38],[23.75,-62.38]]]}},{"type":"Feature","properties":{"kind":"blob","cls":0,"id":8},"geometry":{"type":"Polygon","coordinates":[[[-128.75,-59.38],[-125.75,-59.38],[-124.38,-58.5],[-124.12,-57.5],[-124.75,-56.62],[-125.75,-56.12],[-129.5,-56.12],[-130.88,-57.0],[-131.12,-58.0],[-130.5,-58.88],[-128.75,-59.38]]]}},{"type":"Feature","properties":{"kind":"blob","cls":4,"id":9},"geometry":{"type":"Polygon","coordinates":[[[-15.25,-73.88],[-15.62,-73.5],[-15.0,-73.12],[-12.25,-73.38],[-9.38,-71.75],[-10.0,-70.62],[-11.0,-70.12],[-14.5,-69.38],[-20.25,-69.62],[-22.0,-70.12],[-23.62,-71.25],[-23.0,-72.38],[-22.0,-72.88],[-15.25,-73.88]]]}},{"type":"Feature","properties":{"kind":"blob","cls":1,"id":10},"geometry":{"type":"Polygon","coordinates":[[[179.75,-82.38],[180.0,-78.62],[178.0,-79.12],[176.12,-80.25],[176.12,-81.25],[176.5,-81.62],[179.75,-82.38]]]}},{"type":"Feature","properties":{"kind":"blob","cls":1,"id":10},"geometry":{"type":"Polygon","coordinates":[[[-179.75,-78.62],[-180.0,-82.38],[-176.25,-83.12],[-158.25,-83.12],[-153.75,-82.38],[-151.62,-81.25],[-152.0,-80.38],[-153.0,-79.88],[-156.25,-79.12],[-159.0,-79.88],[-163.5,-79.62],[-164.12,-79.25],[-162.62,-78.25],[-164.5,-77.88],[-172.75,-77.62],[-179.75,-78.62]]]}},{"type":"Feature","properties":{"kind":"blob","cls":4,"id":11},"geometry":{"type":"Polygon","coordinates":[[[-128.75,-72.38],[-126.0,-71.88],[-124.38,-70.75],[-124.38,-70.0],[-125.0,-69.38],[-127.0,-68.62],[-131.5,-68.38],[-134.25,-68.88],[-136.12,-70.25],[-135.5,-71.38],[-134.5,-71.88],[-128.75,-72.38]]]}},{"type":"Feature","properties":{"kind":"blob","cls":4,"id":12},"geometry":{"type":"Polygon","coordinates":[[[-138.75,-57.38],[-136.5,-56.62],[-135.12,-55.5],[-135.12,-54.5],[-135.75,-53.88],[-137.75,-53.12],[-139.5,-53.12],[-141.5,-53.88],[-142.62,-55.0],[-142.62,-56.0],[-141.75,-56.88],[-138.75,-57.38]]]}},{"type":"Feature","properties":{"kind":"blob","cls":4,"id":13},"geometry":{"type":"Polygon","coordinates":[[[-115.75,-74.62],[-112.0,-74.88],[-100.0,-74.38],[-98.12,-73.25],[-96.12,-70.0],[-97.25,-68.38],[-99.0,-67.62],[-105.5,-67.62],[-108.0,-68.62],[-110.5,-70.88],[-115.5,-73.38],[-115.75,-74.62]]]}},{"type":"Feature","properties":{"kind":"blob","cls":4,"id":14},"geometry":{"type":"Polygon","coordinates":[[[-150.0,-69.38],[-146.5,-68.38],[-144.62,-66.75],[-143.88,-65.0],[-144.12,-64.25],[-146.0,-63.12],[-150.75,-63.12],[-152.25,-63.88],[-152.75,-64.88],[-156.75,-65.38],[-158.38,-66.75],[-158.38,-67.5],[-157.0,-68.62],[-150.0,-69.38]]]}},{"type":"Feature","properties":{"kind":"blob","cls":4,"id":15},"geometry":{"type":"Polygon","coordinates":[[[33.0,67.62],[35.75,68.12],[37.25,68.62],[38.38,70.0],[37.75,70.88],[36.75,71.38],[34.0,71.88],[28.5,71.62],[26.25,70.62],[26.12,71.5],[25.5,72.12],[24.0,72.88],[21.25,73.38],[15.75,72.88],[13.88,71.5],[14.5,70.12],[17.0,69.12],[19.75,68.88],[20.75,69.62],[22.25,69.62],[22.0,69.12],[23.25,69.12],[25.0,69.62],[26.0,70.38],[25.88,69.5],[26.75,68.62],[29.0,67.88],[33.0,67.62]]]}},{"type":"Feature","properties":{"kind":"blob","cls":4,"id":16},"geometry":{"type":"Polygon","coordinates":[[[-107.0,-65.12],[-105.0,-64.62],[-103.88,-63.75],[-103.88,-62.75],[-105.75,-61.62],[-109.0,-61.38],[-111.0,-61.88],[-112.12,-62.75],[-112.12,-63.75],[-111.5,-64.38],[-107.0,-65.12]]]}},{"type":"Feature","properties":{"kind":"blob","cls":4,"id":17},"geometry":{"type":"Polygon","coordinates":[[[58.0,-65.62],[60.12,-64.0],[60.12,-63.5],[59.25,-62.62],[58.0,-62.12],[54.5,-61.88],[52.5,-62.38],[51.12,-63.5],[51.12,-64.25],[52.0,-65.12],[53.0,-65.62],[58.0,-65.62]]]}},{"type":"Feature","properties":{"kind":"blob","cls":0,"id":18},"geometry":{"type":"MultiPolygon","coordinates":[[[[-117.0,19.12],[-117.12,19.0],[-117.0,18.88],[-117.0,19.12]]],[[[-116.75,19.12],[-116.25,19.12],[-115.62,19.75],[-115.62,21.75],[-117.0,22.62],[-118.25,22.38],[-119.12,21.25],[-118.88,19.75],[-117.5,20.38],[-116.75,19.12]]]]}},{"type":"Feature","properties":{"kind":"blob","cls":4,"id":19},"geometry":{"type":"Polygon","coordinates":[[[-62.5,49.88],[-61.0,50.38],[-60.12,51.25],[-60.12,52.25],[-61.0,53.12],[-62.5,53.62],[-65.5,53.12],[-66.38,52.25],[-66.38,51.25],[-65.5,50.38],[-62.5,49.88]],[[-64.5,51.38],[-64.62,51.5],[-64.5,51.62],[-64.5,51.38]]]}},{"type":"Feature","properties":{"kind":"blob","cls":0,"id":20},"geometry":{"type":"Polygon","coordinates":[[[172.75,24.38],[173.62,25.25],[173.62,26.75],[172.75,27.62],[171.25,27.88],[169.62,26.75],[169.62,25.25],[170.5,24.38],[172.75,24.38]]]}},{"type":"Feature","properties":{"kind":"blob","cls":4,"id":21},"geometry":{"type":"Polygon","coordinates":[[[158.5,-55.38],[160.5,-54.62],[161.12,-53.5],[160.62,-52.5],[159.5,-51.62],[158.0,-51.12],[155.5,-51.62],[154.62,-52.5],[154.62,-53.75],[155.5,-54.62],[158.5,-55.38]]]}},{"type":"Feature","properties":{"kind":"blob","cls":4,"id":22},"geometry":{"type":"Polygon","coordinates":[[[-28.75,-46.62],[-27.5,-46.12],[-26.62,-45.0],[-26.88,-43.75],[-28.0,-42.62],[-29.25,-42.12],[-31.0,-42.12],[-32.25,-42.62],[-32.88,-43.25],[-32.88,-45.0],[-31.75,-46.12],[-28.75,-46.62]]]}},{"type":"Feature","properties":{"kind":"blob","cls":3,"id":23},"geometry":{"type":"Polygon","coordinates":[[[91.75,80.62],[101.25,81.62],[103.5,82.38],[103.62,83.25],[97.75,83.62],[74.0,83.62],[37.62,81.0],[91.75,80.62]]]}},{"type":"Feature","properties":{"kind":"blob","cls":4,"id":24},"geometry":{"type":"Polygon","coordinates":[[[-95.5,-60.12],[-93.5,-59.38],[-92.62,-58.5],[-92.88,-56.75],[-94.25,-55.62],[-96.0,-55.12],[-99.5,-55.62],[-100.88,-56.75],[-101.12,-57.75],[-100.0,-59.12],[-95.5,-60.12]]]}},{"type":"Feature","properties":{"kind":"blob","cls":1,"id":25},"geometry":{"type":"Polygon","coordinates":[[[29.5,81.62],[29.62,82.5],[30.75,83.12],[33.5,83.62],[52.62,84.75],[52.25,85.12],[45.0,85.12],[34.75,84.62],[28.5,83.88],[26.12,83.0],[26.25,82.38],[29.5,81.62]]]}},{"type":"Feature","properties":{"kind":"blob","cls":4,"id":26},"geometry":{"type":"Polygon","coordinates":[[[-151.25,55.62],[-147.75,55.62],[-146.38,56.5],[-146.12,57.5],[-147.0,58.62],[-148.0,59.12],[-151.75,59.12],[-153.38,58.0],[-153.62,57.0],[-153.0,56.12],[-151.25,55.62]]]}},{"type":"Feature","properties":{"kind":"blob","cls":4,"id":27},"geometry":{"type":"Polygon","coordinates":[[[143.75,45.12],[145.0,45.62],[146.38,47.0],[146.12,48.25],[147.25,48.62],[148.62,49.75],[148.88,51.25],[147.75,52.62],[144.75,53.12],[143.25,52.62],[142.12,51.5],[142.12,49.5],[141.0,49.12],[140.12,48.25],[140.12,46.75],[141.25,45.62],[143.75,45.12]]]}},{"type":"Feature","properties":{"kind":"blob","cls":4,"id":28},"geometry":{"type":"Polygon","coordinates":[[[-99.5,57.12],[-97.75,57.62],[-96.88,58.5],[-96.62,60.0],[-97.75,61.38],[-100.0,62.12],[-103.25,61.62],[-104.38,60.75],[-104.88,59.25],[-103.5,57.62],[-99.5,57.12]]]}},{"type":"Feature","properties":{"kind":"blob","cls":4,"id":29},"geometry":{"type":"Polygon","coordinates":[[[135.25,51.62],[136.5,51.38],[138.0,51.88],[139.38,53.5],[139.12,54.5],[136.75,55.62],[134.75,55.62],[133.25,55.12],[133.5,54.62],[132.5,54.62],[132.12,53.5],[132.75,52.62],[133.88,53.0],[133.5,53.62],[134.5,54.12],[135.38,54.0],[135.38,52.5],[134.88,52.25],[135.25,51.62]]]}},{"type":"Feature","properties":{"kind":"blob","cls":3,"id":30},"geometry":{"type":"Polygon","coordinates":[[[-110.75,66.12],[-108.62,67.25],[-108.62,68.25],[-110.25,69.38],[-112.5,69.88],[-117.5,69.62],[-119.62,68.5],[-119.88,68.0],[-119.25,66.88],[-117.5,66.12],[-110.75,66.12]]]}},{"type":"Feature","properties":{"kind":"blob","cls":4,"id":31},"geometry":{"type":"MultiPolygon","coordinates":[[[[142.0,55.12],[143.75,55.62],[144.88,56.75],[144.62,58.0],[142.25,59.12],[140.75,59.12],[138.75,58.38],[138.88,57.5],[138.25,57.62],[137.88,56.75],[139.0,55.62],[142.0,55.12]]],[[[138.5,58.12],[138.38,58.0],[138.5,57.88],[138.5,58.12]]]]}},{"type":"Feature","properties":{"kind":"blob","cls":6,"id":32},"geometry":{"type":"Polygon","coordinates":[[[-78.25,-40.88],[-75.5,-39.38],[-74.38,-38.0],[-74.62,-37.0],[-76.25,-35.88],[-80.25,-36.38],[-82.0,-35.12],[-83.25,-35.12],[-84.25,-35.62],[-85.38,-37.5],[-85.12,-38.25],[-84.0,-39.38],[-81.5,-39.38],[-80.5,-40.62],[-78.25,-40.88]],[[-79.38,-39.5],[-80.0,-39.38],[-80.62,-38.5],[-80.25,-37.62],[-79.5,-37.88],[-79.12,-38.5],[-79.38,-39.5]]]}},{"type":"Feature","properties":{"kind":"blob","cls":4,"id":33},"geometry":{"type":"Polygon","coordinates":[[[-10.75,60.62],[-8.75,61.12],[-7.88,61.75],[-7.62,62.75],[-8.75,63.88],[-10.75,64.38],[-14.0,64.12],[-15.62,63.25],[-15.88,62.25],[-15.5,61.62],[-14.0,60.88],[-10.75,60.62]]]}},{"type":"Feature","properties":{"kind":"blob","cls":5,"id":34},"geometry":{"type":"Polygon","coordinates":[[[-34.75,61.62],[-31.5,62.62],[-30.38,63.5],[-30.0,64.38],[-27.88,65.25],[-27.88,66.75],[-29.75,67.62],[-32.5,67.88],[-40.62,64.25],[-40.62,63.5],[-39.75,62.62],[-38.0,61.88],[-34.75,61.62]]]}},{"type":"Feature","properties":{"kind":"blob","cls":4,"id":35},"geometry":{"type":"Polygon","coordinates":[[[-97.0,46.38],[-94.75,47.38],[-94.12,49.25],[-94.38,50.0],[-95.75,51.12],[-96.75,51.38],[-99.0,51.12],[-100.25,50.38],[-100.88,49.25],[-100.62,48.0],[-99.5,46.88],[-97.0,46.38]]]}},{"type":"Feature","properties":{"kind":"blob","cls":4,"id":36},"geometry":{"type":"Polygon","coordinates":[[[76.0,53.38],[77.62,54.5],[77.62,55.5],[76.0,56.62],[74.0,57.12],[71.25,56.62],[70.12,55.5],[70.12,54.5],[71.75,53.38],[76.0,53.38]]]}},{"type":"Feature","properties":{"kind":"blob","cls":5,"id":37},"geometry":{"type":"Polygon","coordinates":[[[-63.75,-17.62],[-63.38,-17.25],[-62.62,-16.0],[-62.62,-14.75],[-65.0,-12.38],[-68.0,-11.88],[-69.0,-12.38],[-69.38,-11.25],[-70.75,-10.12],[-71.25,-10.12],[-71.75,-9.38],[-73.62,-11.0],[-73.0,-12.38],[-72.25,-11.88],[-71.62,-12.25],[-71.25,-13.12],[-68.5,-13.88],[-67.5,-15.62],[-67.0,-15.62],[-65.5,-17.12],[-63.75,-17.62]]]}},{"type":"Feature","properties":{"kind":"blob","cls":3,"id":38},"geometry":{"type":"Polygon","coordinates":[[[132.0,60.12],[137.0,60.62],[136.88,61.25],[137.38,61.5],[137.12,61.75],[138.12,62.25],[137.38,63.25],[137.88,63.5],[135.75,64.12],[135.12,64.0],[135.5,63.62],[130.5,64.12],[128.5,63.62],[126.88,62.25],[126.88,61.75],[128.75,60.38],[132.0,60.12]]]}},{"type":"Feature","properties":{"kind":"blob","cls":4,"id":39},"geometry":{"type":"Polygon","coordinates":[[[-64.5,-81.62],[-48.38,-81.5],[-53.25,-81.12],[-64.5,-81.62]]]}},{"type":"Feature","properties":{"kind":"blob","cls":4,"id":40},"geometry":{"type":"MultiPolygon","coordinates":[[[[-68.62,-34.5],[-68.25,-34.88],[-67.25,-34.62],[-65.62,-33.75],[-65.38,-31.0],[-66.0,-30.12],[-67.0,-29.88],[-67.38,-30.25],[-67.38,-31.25],[-68.0,-31.62],[-68.12,-31.25],[-67.62,-31.0],[-68.38,-30.0],[-69.12,-33.5],[-68.38,-33.5],[-68.62,-34.5]],[[-66.38,-31.0],[-66.5,-31.12],[-66.62,-30.75],[-66.38,-31.0]],[[-65.75,-33.12],[-66.38,-33.0],[-66.0,-32.38],[-65.62,-32.5],[-65.75,-33.12]]],[[[-67.25,-29.62],[-67.38,-29.75],[-67.25,-29.88],[-67.25,-29.62]]]]}},{"type":"Feature","properties":{"kind":"blob","cls":3,"id":41},"geometry":{"type":"Polygon","coordinates":[[[72.5,29.12],[73.75,29.62],[74.62,30.75],[74.62,31.75],[74.0,32.38],[70.5,31.88],[70.12,31.5],[69.88,29.5],[72.5,29.12]]]}},{"type":"Feature","properties":{"kind":"blob","cls":5,"id":42},"geometry":{"type":"MultiPolygon","coordinates":[[[[-28.12,70.0],[-27.25,69.88],[-25.75,70.38],[-25.25,70.12],[-23.62,71.25],[-23.62,71.75],[-24.0,72.12],[-25.25,71.38],[-26.0,71.62],[-26.0,71.12],[-26.62,71.0],[-26.0,70.62],[-28.12,70.0]]],[[[-24.5,72.38],[-24.62,72.25],[-24.25,72.12],[-24.5,72.38]]],[[[-25.0,72.62],[-25.12,72.5],[-24.75,72.38],[-25.0,72.62]]]]}},{"type":"Feature","properties":{"kind":"blob","cls":1,"id":43},"geometry":{"type":"Polygon","coordinates":[[[-74.0,-12.38],[-74.0,-11.62],[-74.12,-11.75],[-74.0,-12.38]]]}},{"type":"Feature","properties":{"kind":"blob","cls":1,"id":44},"geometry":{"type":"Polygon","coordinates":[[[-120.5,36.88],[-119.88,37.75],[-121.62,40.0],[-122.0,41.12],[-123.5,41.12],[-124.38,40.25],[-124.62,39.0],[-123.0,36.88],[-120.5,36.88]],[[-122.75,39.38],[-123.12,39.5],[-123.5,40.62],[-122.88,40.5],[-122.75,39.38]]]}},{"type":"Feature","properties":{"kind":"blob","cls":4,"id":45},"geometry":{"type":"Polygon","coordinates":[[[-55.5,70.38],[-52.12,71.25],[-53.62,72.25],[-53.5,72.62],[-56.75,74.12],[-60.5,73.88],[-62.25,73.38],[-63.38,72.5],[-63.38,72.0],[-62.25,71.12],[-55.5,70.38]]]}},{"type":"Feature","properties":{"kind":"blob","cls":1,"id":46},"geometry":{"type":"Polygon","coordinates":[[[97.25,23.62],[97.38,24.0],[96.25,25.12],[95.12,25.5],[96.5,23.88],[97.25,23.62]]]}},{"type":"Feature","properties":{"kind":"blob","cls":4,"id":47},"geometry":{"type":"Polygon","coordinates":[[[-70.88,-33.0],[-70.75,-33.12],[-70.62,-32.75],[-70.88,-33.0]]]}},{"type":"Feature","properties":{"kind":"blob","cls":3,"id":48},"geometry":{"type":"Polygon","coordinates":[[[179.88,-34.25],[180.0,-30.88],[179.75,-30.88],[178.88,-31.5],[178.62,-32.75],[179.88,-33.75],[179.88,-34.25]]]}},{"type":"Feature","properties":{"kind":"blob","cls":3,"id":48},"geometry":{"type":"Polygon","coordinates":[[[-179.75,-30.88],[-180.0,-34.38],[-178.5,-34.62],[-177.25,-34.12],[-176.62,-33.25],[-176.88,-31.5],[-178.5,-30.62],[-179.75,-30.88]]]}},{"type":"Feature","properties":{"kind":"blob","cls":3,"id":49},"geometry":{"type":"Polygon","coordinates":[[[61.5,30.88],[62.12,30.75],[61.62,31.75],[62.38,32.75],[61.62,33.0],[61.5,33.62],[60.88,32.75],[60.88,31.75],[61.5,30.88]]]}},{"type":"Feature","properties":{"kind":"center","id":1,"lat":-64.0,"lon":148.75,"mslp":942.6,"hvtl":132.1,"hvtu":-48.9,"hb":8.5,"idx":1.3,"cls":1,"psfc":942.6,"terrain":false,"radius_km":200,"name":"sym shallow warm","track":"T06"},"geometry":{"type":"Point","coordinates":[148.75,-64.0]}},{"type":"Feature","properties":{"kind":"center","id":2,"lat":-60.0,"lon":106.0,"mslp":944.7,"hvtl":168.7,"hvtu":-132.7,"hb":68.1,"idx":1.0,"cls":3,"psfc":944.7,"terrain":false,"radius_km":200,"name":"asym shallow warm","track":"T01"},"geometry":{"type":"Point","coordinates":[106.0,-60.0]}},{"type":"Feature","properties":{"kind":"center","id":3,"lat":-66.25,"lon":14.25,"mslp":945.7,"hvtl":59.7,"hvtu":-27.4,"hb":34.3,"idx":0.8,"cls":3,"psfc":945.8,"terrain":false,"radius_km":200,"name":"asym shallow warm","track":"T04"},"geometry":{"type":"Point","coordinates":[14.25,-66.25]}},{"type":"Feature","properties":{"kind":"center","id":4,"lat":-60.25,"lon":6.0,"mslp":948.0,"hvtl":18.2,"hvtu":-128.2,"hb":32.2,"idx":-0.5,"cls":3,"psfc":948.0,"terrain":false,"radius_km":200,"name":"asym shallow warm","track":"T03"},"geometry":{"type":"Point","coordinates":[6.0,-60.25]}},{"type":"Feature","properties":{"kind":"center","id":5,"lat":-54.25,"lon":105.25,"mslp":948.7,"hvtl":7.0,"hvtu":-333.8,"hb":14.9,"idx":-0.9,"cls":3,"psfc":948.7,"terrain":false,"radius_km":200,"name":"asym shallow warm","track":"T12"},"geometry":{"type":"Point","coordinates":[105.25,-54.25]}},{"type":"Feature","properties":{"kind":"center","id":6,"lat":29.75,"lon":144.75,"mslp":949.5,"hvtl":100.0,"hvtu":227.0,"hb":3.1,"idx":2.5,"cls":0,"psfc":949.5,"terrain":false,"radius_km":200,"name":"sym deep warm","track":"T07"},"geometry":{"type":"Point","coordinates":[144.75,29.75]}},{"type":"Feature","properties":{"kind":"center","id":7,"lat":-60.75,"lon":21.5,"mslp":952.4,"hvtl":-100.1,"hvtu":-97.9,"hb":11.3,"idx":-2.3,"cls":4,"psfc":952.4,"terrain":false,"radius_km":200,"name":"asym cold","track":"T19"},"geometry":{"type":"Point","coordinates":[21.5,-60.75]}},{"type":"Feature","properties":{"kind":"center","id":8,"lat":-57.75,"lon":-127.5,"mslp":952.7,"hvtl":81.6,"hvtu":50.6,"hb":-24.3,"idx":1.8,"cls":0,"psfc":952.7,"terrain":false,"radius_km":200,"name":"sym deep warm","track":"T18"},"geometry":{"type":"Point","coordinates":[-127.5,-57.75]}},{"type":"Feature","properties":{"kind":"center","id":9,"lat":-71.5,"lon":-16.5,"mslp":961.9,"hvtl":-266.1,"hvtu":-64.8,"hb":36.7,"idx":-2.6,"cls":4,"psfc":961.9,"terrain":false,"radius_km":200,"name":"asym cold","track":"T23"},"geometry":{"type":"Point","coordinates":[-16.5,-71.5]}},{"type":"Feature","properties":{"kind":"center","id":10,"lat":-81.0,"lon":-167.75,"mslp":967.1,"hvtl":28.7,"hvtu":-23.4,"hb":7.4,"idx":0.3,"cls":1,"psfc":960.5,"terrain":false,"radius_km":200,"name":"sym shallow warm","track":"T05"},"geometry":{"type":"Point","coordinates":[-167.75,-81.0]}},{"type":"Feature","properties":{"kind":"center","id":11,"lat":-70.5,"lon":-130.25,"mslp":970.0,"hvtl":-105.0,"hvtu":-53.7,"hb":54.1,"idx":-2.1,"cls":4,"psfc":970.0,"terrain":false,"radius_km":200,"name":"asym cold","track":"T10"},"geometry":{"type":"Point","coordinates":[-130.25,-70.5]}},{"type":"Feature","properties":{"kind":"center","id":12,"lat":-55.0,"lon":-138.75,"mslp":970.4,"hvtl":-70.1,"hvtu":-244.4,"hb":32.8,"idx":-2.2,"cls":4,"psfc":970.4,"terrain":false,"radius_km":200,"name":"asym cold","track":"T33"},"geometry":{"type":"Point","coordinates":[-138.75,-55.0]}},{"type":"Feature","properties":{"kind":"center","id":13,"lat":-72.75,"lon":-106.0,"mslp":971.9,"hvtl":-66.3,"hvtu":-175.2,"hb":46.4,"idx":-2.1,"cls":4,"psfc":971.9,"terrain":false,"radius_km":200,"name":"asym cold","track":"T34"},"geometry":{"type":"Point","coordinates":[-106.0,-72.75]}},{"type":"Feature","properties":{"kind":"center","id":14,"lat":-67.0,"lon":-153.5,"mslp":972.7,"hvtl":-83.3,"hvtu":-316.4,"hb":18.1,"idx":-2.4,"cls":4,"psfc":972.7,"terrain":false,"radius_km":200,"name":"asym cold","track":"T28"},"geometry":{"type":"Point","coordinates":[-153.5,-67.0]}},{"type":"Feature","properties":{"kind":"center","id":15,"lat":69.75,"lon":31.5,"mslp":973.2,"hvtl":-39.8,"hvtu":-155.0,"hb":15.6,"idx":-1.7,"cls":4,"psfc":968.8,"terrain":false,"radius_km":200,"name":"asym cold","track":"T41"},"geometry":{"type":"Point","coordinates":[31.5,69.75]}},{"type":"Feature","properties":{"kind":"center","id":16,"lat":-63.25,"lon":-108.25,"mslp":974.0,"hvtl":-10.9,"hvtu":-197.9,"hb":32.5,"idx":-1.2,"cls":4,"psfc":974.0,"terrain":false,"radius_km":200,"name":"asym cold"},"geometry":{"type":"Point","coordinates":[-108.25,-63.25]}},{"type":"Feature","properties":{"kind":"center","id":17,"lat":-63.75,"lon":55.75,"mslp":976.8,"hvtl":-238.0,"hvtu":-418.6,"hb":72.9,"idx":-3.0,"cls":4,"psfc":976.8,"terrain":false,"radius_km":200,"name":"asym cold"},"geometry":{"type":"Point","coordinates":[55.75,-63.75]}},{"type":"Feature","properties":{"kind":"center","id":18,"lat":20.75,"lon":-117.25,"mslp":977.5,"hvtl":62.6,"hvtu":189.5,"hb":3.0,"idx":2.1,"cls":0,"psfc":977.5,"terrain":false,"radius_km":200,"name":"sym deep warm","track":"T48"},"geometry":{"type":"Point","coordinates":[-117.25,20.75]}},{"type":"Feature","properties":{"kind":"center","id":19,"lat":51.75,"lon":-63.25,"mslp":982.3,"hvtl":-16.6,"hvtu":-301.2,"hb":44.1,"idx":-1.3,"cls":4,"psfc":913.3,"terrain":false,"radius_km":200,"name":"asym cold","track":"T57"},"geometry":{"type":"Point","coordinates":[-63.25,51.75]}},{"type":"Feature","properties":{"kind":"center","id":20,"lat":26.0,"lon":171.5,"mslp":983.1,"hvtl":123.7,"hvtu":163.7,"hb":-3.7,"idx":2.6,"cls":0,"psfc":983.1,"terrain":false,"radius_km":200,"name":"sym deep warm","track":"T40"},"geometry":{"type":"Point","coordinates":[171.5,26.0]}},{"type":"Feature","properties":{"kind":"center","id":21,"lat":-54.5,"lon":159.0,"mslp":983.5,"hvtl":-303.8,"hvtu":-324.7,"hb":72.3,"idx":-3.0,"cls":4,"psfc":982.9,"terrain":false,"radius_km":200,"name":"asym cold","track":"T15"},"geometry":{"type":"Point","coordinates":[159.0,-54.5]}},{"type":"Feature","properties":{"kind":"center","id":22,"lat":-44.5,"lon":-30.0,"mslp":985.2,"hvtl":-31.9,"hvtu":-254.9,"hb":50.0,"idx":-1.6,"cls":4,"psfc":985.2,"terrain":false,"radius_km":200,"name":"asym cold","track":"T16"},"geometry":{"type":"Point","coordinates":[-30.0,-44.5]}},{"type":"Feature","properties":{"kind":"center","id":23,"lat":83.0,"lon":81.5,"mslp":987.3,"hvtl":160.3,"hvtu":-229.6,"hb":43.9,"idx":0.9,"cls":3,"psfc":987.3,"terrain":false,"radius_km":200,"name":"asym shallow warm","track":"T61"},"geometry":{"type":"Point","coordinates":[81.5,83.0]}},{"type":"Feature","properties":{"kind":"center","id":24,"lat":-57.75,"lon":-97.25,"mslp":987.8,"hvtl":-76.1,"hvtu":-175.2,"hb":27.2,"idx":-2.2,"cls":4,"psfc":987.8,"terrain":false,"radius_km":200,"name":"asym cold","track":"T65"},"geometry":{"type":"Point","coordinates":[-97.25,-57.75]}},{"type":"Feature","properties":{"kind":"center","id":25,"lat":81.75,"lon":29.5,"mslp":987.9,"hvtl":255.2,"hvtu":-108.9,"hb":-37.4,"idx":1.2,"cls":1,"psfc":987.9,"terrain":false,"radius_km":200,"name":"sym shallow warm"},"geometry":{"type":"Point","coordinates":[29.5,81.75]}},{"type":"Feature","properties":{"kind":"center","id":26,"lat":57.25,"lon":-149.75,"mslp":992.9,"hvtl":-9.4,"hvtu":-173.1,"hb":10.8,"idx":-1.1,"cls":4,"psfc":992.9,"terrain":false,"radius_km":200,"name":"asym cold","track":"T35"},"geometry":{"type":"Point","coordinates":[-149.75,57.25]}},{"type":"Feature","properties":{"kind":"center","id":27,"lat":50.75,"lon":145.25,"mslp":996.5,"hvtl":-144.5,"hvtu":-366.8,"hb":60.1,"idx":-2.8,"cls":4,"psfc":996.5,"terrain":false,"radius_km":200,"name":"asym cold","track":"T26"},"geometry":{"type":"Point","coordinates":[145.25,50.75]}},{"type":"Feature","properties":{"kind":"center","id":28,"lat":59.0,"lon":-102.5,"mslp":996.6,"hvtl":-150.5,"hvtu":-97.7,"hb":32.1,"idx":-2.6,"cls":4,"psfc":948.3,"terrain":false,"radius_km":200,"name":"asym cold","track":"T89"},"geometry":{"type":"Point","coordinates":[-102.5,59.0]}},{"type":"Feature","properties":{"kind":"center","id":29,"lat":53.75,"lon":136.0,"mslp":998.1,"hvtl":-94.8,"hvtu":-263.2,"hb":67.3,"idx":-2.5,"cls":4,"psfc":956.6,"terrain":false,"radius_km":200,"name":"asym cold"},"geometry":{"type":"Point","coordinates":[136.0,53.75]}},{"type":"Feature","properties":{"kind":"center","id":30,"lat":67.25,"lon":-114.5,"mslp":998.5,"hvtl":49.9,"hvtu":-20.7,"hb":21.6,"idx":0.7,"cls":3,"psfc":943.9,"terrain":false,"radius_km":200,"name":"asym shallow warm","track":"T85"},"geometry":{"type":"Point","coordinates":[-114.5,67.25]}},{"type":"Feature","properties":{"kind":"center","id":31,"lat":56.25,"lon":140.5,"mslp":999.5,"hvtl":-150.6,"hvtu":-387.3,"hb":87.0,"idx":-2.8,"cls":4,"psfc":999.5,"terrain":false,"radius_km":200,"name":"asym cold"},"geometry":{"type":"Point","coordinates":[140.5,56.25]}},{"type":"Feature","properties":{"kind":"center","id":32,"lat":-37.5,"lon":-82.75,"mslp":1001.1,"hvtl":-2.7,"hvtu":43.9,"hb":10.6,"idx":0.4,"cls":6,"psfc":1001.1,"terrain":false,"radius_km":200,"name":"shallow cold"},"geometry":{"type":"Point","coordinates":[-82.75,-37.5]}},{"type":"Feature","properties":{"kind":"center","id":33,"lat":62.75,"lon":-11.5,"mslp":1001.5,"hvtl":-62.6,"hvtu":-214.9,"hb":24.2,"idx":-2.1,"cls":4,"psfc":1001.5,"terrain":false,"radius_km":200,"name":"asym cold"},"geometry":{"type":"Point","coordinates":[-11.5,62.75]}},{"type":"Feature","properties":{"kind":"center","id":34,"lat":64.25,"lon":-35.75,"mslp":1001.9,"hvtl":-111.3,"hvtu":-158.4,"hb":5.1,"idx":-2.5,"cls":5,"psfc":1001.9,"terrain":false,"radius_km":200,"name":"sym cold","track":"T78"},"geometry":{"type":"Point","coordinates":[-35.75,64.25]}},{"type":"Feature","properties":{"kind":"center","id":35,"lat":49.0,"lon":-98.0,"mslp":1002.0,"hvtl":-286.5,"hvtu":-193.9,"hb":69.8,"idx":-2.9,"cls":4,"psfc":962.3,"terrain":false,"radius_km":200,"name":"asym cold"},"geometry":{"type":"Point","coordinates":[-98.0,49.0]}},{"type":"Feature","properties":{"kind":"center","id":36,"lat":56.25,"lon":74.25,"mslp":1002.1,"hvtl":-91.8,"hvtu":-42.6,"hb":10.0,"idx":-1.9,"cls":4,"psfc":990.3,"terrain":false,"radius_km":200,"name":"asym cold","track":"T77"},"geometry":{"type":"Point","coordinates":[74.25,56.25]}},{"type":"Feature","properties":{"kind":"center","id":37,"lat":-14.75,"lon":-66.5,"mslp":1003.1,"hvtl":-61.0,"hvtu":-33.7,"hb":6.9,"idx":-1.4,"cls":5,"psfc":981.5,"terrain":false,"radius_km":200,"name":"sym cold","track":"T87"},"geometry":{"type":"Point","coordinates":[-66.5,-14.75]}},{"type":"Feature","properties":{"kind":"center","id":38,"lat":62.25,"lon":134.0,"mslp":1003.3,"hvtl":71.9,"hvtu":-111.3,"hb":19.9,"idx":0.4,"cls":3,"psfc":977.0,"terrain":false,"radius_km":200,"name":"asym shallow warm","track":"T82"},"geometry":{"type":"Point","coordinates":[134.0,62.25]}},{"type":"Feature","properties":{"kind":"center","id":39,"lat":-81.5,"lon":-64.5,"mslp":1004.4,"hvtl":-229.1,"hvtu":-168.4,"hb":44.7,"idx":-2.9,"cls":4,"psfc":987.4,"terrain":false,"radius_km":200,"name":"asym cold","track":"T58"},"geometry":{"type":"Point","coordinates":[-64.5,-81.5]}},{"type":"Feature","properties":{"kind":"center","id":40,"lat":-32.25,"lon":-68.0,"mslp":1006.0,"hvtl":-220.9,"hvtu":-162.1,"hb":34.4,"idx":-2.9,"cls":4,"psfc":944.0,"terrain":false,"radius_km":200,"name":"asym cold","track":"T98"},"geometry":{"type":"Point","coordinates":[-68.0,-32.25]}},{"type":"Feature","properties":{"kind":"center","id":41,"lat":31.25,"lon":71.5,"mslp":1007.4,"hvtl":31.9,"hvtu":-99.9,"hb":11.3,"idx":-0.1,"cls":3,"psfc":989.6,"terrain":false,"radius_km":200,"name":"asym shallow warm","track":"T105"},"geometry":{"type":"Point","coordinates":[71.5,31.25]}},{"type":"Feature","properties":{"kind":"center","id":42,"lat":71.75,"lon":-24.5,"mslp":1007.7,"hvtl":-63.8,"hvtu":-73.2,"hb":7.4,"idx":-1.8,"cls":5,"psfc":917.8,"terrain":false,"radius_km":200,"name":"sym cold","track":"T102"},"geometry":{"type":"Point","coordinates":[-24.5,71.75]}},{"type":"Feature","properties":{"kind":"center","id":43,"lat":-12.0,"lon":-74.0,"mslp":1008.7,"hvtl":84.8,"hvtu":-33.3,"hb":6.7,"idx":1.1,"cls":1,"psfc":931.9,"terrain":false,"radius_km":200,"name":"sym shallow warm"},"geometry":{"type":"Point","coordinates":[-74.0,-12.0]}},{"type":"Feature","properties":{"kind":"center","id":44,"lat":37.25,"lon":-120.25,"mslp":1009.7,"hvtl":23.3,"hvtu":-276.3,"hb":-2.0,"idx":-0.5,"cls":1,"psfc":998.1,"terrain":false,"radius_km":200,"name":"sym shallow warm"},"geometry":{"type":"Point","coordinates":[-120.25,37.25]}},{"type":"Feature","properties":{"kind":"center","id":45,"lat":72.25,"lon":-57.0,"mslp":1010.1,"hvtl":-112.0,"hvtu":-138.2,"hb":27.9,"idx":-2.5,"cls":4,"psfc":1010.1,"terrain":false,"radius_km":200,"name":"asym cold","track":"T69"},"geometry":{"type":"Point","coordinates":[-57.0,72.25]}},{"type":"Feature","properties":{"kind":"center","id":46,"lat":24.0,"lon":96.5,"mslp":1011.0,"hvtl":36.3,"hvtu":-111.9,"hb":5.4,"idx":-0.1,"cls":1,"psfc":995.4,"terrain":false,"radius_km":200,"name":"sym shallow warm","track":"T118"},"geometry":{"type":"Point","coordinates":[96.5,24.0]}},{"type":"Feature","properties":{"kind":"center","id":47,"lat":-32.75,"lon":-70.75,"mslp":1012.9,"hvtl":-274.4,"hvtu":-173.9,"hb":50.4,"idx":-2.9,"cls":4,"psfc":911.5,"terrain":true,"radius_km":200,"name":"asym cold"},"geometry":{"type":"Point","coordinates":[-70.75,-32.75]}},{"type":"Feature","properties":{"kind":"center","id":48,"lat":-32.5,"lon":-179.0,"mslp":1014.0,"hvtl":35.4,"hvtu":-67.3,"hb":32.6,"idx":0.1,"cls":3,"psfc":1014.0,"terrain":false,"radius_km":200,"name":"asym shallow warm","track":"T130"},"geometry":{"type":"Point","coordinates":[-179.0,-32.5]}},{"type":"Feature","properties":{"kind":"center","id":49,"lat":32.5,"lon":62.25,"mslp":1015.1,"hvtl":80.5,"hvtu":-136.3,"hb":78.1,"idx":0.5,"cls":3,"psfc":933.1,"terrain":false,"radius_km":200,"name":"asym shallow warm","track":"T125"},"geometry":{"type":"Point","coordinates":[62.25,32.5]}}]}