{"type":"FeatureCollection","features":[{"type":"Feature","properties":{"kind":"blob","cls":1,"id":1},"geometry":{"type":"Polygon","coordinates":[[[-163.25,-68.62],[-163.62,-68.25],[-163.25,-67.88],[-162.25,-67.62],[-158.0,-67.88],[-156.88,-66.5],[-157.5,-65.38],[-160.5,-64.38],[-164.75,-64.38],[-166.75,-64.88],[-168.12,-65.75],[-168.38,-66.5],[-167.25,-67.88],[-163.25,-68.62]]]}},{"type":"Feature","properties":{"kind":"blob","cls":1,"id":2},"geometry":{"type":"Polygon","coordinates":[[[4.0,-60.38],[6.25,-59.12],[6.88,-58.5],[6.62,-56.75],[4.25,-55.62],[0.75,-55.62],[-1.25,-56.38],[-1.88,-57.25],[-1.88,-59.0],[-0.25,-60.12],[4.0,-60.38]],[[3.0,-59.62],[2.38,-59.0],[3.0,-58.38],[5.12,-58.5],[4.75,-59.38],[3.0,-59.62]]]}},{"type":"Feature","properties":{"kind":"blob","cls":6,"id":3},"geometry":{"type":"Polygon","coordinates":[[[-125.0,-74.38],[-117.75,-74.38],[-115.5,-73.62],[-114.88,-72.25],[-116.25,-71.12],[-119.75,-70.38],[-125.25,-70.38],[-124.88,-70.75],[-125.25,-71.12],[-129.5,-71.62],[-129.88,-72.0],[-129.88,-72.75],[-128.5,-73.88],[-125.0,-74.38]],[[-127.12,-73.5],[-125.88,-73.5],[-126.0,-73.62],[-127.12,-73.5]]]}},{"type":"Feature","properties":{"kind":"blob","cls":3,"id":4},"geometry":{"type":"Polygon","coordinates":[[[-105.75,-62.38],[-102.25,-62.38],[-100.38,-61.0],[-100.62,-59.5],[-101.62,-58.75],[-100.62,-57.5],[-100.62,-56.75],[-101.75,-55.62],[-105.0,-55.12],[-106.25,-55.38],[-107.88,-56.5],[-108.12,-57.5],[-107.62,-58.25],[-108.88,-59.5],[-108.88,-60.5],[-107.75,-61.88],[-105.75,-62.38]]]}},{"type":"Feature","properties":{"kind":"blob","cls":5,"id":5},"geometry":{"type":"Polygon","coordinates":[[[-155.5,-79.38],[-151.38,-78.75],[-153.75,-77.88],[-156.88,-77.75],[-156.25,-77.38],[-149.25,-78.12],[-147.0,-77.62],[-144.75,-77.88],[-144.62,-77.0],[-145.38,-76.25],[-144.75,-75.88],[-140.5,-75.88],[-138.12,-75.25],[-142.75,-74.38],[-148.75,-74.62],[-151.25,-75.38],[-153.0,-74.88],[-158.5,-74.62],[-164.75,-75.62],[-166.38,-76.75],[-166.38,-77.25],[-165.0,-78.38],[-162.0,-79.12],[-155.5,-79.38]]]}},{"type":"Feature","properties":{"kind":"blob","cls":6,"id":6},"geometry":{"type":"Polygon","coordinates":[[[103.0,-65.88],[106.25,-64.88],[107.12,-64.0],[107.12,-63.5],[106.25,-62.38],[104.25,-61.62],[97.5,-61.38],[94.0,-62.62],[92.88,-63.75],[92.88,-64.25],[93.75,-65.12],[95.75,-65.88],[103.0,-65.88]]]}},{"type":"Feature","properties":{"kind":"blob","cls":4,"id":7},"geometry":{"type":"Polygon","coordinates":[[[-4.75,67.12],[-2.25,67.62],[-0.88,68.5],[-0.12,70.75],[-1.5,72.38],[-5.25,73.38],[-11.5,73.12],[-13.5,72.38],[-14.12,71.75],[-13.62,70.25],[-12.5,69.12],[-8.5,67.38],[-4.75,67.12]]]}},{"type":"Feature","properties":{"kind":"blob","cls":4,"id":8},"geometry":{"type":"Polygon","coordinates":[[[82.0,-57.38],[83.75,-56.88],[84.62,-56.0],[84.38,-54.0],[82.0,-52.88],[80.5,-52.88],[78.5,-53.62],[77.88,-54.5],[77.88,-55.75],[79.0,-56.88],[82.0,-57.38]]]}},{"type":"Feature","properties":{"kind":"blob","cls":4,"id":9},"geometry":{"type":"Polygon","coordinates":[[[43.75,-55.62],[48.25,-55.62],[49.62,-54.75],[49.88,-53.75],[48.88,-52.25],[47.5,-51.12],[43.75,-51.12],[41.62,-53.0],[41.38,-54.25],[42.0,-55.12],[43.75,-55.62]]]}},{"type":"Feature","properties":{"kind":"blob","cls":1,"id":10},"geometry":{"type":"Polygon","coordinates":[[[-40.75,59.12],[-38.5,59.88],[-37.88,60.5],[-38.25,62.12],[-35.25,62.38],[-33.38,63.75],[-33.38,64.25],[-34.0,65.12],[-35.5,65.88],[-37.0,65.88],[-40.0,64.12],[-41.5,63.88],[-41.88,63.5],[-41.75,62.88],[-42.88,62.5],[-42.62,62.0],[-43.12,61.0],[-43.88,60.5],[-43.5,60.12],[-44.5,60.12],[-45.38,61.0],[-44.75,59.88],[-40.75,59.12]],[[-41.0,59.62],[-42.0,59.88],[-42.88,61.0],[-42.5,61.38],[-40.25,61.12],[-39.88,60.25],[-41.0,59.62]]]}},{"type":"Feature","properties":{"kind":"blob","cls":1,"id":11},"geometry":{"type":"Polygon","coordinates":[[[-49.75,61.12],[-48.38,61.5],[-49.88,62.75],[-50.0,63.38],[-50.88,63.75],[-50.75,64.12],[-49.62,64.25],[-50.5,65.12],[-53.5,64.62],[-54.62,63.75],[-54.62,62.5],[-54.0,61.88],[-49.75,61.12]]]}},{"type":"Feature","properties":{"kind":"blob","cls":4,"id":12},"geometry":{"type":"Polygon","coordinates":[[[-94.25,-71.12],[-89.5,-71.12],[-88.0,-70.62],[-86.88,-69.5],[-86.88,-69.0],[-88.5,-67.12],[-90.0,-66.62],[-94.25,-66.38],[-97.25,-67.12],[-98.12,-68.0],[-98.38,-69.5],[-97.25,-70.62],[-94.25,-71.12]]]}},{"type":"Feature","properties":{"kind":"blob","cls":4,"id":13},"geometry":{"type":"Polygon","coordinates":[[[-123.75,-51.12],[-120.75,-51.12],[-119.38,-50.0],[-119.25,-49.38],[-117.0,-50.62],[-114.75,-50.62],[-112.62,-49.5],[-112.38,-48.0],[-112.75,-47.38],[-114.5,-46.62],[-116.75,-46.62],[-118.88,-47.75],[-119.25,-49.12],[-119.38,-48.5],[-120.75,-47.38],[-124.75,-47.38],[-125.62,-48.0],[-126.12,-49.25],[-125.25,-50.62],[-123.75,-51.12]]]}},{"type":"Feature","properties":{"kind":"blob","cls":4,"id":14},"geometry":{"type":"Polygon","coordinates":[[[126.5,-66.88],[133.75,-66.38],[134.38,-65.25],[133.25,-64.12],[132.0,-63.62],[128.5,-63.38],[126.25,-63.88],[124.62,-65.25],[124.62,-65.75],[125.5,-66.62],[126.5,-66.88]]]}},{"type":"Feature","properties":{"kind":"blob","cls":4,"id":15},"geometry":{"type":"Polygon","coordinates":[[[-30.75,53.12],[-28.75,53.88],[-27.88,54.75],[-27.88,55.75],[-28.75,56.62],[-30.5,57.12],[-33.75,56.62],[-34.88,55.5],[-34.88,54.5],[-33.25,53.38],[-30.75,53.12]]]}},{"type":"Feature","properties":{"kind":"blob","cls":3,"id":16},"geometry":{"type":"Polygon","coordinates":[[[152.5,35.38],[154.25,35.12],[155.25,35.62],[155.88,36.25],[155.88,37.75],[154.25,38.88],[152.75,38.88],[151.75,38.38],[151.12,37.75],[151.12,36.25],[152.5,35.38]]]}},{"type":"Feature","properties":{"kind":"blob","cls":4,"id":17},"geometry":{"type":"Polygon","coordinates":[[[161.75,-71.38],[162.62,-71.5],[162.5,-70.62],[164.5,-71.12],[164.75,-70.62],[166.0,-70.62],[168.75,-71.38],[170.75,-70.62],[171.88,-69.5],[171.88,-69.0],[171.25,-68.12],[168.5,-67.12],[163.5,-66.88],[160.25,-67.38],[157.0,-66.38],[151.5,-66.62],[150.0,-67.12],[149.12,-68.0],[149.25,-68.38],[153.5,-69.12],[159.5,-69.62],[161.75,-71.38]]]}},{"type":"Feature","properties":{"kind":"blob","cls":4,"id":18},"geometry":{"type":"Polygon","coordinates":[[[-41.75,42.62],[-40.5,43.12],[-39.62,44.5],[-39.88,45.25],[-41.75,46.38],[-44.25,45.88],[-45.12,44.5],[-44.88,43.75],[-44.25,43.12],[-41.75,42.62]]]}},{"type":"Feature","properties":{"kind":"blob","cls":3,"id":19},"geometry":{"type":"Polygon","coordinates":[[[-59.75,73.38],[-57.5,73.62],[-57.38,74.0],[-58.5,74.38],[-61.0,76.38],[-66.5,76.38],[-68.88,77.0],[-65.5,77.12],[-65.12,77.5],[-66.0,77.88],[-72.0,77.62],[-74.0,77.12],[-75.38,76.25],[-75.0,75.38],[-73.5,74.62],[-70.0,73.88],[-59.75,73.38]]]}},{"type":"Feature","properties":{"kind":"blob","cls":5,"id":20},"geometry":{"type":"Polygon","coordinates":[[[44.5,-67.88],[44.75,-68.12],[49.25,-67.62],[50.62,-66.75],[50.25,-66.38],[46.75,-66.62],[45.25,-67.12],[44.5,-67.88]]]}},{"type":"Feature","properties":{"kind":"blob","cls":3,"id":21},"geometry":{"type":"Polygon","coordinates":[[[164.25,-79.88],[168.5,-79.38],[170.75,-78.62],[171.12,-77.75],[168.5,-76.62],[163.25,-76.12],[162.38,-77.0],[163.88,-78.0],[163.75,-78.38],[164.62,-78.5],[161.75,-78.62],[161.88,-79.25],[164.25,-79.88]],[[166.62,-77.5],[169.12,-77.5],[169.0,-77.62],[166.62,-77.5]]]}},{"type":"Feature","properties":{"kind":"blob","cls":3,"id":22},"geometry":{"type":"Polygon","coordinates":[[[21.25,-70.62],[26.88,-70.5],[26.0,-70.12],[21.25,-70.62]]]}},{"type":"Feature","properties":{"kind":"blob","cls":3,"id":23},"geometry":{"type":"Polygon","coordinates":[[[20.12,-70.75],[20.25,-70.88],[20.38,-70.75],[20.12,-70.75]]]}},{"type":"Feature","properties":{"kind":"blob","cls":4,"id":24},"geometry":{"type":"Polygon","coordinates":[[[102.5,-47.12],[103.62,-46.25],[103.88,-45.25],[103.12,-43.75],[102.0,-42.62],[100.75,-42.12],[99.25,-42.12],[97.38,-43.25],[97.12,-44.25],[97.62,-45.5],[99.0,-46.88],[102.5,-47.12]]]}},{"type":"Feature","properties":{"kind":"blob","cls":5,"id":25},"geometry":{"type":"Polygon","coordinates":[[[-115.75,76.38],[-111.0,76.88],[-105.5,78.12],[-104.62,78.75],[-104.62,79.5],[-108.0,80.88],[-115.75,81.62],[-123.5,81.62],[-129.75,81.12],[-132.5,80.62],[-134.38,79.75],[-134.0,78.62],[-132.0,77.88],[-125.25,76.62],[-115.75,76.38]]]}},{"type":"Feature","properties":{"kind":"blob","cls":4,"id":26},"geometry":{"type":"Polygon","coordinates":[[[-7.5,-39.38],[-4.25,-39.38],[-3.12,-38.25],[-3.12,-36.75],[-4.75,-35.62],[-7.0,-35.12],[-8.25,-35.12],[-9.25,-35.62],[-9.88,-36.25],[-9.88,-38.0],[-9.0,-38.88],[-7.5,-39.38]]]}},{"type":"Feature","properties":{"kind":"blob","cls":1,"id":27},"geometry":{"type":"Polygon","coordinates":[[[87.75,64.62],[91.0,65.38],[92.62,66.75],[92.62,68.0],[89.25,69.62],[85.5,69.88],[81.75,69.12],[80.12,68.0],[80.12,67.0],[81.25,65.88],[83.0,65.12],[87.75,64.62]]]}},{"type":"Feature","properties":{"kind":"blob","cls":4,"id":28},"geometry":{"type":"MultiPolygon","coordinates":[[[[-74.0,-75.12],[-74.12,-75.25],[-74.0,-75.38],[-74.0,-75.12]]],[[[-65.5,-77.12],[-62.0,-76.62],[-59.5,-75.88],[-58.88,-74.75],[-60.0,-73.88],[-62.0,-73.38],[-62.5,-74.12],[-63.75,-74.38],[-64.0,-74.88],[-67.0,-75.88],[-72.25,-76.12],[-71.62,-75.75],[-71.75,-75.38],[-73.88,-75.5],[-73.75,-75.88],[-72.0,-76.62],[-65.5,-77.12]]]]}},{"type":"Feature","properties":{"kind":"blob","cls":1,"id":29},"geometry":{"type":"Polygon","coordinates":[[[-169.0,60.12],[-168.0,59.88],[-165.75,61.38],[-165.38,62.0],[-165.62,63.0],[-167.5,64.12],[-169.12,62.0],[-169.0,60.12]]]}},{"type":"Feature","properties":{"kind":"blob","cls":1,"id":30},"geometry":{"type":"Polygon","coordinates":[[[-173.12,60.25],[-171.38,63.0],[-171.5,64.38],[-173.75,63.88],[-174.88,62.5],[-174.88,61.5],[-173.12,60.25]]]}},{"type":"Feature","properties":{"kind":"blob","cls":3,"id":31},"geometry":{"type":"Polygon","coordinates":[[[142.0,53.88],[143.75,54.38],[146.38,56.75],[146.12,58.0],[143.75,59.12],[141.75,59.12],[139.75,58.38],[138.38,57.0],[138.12,55.25],[139.5,54.12],[142.0,53.88]]]}},{"type":"Feature","properties":{"kind":"blob","cls":4,"id":32},"geometry":{"type":"Polygon","coordinates":[[[-83.0,45.12],[-81.75,45.62],[-80.88,46.5],[-80.88,47.75],[-81.75,48.62],[-83.0,49.12],[-85.25,48.62],[-86.12,47.75],[-86.12,46.5],[-85.25,45.62],[-83.0,45.12]]]}},{"type":"Feature","properties":{"kind":"blob","cls":4,"id":33},"geometry":{"type":"Polygon","coordinates":[[[98.25,-34.12],[99.75,-34.12],[100.88,-33.0],[100.62,-31.0],[99.0,-30.12],[97.0,-30.62],[96.38,-31.5],[96.88,-33.5],[98.25,-34.12]]]}},{"type":"Feature","properties":{"kind":"blob","cls":0,"id":34},"geometry":{"type":"Polygon","coordinates":[[[-26.75,16.12],[-25.0,16.12],[-24.12,17.25],[-24.12,18.5],[-25.0,19.62],[-27.25,19.62],[-28.12,18.5],[-27.88,16.75],[-26.75,16.12]]]}},{"type":"Feature","properties":{"kind":"blob","cls":4,"id":35},"geometry":{"type":"Polygon","coordinates":[[[-138.5,48.12],[-135.75,49.38],[-134.88,50.5],[-135.12,51.75],[-135.75,52.38],[-137.25,52.88],[-139.5,52.62],[-141.25,51.88],[-142.38,50.75],[-142.62,49.75],[-141.75,48.62],[-138.5,48.12]]]}},{"type":"Feature","properties":{"kind":"blob","cls":0,"id":36},"geometry":{"type":"Polygon","coordinates":[[[-81.25,3.12],[-80.25,3.62],[-79.62,4.75],[-80.12,6.25],[-81.25,6.88],[-82.75,6.38],[-83.38,5.25],[-82.88,3.75],[-81.25,3.12]]]}},{"type":"Feature","properties":{"kind":"blob","cls":4,"id":37},"geometry":{"type":"Polygon","coordinates":[[[-69.75,-73.62],[-69.12,-73.5],[-69.25,-73.38],[-69.75,-73.62]]]}},{"type":"Feature","properties":{"kind":"blob","cls":5,"id":38},"geometry":{"type":"Polygon","coordinates":[[[-65.5,-16.88],[-64.62,-15.75],[-64.88,-13.5],[-67.25,-11.88],[-69.25,-11.88],[-69.88,-12.5],[-70.12,-13.5],[-68.5,-13.88],[-67.88,-15.25],[-65.5,-16.88]]]}},{"type":"Feature","properties":{"kind":"blob","cls":1,"id":39},"geometry":{"type":"Polygon","coordinates":[[[67.75,24.88],[69.0,25.38],[70.38,27.25],[70.38,28.25],[69.25,29.62],[67.5,29.88],[66.88,27.0],[65.38,26.75],[66.5,25.12],[67.75,24.88]]]}},{"type":"Feature","properties":{"kind":"blob","cls":1,"id":40},"geometry":{"type":"Polygon","coordinates":[[[128.25,50.62],[130.25,51.38],[131.62,52.75],[131.62,53.75],[131.25,54.12],[130.0,53.38],[129.25,53.38],[129.38,54.0],[130.38,55.0],[128.75,55.62],[127.0,55.62],[125.0,54.88],[124.38,54.0],[124.38,52.25],[125.5,51.12],[128.25,50.62]],[[125.25,54.38],[125.12,54.5],[125.25,54.62],[125.25,54.38]]]}},{"type":"Feature","properties":{"kind":"blob","cls":3,"id":41},"geometry":{"type":"Polygon","coordinates":[[[29.88,-30.25],[30.0,-30.62],[31.25,-30.38],[32.38,-29.0],[32.12,-28.0],[31.25,-27.12],[30.88,-27.5],[31.38,-27.75],[30.88,-28.0],[31.12,-28.5],[29.88,-28.75],[30.88,-29.0],[29.88,-30.25]]]}},{"type":"Feature","properties":{"kind":"blob","cls":4,"id":42},"geometry":{"type":"Polygon","coordinates":[[[-54.75,-81.62],[-47.38,-81.5],[-47.5,-81.38],[-54.75,-81.62]]]}},{"type":"Feature","properties":{"kind":"blob","cls":4,"id":43},"geometry":{"type":"Polygon","coordinates":[[[78.0,27.38],[79.12,28.75],[78.88,29.75],[78.25,30.38],[77.0,30.88],[76.0,30.62],[74.88,29.25],[75.12,28.25],[76.0,27.38],[78.0,27.38]]]}},{"type":"Feature","properties":{"kind":"blob","cls":4,"id":44},"geometry":{"type":"Polygon","coordinates":[[[-66.5,-29.12],[-66.25,-27.62],[-67.12,-28.25],[-66.5,-29.12]]]}},{"type":"Feature","properties":{"kind":"blob","cls":5,"id":45},"geometry":{"type":"Polygon","coordinates":[[[93.0,23.12],[93.12,23.75],[93.88,24.25],[93.38,25.25],[93.88,25.75],[93.0,26.62],[90.75,26.88],[89.12,25.75],[89.12,24.0],[90.0,23.12],[93.0,23.12]],[[91.12,25.5],[92.38,25.5],[92.25,25.38],[91.12,25.5]],[[92.75,25.12],[92.62,25.25],[92.75,25.38],[92.75,25.12]]]}},{"type":"Feature","properties":{"kind":"blob","cls":4,"id":46},"geometry":{"type":"Polygon","coordinates":[[[-65.75,-28.88],[-65.62,-28.5],[-65.75,-28.38],[-65.75,-28.88]]]}},{"type":"Feature","properties":{"kind":"blob","cls":4,"id":47},"geometry":{"type":"Polygon","coordinates":[[[-65.25,-28.38],[-64.62,-27.5],[-65.25,-26.12],[-65.88,-27.25],[-65.25,-28.38]]]}},{"type":"Feature","properties":{"kind":"blob","cls":4,"id":48},"geometry":{"type":"MultiPolygon","coordinates":[[[[24.75,-33.62],[26.5,-33.62],[27.38,-32.75],[26.0,-32.62],[25.75,-32.12],[25.25,-32.62],[24.5,-32.12],[23.5,-32.12],[23.62,-33.0],[24.75,-33.62]]],[[[27.25,-32.12],[27.38,-32.5],[27.5,-32.62],[27.62,-32.0],[27.25,-32.12]]]]}},{"type":"Feature","properties":{"kind":"blob","cls":3,"id":49},"geometry":{"type":"MultiPolygon","coordinates":[[[[18.5,38.38],[20.25,38.12],[21.62,39.0],[20.62,40.0],[20.0,41.88],[18.5,41.62],[17.38,40.5],[17.38,39.5],[18.5,38.38]]],[[[21.75,39.12],[22.12,39.5],[22.12,40.25],[21.5,41.12],[21.12,40.5],[21.75,39.12]]],[[[20.62,41.25],[20.75,40.88],[20.88,41.0],[20.62,41.25]]],[[[21.25,41.12],[21.38,41.25],[21.25,41.38],[21.25,41.12]]],[[[21.0,41.38],[21.12,41.5],[21.0,41.62],[21.0,41.38]]]]}},{"type":"Feature","properties":{"kind":"blob","cls":3,"id":50},"geometry":{"type":"MultiPolygon","coordinates":[[[[44.75,42.12],[44.62,42.0],[44.75,41.88],[44.75,42.12]]],[[[48.25,39.38],[50.5,39.38],[51.62,40.5],[51.62,41.75],[50.25,43.12],[49.25,43.38],[48.88,44.25],[48.0,44.88],[46.25,45.12],[45.0,44.62],[44.38,43.75],[44.5,42.88],[46.5,43.12],[47.62,42.5],[48.88,40.75],[47.25,41.12],[45.75,42.12],[45.25,42.12],[44.88,41.5],[46.75,40.62],[48.25,39.38]]]]}},{"type":"Feature","properties":{"kind":"blob","cls":4,"id":51},"geometry":{"type":"Polygon","coordinates":[[[175.0,35.38],[176.75,35.12],[178.62,36.5],[178.62,38.25],[177.5,39.38],[175.75,39.62],[173.62,38.25],[173.62,36.25],[175.0,35.38]]]}},{"type":"Feature","properties":{"kind":"center","id":1,"lat":-66.5,"lon":-162.75,"mslp":949.3,"hvtl":9.4,"hvtu":-24.1,"hb":-7.4,"idx":-0.0,"cls":1,"psfc":949.3,"terrain":false,"radius_km":200,"name":"sym shallow warm","track":"T04"},"geometry":{"type":"Point","coordinates":[-162.75,-66.5]}},{"type":"Feature","properties":{"kind":"center","id":2,"lat":-57.75,"lon":2.0,"mslp":960.5,"hvtl":60.0,"hvtu":-49.5,"hb":-6.0,"idx":0.6,"cls":1,"psfc":960.5,"terrain":false,"radius_km":200,"name":"sym shallow warm","track":"T19"},"geometry":{"type":"Point","coordinates":[2.0,-57.75]}},{"type":"Feature","properties":{"kind":"center","id":3,"lat":-72.5,"lon":-122.25,"mslp":963.3,"hvtl":-7.8,"hvtu":0.5,"hb":17.7,"idx":-0.2,"cls":6,"psfc":963.3,"terrain":false,"radius_km":200,"name":"shallow cold","track":"T12"},"geometry":{"type":"Point","coordinates":[-122.25,-72.5]}},{"type":"Feature","properties":{"kind":"center","id":4,"lat":-57.25,"lon":-104.5,"mslp":966.1,"hvtl":33.7,"hvtu":-148.8,"hb":13.0,"idx":-0.3,"cls":3,"psfc":966.1,"terrain":false,"radius_km":200,"name":"asym shallow warm","track":"T26"},"geometry":{"type":"Point","coordinates":[-104.5,-57.25]}},{"type":"Feature","properties":{"kind":"center","id":5,"lat":-75.5,"lon":-140.25,"mslp":968.7,"hvtl":-139.4,"hvtu":-186.2,"hb":3.2,"idx":-2.7,"cls":5,"psfc":928.5,"terrain":false,"radius_km":200,"name":"sym cold","track":"T28"},"geometry":{"type":"Point","coordinates":[-140.25,-75.5]}},{"type":"Feature","properties":{"kind":"center","id":6,"lat":-64.0,"lon":99.5,"mslp":970.2,"hvtl":-274.2,"hvtu":26.8,"hb":78.4,"idx":-1.7,"cls":6,"psfc":970.2,"terrain":false,"radius_km":200,"name":"shallow cold","track":"T37"},"geometry":{"type":"Point","coordinates":[99.5,-64.0]}},{"type":"Feature","properties":{"kind":"center","id":7,"lat":69.75,"lon":-6.25,"mslp":971.2,"hvtl":-82.7,"hvtu":-353.2,"hb":46.2,"idx":-2.4,"cls":4,"psfc":971.2,"terrain":false,"radius_km":200,"name":"asym cold","track":"T32"},"geometry":{"type":"Point","coordinates":[-6.25,69.75]}},{"type":"Feature","properties":{"kind":"center","id":8,"lat":-55.0,"lon":81.25,"mslp":972.5,"hvtl":-23.1,"hvtu":-238.5,"hb":25.6,"idx":-1.4,"cls":4,"psfc":972.5,"terrain":false,"radius_km":200,"name":"asym cold","track":"T13"},"geometry":{"type":"Point","coordinates":[81.25,-55.0]}},{"type":"Feature","properties":{"kind":"center","id":9,"lat":-52.75,"lon":45.5,"mslp":972.7,"hvtl":-155.4,"hvtu":-233.2,"hb":47.2,"idx":-2.8,"cls":4,"psfc":972.7,"terrain":false,"radius_km":200,"name":"asym cold","track":"T29"},"geometry":{"type":"Point","coordinates":[45.5,-52.75]}},{"type":"Feature","properties":{"kind":"center","id":10,"lat":59.25,"lon":-42.5,"mslp":975.0,"hvtl":126.1,"hvtu":-35.2,"hb":-6.9,"idx":1.4,"cls":1,"psfc":975.0,"terrain":false,"radius_km":200,"name":"sym shallow warm","track":"T14"},"geometry":{"type":"Point","coordinates":[-42.5,59.25]}},{"type":"Feature","properties":{"kind":"center","id":11,"lat":62.0,"lon":-49.25,"mslp":977.0,"hvtl":132.7,"hvtu":-41.3,"hb":-20.7,"idx":1.3,"cls":1,"psfc":940.1,"terrain":false,"radius_km":200,"name":"sym shallow warm"},"geometry":{"type":"Point","coordinates":[-49.25,62.0]}},{"type":"Feature","properties":{"kind":"center","id":12,"lat":-68.5,"lon":-93.25,"mslp":978.2,"hvtl":-230.1,"hvtu":-246.9,"hb":45.9,"idx":-2.9,"cls":4,"psfc":978.2,"terrain":false,"radius_km":200,"name":"asym cold","track":"T49"},"geometry":{"type":"Point","coordinates":[-93.25,-68.5]}},{"type":"Feature","properties":{"kind":"center","id":13,"lat":-48.5,"lon":-115.75,"mslp":978.5,"hvtl":-110.2,"hvtu":-126.7,"hb":31.9,"idx":-2.5,"cls":4,"psfc":978.5,"terrain":false,"radius_km":200,"name":"asym cold","track":"T39"},"geometry":{"type":"Point","coordinates":[-115.75,-48.5]}},{"type":"Feature","properties":{"kind":"center","id":14,"lat":-65.5,"lon":129.5,"mslp":978.8,"hvtl":-160.0,"hvtu":-217.3,"hb":24.3,"idx":-2.8,"cls":4,"psfc":978.8,"terrain":false,"radius_km":200,"name":"asym cold","track":"T33"},"geometry":{"type":"Point","coordinates":[129.5,-65.5]}},{"type":"Feature","properties":{"kind":"center","id":15,"lat":55.25,"lon":-31.25,"mslp":979.1,"hvtl":-308.0,"hvtu":-378.5,"hb":85.8,"idx":-3.0,"cls":4,"psfc":979.1,"terrain":false,"radius_km":200,"name":"asym cold","track":"T10"},"geometry":{"type":"Point","coordinates":[-31.25,55.25]}},{"type":"Feature","properties":{"kind":"center","id":16,"lat":37.0,"lon":153.5,"mslp":982.8,"hvtl":89.6,"hvtu":-11.9,"hb":26.6,"idx":1.3,"cls":3,"psfc":982.8,"terrain":false,"radius_km":200,"name":"asym shallow warm","track":"T09"},"geometry":{"type":"Point","coordinates":[153.5,37.0]}},{"type":"Feature","properties":{"kind":"center","id":17,"lat":-69.25,"lon":166.75,"mslp":984.5,"hvtl":-59.4,"hvtu":-152.7,"hb":68.3,"idx":-2.0,"cls":4,"psfc":984.5,"terrain":false,"radius_km":200,"name":"asym cold","track":"T47"},"geometry":{"type":"Point","coordinates":[166.75,-69.25]}},{"type":"Feature","properties":{"kind":"center","id":18,"lat":44.5,"lon":-42.5,"mslp":987.3,"hvtl":-301.6,"hvtu":-399.8,"hb":112.5,"idx":-3.0,"cls":4,"psfc":987.3,"terrain":false,"radius_km":200,"name":"asym cold","track":"T64"},"geometry":{"type":"Point","coordinates":[-42.5,44.5]}},{"type":"Feature","properties":{"kind":"center","id":19,"lat":75.5,"lon":-63.0,"mslp":987.3,"hvtl":17.1,"hvtu":-171.5,"hb":54.6,"idx":-0.6,"cls":3,"psfc":987.3,"terrain":false,"radius_km":200,"name":"asym shallow warm","track":"T51"},"geometry":{"type":"Point","coordinates":[-63.0,75.5]}},{"type":"Feature","properties":{"kind":"center","id":20,"lat":-67.0,"lon":50.0,"mslp":987.7,"hvtl":-31.7,"hvtu":-99.3,"hb":-3.9,"idx":-1.4,"cls":5,"psfc":984.9,"terrain":false,"radius_km":200,"name":"sym cold"},"geometry":{"type":"Point","coordinates":[50.0,-67.0]}},{"type":"Feature","properties":{"kind":"center","id":21,"lat":-77.25,"lon":166.25,"mslp":989.2,"hvtl":175.5,"hvtu":-192.8,"hb":28.3,"idx":0.9,"cls":3,"psfc":981.3,"terrain":false,"radius_km":200,"name":"asym shallow warm","track":"T67"},"geometry":{"type":"Point","coordinates":[166.25,-77.25]}},{"type":"Feature","properties":{"kind":"center","id":22,"lat":-70.5,"lon":26.75,"mslp":992.2,"hvtl":70.2,"hvtu":-221.6,"hb":24.2,"idx":0.2,"cls":3,"psfc":986.0,"terrain":false,"radius_km":200,"name":"asym shallow warm"},"geometry":{"type":"Point","coordinates":[26.75,-70.5]}},{"type":"Feature","properties":{"kind":"center","id":23,"lat":-70.75,"lon":20.25,"mslp":993.0,"hvtl":97.4,"hvtu":-221.0,"hb":21.0,"idx":0.5,"cls":3,"psfc":981.9,"terrain":false,"radius_km":200,"name":"asym shallow warm","track":"T23"},"geometry":{"type":"Point","coordinates":[20.25,-70.75]}},{"type":"Feature","properties":{"kind":"center","id":24,"lat":-44.75,"lon":100.5,"mslp":993.9,"hvtl":-256.8,"hvtu":-190.0,"hb":74.5,"idx":-2.9,"cls":4,"psfc":993.9,"terrain":false,"radius_km":200,"name":"asym cold","track":"T07"},"geometry":{"type":"Point","coordinates":[100.5,-44.75]}},{"type":"Feature","properties":{"kind":"center","id":25,"lat":79.0,"lon":-119.5,"mslp":994.7,"hvtl":-71.5,"hvtu":-58.2,"hb":8.5,"idx":-1.8,"cls":5,"psfc":994.7,"terrain":false,"radius_km":200,"name":"sym cold","track":"T72"},"geometry":{"type":"Point","coordinates":[-119.5,79.0]}},{"type":"Feature","properties":{"kind":"center","id":26,"lat":-37.5,"lon":-7.25,"mslp":996.3,"hvtl":-295.7,"hvtu":-356.9,"hb":78.9,"idx":-3.0,"cls":4,"psfc":996.3,"terrain":false,"radius_km":200,"name":"asym cold","track":"T05"},"geometry":{"type":"Point","coordinates":[-7.25,-37.5]}},{"type":"Feature","properties":{"kind":"center","id":27,"lat":67.0,"lon":86.5,"mslp":996.8,"hvtl":6.3,"hvtu":-18.3,"hb":9.2,"idx":-0.1,"cls":1,"psfc":992.8,"terrain":false,"radius_km":200,"name":"sym shallow warm","track":"T57"},"geometry":{"type":"Point","coordinates":[86.5,67.0]}},{"type":"Feature","properties":{"kind":"center","id":28,"lat":-75.25,"lon":-74.0,"mslp":998.0,"hvtl":-68.8,"hvtu":-177.2,"hb":57.6,"idx":-2.1,"cls":4,"psfc":903.7,"terrain":true,"radius_km":200,"name":"asym cold"},"geometry":{"type":"Point","coordinates":[-74.0,-75.25]}},{"type":"Feature","properties":{"kind":"center","id":29,"lat":62.0,"lon":-169.0,"mslp":999.2,"hvtl":91.1,"hvtu":-132.6,"hb":6.5,"idx":0.6,"cls":1,"psfc":999.2,"terrain":false,"radius_km":200,"name":"sym shallow warm","track":"T48"},"geometry":{"type":"Point","coordinates":[-169.0,62.0]}},{"type":"Feature","properties":{"kind":"center","id":30,"lat":62.5,"lon":-171.75,"mslp":1000.2,"hvtl":154.0,"hvtu":-86.1,"hb":-18.1,"idx":1.1,"cls":1,"psfc":1000.2,"terrain":false,"radius_km":200,"name":"sym shallow warm","track":"T89"},"geometry":{"type":"Point","coordinates":[-171.75,62.5]}},{"type":"Feature","properties":{"kind":"center","id":31,"lat":57.0,"lon":142.25,"mslp":1000.9,"hvtl":136.8,"hvtu":-292.5,"hb":78.6,"idx":0.8,"cls":3,"psfc":1000.9,"terrain":false,"radius_km":200,"name":"asym shallow warm","track":"T87"},"geometry":{"type":"Point","coordinates":[142.25,57.0]}},{"type":"Feature","properties":{"kind":"center","id":32,"lat":47.0,"lon":-83.5,"mslp":1001.8,"hvtl":-360.8,"hvtu":-140.8,"hb":88.7,"idx":-2.9,"cls":4,"psfc":946.6,"terrain":false,"radius_km":200,"name":"asym cold","track":"T44"},"geometry":{"type":"Point","coordinates":[-83.5,47.0]}},{"type":"Feature","properties":{"kind":"center","id":33,"lat":-32.0,"lon":98.5,"mslp":1003.4,"hvtl":-227.9,"hvtu":-317.3,"hb":47.8,"idx":-3.0,"cls":4,"psfc":1003.3,"terrain":false,"radius_km":200,"name":"asym cold","track":"T62"},"geometry":{"type":"Point","coordinates":[98.5,-32.0]}},{"type":"Feature","properties":{"kind":"center","id":34,"lat":18.0,"lon":-26.0,"mslp":1003.6,"hvtl":137.8,"hvtu":20.0,"hb":0.9,"idx":2.0,"cls":0,"psfc":1003.6,"terrain":false,"radius_km":200,"name":"sym deep warm","track":"T86"},"geometry":{"type":"Point","coordinates":[-26.0,18.0]}},{"type":"Feature","properties":{"kind":"center","id":35,"lat":50.75,"lon":-138.5,"mslp":1004.4,"hvtl":-159.5,"hvtu":-310.2,"hb":69.6,"idx":-2.8,"cls":4,"psfc":1004.4,"terrain":false,"radius_km":200,"name":"asym cold","track":"T84"},"geometry":{"type":"Point","coordinates":[-138.5,50.75]}},{"type":"Feature","properties":{"kind":"center","id":36,"lat":5.0,"lon":-81.5,"mslp":1004.5,"hvtl":3.3,"hvtu":16.7,"hb":-1.9,"idx":0.2,"cls":0,"psfc":1004.5,"terrain":false,"radius_km":200,"name":"sym deep warm"},"geometry":{"type":"Point","coordinates":[-81.5,5.0]}},{"type":"Feature","properties":{"kind":"center","id":37,"lat":-73.5,"lon":-69.75,"mslp":1005.6,"hvtl":-15.7,"hvtu":-121.0,"hb":36.4,"idx":-1.1,"cls":4,"psfc":911.2,"terrain":true,"radius_km":200,"name":"asym cold"},"geometry":{"type":"Point","coordinates":[-69.75,-73.5]}},{"type":"Feature","properties":{"kind":"center","id":38,"lat":-14.5,"lon":-66.0,"mslp":1006.1,"hvtl":-100.4,"hvtu":-87.6,"hb":2.4,"idx":-2.2,"cls":5,"psfc":987.1,"terrain":false,"radius_km":200,"name":"sym cold","track":"T92"},"geometry":{"type":"Point","coordinates":[-66.0,-14.5]}},{"type":"Feature","properties":{"kind":"center","id":39,"lat":27.25,"lon":67.75,"mslp":1007.1,"hvtl":0.6,"hvtu":-166.6,"hb":-10.2,"idx":-0.9,"cls":1,"psfc":1002.2,"terrain":false,"radius_km":200,"name":"sym shallow warm","track":"T104"},"geometry":{"type":"Point","coordinates":[67.75,27.25]}},{"type":"Feature","properties":{"kind":"center","id":40,"lat":53.0,"lon":127.5,"mslp":1007.8,"hvtl":40.6,"hvtu":-32.3,"hb":-9.3,"idx":0.5,"cls":1,"psfc":975.8,"terrain":false,"radius_km":200,"name":"sym shallow warm","track":"T83"},"geometry":{"type":"Point","coordinates":[127.5,53.0]}},{"type":"Feature","properties":{"kind":"center","id":41,"lat":-28.75,"lon":30.0,"mslp":1008.2,"hvtl":38.2,"hvtu":-39.1,"hb":42.4,"idx":0.4,"cls":3,"psfc":905.7,"terrain":true,"radius_km":200,"name":"asym shallow warm"},"geometry":{"type":"Point","coordinates":[30.0,-28.75]}},{"type":"Feature","properties":{"kind":"center","id":42,"lat":-81.5,"lon":-54.75,"mslp":1008.3,"hvtl":-379.9,"hvtu":-181.4,"hb":76.9,"idx":-2.9,"cls":4,"psfc":990.4,"terrain":false,"radius_km":200,"name":"asym cold","track":"T61"},"geometry":{"type":"Point","coordinates":[-54.75,-81.5]}},{"type":"Feature","properties":{"kind":"center","id":43,"lat":29.5,"lon":75.25,"mslp":1009.9,"hvtl":-72.8,"hvtu":-178.6,"hb":18.2,"idx":-2.2,"cls":4,"psfc":986.3,"terrain":false,"radius_km":200,"name":"asym cold"},"geometry":{"type":"Point","coordinates":[75.25,29.5]}},{"type":"Feature","properties":{"kind":"center","id":44,"lat":-28.25,"lon":-66.75,"mslp":1010.0,"hvtl":-165.3,"hvtu":-387.8,"hb":33.3,"idx":-2.9,"cls":4,"psfc":920.0,"terrain":false,"radius_km":200,"name":"asym cold","track":"T101"},"geometry":{"type":"Point","coordinates":[-66.75,-28.25]}},{"type":"Feature","properties":{"kind":"center","id":45,"lat":24.75,"lon":91.75,"mslp":1010.8,"hvtl":-31.3,"hvtu":-192.8,"hb":-1.9,"idx":-1.6,"cls":5,"psfc":1009.3,"terrain":false,"radius_km":200,"name":"sym cold"},"geometry":{"type":"Point","coordinates":[91.75,24.75]}},{"type":"Feature","properties":{"kind":"center","id":46,"lat":-28.5,"lon":-65.75,"mslp":1010.9,"hvtl":-72.6,"hvtu":-374.0,"hb":36.7,"idx":-2.2,"cls":4,"psfc":931.8,"terrain":false,"radius_km":200,"name":"asym cold","track":"T96"},"geometry":{"type":"Point","coordinates":[-65.75,-28.5]}},{"type":"Feature","properties":{"kind":"center","id":47,"lat":-26.25,"lon":-65.25,"mslp":1011.1,"hvtl":-188.2,"hvtu":-348.3,"hb":45.4,"idx":-2.9,"cls":4,"psfc":915.6,"terrain":true,"radius_km":200,"name":"asym cold"},"geometry":{"type":"Point","coordinates":[-65.25,-26.25]}},{"type":"Feature","properties":{"kind":"center","id":48,"lat":-32.25,"lon":25.75,"mslp":1011.4,"hvtl":-198.7,"hvtu":-180.9,"hb":72.1,"idx":-2.9,"cls":4,"psfc":902.8,"terrain":true,"radius_km":200,"name":"asym cold"},"geometry":{"type":"Point","coordinates":[25.75,-32.25]}},{"type":"Feature","properties":{"kind":"center","id":49,"lat":40.0,"lon":19.75,"mslp":1012.1,"hvtl":2.8,"hvtu":-175.7,"hb":33.4,"idx":-0.9,"cls":3,"psfc":1010.6,"terrain":false,"radius_km":200,"name":"asym shallow warm"},"geometry":{"type":"Point","coordinates":[19.75,40.0]}},{"type":"Feature","properties":{"kind":"center","id":50,"lat":41.25,"lon":49.0,"mslp":1013.2,"hvtl":53.0,"hvtu":-5.7,"hb":21.4,"idx":0.9,"cls":3,"psfc":1004.8,"terrain":false,"radius_km":200,"name":"asym shallow warm","track":"T114"},"geometry":{"type":"Point","coordinates":[49.0,41.25]}},{"type":"Feature","properties":{"kind":"center","id":51,"lat":37.5,"lon":176.0,"mslp":1015.1,"hvtl":-157.9,"hvtu":-451.6,"hb":44.6,"idx":-2.8,"cls":4,"psfc":1015.1,"terrain":false,"radius_km":200,"name":"asym cold"},"geometry":{"type":"Point","coordinates":[176.0,37.5]}}]}