{"type":"FeatureCollection","features":[{"type":"Feature","properties":{"kind":"blob","cls":1,"id":1},"geometry":{"type":"Polygon","coordinates":[[[-130.25,-70.62],[-126.75,-70.62],[-125.0,-69.88],[-124.38,-69.0],[-125.0,-68.12],[-126.75,-67.38],[-131.25,-67.12],[-133.75,-67.62],[-134.75,-68.12],[-135.38,-69.0],[-134.75,-69.88],[-133.75,-70.38],[-132.5,-69.88],[-130.25,-69.88],[-129.62,-70.5],[-130.25,-70.62]]]}},{"type":"Feature","properties":{"kind":"blob","cls":1,"id":2},"geometry":{"type":"Polygon","coordinates":[[[97.0,-63.88],[99.25,-63.38],[101.12,-62.0],[101.12,-60.75],[99.0,-59.38],[96.0,-58.62],[92.5,-58.88],[90.12,-60.5],[90.12,-61.75],[90.75,-62.38],[92.75,-63.38],[97.0,-63.88]],[[92.5,-61.38],[91.12,-60.75],[91.5,-60.38],[93.5,-60.38],[95.62,-61.25],[95.5,-61.38],[92.5,-61.38]]]}},{"type":"Feature","properties":{"kind":"blob","cls":3,"id":3},"geometry":{"type":"Polygon","coordinates":[[[179.88,-64.75],[180.0,-62.62],[179.12,-63.5],[179.12,-64.0],[179.88,-64.75]]]}},{"type":"Feature","properties":{"kind":"blob","cls":3,"id":3},"geometry":{"type":"Polygon","coordinates":[[[-179.88,-62.5],[-180.0,-64.88],[-176.75,-65.88],[-173.5,-65.88],[-169.5,-64.88],[-168.0,-63.88],[-164.75,-63.88],[-162.5,-63.38],[-161.0,-62.62],[-160.12,-61.5],[-161.0,-60.38],[-162.0,-59.88],[-165.75,-59.38],[-168.25,-59.88],[-170.5,-61.38],[-176.0,-61.38],[-179.88,-62.5]]]}},{"type":"Feature","properties":{"kind":"blob","cls":3,"id":4},"geometry":{"type":"Polygon","coordinates":[[[-32.5,-70.12],[-33.25,-69.88],[-33.88,-69.0],[-33.25,-68.38],[-31.75,-67.88],[-28.75,-67.88],[-26.88,-68.75],[-27.5,-69.62],[-28.75,-70.12],[-23.25,-69.88],[-20.75,-68.88],[-20.12,-68.0],[-20.38,-67.25],[-21.75,-66.12],[-25.25,-65.12],[-33.75,-65.38],[-36.0,-65.88],[-38.12,-67.25],[-38.12,-68.25],[-36.75,-69.38],[-32.5,-70.12]]]}},{"type":"Feature","properties":{"kind":"blob","cls":0,"id":5},"geometry":{"type":"Polygon","coordinates":[[[-98.5,11.38],[-97.88,12.0],[-97.62,13.5],[-98.5,14.62],[-99.75,14.88],[-101.12,14.0],[-101.38,12.5],[-98.5,11.38]]]}},{"type":"Feature","properties":{"kind":"blob","cls":5,"id":6},"geometry":{"type":"Polygon","coordinates":[[[-159.5,-83.12],[-148.25,-82.38],[-145.88,-82.0],[-150.75,-81.88],[-151.38,-81.5],[-146.75,-81.38],[-144.0,-81.88],[-141.5,-81.38],[-141.38,-81.0],[-143.0,-80.38],[-146.5,-79.88],[-156.0,-79.62],[-163.25,-80.38],[-165.38,-81.25],[-165.25,-81.88],[-164.25,-82.38],[-159.5,-83.12]]]}},{"type":"Feature","properties":{"kind":"blob","cls":4,"id":7},"geometry":{"type":"Polygon","coordinates":[[[92.25,-52.12],[94.25,-51.38],[95.12,-50.25],[94.88,-49.25],[94.25,-48.62],[92.75,-48.12],[90.5,-48.12],[89.0,-48.62],[88.12,-49.75],[88.38,-50.75],[89.5,-51.62],[92.25,-52.12]]]}},{"type":"Feature","properties":{"kind":"blob","cls":1,"id":8},"geometry":{"type":"Polygon","coordinates":[[[39.0,-65.12],[41.0,-64.62],[42.12,-63.75],[42.12,-62.5],[40.25,-61.38],[36.0,-61.12],[34.0,-61.62],[32.88,-62.5],[32.88,-63.5],[33.5,-64.12],[39.0,-65.12]]]}},{"type":"Feature","properties":{"kind":"blob","cls":3,"id":9},"geometry":{"type":"Polygon","coordinates":[[[125.75,75.88],[131.75,76.38],[137.5,77.38],[140.0,78.62],[145.5,78.12],[159.5,78.38],[164.0,79.38],[165.12,80.0],[165.12,80.75],[163.25,81.62],[158.0,82.38],[145.5,82.62],[137.0,81.88],[133.5,80.62],[124.75,80.88],[119.5,80.38],[114.5,79.12],[113.62,78.25],[114.25,77.12],[115.25,76.62],[125.75,75.88]]]}},{"type":"Feature","properties":{"kind":"blob","cls":0,"id":10},"geometry":{"type":"Polygon","coordinates":[[[89.75,19.38],[91.25,19.38],[92.12,20.5],[91.88,22.0],[90.5,22.88],[89.25,22.62],[88.38,21.5],[88.62,20.0],[89.75,19.38]]]}},{"type":"Feature","properties":{"kind":"blob","cls":4,"id":11},"geometry":{"type":"Polygon","coordinates":[[[49.0,-58.38],[50.75,-57.88],[51.88,-56.5],[51.62,-55.75],[50.5,-54.62],[48.75,-54.12],[45.5,-54.62],[44.62,-55.5],[44.38,-56.5],[45.5,-57.88],[49.0,-58.38]]]}},{"type":"Feature","properties":{"kind":"blob","cls":4,"id":12},"geometry":{"type":"Polygon","coordinates":[[[-4.75,73.88],[0.25,74.38],[4.0,75.38],[5.38,76.25],[5.38,76.75],[4.0,77.62],[1.75,78.12],[-6.25,78.38],[-12.25,77.38],[-14.25,76.38],[-14.62,75.75],[-13.25,74.62],[-11.25,74.12],[-4.75,73.88]]]}},{"type":"Feature","properties":{"kind":"blob","cls":5,"id":13},"geometry":{"type":"Polygon","coordinates":[[[21.5,-70.38],[25.5,-70.62],[27.38,-70.25],[23.5,-70.12],[21.5,-70.38]]]}},{"type":"Feature","properties":{"kind":"blob","cls":4,"id":14},"geometry":{"type":"Polygon","coordinates":[[[-65.5,-77.12],[-61.75,-76.62],[-59.25,-75.88],[-58.62,-74.75],[-59.75,-73.88],[-61.75,-73.38],[-62.5,-74.38],[-66.75,-75.88],[-72.88,-76.25],[-70.75,-76.88],[-65.5,-77.12]]]}},{"type":"Feature","properties":{"kind":"blob","cls":5,"id":15},"geometry":{"type":"Polygon","coordinates":[[[-53.0,61.38],[-51.0,61.88],[-49.62,63.0],[-50.88,64.0],[-49.62,64.0],[-51.0,65.12],[-53.0,65.62],[-55.0,65.62],[-58.25,64.62],[-58.88,64.0],[-58.88,62.75],[-57.75,61.88],[-53.0,61.38]]]}},{"type":"Feature","properties":{"kind":"blob","cls":4,"id":16},"geometry":{"type":"Polygon","coordinates":[[[-73.88,-75.5],[-73.75,-75.88],[-72.62,-75.75],[-72.75,-75.38],[-73.88,-75.5]]]}},{"type":"Feature","properties":{"kind":"blob","cls":0,"id":17},"geometry":{"type":"Polygon","coordinates":[[[141.75,12.62],[143.25,12.62],[144.12,13.75],[143.88,15.25],[142.5,16.12],[141.25,15.88],[140.38,14.75],[140.38,13.75],[140.75,13.38],[141.5,13.62],[141.88,13.25],[141.75,12.62]]]}},{"type":"Feature","properties":{"kind":"blob","cls":3,"id":18},"geometry":{"type":"Polygon","coordinates":[[[-53.25,66.62],[-50.75,67.12],[-50.38,67.75],[-51.75,70.12],[-52.75,70.12],[-52.75,69.62],[-53.5,69.62],[-54.12,70.0],[-53.25,70.38],[-55.75,70.38],[-58.25,69.88],[-59.12,69.25],[-58.62,69.0],[-59.12,68.0],[-58.75,67.38],[-53.25,66.62]]]}},{"type":"Feature","properties":{"kind":"blob","cls":4,"id":19},"geometry":{"type":"Polygon","coordinates":[[[58.25,81.38],[70.75,81.38],[76.0,82.12],[78.38,83.25],[76.75,84.12],[71.25,84.88],[55.25,85.12],[46.0,84.38],[44.0,83.88],[43.12,83.25],[44.75,82.38],[47.75,81.88],[58.25,81.38]]]}},{"type":"Feature","properties":{"kind":"blob","cls":4,"id":20},"geometry":{"type":"Polygon","coordinates":[[[118.25,-46.62],[121.0,-46.62],[122.38,-45.5],[122.62,-44.5],[120.62,-42.25],[120.0,-40.62],[119.0,-39.88],[117.25,-39.62],[115.38,-40.75],[115.12,-43.75],[115.38,-44.75],[116.75,-46.12],[118.25,-46.62]]]}},{"type":"Feature","properties":{"kind":"blob","cls":1,"id":21},"geometry":{"type":"Polygon","coordinates":[[[-59.0,57.12],[-57.38,58.25],[-57.38,59.5],[-58.25,60.38],[-60.0,60.88],[-63.5,60.38],[-64.62,59.25],[-64.62,58.25],[-63.0,57.12],[-59.0,57.12]]]}},{"type":"Feature","properties":{"kind":"blob","cls":4,"id":22},"geometry":{"type":"Polygon","coordinates":[[[-26.0,-36.38],[-24.88,-35.25],[-25.12,-32.75],[-27.25,-31.62],[-29.25,-32.12],[-30.12,-33.25],[-29.88,-35.5],[-29.25,-36.12],[-26.0,-36.38]]]}},{"type":"Feature","properties":{"kind":"blob","cls":4,"id":23},"geometry":{"type":"Polygon","coordinates":[[[-93.25,57.38],[-90.75,58.12],[-88.88,59.5],[-88.62,61.0],[-91.0,62.62],[-96.0,62.62],[-98.38,60.75],[-99.12,59.25],[-98.0,58.12],[-93.25,57.38]]]}},{"type":"Feature","properties":{"kind":"blob","cls":4,"id":24},"geometry":{"type":"Polygon","coordinates":[[[-58.75,73.12],[-56.5,73.38],[-56.38,73.75],[-59.0,74.88],[-60.75,76.38],[-66.0,76.38],[-68.25,76.88],[-69.75,76.38],[-70.38,75.75],[-70.12,74.75],[-69.0,74.12],[-66.0,73.38],[-58.75,73.12]]]}},{"type":"Feature","properties":{"kind":"blob","cls":4,"id":25},"geometry":{"type":"Polygon","coordinates":[[[-98.5,63.12],[-96.75,63.88],[-95.88,65.25],[-96.75,66.38],[-98.75,67.38],[-101.0,67.88],[-106.5,67.38],[-107.75,66.88],[-108.88,65.75],[-108.88,65.25],[-107.5,63.88],[-105.5,63.12],[-98.5,63.12]]]}},{"type":"Feature","properties":{"kind":"blob","cls":1,"id":26},"geometry":{"type":"Polygon","coordinates":[[[-175.5,48.62],[-174.0,49.12],[-173.12,50.25],[-173.38,51.5],[-174.0,52.12],[-175.5,52.62],[-178.5,52.12],[-179.38,51.0],[-179.38,50.25],[-178.5,49.12],[-175.5,48.62]]]}},{"type":"Feature","properties":{"kind":"blob","cls":5,"id":27},"geometry":{"type":"Polygon","coordinates":[[[-38.25,65.38],[-36.25,65.12],[-34.0,65.62],[-31.62,67.25],[-31.62,68.0],[-34.5,66.62],[-38.25,65.38]]]}},{"type":"Feature","properties":{"kind":"blob","cls":4,"id":28},"geometry":{"type":"MultiPolygon","coordinates":[[[[-24.5,72.88],[-24.62,72.75],[-24.5,72.62],[-24.5,72.88]]],[[[-24.25,72.88],[-23.25,72.88],[-22.0,73.38],[-21.38,74.5],[-24.0,74.12],[-24.25,72.88]],[[-23.5,73.62],[-23.62,73.75],[-23.0,73.88],[-23.5,73.62]]]]}},{"type":"Feature","properties":{"kind":"blob","cls":5,"id":29},"geometry":{"type":"Polygon","coordinates":[[[-141.0,54.38],[-138.75,55.12],[-137.62,56.5],[-137.88,58.5],[-140.25,59.62],[-142.0,59.62],[-144.0,58.88],[-145.38,56.5],[-144.25,54.88],[-141.0,54.38]]]}},{"type":"Feature","properties":{"kind":"blob","cls":4,"id":30},"geometry":{"type":"Polygon","coordinates":[[[30.25,-31.38],[32.25,-31.38],[33.38,-30.0],[33.12,-29.0],[32.0,-27.88],[31.25,-27.88],[31.0,-28.62],[30.12,-28.75],[30.88,-29.0],[29.38,-31.0],[30.25,-31.38]]]}},{"type":"Feature","properties":{"kind":"blob","cls":3,"id":31},"geometry":{"type":"Polygon","coordinates":[[[-126.0,-27.62],[-124.88,-26.5],[-124.88,-25.0],[-126.0,-23.88],[-128.0,-23.62],[-129.88,-25.0],[-129.88,-26.5],[-129.0,-26.88],[-128.5,-27.62],[-126.0,-27.62]]]}},{"type":"Feature","properties":{"kind":"blob","cls":3,"id":32},"geometry":{"type":"Polygon","coordinates":[[[123.75,36.38],[125.38,37.5],[125.62,38.5],[124.5,39.88],[122.5,40.12],[120.88,39.0],[120.88,37.5],[121.75,36.62],[123.75,36.38]]]}},{"type":"Feature","properties":{"kind":"blob","cls":4,"id":33},"geometry":{"type":"Polygon","coordinates":[[[36.25,-40.38],[37.5,-39.88],[38.38,-39.0],[38.62,-38.0],[37.25,-36.12],[35.75,-35.62],[33.5,-35.62],[31.88,-36.75],[31.88,-38.25],[33.5,-39.88],[36.25,-40.38]]]}},{"type":"Feature","properties":{"kind":"blob","cls":4,"id":34},"geometry":{"type":"Polygon","coordinates":[[[-66.75,76.88],[-66.12,77.0],[-66.25,77.12],[-66.75,76.88]]]}},{"type":"Feature","properties":{"kind":"blob","cls":4,"id":35},"geometry":{"type":"Polygon","coordinates":[[[-62.75,39.38],[-60.5,40.62],[-59.88,41.75],[-59.88,43.5],[-58.75,43.88],[-57.38,45.0],[-57.25,46.38],[-53.5,47.62],[-53.12,48.25],[-53.38,49.75],[-55.25,50.62],[-56.5,50.62],[-59.0,49.62],[-59.88,48.75],[-60.0,47.62],[-61.5,47.62],[-62.75,47.12],[-63.62,46.0],[-63.38,44.5],[-64.62,43.75],[-64.88,42.75],[-65.88,41.75],[-65.88,40.75],[-64.75,39.62],[-62.75,39.38]]]}},{"type":"Feature","properties":{"kind":"blob","cls":4,"id":36},"geometry":{"type":"Polygon","coordinates":[[[-158.5,-34.12],[-156.62,-33.0],[-156.38,-31.5],[-157.5,-30.12],[-159.75,-29.62],[-161.38,-30.5],[-161.62,-32.75],[-161.0,-33.62],[-158.5,-34.12]]]}},{"type":"Feature","properties":{"kind":"blob","cls":1,"id":37},"geometry":{"type":"Polygon","coordinates":[[[-102.25,16.12],[-101.12,17.5],[-101.12,18.5],[-102.75,19.62],[-103.12,19.25],[-102.38,18.5],[-103.25,18.38],[-103.5,19.38],[-104.38,19.5],[-105.12,20.5],[-104.38,21.5],[-106.25,23.62],[-108.5,23.38],[-109.38,22.5],[-109.38,20.75],[-108.0,19.38],[-105.75,19.38],[-105.62,17.25],[-104.75,16.38],[-102.25,16.12]]]}},{"type":"Feature","properties":{"kind":"blob","cls":1,"id":38},"geometry":{"type":"Polygon","coordinates":[[[94.25,25.88],[94.38,26.25],[93.25,26.62],[94.25,25.88]]]}},{"type":"Feature","properties":{"kind":"blob","cls":1,"id":39},"geometry":{"type":"Polygon","coordinates":[[[47.5,-16.62],[49.0,-16.62],[49.88,-15.5],[49.5,-13.88],[49.25,-14.88],[48.38,-14.5],[49.38,-13.75],[48.25,-13.12],[47.0,-13.38],[46.12,-14.5],[46.38,-16.0],[47.5,-16.62]]]}},{"type":"Feature","properties":{"kind":"blob","cls":1,"id":40},"geometry":{"type":"Polygon","coordinates":[[[95.25,25.38],[95.62,25.5],[95.5,25.62],[95.25,25.38]]]}},{"type":"Feature","properties":{"kind":"blob","cls":4,"id":41},"geometry":{"type":"Polygon","coordinates":[[[7.0,42.62],[8.25,43.12],[9.38,44.5],[9.12,45.5],[8.5,46.12],[7.38,45.25],[7.38,44.5],[7.88,44.0],[6.5,43.88],[5.38,45.0],[7.12,46.75],[5.75,46.88],[4.5,46.38],[3.62,45.25],[3.75,44.88],[4.38,45.0],[3.88,44.25],[4.75,43.12],[7.0,42.62]]]}},{"type":"Feature","properties":{"kind":"blob","cls":6,"id":42},"geometry":{"type":"Polygon","coordinates":[[[-75.38,-4.0],[-76.0,-2.62],[-76.12,-3.25],[-75.38,-4.0]]]}},{"type":"Feature","properties":{"kind":"blob","cls":0,"id":43},"geometry":{"type":"Polygon","coordinates":[[[-36.0,-41.62],[-34.38,-40.5],[-36.75,-40.12],[-37.62,-39.25],[-37.62,-38.5],[-36.38,-38.0],[-36.75,-37.62],[-37.75,-37.62],[-39.38,-38.75],[-39.62,-39.75],[-38.5,-41.12],[-36.0,-41.62]]]}},{"type":"Feature","properties":{"kind":"blob","cls":4,"id":44},"geometry":{"type":"Polygon","coordinates":[[[-28.0,44.12],[-26.75,44.62],[-25.88,45.75],[-26.12,46.75],[-27.0,47.62],[-28.25,48.12],[-30.75,47.62],[-31.62,46.5],[-31.62,45.75],[-30.75,44.62],[-28.0,44.12]]]}},{"type":"Feature","properties":{"kind":"blob","cls":3,"id":45},"geometry":{"type":"Polygon","coordinates":[[[82.0,43.38],[82.12,43.75],[81.0,44.38],[78.12,44.0],[78.25,43.62],[82.0,43.38]]]}},{"type":"Feature","properties":{"kind":"blob","cls":1,"id":46},"geometry":{"type":"Polygon","coordinates":[[[-101.88,37.75],[-101.75,37.62],[-101.62,38.0],[-101.88,37.75]]]}},{"type":"Feature","properties":{"kind":"blob","cls":3,"id":47},"geometry":{"type":"Polygon","coordinates":[[[77.62,44.75],[78.0,44.38],[79.25,45.38],[80.25,45.38],[81.0,45.88],[81.75,45.88],[82.38,45.25],[81.38,45.0],[82.25,44.38],[82.88,44.5],[82.88,45.0],[82.0,46.12],[79.75,46.62],[78.5,46.12],[77.62,44.75]]]}},{"type":"Feature","properties":{"kind":"center","id":1,"lat":-69.0,"lon":-129.75,"mslp":930.0,"hvtl":153.5,"hvtu":-89.2,"hb":-3.6,"idx":1.1,"cls":1,"psfc":930.0,"terrain":false,"radius_km":200,"name":"sym shallow warm","track":"T01"},"geometry":{"type":"Point","coordinates":[-129.75,-69.0]}},{"type":"Feature","properties":{"kind":"center","id":2,"lat":-61.25,"lon":95.75,"mslp":952.0,"hvtl":59.2,"hvtu":-77.0,"hb":1.8,"idx":0.4,"cls":1,"psfc":952.0,"terrain":false,"radius_km":200,"name":"sym shallow warm","track":"T05"},"geometry":{"type":"Point","coordinates":[95.75,-61.25]}},{"type":"Feature","properties":{"kind":"center","id":3,"lat":-63.5,"lon":-174.25,"mslp":952.4,"hvtl":7.5,"hvtu":-162.5,"hb":60.9,"idx":-0.8,"cls":3,"psfc":952.4,"terrain":false,"radius_km":200,"name":"asym shallow warm","track":"T08"},"geometry":{"type":"Point","coordinates":[-174.25,-63.5]}},{"type":"Feature","properties":{"kind":"center","id":4,"lat":-67.75,"lon":-28.25,"mslp":961.1,"hvtl":24.0,"hvtu":-78.5,"hb":14.6,"idx":-0.2,"cls":3,"psfc":961.1,"terrain":false,"radius_km":200,"name":"asym shallow warm","track":"T22"},"geometry":{"type":"Point","coordinates":[-28.25,-67.75]}},{"type":"Feature","properties":{"kind":"center","id":5,"lat":13.0,"lon":-99.5,"mslp":962.0,"hvtl":55.9,"hvtu":333.2,"hb":7.1,"idx":2.0,"cls":0,"psfc":962.0,"terrain":false,"radius_km":200,"name":"sym deep warm","track":"T24"},"geometry":{"type":"Point","coordinates":[-99.5,13.0]}},{"type":"Feature","properties":{"kind":"center","id":6,"lat":-81.5,"lon":-151.5,"mslp":962.0,"hvtl":-11.5,"hvtu":-34.2,"hb":8.4,"idx":-0.6,"cls":5,"psfc":900.6,"terrain":false,"radius_km":200,"name":"sym cold","track":"T25"},"geometry":{"type":"Point","coordinates":[-151.5,-81.5]}},{"type":"Feature","properties":{"kind":"center","id":7,"lat":-50.0,"lon":91.75,"mslp":964.6,"hvtl":-380.3,"hvtu":-464.9,"hb":69.5,"idx":-3.0,"cls":4,"psfc":964.6,"terrain":false,"radius_km":200,"name":"asym cold"},"geometry":{"type":"Point","coordinates":[91.75,-50.0]}},{"type":"Feature","properties":{"kind":"center","id":8,"lat":-62.5,"lon":42.0,"mslp":975.4,"hvtl":38.5,"hvtu":-92.2,"hb":9.8,"idx":0.0,"cls":1,"psfc":975.4,"terrain":false,"radius_km":200,"name":"sym shallow warm","track":"T35"},"geometry":{"type":"Point","coordinates":[42.0,-62.5]}},{"type":"Feature","properties":{"kind":"center","id":9,"lat":78.75,"lon":127.0,"mslp":977.6,"hvtl":76.0,"hvtu":-123.2,"hb":57.6,"idx":0.4,"cls":3,"psfc":977.6,"terrain":false,"radius_km":200,"name":"asym shallow warm","track":"T45"},"geometry":{"type":"Point","coordinates":[127.0,78.75]}},{"type":"Feature","properties":{"kind":"center","id":10,"lat":21.0,"lon":90.25,"mslp":978.8,"hvtl":111.4,"hvtu":152.9,"hb":9.5,"idx":2.5,"cls":0,"psfc":978.8,"terrain":false,"radius_km":200,"name":"sym deep warm","track":"T42"},"geometry":{"type":"Point","coordinates":[90.25,21.0]}},{"type":"Feature","properties":{"kind":"center","id":11,"lat":-56.5,"lon":48.25,"mslp":980.2,"hvtl":-130.2,"hvtu":-219.8,"hb":20.6,"idx":-2.7,"cls":4,"psfc":980.2,"terrain":false,"radius_km":200,"name":"asym cold"},"geometry":{"type":"Point","coordinates":[48.25,-56.5]}},{"type":"Feature","properties":{"kind":"center","id":12,"lat":76.25,"lon":-4.5,"mslp":980.8,"hvtl":-191.4,"hvtu":-434.7,"hb":124.3,"idx":-2.9,"cls":4,"psfc":980.8,"terrain":false,"radius_km":200,"name":"asym cold"},"geometry":{"type":"Point","coordinates":[-4.5,76.25]}},{"type":"Feature","properties":{"kind":"center","id":13,"lat":-70.25,"lon":26.0,"mslp":983.9,"hvtl":-82.3,"hvtu":-118.9,"hb":5.5,"idx":-2.2,"cls":5,"psfc":980.2,"terrain":false,"radius_km":200,"name":"sym cold"},"geometry":{"type":"Point","coordinates":[26.0,-70.25]}},{"type":"Feature","properties":{"kind":"center","id":14,"lat":-73.75,"lon":-62.0,"mslp":985.6,"hvtl":-81.2,"hvtu":-163.5,"hb":38.4,"idx":-2.3,"cls":4,"psfc":903.6,"terrain":false,"radius_km":200,"name":"asym cold","track":"T16"},"geometry":{"type":"Point","coordinates":[-62.0,-73.75]}},{"type":"Feature","properties":{"kind":"center","id":15,"lat":63.5,"lon":-54.25,"mslp":986.8,"hvtl":-117.4,"hvtu":-207.2,"hb":9.7,"idx":-2.6,"cls":5,"psfc":986.8,"terrain":false,"radius_km":200,"name":"sym cold","track":"T69"},"geometry":{"type":"Point","coordinates":[-54.25,63.5]}},{"type":"Feature","properties":{"kind":"center","id":16,"lat":-75.5,"lon":-73.0,"mslp":987.4,"hvtl":-102.0,"hvtu":-127.1,"hb":65.9,"idx":-2.4,"cls":4,"psfc":905.5,"terrain":false,"radius_km":200,"name":"asym cold","track":"T52"},"geometry":{"type":"Point","coordinates":[-73.0,-75.5]}},{"type":"Feature","properties":{"kind":"center","id":17,"lat":14.25,"lon":142.25,"mslp":988.4,"hvtl":97.5,"hvtu":96.4,"hb":0.7,"idx":2.2,"cls":0,"psfc":988.4,"terrain":false,"radius_km":200,"name":"sym deep warm","track":"T50"},"geometry":{"type":"Point","coordinates":[142.25,14.25]}},{"type":"Feature","properties":{"kind":"center","id":18,"lat":68.5,"lon":-54.5,"mslp":990.5,"hvtl":108.8,"hvtu":-137.4,"hb":22.8,"idx":0.7,"cls":3,"psfc":990.5,"terrain":false,"radius_km":200,"name":"asym shallow warm","track":"T63"},"geometry":{"type":"Point","coordinates":[-54.5,68.5]}},{"type":"Feature","properties":{"kind":"center","id":19,"lat":83.25,"lon":61.5,"mslp":991.0,"hvtl":-219.5,"hvtu":-275.4,"hb":41.2,"idx":-2.9,"cls":4,"psfc":991.0,"terrain":false,"radius_km":200,"name":"asym cold"},"geometry":{"type":"Point","coordinates":[61.5,83.25]}},{"type":"Feature","properties":{"kind":"center","id":20,"lat":-44.0,"lon":118.5,"mslp":991.4,"hvtl":-110.3,"hvtu":-93.2,"hb":40.1,"idx":-2.3,"cls":4,"psfc":991.4,"terrain":false,"radius_km":200,"name":"asym cold","track":"T53"},"geometry":{"type":"Point","coordinates":[118.5,-44.0]}},{"type":"Feature","properties":{"kind":"center","id":21,"lat":59.0,"lon":-60.75,"mslp":993.0,"hvtl":12.0,"hvtu":-410.0,"hb":9.1,"idx":-0.8,"cls":1,"psfc":993.0,"terrain":false,"radius_km":200,"name":"sym shallow warm","track":"T71"},"geometry":{"type":"Point","coordinates":[-60.75,59.0]}},{"type":"Feature","properties":{"kind":"center","id":22,"lat":-34.25,"lon":-27.75,"mslp":994.6,"hvtl":-5.8,"hvtu":-335.6,"hb":81.9,"idx":-1.1,"cls":4,"psfc":994.6,"terrain":false,"radius_km":200,"name":"asym cold","track":"T76"},"geometry":{"type":"Point","coordinates":[-27.75,-34.25]}},{"type":"Feature","properties":{"kind":"center","id":23,"lat":60.25,"lon":-94.0,"mslp":995.3,"hvtl":-161.2,"hvtu":-93.5,"hb":29.0,"idx":-2.6,"cls":4,"psfc":995.3,"terrain":false,"radius_km":200,"name":"asym cold"},"geometry":{"type":"Point","coordinates":[-94.0,60.25]}},{"type":"Feature","properties":{"kind":"center","id":24,"lat":75.5,"lon":-61.5,"mslp":995.9,"hvtl":-46.6,"hvtu":-156.7,"hb":30.2,"idx":-1.8,"cls":4,"psfc":995.9,"terrain":false,"radius_km":200,"name":"asym cold","track":"T66"},"geometry":{"type":"Point","coordinates":[-61.5,75.5]}},{"type":"Feature","properties":{"kind":"center","id":25,"lat":65.0,"lon":-102.25,"mslp":996.0,"hvtl":-154.7,"hvtu":-81.7,"hb":44.7,"idx":-2.5,"cls":4,"psfc":964.7,"terrain":false,"radius_km":200,"name":"asym cold","track":"T77"},"geometry":{"type":"Point","coordinates":[-102.25,65.0]}},{"type":"Feature","properties":{"kind":"center","id":26,"lat":50.75,"lon":-176.25,"mslp":996.0,"hvtl":85.7,"hvtu":-172.7,"hb":7.7,"idx":0.5,"cls":1,"psfc":996.0,"terrain":false,"radius_km":200,"name":"sym shallow warm","track":"T81"},"geometry":{"type":"Point","coordinates":[-176.25,50.75]}},{"type":"Feature","properties":{"kind":"center","id":27,"lat":65.25,"lon":-38.0,"mslp":996.4,"hvtl":-285.7,"hvtu":-333.6,"hb":7.0,"idx":-3.0,"cls":5,"psfc":996.4,"terrain":false,"radius_km":200,"name":"sym cold","track":"T41"},"geometry":{"type":"Point","coordinates":[-38.0,65.25]}},{"type":"Feature","properties":{"kind":"center","id":28,"lat":72.75,"lon":-24.5,"mslp":996.4,"hvtl":-200.2,"hvtu":-249.0,"hb":69.6,"idx":-2.9,"cls":4,"psfc":960.8,"terrain":false,"radius_km":200,"name":"asym cold"},"geometry":{"type":"Point","coordinates":[-24.5,72.75]}},{"type":"Feature","properties":{"kind":"center","id":29,"lat":56.25,"lon":-142.0,"mslp":999.0,"hvtl":-4.6,"hvtu":-146.9,"hb":9.9,"idx":-1.0,"cls":5,"psfc":999.0,"terrain":false,"radius_km":200,"name":"sym cold","track":"T34"},"geometry":{"type":"Point","coordinates":[-142.0,56.25]}},{"type":"Feature","properties":{"kind":"center","id":30,"lat":-29.75,"lon":31.0,"mslp":999.1,"hvtl":-32.9,"hvtu":-69.9,"hb":59.5,"idx":-1.2,"cls":4,"psfc":985.1,"terrain":false,"radius_km":200,"name":"asym cold"},"geometry":{"type":"Point","coordinates":[31.0,-29.75]}},{"type":"Feature","properties":{"kind":"center","id":31,"lat":-25.75,"lon":-128.0,"mslp":1000.6,"hvtl":52.7,"hvtu":-140.6,"hb":35.8,"idx":0.1,"cls":3,"psfc":1000.6,"terrain":false,"radius_km":200,"name":"asym shallow warm","track":"T85"},"geometry":{"type":"Point","coordinates":[-128.0,-25.75]}},{"type":"Feature","properties":{"kind":"center","id":32,"lat":38.25,"lon":123.25,"mslp":1001.2,"hvtl":78.3,"hvtu":-113.9,"hb":70.5,"idx":0.5,"cls":3,"psfc":1001.2,"terrain":false,"radius_km":200,"name":"asym shallow warm"},"geometry":{"type":"Point","coordinates":[123.25,38.25]}},{"type":"Feature","properties":{"kind":"center","id":33,"lat":-38.0,"lon":35.25,"mslp":1002.7,"hvtl":-326.0,"hvtu":-230.1,"hb":113.5,"idx":-3.0,"cls":4,"psfc":1002.7,"terrain":false,"radius_km":200,"name":"asym cold"},"geometry":{"type":"Point","coordinates":[35.25,-38.0]}},{"type":"Feature","properties":{"kind":"center","id":34,"lat":77.0,"lon":-66.25,"mslp":1003.2,"hvtl":-30.8,"hvtu":-107.0,"hb":39.5,"idx":-1.4,"cls":4,"psfc":903.5,"terrain":true,"radius_km":200,"name":"asym cold"},"geometry":{"type":"Point","coordinates":[-66.25,77.0]}},{"type":"Feature","properties":{"kind":"center","id":35,"lat":45.5,"lon":-60.5,"mslp":1007.5,"hvtl":-457.1,"hvtu":-167.2,"hb":117.3,"idx":-2.9,"cls":4,"psfc":1007.5,"terrain":false,"radius_km":200,"name":"asym cold"},"geometry":{"type":"Point","coordinates":[-60.5,45.5]}},{"type":"Feature","properties":{"kind":"center","id":36,"lat":-31.75,"lon":-159.0,"mslp":1008.0,"hvtl":-73.2,"hvtu":-411.1,"hb":39.4,"idx":-2.2,"cls":4,"psfc":1008.0,"terrain":false,"radius_km":200,"name":"asym cold"},"geometry":{"type":"Point","coordinates":[-159.0,-31.75]}},{"type":"Feature","properties":{"kind":"center","id":37,"lat":18.25,"lon":-104.0,"mslp":1008.2,"hvtl":44.5,"hvtu":-0.8,"hb":-0.4,"idx":0.8,"cls":1,"psfc":1008.2,"terrain":false,"radius_km":200,"name":"sym shallow warm","track":"T107"},"geometry":{"type":"Point","coordinates":[-104.0,18.25]}},{"type":"Feature","properties":{"kind":"center","id":38,"lat":26.5,"lon":93.75,"mslp":1009.4,"hvtl":15.7,"hvtu":-139.5,"hb":-4.8,"idx":-0.6,"cls":1,"psfc":985.5,"terrain":false,"radius_km":200,"name":"sym shallow warm"},"geometry":{"type":"Point","coordinates":[93.75,26.5]}},{"type":"Feature","properties":{"kind":"center","id":39,"lat":-15.0,"lon":48.0,"mslp":1010.5,"hvtl":106.7,"hvtu":-77.4,"hb":-25.9,"idx":0.9,"cls":1,"psfc":1003.7,"terrain":false,"radius_km":200,"name":"sym shallow warm"},"geometry":{"type":"Point","coordinates":[48.0,-15.0]}},{"type":"Feature","properties":{"kind":"center","id":40,"lat":25.5,"lon":95.5,"mslp":1011.4,"hvtl":6.4,"hvtu":-72.0,"hb":2.0,"idx":-0.5,"cls":1,"psfc":987.7,"terrain":false,"radius_km":200,"name":"sym shallow warm"},"geometry":{"type":"Point","coordinates":[95.5,25.5]}},{"type":"Feature","properties":{"kind":"center","id":41,"lat":42.75,"lon":6.5,"mslp":1012.0,"hvtl":-113.6,"hvtu":-136.5,"hb":60.2,"idx":-2.5,"cls":4,"psfc":1012.0,"terrain":false,"radius_km":200,"name":"asym cold"},"geometry":{"type":"Point","coordinates":[6.5,42.75]}},{"type":"Feature","properties":{"kind":"center","id":42,"lat":-3.5,"lon":-75.75,"mslp":1012.2,"hvtl":-9.1,"hvtu":21.5,"hb":-7.2,"idx":0.0,"cls":6,"psfc":991.3,"terrain":false,"radius_km":200,"name":"shallow cold"},"geometry":{"type":"Point","coordinates":[-75.75,-3.5]}},{"type":"Feature","properties":{"kind":"center","id":43,"lat":-39.75,"lon":-37.25,"mslp":1013.9,"hvtl":57.3,"hvtu":20.5,"hb":-15.3,"idx":1.2,"cls":0,"psfc":1013.9,"terrain":false,"radius_km":200,"name":"sym deep warm"},"geometry":{"type":"Point","coordinates":[-37.25,-39.75]}},{"type":"Feature","properties":{"kind":"center","id":44,"lat":46.0,"lon":-29.0,"mslp":1019.3,"hvtl":-106.3,"hvtu":-218.3,"hb":28.4,"idx":-2.5,"cls":4,"psfc":1019.3,"terrain":false,"radius_km":200,"name":"asym cold"},"geometry":{"type":"Point","coordinates":[-29.0,46.0]}},{"type":"Feature","properties":{"kind":"center","id":45,"lat":43.75,"lon":81.25,"mslp":1026.3,"hvtl":8.4,"hvtu":-202.0,"hb":68.6,"idx":-0.8,"cls":3,"psfc":938.6,"terrain":false,"radius_km":200,"name":"asym shallow warm","track":"T117"},"geometry":{"type":"Point","coordinates":[81.25,43.75]}},{"type":"Feature","properties":{"kind":"center","id":46,"lat":38.0,"lon":-101.75,"mslp":1026.7,"hvtl":158.4,"hvtu":-53.2,"hb":-18.1,"idx":1.4,"cls":1,"psfc":906.9,"terrain":true,"radius_km":200,"name":"sym shallow warm"},"geometry":{"type":"Point","coordinates":[-101.75,38.0]}},{"type":"Feature","properties":{"kind":"center","id":47,"lat":44.5,"lon":78.0,"mslp":1027.9,"hvtl":12.7,"hvtu":-221.4,"hb":68.3,"idx":-0.7,"cls":3,"psfc":916.2,"terrain":true,"radius_km":200,"name":"asym shallow warm"},"geometry":{"type":"Point","coordinates":[78.0,44.5]}}]}