{"type":"FeatureCollection","features":[{"type":"Feature","properties":{"kind":"blob","cls":1,"id":1},"geometry":{"type":"MultiPolygon","coordinates":[[[[171.75,57.88],[174.5,57.62],[176.25,58.12],[177.88,59.25],[178.12,60.25],[177.0,61.38],[175.25,61.88],[172.5,61.62],[171.75,60.88],[170.75,60.62],[170.5,60.88],[169.38,59.75],[170.0,58.62],[172.5,59.62],[172.62,59.25],[172.0,58.88],[170.12,58.5],[171.75,57.88]]],[[[170.75,61.12],[170.62,61.0],[170.75,60.88],[170.75,61.12]]]]}},{"type":"Feature","properties":{"kind":"blob","cls":4,"id":2},"geometry":{"type":"Polygon","coordinates":[[[38.75,-65.38],[43.25,-65.38],[44.5,-64.88],[45.38,-64.0],[45.38,-63.5],[43.75,-62.12],[40.25,-61.12],[36.5,-61.38],[34.62,-62.5],[34.62,-63.5],[35.75,-64.62],[38.75,-65.38]]]}},{"type":"Feature","properties":{"kind":"blob","cls":1,"id":3},"geometry":{"type":"Polygon","coordinates":[[[-138.5,-68.12],[-135.5,-67.12],[-134.88,-66.25],[-135.12,-65.25],[-136.5,-64.38],[-138.38,-64.0],[-135.75,-63.12],[-135.12,-61.75],[-136.0,-60.88],[-138.25,-60.12],[-142.0,-60.12],[-144.25,-60.88],[-145.12,-61.75],[-145.12,-62.25],[-143.75,-63.62],[-142.0,-63.88],[-142.0,-64.38],[-145.75,-65.38],[-145.5,-64.62],[-143.62,-64.0],[-146.5,-64.12],[-149.25,-65.12],[-149.62,-65.75],[-149.62,-66.75],[-149.25,-67.12],[-147.5,-67.88],[-138.5,-68.12]]]}},{"type":"Feature","properties":{"kind":"blob","cls":6,"id":4},"geometry":{"type":"Polygon","coordinates":[[[15.75,-60.88],[17.5,-60.38],[18.38,-59.5],[18.38,-58.5],[17.5,-57.62],[15.5,-56.88],[12.5,-56.88],[10.5,-57.62],[9.88,-58.25],[9.88,-59.25],[11.25,-60.38],[15.75,-60.88]]]}},{"type":"Feature","properties":{"kind":"blob","cls":3,"id":5},"geometry":{"type":"Polygon","coordinates":[[[111.5,-55.12],[114.75,-55.12],[115.88,-54.5],[116.62,-53.25],[115.5,-51.88],[114.5,-51.38],[110.75,-51.38],[108.88,-53.25],[109.75,-54.62],[111.5,-55.12]]]}},{"type":"Feature","properties":{"kind":"blob","cls":4,"id":6},"geometry":{"type":"Polygon","coordinates":[[[123.25,-56.12],[125.25,-55.38],[126.12,-54.25],[126.12,-52.75],[125.25,-51.88],[123.75,-51.38],[121.25,-51.62],[119.75,-52.38],[119.12,-53.5],[119.38,-54.5],[120.25,-55.38],[123.25,-56.12]]]}},{"type":"Feature","properties":{"kind":"blob","cls":1,"id":7},"geometry":{"type":"Polygon","coordinates":[[[-109.5,-74.38],[-99.5,-74.38],[-99.0,-73.88],[-95.75,-73.62],[-95.62,-73.0],[-97.25,-71.88],[-99.0,-71.38],[-104.0,-71.12],[-111.5,-71.62],[-114.25,-72.38],[-115.38,-73.25],[-115.38,-73.75],[-115.0,-73.88],[-111.5,-72.88],[-108.0,-72.88],[-107.62,-73.25],[-108.5,-74.12],[-109.5,-74.38]]]}},{"type":"Feature","properties":{"kind":"blob","cls":3,"id":8},"geometry":{"type":"Polygon","coordinates":[[[133.75,-64.88],[135.75,-64.38],[136.88,-63.5],[136.88,-62.25],[135.75,-61.38],[133.75,-60.88],[131.75,-60.88],[129.25,-61.62],[128.62,-62.25],[128.62,-63.5],[129.75,-64.38],[133.75,-64.88]]]}},{"type":"Feature","properties":{"kind":"blob","cls":4,"id":9},"geometry":{"type":"Polygon","coordinates":[[[116.75,-61.88],[118.5,-61.38],[119.38,-60.75],[119.88,-59.5],[118.75,-58.38],[116.5,-57.62],[113.25,-58.12],[111.88,-59.5],[111.88,-60.0],[113.25,-61.38],[116.75,-61.88]]]}},{"type":"Feature","properties":{"kind":"blob","cls":4,"id":10},"geometry":{"type":"Polygon","coordinates":[[[91.5,-66.38],[93.75,-65.38],[94.38,-64.0],[94.0,-63.38],[92.5,-62.62],[88.0,-62.38],[85.5,-62.88],[83.62,-64.0],[83.62,-65.0],[84.25,-65.62],[85.75,-66.38],[91.5,-66.38]]]}},{"type":"Feature","properties":{"kind":"blob","cls":4,"id":11},"geometry":{"type":"Polygon","coordinates":[[[-71.25,-73.62],[-67.0,-72.88],[-66.38,-71.75],[-67.12,-71.5],[-66.88,-71.0],[-67.88,-70.0],[-66.38,-69.25],[-66.62,-68.75],[-67.5,-68.62],[-68.38,-69.5],[-68.25,-70.38],[-69.12,-70.25],[-68.62,-71.5],[-69.5,-71.88],[-71.38,-71.5],[-70.75,-71.12],[-69.75,-71.38],[-69.38,-71.0],[-69.88,-70.75],[-69.75,-70.12],[-71.25,-69.62],[-75.75,-69.88],[-78.62,-71.25],[-78.62,-72.25],[-77.75,-72.88],[-71.25,-73.62]]]}},{"type":"Feature","properties":{"kind":"blob","cls":4,"id":12},"geometry":{"type":"Polygon","coordinates":[[[116.5,-66.88],[116.62,-66.5],[116.0,-65.62],[113.0,-64.62],[110.5,-64.62],[108.25,-65.38],[107.25,-64.88],[104.0,-64.38],[99.5,-64.62],[95.38,-66.5],[105.75,-65.62],[105.5,-66.38],[106.75,-66.62],[111.25,-66.62],[111.25,-66.12],[113.5,-66.12],[114.0,-66.62],[116.5,-66.88]]]}},{"type":"Feature","properties":{"kind":"blob","cls":4,"id":13},"geometry":{"type":"Polygon","coordinates":[[[-93.75,-67.38],[-92.5,-66.88],[-91.62,-66.0],[-91.62,-65.5],[-93.5,-64.12],[-97.25,-63.38],[-100.5,-63.62],[-102.38,-64.75],[-102.62,-65.25],[-101.75,-66.38],[-99.5,-67.38],[-93.75,-67.38]]]}},{"type":"Feature","properties":{"kind":"blob","cls":4,"id":14},"geometry":{"type":"MultiPolygon","coordinates":[[[[-30.38,-76.75],[-29.62,-76.75],[-29.75,-76.62],[-30.38,-76.75]]],[[[-29.62,-76.5],[-23.5,-75.88],[-22.0,-76.12],[-20.0,-74.88],[-14.38,-73.75],[-15.5,-73.38],[-11.75,-73.38],[-9.75,-72.12],[-7.75,-72.12],[-7.38,-71.75],[-8.5,-71.12],[-11.5,-70.62],[-18.0,-71.12],[-19.75,-71.62],[-22.25,-73.12],[-24.25,-73.12],[-26.0,-73.62],[-27.38,-74.5],[-27.38,-75.0],[-26.25,-75.88],[-29.62,-76.5]]]]}},{"type":"Feature","properties":{"kind":"blob","cls":3,"id":15},"geometry":{"type":"Polygon","coordinates":[[[-60.5,-71.38],[-59.0,-70.88],[-58.12,-70.0],[-58.12,-69.5],[-59.0,-68.62],[-60.5,-68.12],[-64.25,-67.88],[-65.62,-68.25],[-65.5,-68.88],[-63.0,-69.38],[-62.62,-70.5],[-60.5,-71.38]]]}},{"type":"Feature","properties":{"kind":"blob","cls":5,"id":16},"geometry":{"type":"Polygon","coordinates":[[[179.75,-82.88],[180.0,-81.38],[175.38,-82.5],[177.5,-82.88],[179.75,-82.88]]]}},{"type":"Feature","properties":{"kind":"blob","cls":5,"id":16},"geometry":{"type":"Polygon","coordinates":[[[-179.75,-81.38],[-180.0,-82.88],[-160.25,-82.38],[-148.62,-81.5],[-158.25,-80.62],[-172.25,-80.62],[-179.75,-81.38]]]}},{"type":"Feature","properties":{"kind":"blob","cls":4,"id":17},"geometry":{"type":"Polygon","coordinates":[[[141.25,-54.88],[142.75,-54.38],[143.88,-53.25],[143.88,-52.25],[143.0,-51.38],[140.25,-50.38],[137.25,-50.88],[136.38,-51.75],[136.38,-53.0],[138.0,-54.38],[141.25,-54.88]]]}},{"type":"Feature","properties":{"kind":"blob","cls":4,"id":18},"geometry":{"type":"Polygon","coordinates":[[[-46.75,-81.38],[-44.62,-81.0],[-48.25,-80.12],[-54.0,-79.62],[-62.0,-79.62],[-72.88,-80.75],[-46.75,-81.38]]]}},{"type":"Feature","properties":{"kind":"blob","cls":1,"id":19},"geometry":{"type":"Polygon","coordinates":[[[-25.5,59.88],[-23.5,60.38],[-21.62,61.75],[-21.38,62.75],[-22.25,63.88],[-24.62,64.5],[-23.88,65.25],[-24.5,66.38],[-25.25,65.62],[-27.25,65.38],[-28.5,65.88],[-29.5,67.38],[-32.75,66.62],[-33.62,65.75],[-33.62,65.25],[-32.5,64.12],[-31.12,63.5],[-31.88,62.75],[-31.62,61.75],[-29.0,60.12],[-25.5,59.88]]]}},{"type":"Feature","properties":{"kind":"blob","cls":4,"id":20},"geometry":{"type":"Polygon","coordinates":[[[163.75,-79.88],[168.0,-79.38],[170.25,-78.62],[170.62,-77.75],[168.0,-76.62],[163.5,-76.12],[162.38,-77.0],[164.62,-78.5],[162.0,-78.62],[161.88,-79.0],[163.75,-79.88]],[[166.62,-77.5],[169.12,-77.5],[169.0,-77.62],[166.62,-77.5]]]}},{"type":"Feature","properties":{"kind":"blob","cls":1,"id":21},"geometry":{"type":"Polygon","coordinates":[[[53.5,72.62],[56.75,73.12],[58.0,73.62],[58.88,74.5],[58.88,75.0],[57.0,76.38],[55.0,76.88],[47.75,77.12],[43.5,76.38],[42.88,76.0],[43.38,75.25],[42.38,75.0],[43.0,74.12],[45.0,73.38],[53.5,72.62]]]}},{"type":"Feature","properties":{"kind":"blob","cls":3,"id":22},"geometry":{"type":"Polygon","coordinates":[[[-12.25,63.12],[-9.5,63.88],[-8.62,65.0],[-8.88,66.75],[-10.25,67.62],[-12.25,68.12],[-15.75,68.12],[-17.75,67.62],[-19.12,66.75],[-19.12,65.75],[-17.75,65.38],[-17.5,64.88],[-16.75,65.12],[-15.12,64.75],[-17.25,63.88],[-12.25,63.12]]]}},{"type":"Feature","properties":{"kind":"blob","cls":3,"id":23},"geometry":{"type":"Polygon","coordinates":[[[-100.25,-47.62],[-99.0,-47.12],[-98.12,-46.0],[-98.38,-44.5],[-100.75,-43.12],[-102.25,-43.12],[-103.5,-43.62],[-104.62,-45.0],[-104.62,-46.0],[-103.75,-47.12],[-100.25,-47.62]]]}},{"type":"Feature","properties":{"kind":"blob","cls":1,"id":24},"geometry":{"type":"Polygon","coordinates":[[[23.5,55.38],[25.38,56.5],[25.62,57.5],[25.0,58.38],[23.0,59.12],[20.25,59.12],[18.25,58.38],[17.62,57.5],[17.88,56.5],[19.5,55.38],[23.5,55.38]]]}},{"type":"Feature","properties":{"kind":"blob","cls":0,"id":25},"geometry":{"type":"Polygon","coordinates":[[[-125.5,20.62],[-124.5,20.62],[-123.62,21.5],[-123.62,23.25],[-124.5,24.12],[-125.75,24.38],[-127.38,23.25],[-127.38,21.5],[-126.5,22.12],[-125.75,22.12],[-125.38,21.75],[-125.5,20.62]]]}},{"type":"Feature","properties":{"kind":"blob","cls":3,"id":26},"geometry":{"type":"Polygon","coordinates":[[[-166.5,30.88],[-165.38,31.75],[-165.12,33.25],[-165.75,34.12],[-167.75,34.62],[-169.38,33.75],[-169.62,32.0],[-169.0,31.12],[-166.5,30.88]]]}},{"type":"Feature","properties":{"kind":"blob","cls":2,"id":27},"geometry":{"type":"MultiPolygon","coordinates":[[[[163.12,13.75],[163.88,13.75],[163.75,13.88],[163.12,13.75]]],[[[161.75,13.62],[163.12,13.5],[161.62,14.25],[162.0,14.62],[163.75,14.62],[164.0,13.88],[164.62,14.75],[164.62,15.75],[163.5,17.12],[161.5,17.12],[160.62,16.0],[160.62,14.75],[161.75,13.62]]]]}},{"type":"Feature","properties":{"kind":"blob","cls":4,"id":28},"geometry":{"type":"Polygon","coordinates":[[[-136.75,49.38],[-135.25,49.88],[-134.12,51.0],[-133.88,52.5],[-134.75,53.38],[-136.25,53.88],[-139.25,53.38],[-140.38,52.0],[-140.38,51.0],[-139.25,49.88],[-136.75,49.38]]]}},{"type":"Feature","properties":{"kind":"blob","cls":0,"id":29},"geometry":{"type":"Polygon","coordinates":[[[146.12,15.25],[146.5,14.88],[147.38,16.0],[147.12,17.5],[145.75,18.38],[144.5,18.12],[143.62,17.0],[143.62,16.0],[144.0,15.62],[146.12,15.25]]]}},{"type":"Feature","properties":{"kind":"blob","cls":5,"id":30},"geometry":{"type":"MultiPolygon","coordinates":[[[[-63.5,-18.38],[-63.62,-18.5],[-63.5,-18.62],[-63.5,-18.38]]],[[[-62.75,-18.38],[-62.12,-17.75],[-61.88,-16.0],[-62.62,-14.75],[-63.62,-14.0],[-63.88,-13.0],[-65.25,-11.62],[-66.0,-11.38],[-68.5,-12.38],[-69.38,-13.5],[-68.12,-14.25],[-67.88,-15.25],[-65.5,-17.12],[-62.75,-18.38]]]]}},{"type":"Feature","properties":{"kind":"blob","cls":1,"id":31},"geometry":{"type":"Polygon","coordinates":[[[-76.0,52.62],[-72.25,53.88],[-70.88,55.25],[-70.88,56.25],[-72.5,57.62],[-74.25,58.12],[-78.75,57.88],[-81.0,57.12],[-80.0,56.38],[-78.75,56.12],[-71.62,55.75],[-74.5,54.38],[-78.75,54.38],[-81.88,55.5],[-81.88,54.75],[-81.0,53.88],[-76.0,52.62]]]}},{"type":"Feature","properties":{"kind":"blob","cls":3,"id":32},"geometry":{"type":"Polygon","coordinates":[[[158.0,31.12],[159.62,32.0],[159.88,34.0],[159.25,34.88],[157.25,35.38],[155.62,34.5],[155.38,32.5],[156.0,31.62],[158.0,31.12]]]}},{"type":"Feature","properties":{"kind":"blob","cls":5,"id":33},"geometry":{"type":"Polygon","coordinates":[[[-109.0,25.38],[-107.88,26.0],[-109.62,29.5],[-110.75,29.62],[-111.88,28.5],[-112.12,27.25],[-111.0,25.88],[-109.0,25.38]]]}},{"type":"Feature","properties":{"kind":"blob","cls":3,"id":34},"geometry":{"type":"Polygon","coordinates":[[[68.75,25.38],[69.88,26.5],[70.25,27.62],[71.75,27.88],[72.62,28.75],[73.38,30.0],[73.38,31.25],[72.75,32.12],[70.5,31.88],[69.75,29.62],[67.75,30.12],[67.38,29.75],[66.88,27.0],[65.62,26.75],[65.62,26.25],[66.5,25.38],[68.75,25.38]]]}},{"type":"Feature","properties":{"kind":"blob","cls":1,"id":35},"geometry":{"type":"Polygon","coordinates":[[[-73.0,-11.62],[-72.12,-10.75],[-71.88,-9.75],[-72.5,-9.38],[-75.25,-9.12],[-75.62,-9.5],[-75.38,-10.25],[-74.75,-10.62],[-74.25,-10.12],[-73.88,-11.25],[-73.0,-11.62]]]}},{"type":"Feature","properties":{"kind":"blob","cls":4,"id":36},"geometry":{"type":"Polygon","coordinates":[[[-160.5,72.12],[-155.5,72.88],[-152.25,74.12],[-151.62,75.25],[-152.75,76.12],[-154.75,76.62],[-163.0,76.88],[-168.0,76.12],[-170.0,75.38],[-170.88,74.5],[-170.25,73.38],[-169.0,72.88],[-167.25,72.38],[-160.5,72.12]]]}},{"type":"Feature","properties":{"kind":"blob","cls":4,"id":37},"geometry":{"type":"Polygon","coordinates":[[[-6.75,74.12],[-3.0,74.62],[0.75,76.12],[1.12,77.0],[-0.25,77.88],[-2.5,78.38],[-12.0,78.62],[-16.75,77.88],[-18.38,76.75],[-18.12,75.75],[-17.0,75.12],[-12.75,74.38],[-6.75,74.12]]]}},{"type":"Feature","properties":{"kind":"blob","cls":5,"id":38},"geometry":{"type":"Polygon","coordinates":[[[-51.25,62.38],[-49.62,62.75],[-49.75,63.62],[-50.62,63.75],[-49.38,64.25],[-50.12,65.0],[-49.88,65.5],[-50.25,65.88],[-52.25,65.62],[-52.88,66.25],[-50.0,66.62],[-54.75,66.62],[-57.12,65.25],[-57.12,64.0],[-56.5,63.38],[-55.0,62.62],[-51.25,62.38]]]}},{"type":"Feature","properties":{"kind":"blob","cls":3,"id":39},"geometry":{"type":"Polygon","coordinates":[[[-74.12,-11.75],[-74.0,-11.88],[-73.88,-11.75],[-74.12,-11.75]]]}},{"type":"Feature","properties":{"kind":"blob","cls":4,"id":40},"geometry":{"type":"Polygon","coordinates":[[[163.5,-35.88],[165.12,-35.0],[165.38,-33.5],[164.5,-32.38],[162.5,-31.88],[160.88,-32.75],[160.62,-34.5],[161.25,-35.38],[163.5,-35.88]]]}},{"type":"Feature","properties":{"kind":"blob","cls":3,"id":41},"geometry":{"type":"Polygon","coordinates":[[[-48.5,-36.88],[-46.75,-36.12],[-45.62,-34.75],[-45.88,-33.25],[-48.0,-32.38],[-51.25,-33.38],[-52.12,-34.5],[-52.12,-35.5],[-51.5,-36.38],[-48.5,-36.88]]]}},{"type":"Feature","properties":{"kind":"blob","cls":4,"id":42},"geometry":{"type":"Polygon","coordinates":[[[-53.25,68.88],[-51.5,69.12],[-51.12,69.75],[-51.62,70.75],[-54.0,72.88],[-58.25,74.62],[-60.0,76.38],[-66.75,76.62],[-64.62,77.5],[-65.5,77.88],[-67.75,77.62],[-69.62,78.0],[-57.75,80.38],[-72.0,80.12],[-76.5,79.12],[-76.5,78.62],[-77.38,78.25],[-76.5,77.38],[-74.75,76.88],[-71.5,76.62],[-69.0,75.88],[-67.0,75.88],[-68.62,74.75],[-68.62,74.0],[-67.5,72.88],[-66.0,72.12],[-64.25,71.88],[-60.75,69.62],[-53.25,68.88]],[[-53.25,69.62],[-53.88,70.0],[-52.62,69.75],[-53.25,69.62]],[[-71.62,78.25],[-70.12,78.25],[-70.25,78.12],[-71.62,78.25]],[[-68.12,77.0],[-67.38,77.0],[-67.5,76.88],[-68.12,77.0]],[[-52.88,70.5],[-52.12,70.5],[-52.25,70.38],[-52.88,70.5]]]}},{"type":"Feature","properties":{"kind":"blob","cls":3,"id":43},"geometry":{"type":"Polygon","coordinates":[[[-74.5,-11.38],[-74.12,-11.25],[-74.25,-11.12],[-74.5,-11.38]]]}},{"type":"Feature","properties":{"kind":"blob","cls":6,"id":44},"geometry":{"type":"Polygon","coordinates":[[[-99.75,75.12],[-93.25,75.12],[-90.0,76.12],[-89.62,77.0],[-92.0,78.12],[-99.5,78.62],[-104.25,77.88],[-105.62,77.0],[-105.25,76.12],[-104.25,75.62],[-99.75,75.12]]]}},{"type":"Feature","properties":{"kind":"blob","cls":3,"id":45},"geometry":{"type":"Polygon","coordinates":[[[48.0,29.12],[50.25,29.12],[51.38,30.25],[49.88,31.25],[49.88,32.0],[48.75,32.88],[47.75,33.38],[47.25,32.88],[46.0,33.38],[45.38,32.5],[45.38,30.75],[46.0,29.88],[48.0,29.12]]]}},{"type":"Feature","properties":{"kind":"blob","cls":1,"id":46},"geometry":{"type":"Polygon","coordinates":[[[65.38,28.25],[65.5,28.12],[65.62,28.5],[65.38,28.25]]]}},{"type":"Feature","properties":{"kind":"blob","cls":3,"id":47},"geometry":{"type":"Polygon","coordinates":[[[-64.0,-21.38],[-63.62,-21.25],[-64.0,-20.62],[-64.0,-21.38]]]}},{"type":"Feature","properties":{"kind":"blob","cls":3,"id":48},"geometry":{"type":"MultiPolygon","coordinates":[[[[-64.5,-23.38],[-64.62,-23.5],[-64.5,-23.62],[-64.5,-23.38]]],[[[-64.25,-23.38],[-63.62,-22.75],[-63.75,-21.88],[-64.38,-22.25],[-64.25,-23.38]]]]}},{"type":"Feature","properties":{"kind":"blob","cls":1,"id":49},"geometry":{"type":"Polygon","coordinates":[[[61.75,-33.12],[62.62,-32.75],[61.38,-32.0],[61.12,-31.25],[61.5,-30.88],[62.25,-30.88],[63.62,-31.75],[63.62,-30.5],[63.0,-29.62],[60.75,-29.12],[59.12,-30.0],[58.62,-30.75],[58.62,-31.75],[59.25,-32.62],[61.75,-33.12]]]}},{"type":"Feature","properties":{"kind":"blob","cls":4,"id":50},"geometry":{"type":"Polygon","coordinates":[[[85.5,41.62],[85.75,41.38],[86.62,41.5],[86.25,41.88],[85.5,41.62]]]}},{"type":"Feature","properties":{"kind":"blob","cls":4,"id":51},"geometry":{"type":"Polygon","coordinates":[[[84.88,42.0],[85.0,41.88],[85.12,42.0],[84.88,42.0]]]}},{"type":"Feature","properties":{"kind":"center","id":1,"lat":59.75,"lon":174.0,"mslp":940.2,"hvtl":184.6,"hvtu":-22.8,"hb":-5.2,"idx":1.7,"cls":1,"psfc":940.2,"terrain":false,"radius_km":200,"name":"sym shallow warm","track":"T07"},"geometry":{"type":"Point","coordinates":[174.0,59.75]}},{"type":"Feature","properties":{"kind":"center","id":2,"lat":-63.5,"lon":39.75,"mslp":950.2,"hvtl":-15.7,"hvtu":-172.6,"hb":58.9,"idx":-1.3,"cls":4,"psfc":950.2,"terrain":false,"radius_km":200,"name":"asym cold","track":"T16"},"geometry":{"type":"Point","coordinates":[39.75,-63.5]}},{"type":"Feature","properties":{"kind":"center","id":3,"lat":-66.0,"lon":-142.0,"mslp":951.4,"hvtl":43.9,"hvtu":-96.0,"hb":5.1,"idx":0.1,"cls":1,"psfc":951.4,"terrain":false,"radius_km":200,"name":"sym shallow warm","track":"T15"},"geometry":{"type":"Point","coordinates":[-142.0,-66.0]}},{"type":"Feature","properties":{"kind":"center","id":4,"lat":-59.0,"lon":14.25,"mslp":964.1,"hvtl":-39.8,"hvtu":19.8,"hb":-2.9,"idx":-0.6,"cls":6,"psfc":964.1,"terrain":false,"radius_km":200,"name":"shallow cold","track":"T23"},"geometry":{"type":"Point","coordinates":[14.25,-59.0]}},{"type":"Feature","properties":{"kind":"center","id":5,"lat":-53.25,"lon":112.75,"mslp":964.8,"hvtl":62.3,"hvtu":-357.1,"hb":20.9,"idx":0.1,"cls":3,"psfc":964.8,"terrain":false,"radius_km":200,"name":"asym shallow warm","track":"T31"},"geometry":{"type":"Point","coordinates":[112.75,-53.25]}},{"type":"Feature","properties":{"kind":"center","id":6,"lat":-53.75,"lon":122.5,"mslp":965.3,"hvtl":-91.2,"hvtu":-207.6,"hb":59.0,"idx":-2.4,"cls":4,"psfc":965.3,"terrain":false,"radius_km":200,"name":"asym cold","track":"T22"},"geometry":{"type":"Point","coordinates":[122.5,-53.75]}},{"type":"Feature","properties":{"kind":"center","id":7,"lat":-73.25,"lon":-105.0,"mslp":966.8,"hvtl":58.2,"hvtu":-5.9,"hb":3.9,"idx":1.0,"cls":1,"psfc":959.6,"terrain":false,"radius_km":200,"name":"sym shallow warm","track":"T18"},"geometry":{"type":"Point","coordinates":[-105.0,-73.25]}},{"type":"Feature","properties":{"kind":"center","id":8,"lat":-62.75,"lon":132.75,"mslp":969.0,"hvtl":14.2,"hvtu":-225.3,"hb":59.8,"idx":-0.7,"cls":3,"psfc":969.0,"terrain":false,"radius_km":200,"name":"asym shallow warm","track":"T38"},"geometry":{"type":"Point","coordinates":[132.75,-62.75]}},{"type":"Feature","properties":{"kind":"center","id":9,"lat":-59.75,"lon":115.75,"mslp":971.8,"hvtl":-82.0,"hvtu":-135.5,"hb":45.9,"idx":-2.2,"cls":4,"psfc":971.8,"terrain":false,"radius_km":200,"name":"asym cold"},"geometry":{"type":"Point","coordinates":[115.75,-59.75]}},{"type":"Feature","properties":{"kind":"center","id":10,"lat":-64.5,"lon":89.0,"mslp":973.7,"hvtl":-182.4,"hvtu":-139.5,"hb":50.3,"idx":-2.8,"cls":4,"psfc":973.7,"terrain":false,"radius_km":200,"name":"asym cold","track":"T37"},"geometry":{"type":"Point","coordinates":[89.0,-64.5]}},{"type":"Feature","properties":{"kind":"center","id":11,"lat":-71.75,"lon":-72.25,"mslp":974.2,"hvtl":-24.9,"hvtu":-196.9,"hb":28.5,"idx":-1.4,"cls":4,"psfc":962.4,"terrain":false,"radius_km":200,"name":"asym cold","track":"T43"},"geometry":{"type":"Point","coordinates":[-72.25,-71.75]}},{"type":"Feature","properties":{"kind":"center","id":12,"lat":-66.5,"lon":111.25,"mslp":975.3,"hvtl":-174.8,"hvtu":-6.4,"hb":16.5,"idx":-1.9,"cls":4,"psfc":901.3,"terrain":false,"radius_km":200,"name":"asym cold","track":"T01"},"geometry":{"type":"Point","coordinates":[111.25,-66.5]}},{"type":"Feature","properties":{"kind":"center","id":13,"lat":-65.75,"lon":-96.75,"mslp":975.5,"hvtl":-197.0,"hvtu":-280.2,"hb":44.8,"idx":-2.9,"cls":4,"psfc":975.5,"terrain":false,"radius_km":200,"name":"asym cold","track":"T33"},"geometry":{"type":"Point","coordinates":[-96.75,-65.75]}},{"type":"Feature","properties":{"kind":"center","id":14,"lat":-76.0,"lon":-25.0,"mslp":978.2,"hvtl":-332.9,"hvtu":-39.3,"hb":27.7,"idx":-2.4,"cls":4,"psfc":928.5,"terrain":false,"radius_km":200,"name":"asym cold","track":"T50"},"geometry":{"type":"Point","coordinates":[-25.0,-76.0]}},{"type":"Feature","properties":{"kind":"center","id":15,"lat":-70.75,"lon":-62.25,"mslp":978.6,"hvtl":24.6,"hvtu":-207.4,"hb":32.8,"idx":-0.5,"cls":3,"psfc":901.5,"terrain":false,"radius_km":200,"name":"asym shallow warm","track":"T45"},"geometry":{"type":"Point","coordinates":[-62.25,-70.75]}},{"type":"Feature","properties":{"kind":"center","id":16,"lat":-82.25,"lon":-161.5,"mslp":979.3,"hvtl":-27.0,"hvtu":-149.1,"hb":9.1,"idx":-1.4,"cls":5,"psfc":970.4,"terrain":false,"radius_km":200,"name":"sym cold","track":"T54"},"geometry":{"type":"Point","coordinates":[-161.5,-82.25]}},{"type":"Feature","properties":{"kind":"center","id":17,"lat":-52.75,"lon":140.0,"mslp":979.8,"hvtl":-309.3,"hvtu":-383.0,"hb":88.4,"idx":-3.0,"cls":4,"psfc":979.8,"terrain":false,"radius_km":200,"name":"asym cold","track":"T17"},"geometry":{"type":"Point","coordinates":[140.0,-52.75]}},{"type":"Feature","properties":{"kind":"center","id":18,"lat":-81.25,"lon":-50.5,"mslp":982.8,"hvtl":-248.6,"hvtu":-31.5,"hb":39.0,"idx":-2.3,"cls":4,"psfc":966.1,"terrain":false,"radius_km":200,"name":"asym cold","track":"T58"},"geometry":{"type":"Point","coordinates":[-50.5,-81.25]}},{"type":"Feature","properties":{"kind":"center","id":19,"lat":65.5,"lon":-29.0,"mslp":983.5,"hvtl":109.2,"hvtu":-16.6,"hb":-5.4,"idx":1.4,"cls":1,"psfc":983.5,"terrain":false,"radius_km":200,"name":"sym shallow warm","track":"T62"},"geometry":{"type":"Point","coordinates":[-29.0,65.5]}},{"type":"Feature","properties":{"kind":"center","id":20,"lat":-77.25,"lon":162.75,"mslp":983.7,"hvtl":-96.0,"hvtu":-39.3,"hb":29.4,"idx":-1.9,"cls":4,"psfc":901.8,"terrain":false,"radius_km":200,"name":"asym cold","track":"T59"},"geometry":{"type":"Point","coordinates":[162.75,-77.25]}},{"type":"Feature","properties":{"kind":"center","id":21,"lat":75.0,"lon":50.75,"mslp":986.2,"hvtl":23.4,"hvtu":-32.5,"hb":5.4,"idx":0.1,"cls":1,"psfc":986.2,"terrain":false,"radius_km":200,"name":"sym shallow warm","track":"T41"},"geometry":{"type":"Point","coordinates":[50.75,75.0]}},{"type":"Feature","properties":{"kind":"center","id":22,"lat":66.0,"lon":-13.5,"mslp":986.8,"hvtl":100.4,"hvtu":-217.7,"hb":23.5,"idx":0.6,"cls":3,"psfc":986.8,"terrain":false,"radius_km":200,"name":"asym shallow warm","track":"T53"},"geometry":{"type":"Point","coordinates":[-13.5,66.0]}},{"type":"Feature","properties":{"kind":"center","id":23,"lat":-45.25,"lon":-101.5,"mslp":987.4,"hvtl":15.7,"hvtu":-250.6,"hb":41.0,"idx":-0.7,"cls":3,"psfc":987.4,"terrain":false,"radius_km":200,"name":"asym shallow warm","track":"T39"},"geometry":{"type":"Point","coordinates":[-101.5,-45.25]}},{"type":"Feature","properties":{"kind":"center","id":24,"lat":57.25,"lon":21.75,"mslp":987.5,"hvtl":148.9,"hvtu":-173.5,"hb":-8.9,"idx":0.9,"cls":1,"psfc":984.7,"terrain":false,"radius_km":200,"name":"sym shallow warm","track":"T67"},"geometry":{"type":"Point","coordinates":[21.75,57.25]}},{"type":"Feature","properties":{"kind":"center","id":25,"lat":22.25,"lon":-125.5,"mslp":988.0,"hvtl":61.1,"hvtu":131.7,"hb":0.8,"idx":2.0,"cls":0,"psfc":988.0,"terrain":false,"radius_km":200,"name":"sym deep warm","track":"T48"},"geometry":{"type":"Point","coordinates":[-125.5,22.25]}},{"type":"Feature","properties":{"kind":"center","id":26,"lat":32.5,"lon":-167.5,"mslp":992.2,"hvtl":32.6,"hvtu":-121.1,"hb":11.1,"idx":-0.2,"cls":3,"psfc":992.2,"terrain":false,"radius_km":200,"name":"asym shallow warm","track":"T81"},"geometry":{"type":"Point","coordinates":[-167.5,32.5]}},{"type":"Feature","properties":{"kind":"center","id":27,"lat":15.25,"lon":162.5,"mslp":992.5,"hvtl":38.6,"hvtu":78.6,"hb":11.6,"idx":1.4,"cls":2,"psfc":992.5,"terrain":false,"radius_km":200,"name":"asym deep warm","track":"T02"},"geometry":{"type":"Point","coordinates":[162.5,15.25]}},{"type":"Feature","properties":{"kind":"center","id":28,"lat":51.75,"lon":-137.25,"mslp":996.9,"hvtl":-66.0,"hvtu":-349.1,"hb":70.2,"idx":-2.2,"cls":4,"psfc":996.9,"terrain":false,"radius_km":200,"name":"asym cold","track":"T68"},"geometry":{"type":"Point","coordinates":[-137.25,51.75]}},{"type":"Feature","properties":{"kind":"center","id":29,"lat":16.5,"lon":145.5,"mslp":999.0,"hvtl":0.5,"hvtu":63.6,"hb":1.8,"idx":0.6,"cls":0,"psfc":999.0,"terrain":false,"radius_km":200,"name":"sym deep warm","track":"T08"},"geometry":{"type":"Point","coordinates":[145.5,16.5]}},{"type":"Feature","properties":{"kind":"center","id":30,"lat":-14.25,"lon":-67.25,"mslp":1002.0,"hvtl":-22.0,"hvtu":-86.1,"hb":-2.1,"idx":-1.1,"cls":5,"psfc":981.6,"terrain":false,"radius_km":200,"name":"sym cold"},"geometry":{"type":"Point","coordinates":[-67.25,-14.25]}},{"type":"Feature","properties":{"kind":"center","id":31,"lat":56.0,"lon":-75.5,"mslp":1002.0,"hvtl":22.1,"hvtu":-52.7,"hb":0.1,"idx":-0.0,"cls":1,"psfc":970.9,"terrain":false,"radius_km":200,"name":"sym shallow warm","track":"T88"},"geometry":{"type":"Point","coordinates":[-75.5,56.0]}},{"type":"Feature","properties":{"kind":"center","id":32,"lat":33.25,"lon":157.5,"mslp":1002.1,"hvtl":97.0,"hvtu":-40.2,"hb":35.0,"idx":1.1,"cls":3,"psfc":1002.1,"terrain":false,"radius_km":200,"name":"asym shallow warm","track":"T40"},"geometry":{"type":"Point","coordinates":[157.5,33.25]}},{"type":"Feature","properties":{"kind":"center","id":33,"lat":27.5,"lon":-110.0,"mslp":1002.5,"hvtl":-6.4,"hvtu":-180.9,"hb":-4.9,"idx":-1.1,"cls":5,"psfc":998.4,"terrain":false,"radius_km":200,"name":"sym cold","track":"T95"},"geometry":{"type":"Point","coordinates":[-110.0,27.5]}},{"type":"Feature","properties":{"kind":"center","id":34,"lat":29.5,"lon":70.25,"mslp":1003.2,"hvtl":19.7,"hvtu":-105.3,"hb":36.9,"idx":-0.4,"cls":3,"psfc":987.4,"terrain":false,"radius_km":200,"name":"asym shallow warm","track":"T108"},"geometry":{"type":"Point","coordinates":[70.25,29.5]}},{"type":"Feature","properties":{"kind":"center","id":35,"lat":-9.5,"lon":-74.0,"mslp":1003.7,"hvtl":79.9,"hvtu":-37.2,"hb":2.1,"idx":1.0,"cls":1,"psfc":981.9,"terrain":false,"radius_km":200,"name":"sym shallow warm"},"geometry":{"type":"Point","coordinates":[-74.0,-9.5]}},{"type":"Feature","properties":{"kind":"center","id":36,"lat":74.5,"lon":-161.75,"mslp":1004.5,"hvtl":-141.2,"hvtu":-326.1,"hb":63.4,"idx":-2.8,"cls":4,"psfc":1004.4,"terrain":false,"radius_km":200,"name":"asym cold","track":"T101"},"geometry":{"type":"Point","coordinates":[-161.75,74.5]}},{"type":"Feature","properties":{"kind":"center","id":37,"lat":76.5,"lon":-10.25,"mslp":1004.7,"hvtl":-135.1,"hvtu":-201.1,"hb":56.4,"idx":-2.7,"cls":4,"psfc":1004.7,"terrain":false,"radius_km":200,"name":"asym cold","track":"T104"},"geometry":{"type":"Point","coordinates":[-10.25,76.5]}},{"type":"Feature","properties":{"kind":"center","id":38,"lat":64.5,"lon":-52.25,"mslp":1006.5,"hvtl":-15.2,"hvtu":-82.1,"hb":0.1,"idx":-1.0,"cls":5,"psfc":1005.5,"terrain":false,"radius_km":200,"name":"sym cold","track":"T44"},"geometry":{"type":"Point","coordinates":[-52.25,64.5]}},{"type":"Feature","properties":{"kind":"center","id":39,"lat":-11.75,"lon":-74.0,"mslp":1007.2,"hvtl":89.3,"hvtu":-33.1,"hb":43.3,"idx":1.1,"cls":3,"psfc":933.4,"terrain":false,"radius_km":200,"name":"asym shallow warm"},"geometry":{"type":"Point","coordinates":[-74.0,-11.75]}},{"type":"Feature","properties":{"kind":"center","id":40,"lat":-33.75,"lon":163.0,"mslp":1008.3,"hvtl":-79.4,"hvtu":-88.8,"hb":27.4,"idx":-2.0,"cls":4,"psfc":1008.3,"terrain":false,"radius_km":200,"name":"asym cold","track":"T107"},"geometry":{"type":"Point","coordinates":[163.0,-33.75]}},{"type":"Feature","properties":{"kind":"center","id":41,"lat":-34.75,"lon":-48.75,"mslp":1008.6,"hvtl":95.8,"hvtu":-283.4,"hb":65.8,"idx":0.5,"cls":3,"psfc":1008.6,"terrain":false,"radius_km":200,"name":"asym shallow warm"},"geometry":{"type":"Point","coordinates":[-48.75,-34.75]}},{"type":"Feature","properties":{"kind":"center","id":42,"lat":77.25,"lon":-72.25,"mslp":1008.9,"hvtl":-251.0,"hvtu":-120.7,"hb":54.0,"idx":-2.8,"cls":4,"psfc":1008.9,"terrain":false,"radius_km":200,"name":"asym cold","track":"T115"},"geometry":{"type":"Point","coordinates":[-72.25,77.25]}},{"type":"Feature","properties":{"kind":"center","id":43,"lat":-11.25,"lon":-74.25,"mslp":1009.0,"hvtl":102.3,"hvtu":-57.1,"hb":34.5,"idx":1.0,"cls":3,"psfc":902.4,"terrain":true,"radius_km":200,"name":"asym shallow warm"},"geometry":{"type":"Point","coordinates":[-74.25,-11.25]}},{"type":"Feature","properties":{"kind":"center","id":44,"lat":76.75,"lon":-97.5,"mslp":1009.6,"hvtl":-129.1,"hvtu":31.7,"hb":1.7,"idx":-1.4,"cls":6,"psfc":1009.6,"terrain":false,"radius_km":200,"name":"shallow cold","track":"T116"},"geometry":{"type":"Point","coordinates":[-97.5,76.75]}},{"type":"Feature","properties":{"kind":"center","id":45,"lat":29.5,"lon":50.5,"mslp":1011.0,"hvtl":70.4,"hvtu":-64.3,"hb":12.7,"idx":0.6,"cls":3,"psfc":1010.8,"terrain":false,"radius_km":200,"name":"asym shallow warm","track":"T122"},"geometry":{"type":"Point","coordinates":[50.5,29.5]}},{"type":"Feature","properties":{"kind":"center","id":46,"lat":28.5,"lon":65.5,"mslp":1011.2,"hvtl":57.3,"hvtu":-39.0,"hb":-9.8,"idx":0.7,"cls":1,"psfc":930.4,"terrain":false,"radius_km":200,"name":"sym shallow warm","track":"T100"},"geometry":{"type":"Point","coordinates":[65.5,28.5]}},{"type":"Feature","properties":{"kind":"center","id":47,"lat":-21.25,"lon":-64.0,"mslp":1012.7,"hvtl":14.6,"hvtu":-242.2,"hb":75.2,"idx":-0.7,"cls":3,"psfc":917.8,"terrain":true,"radius_km":200,"name":"asym shallow warm"},"geometry":{"type":"Point","coordinates":[-64.0,-21.25]}},{"type":"Feature","properties":{"kind":"center","id":48,"lat":-22.0,"lon":-63.75,"mslp":1014.9,"hvtl":31.6,"hvtu":-245.9,"hb":81.1,"idx":-0.4,"cls":3,"psfc":921.3,"terrain":true,"radius_km":200,"name":"asym shallow warm"},"geometry":{"type":"Point","coordinates":[-63.75,-22.0]}},{"type":"Feature","properties":{"kind":"center","id":49,"lat":-31.0,"lon":61.25,"mslp":1019.3,"hvtl":54.1,"hvtu":-145.7,"hb":-3.3,"idx":0.1,"cls":1,"psfc":1019.3,"terrain":false,"radius_km":200,"name":"sym shallow warm"},"geometry":{"type":"Point","coordinates":[61.25,-31.0]}},{"type":"Feature","properties":{"kind":"center","id":50,"lat":41.75,"lon":85.5,"mslp":1022.6,"hvtl":-19.2,"hvtu":-105.8,"hb":73.0,"idx":-1.2,"cls":4,"psfc":919.6,"terrain":true,"radius_km":200,"name":"asym cold"},"geometry":{"type":"Point","coordinates":[85.5,41.75]}},{"type":"Feature","properties":{"kind":"center","id":51,"lat":42.0,"lon":85.0,"mslp":1023.1,"hvtl":-33.6,"hvtu":-95.6,"hb":75.9,"idx":-1.4,"cls":4,"psfc":901.0,"terrain":true,"radius_km":200,"name":"asym cold"},"geometry":{"type":"Point","coordinates":[85.0,42.0]}}]}