{"type":"FeatureCollection","features":[{"type":"Feature","properties":{"kind":"blob","cls":3,"id":1},"geometry":{"type":"Polygon","coordinates":[[[174.5,56.38],[176.62,57.75],[176.62,59.0],[176.0,59.62],[174.0,60.38],[171.5,60.38],[169.0,59.38],[168.38,58.75],[168.38,57.75],[170.5,56.38],[174.5,56.38]]]}},{"type":"Feature","properties":{"kind":"blob","cls":1,"id":2},"geometry":{"type":"Polygon","coordinates":[[[-147.0,-68.62],[-144.5,-68.12],[-141.5,-66.88],[-140.62,-66.0],[-140.62,-65.5],[-142.0,-64.38],[-144.25,-63.88],[-146.75,-63.88],[-149.5,-64.62],[-149.88,-63.5],[-150.75,-62.88],[-153.25,-62.12],[-157.0,-62.38],[-159.25,-63.38],[-159.62,-64.0],[-159.0,-65.38],[-157.5,-66.12],[-154.5,-66.38],[-151.5,-65.38],[-150.88,-65.75],[-153.12,-67.25],[-152.0,-68.12],[-147.0,-68.62]]]}},{"type":"Feature","properties":{"kind":"blob","cls":4,"id":3},"geometry":{"type":"Polygon","coordinates":[[[29.0,-61.62],[31.25,-60.88],[32.38,-59.75],[32.12,-58.5],[31.25,-57.62],[28.75,-56.62],[26.25,-56.62],[24.25,-57.38],[23.62,-58.0],[23.62,-59.5],[25.0,-60.88],[29.0,-61.62]]]}},{"type":"Feature","properties":{"kind":"blob","cls":5,"id":4},"geometry":{"type":"Polygon","coordinates":[[[10.5,-60.88],[12.25,-60.38],[13.62,-59.0],[13.62,-57.75],[13.0,-57.12],[11.0,-56.38],[9.25,-56.38],[7.25,-57.12],[5.62,-58.5],[5.62,-59.5],[6.5,-60.38],[10.5,-60.88]]]}},{"type":"Feature","properties":{"kind":"blob","cls":4,"id":5},"geometry":{"type":"Polygon","coordinates":[[[120.0,-66.88],[121.38,-66.5],[120.25,-65.62],[118.0,-65.12],[115.25,-65.12],[112.88,-65.75],[114.25,-66.62],[120.0,-66.88]]]}},{"type":"Feature","properties":{"kind":"blob","cls":3,"id":6},"geometry":{"type":"Polygon","coordinates":[[[-102.25,-73.38],[-99.5,-72.88],[-98.0,-72.12],[-97.38,-71.0],[-98.0,-70.38],[-100.0,-69.62],[-105.5,-69.38],[-108.25,-69.88],[-109.88,-71.0],[-109.88,-71.75],[-109.25,-72.38],[-107.25,-73.12],[-102.25,-73.38]]]}},{"type":"Feature","properties":{"kind":"blob","cls":4,"id":7},"geometry":{"type":"Polygon","coordinates":[[[76.0,-67.38],[79.25,-66.88],[80.5,-66.38],[81.62,-65.0],[80.75,-63.88],[79.5,-63.38],[73.5,-63.12],[70.75,-63.88],[69.62,-65.25],[71.0,-66.62],[76.0,-67.38]]]}},{"type":"Feature","properties":{"kind":"blob","cls":0,"id":8},"geometry":{"type":"Polygon","coordinates":[[[154.5,52.88],[156.5,53.62],[157.12,54.5],[156.88,55.5],[154.5,56.62],[153.25,56.62],[151.25,55.88],[150.62,55.0],[150.88,54.0],[152.25,53.12],[154.5,52.88]]]}},{"type":"Feature","properties":{"kind":"blob","cls":5,"id":9},"geometry":{"type":"Polygon","coordinates":[[[97.25,-66.12],[101.25,-66.38],[109.12,-65.75],[107.25,-64.88],[104.0,-64.62],[97.25,-66.12]]]}},{"type":"Feature","properties":{"kind":"blob","cls":4,"id":10},"geometry":{"type":"Polygon","coordinates":[[[108.0,-56.38],[110.0,-55.62],[110.88,-54.5],[110.62,-53.0],[110.0,-52.38],[108.0,-51.62],[105.75,-51.88],[104.0,-52.62],[102.88,-54.0],[103.12,-55.0],[105.0,-56.12],[108.0,-56.38]]]}},{"type":"Feature","properties":{"kind":"blob","cls":4,"id":11},"geometry":{"type":"Polygon","coordinates":[[[65.0,-67.88],[65.38,-67.0],[63.5,-65.62],[61.25,-65.12],[58.25,-65.12],[54.88,-66.0],[55.88,-66.5],[56.0,-67.12],[65.0,-67.88]]]}},{"type":"Feature","properties":{"kind":"blob","cls":4,"id":12},"geometry":{"type":"Polygon","coordinates":[[[128.25,-60.88],[130.0,-60.38],[130.88,-59.5],[130.88,-58.25],[130.25,-57.62],[128.25,-56.88],[126.5,-56.88],[124.5,-57.62],[123.88,-58.25],[123.88,-59.25],[125.0,-60.38],[128.25,-60.88]]]}},{"type":"Feature","properties":{"kind":"blob","cls":4,"id":13},"geometry":{"type":"Polygon","coordinates":[[[-81.25,-70.62],[-78.5,-69.62],[-78.12,-69.25],[-78.12,-68.25],[-81.0,-66.88],[-87.25,-66.62],[-89.75,-67.12],[-91.12,-68.25],[-91.12,-69.25],[-90.5,-69.88],[-88.75,-70.62],[-81.25,-70.62]]]}},{"type":"Feature","properties":{"kind":"blob","cls":4,"id":14},"geometry":{"type":"Polygon","coordinates":[[[-104.0,-63.62],[-102.5,-62.88],[-101.62,-62.0],[-101.62,-61.5],[-104.0,-59.62],[-107.5,-59.12],[-107.62,-58.25],[-108.5,-57.38],[-110.5,-56.62],[-113.0,-56.88],[-114.88,-58.25],[-114.88,-59.25],[-114.25,-59.88],[-112.25,-60.62],[-111.0,-60.62],[-111.38,-61.5],[-110.25,-62.88],[-108.75,-63.62],[-104.0,-63.62]]]}},{"type":"Feature","properties":{"kind":"blob","cls":4,"id":15},"geometry":{"type":"Polygon","coordinates":[[[-177.25,-82.12],[-165.25,-82.12],[-151.75,-81.12],[-150.88,-80.75],[-163.25,-80.38],[-173.0,-81.12],[-177.25,-82.12]]]}},{"type":"Feature","properties":{"kind":"blob","cls":4,"id":16},"geometry":{"type":"Polygon","coordinates":[[[-36.0,-79.88],[-30.88,-78.75],[-35.38,-78.5],[-35.25,-78.12],[-33.0,-77.38],[-31.5,-77.38],[-28.25,-76.38],[-23.62,-76.0],[-24.75,-75.62],[-30.25,-75.62],[-37.0,-76.38],[-40.75,-77.38],[-41.62,-78.25],[-40.75,-79.12],[-36.0,-79.88]]]}},{"type":"Feature","properties":{"kind":"blob","cls":4,"id":17},"geometry":{"type":"Polygon","coordinates":[[[-144.5,-82.12],[-143.5,-82.38],[-139.75,-81.88],[-137.75,-81.38],[-137.62,-81.0],[-138.25,-80.38],[-150.12,-80.75],[-145.5,-81.12],[-144.5,-82.12]]]}},{"type":"Feature","properties":{"kind":"blob","cls":4,"id":18},"geometry":{"type":"Polygon","coordinates":[[[120.5,-52.38],[122.5,-51.62],[123.38,-50.5],[123.12,-49.25],[121.75,-48.12],[120.25,-47.62],[118.5,-47.62],[116.75,-48.38],[116.12,-49.5],[116.38,-50.75],[117.75,-51.88],[120.5,-52.38]]]}},{"type":"Feature","properties":{"kind":"blob","cls":4,"id":19},"geometry":{"type":"Polygon","coordinates":[[[-22.5,-76.12],[-21.88,-76.0],[-22.0,-75.88],[-22.5,-76.12]]]}},{"type":"Feature","properties":{"kind":"blob","cls":1,"id":20},"geometry":{"type":"Polygon","coordinates":[[[52.5,70.88],[55.5,71.38],[57.75,72.38],[58.38,73.0],[58.38,73.75],[57.25,74.62],[55.25,75.12],[49.25,75.38],[45.25,74.62],[44.88,74.25],[46.12,73.5],[46.0,73.12],[43.62,73.0],[44.75,71.88],[47.25,71.12],[52.5,70.88]]]}},{"type":"Feature","properties":{"kind":"blob","cls":3,"id":21},"geometry":{"type":"Polygon","coordinates":[[[164.0,-79.88],[168.25,-79.38],[170.5,-78.62],[170.88,-77.75],[168.25,-76.62],[163.5,-76.12],[162.62,-77.25],[164.62,-78.5],[162.0,-78.62],[161.88,-79.0],[164.0,-79.88]],[[166.62,-77.5],[169.12,-77.5],[169.0,-77.62],[166.62,-77.5]]]}},{"type":"Feature","properties":{"kind":"blob","cls":3,"id":22},"geometry":{"type":"Polygon","coordinates":[[[-35.0,58.88],[-32.75,59.62],[-31.88,60.5],[-31.88,61.5],[-32.75,62.38],[-29.75,62.62],[-27.38,64.0],[-27.38,65.0],[-29.25,66.12],[-30.75,66.38],[-34.25,66.12],[-35.75,65.38],[-35.12,64.25],[-36.38,63.5],[-36.0,63.12],[-38.0,62.88],[-39.88,61.5],[-39.88,60.25],[-39.25,59.62],[-35.0,58.88]]]}},{"type":"Feature","properties":{"kind":"blob","cls":4,"id":23},"geometry":{"type":"Polygon","coordinates":[[[-46.62,-81.25],[-48.75,-80.38],[-56.0,-79.62],[-67.25,-79.88],[-72.38,-80.75],[-70.25,-81.12],[-46.62,-81.25]]]}},{"type":"Feature","properties":{"kind":"blob","cls":0,"id":24},"geometry":{"type":"Polygon","coordinates":[[[-124.0,20.12],[-122.75,20.12],[-121.88,21.0],[-121.88,22.75],[-122.75,23.62],[-124.5,23.88],[-126.12,22.75],[-126.12,21.0],[-125.75,20.62],[-125.0,21.38],[-124.0,21.38],[-123.62,20.5],[-124.0,20.12]]]}},{"type":"Feature","properties":{"kind":"blob","cls":3,"id":25},"geometry":{"type":"Polygon","coordinates":[[[-162.5,30.88],[-161.12,32.0],[-160.88,33.75],[-161.5,34.62],[-163.5,35.12],[-164.75,34.62],[-165.62,33.75],[-165.88,32.0],[-165.25,31.12],[-162.5,30.88]]]}},{"type":"Feature","properties":{"kind":"blob","cls":1,"id":26},"geometry":{"type":"Polygon","coordinates":[[[-78.25,52.38],[-75.0,52.12],[-73.0,52.88],[-72.38,53.75],[-72.38,55.75],[-73.25,56.62],[-75.75,57.38],[-79.0,57.38],[-80.75,56.88],[-81.88,56.0],[-79.75,55.38],[-76.75,55.12],[-75.12,54.5],[-76.5,53.88],[-79.5,53.88],[-82.38,54.5],[-80.75,53.12],[-78.25,52.38]]]}},{"type":"Feature","properties":{"kind":"blob","cls":4,"id":27},"geometry":{"type":"Polygon","coordinates":[[[18.75,55.62],[22.0,55.62],[23.62,56.75],[23.88,57.75],[23.25,58.62],[21.25,59.38],[18.0,59.12],[16.62,58.25],[16.38,57.0],[17.0,56.12],[18.75,55.62]]]}},{"type":"Feature","properties":{"kind":"blob","cls":6,"id":28},"geometry":{"type":"Polygon","coordinates":[[[167.0,13.62],[167.88,14.75],[167.88,15.75],[166.0,17.88],[164.75,18.12],[164.0,17.88],[163.12,16.75],[163.38,15.0],[165.5,14.88],[166.88,14.25],[166.5,13.88],[164.38,13.75],[167.0,13.62]]]}},{"type":"Feature","properties":{"kind":"blob","cls":0,"id":29},"geometry":{"type":"Polygon","coordinates":[[[148.0,14.12],[149.38,15.0],[149.62,16.5],[148.75,17.62],[147.0,17.88],[145.62,17.0],[145.38,15.75],[146.12,15.25],[146.25,14.38],[148.0,14.12]]]}},{"type":"Feature","properties":{"kind":"blob","cls":0,"id":30},"geometry":{"type":"Polygon","coordinates":[[[157.5,28.88],[158.88,29.5],[159.38,30.25],[159.38,31.5],[158.75,32.38],[156.5,32.88],[154.88,32.0],[154.38,31.25],[154.38,30.25],[155.0,29.38],[157.5,28.88]]]}},{"type":"Feature","properties":{"kind":"blob","cls":1,"id":31},"geometry":{"type":"Polygon","coordinates":[[[-51.75,62.38],[-49.62,63.0],[-49.75,63.62],[-50.62,63.75],[-49.38,64.25],[-50.12,65.0],[-50.25,65.88],[-52.25,65.62],[-52.88,66.25],[-50.75,66.38],[-50.75,67.12],[-55.5,67.12],[-56.75,66.62],[-57.62,65.75],[-57.38,64.25],[-56.75,63.38],[-55.25,62.62],[-51.75,62.38]]]}},{"type":"Feature","properties":{"kind":"blob","cls":4,"id":32},"geometry":{"type":"Polygon","coordinates":[[[76.0,29.12],[76.62,29.5],[77.12,30.75],[76.25,31.88],[75.25,32.38],[72.5,32.38],[70.5,31.88],[70.12,31.5],[70.12,30.0],[69.62,29.5],[76.0,29.12]]]}},{"type":"Feature","properties":{"kind":"blob","cls":1,"id":33},"geometry":{"type":"Polygon","coordinates":[[[68.75,25.62],[70.12,27.25],[69.88,28.75],[68.0,30.12],[67.38,29.75],[66.88,27.0],[65.88,26.5],[66.75,25.62],[68.75,25.62]]]}},{"type":"Feature","properties":{"kind":"blob","cls":5,"id":34},"geometry":{"type":"MultiPolygon","coordinates":[[[[-116.5,32.62],[-116.62,32.5],[-116.5,32.38],[-116.5,32.62]]],[[[-116.62,33.0],[-116.75,33.12],[-116.88,33.0],[-116.62,33.0]]],[[[-115.0,31.12],[-112.5,31.12],[-111.62,31.75],[-111.62,32.25],[-113.0,33.62],[-115.75,35.12],[-116.62,34.5],[-115.88,34.0],[-116.62,34.0],[-116.62,33.25],[-115.88,32.5],[-115.62,31.5],[-115.0,31.12]]]]}},{"type":"Feature","properties":{"kind":"blob","cls":1,"id":35},"geometry":{"type":"Polygon","coordinates":[[[-50.5,67.62],[-50.38,68.25],[-51.88,71.0],[-52.5,71.38],[-53.88,70.5],[-53.75,70.12],[-52.62,69.75],[-53.25,69.62],[-54.0,70.12],[-54.12,69.5],[-53.25,68.38],[-50.5,67.62]],[[-53.12,70.5],[-52.12,70.5],[-52.25,70.38],[-53.12,70.5]]]}},{"type":"Feature","properties":{"kind":"blob","cls":4,"id":36},"geometry":{"type":"Polygon","coordinates":[[[-58.0,72.38],[-54.62,73.0],[-58.25,74.62],[-60.0,76.38],[-66.75,76.62],[-64.62,77.5],[-65.5,77.88],[-67.75,77.62],[-69.62,78.0],[-69.0,78.38],[-67.0,78.38],[-66.75,78.88],[-75.25,78.88],[-77.75,78.38],[-79.38,77.25],[-78.75,76.12],[-78.0,75.88],[-75.75,75.38],[-71.0,75.12],[-70.5,74.12],[-68.0,73.12],[-58.0,72.38]],[[-71.62,78.25],[-70.12,78.25],[-70.25,78.12],[-71.62,78.25]],[[-68.12,77.0],[-67.38,77.0],[-67.5,76.88],[-68.12,77.0]]]}},{"type":"Feature","properties":{"kind":"blob","cls":5,"id":37},"geometry":{"type":"Polygon","coordinates":[[[-96.0,75.88],[-93.0,76.62],[-92.12,77.5],[-92.12,78.0],[-93.5,78.88],[-99.75,78.38],[-101.5,78.62],[-101.88,79.0],[-99.5,79.88],[-109.5,79.62],[-112.5,78.88],[-113.38,78.25],[-113.38,77.5],[-112.0,76.62],[-109.0,75.88],[-96.0,75.88]]]}},{"type":"Feature","properties":{"kind":"blob","cls":4,"id":38},"geometry":{"type":"Polygon","coordinates":[[[-72.25,30.12],[-70.62,31.0],[-70.38,32.5],[-71.0,33.38],[-73.0,33.88],[-74.62,33.0],[-74.62,31.0],[-72.25,30.12]]]}},{"type":"Feature","properties":{"kind":"blob","cls":6,"id":39},"geometry":{"type":"Polygon","coordinates":[[[167.25,-39.62],[168.38,-38.25],[168.12,-37.25],[167.25,-36.38],[165.12,-35.75],[165.12,-35.25],[165.88,-34.75],[164.5,-33.38],[162.75,-33.12],[160.75,-33.88],[160.12,-34.75],[160.12,-36.25],[162.25,-37.88],[163.5,-37.88],[164.75,-39.62],[167.25,-39.62]]]}},{"type":"Feature","properties":{"kind":"blob","cls":4,"id":40},"geometry":{"type":"Polygon","coordinates":[[[-12.75,73.38],[-9.0,74.62],[-8.62,75.75],[-9.25,76.38],[-10.75,76.88],[-14.25,77.38],[-20.25,77.12],[-23.12,76.25],[-22.5,75.62],[-21.62,75.5],[-21.75,74.62],[-23.0,74.12],[-20.5,73.38],[-12.75,73.38]]]}},{"type":"Feature","properties":{"kind":"blob","cls":4,"id":41},"geometry":{"type":"Polygon","coordinates":[[[95.75,23.38],[96.88,24.0],[95.5,25.62],[94.25,24.62],[93.62,24.75],[94.5,23.62],[95.75,23.38]]]}},{"type":"Feature","properties":{"kind":"blob","cls":5,"id":42},"geometry":{"type":"Polygon","coordinates":[[[93.75,25.62],[94.38,26.25],[93.75,26.38],[93.75,25.62]]]}},{"type":"Feature","properties":{"kind":"blob","cls":4,"id":43},"geometry":{"type":"Polygon","coordinates":[[[131.25,61.38],[133.25,61.88],[134.38,62.75],[134.38,63.75],[131.0,64.12],[130.75,64.62],[127.75,64.62],[126.62,63.75],[126.62,62.75],[127.25,62.12],[131.25,61.38]]]}},{"type":"Feature","properties":{"kind":"blob","cls":3,"id":44},"geometry":{"type":"Polygon","coordinates":[[[-66.75,32.12],[-65.12,33.0],[-64.88,34.5],[-65.5,35.38],[-67.25,35.88],[-68.88,35.0],[-68.88,33.0],[-66.75,32.12]]]}},{"type":"Feature","properties":{"kind":"blob","cls":3,"id":45},"geometry":{"type":"MultiPolygon","coordinates":[[[[61.5,31.12],[61.38,31.0],[61.5,30.88],[61.5,31.12]]],[[[61.25,31.38],[61.12,31.25],[61.25,31.12],[61.25,31.38]]]]}},{"type":"Feature","properties":{"kind":"blob","cls":4,"id":46},"geometry":{"type":"Polygon","coordinates":[[[-144.5,45.88],[-142.25,47.38],[-141.62,48.25],[-141.88,49.75],[-143.75,50.62],[-145.25,50.62],[-147.0,49.88],[-148.62,48.25],[-148.62,47.25],[-147.5,46.12],[-144.5,45.88]]]}},{"type":"Feature","properties":{"kind":"blob","cls":3,"id":47},"geometry":{"type":"Polygon","coordinates":[[[61.75,32.12],[62.12,32.75],[61.62,33.0],[61.5,33.62],[60.88,32.5],[61.75,32.12]]]}},{"type":"Feature","properties":{"kind":"blob","cls":4,"id":48},"geometry":{"type":"Polygon","coordinates":[[[116.75,48.12],[118.25,48.62],[119.12,49.75],[118.88,50.75],[118.25,51.38],[116.75,51.88],[114.25,51.38],[113.62,50.75],[113.38,49.75],[114.25,48.62],[116.75,48.12]],[[116.75,50.88],[116.62,51.0],[117.0,51.12],[116.75,50.88]]]}},{"type":"Feature","properties":{"kind":"blob","cls":4,"id":49},"geometry":{"type":"Polygon","coordinates":[[[127.5,42.62],[128.75,43.12],[129.62,44.5],[129.38,45.25],[128.5,46.12],[127.25,46.62],[124.75,46.12],[123.62,44.5],[124.5,43.12],[127.5,42.62]],[[128.25,44.12],[128.12,44.25],[128.25,44.38],[128.25,44.12]]]}},{"type":"Feature","properties":{"kind":"center","id":1,"lat":58.25,"lon":172.75,"mslp":942.5,"hvtl":212.3,"hvtu":-142.5,"hb":18.8,"idx":1.1,"cls":3,"psfc":942.5,"terrain":false,"radius_km":200,"name":"asym shallow warm","track":"T07"},"geometry":{"type":"Point","coordinates":[172.75,58.25]}},{"type":"Feature","properties":{"kind":"center","id":2,"lat":-64.25,"lon":-154.75,"mslp":953.0,"hvtl":5.2,"hvtu":-67.2,"hb":-3.8,"idx":-0.5,"cls":1,"psfc":953.0,"terrain":false,"radius_km":200,"name":"sym shallow warm","track":"T15"},"geometry":{"type":"Point","coordinates":[-154.75,-64.25]}},{"type":"Feature","properties":{"kind":"center","id":3,"lat":-59.0,"lon":27.75,"mslp":955.7,"hvtl":-73.3,"hvtu":-244.3,"hb":84.4,"idx":-2.2,"cls":4,"psfc":955.7,"terrain":false,"radius_km":200,"name":"asym cold","track":"T16"},"geometry":{"type":"Point","coordinates":[27.75,-59.0]}},{"type":"Feature","properties":{"kind":"center","id":4,"lat":-58.75,"lon":9.5,"mslp":961.3,"hvtl":-93.7,"hvtu":-15.1,"hb":4.6,"idx":-1.6,"cls":5,"psfc":961.2,"terrain":false,"radius_km":200,"name":"sym cold","track":"T23"},"geometry":{"type":"Point","coordinates":[9.5,-58.75]}},{"type":"Feature","properties":{"kind":"center","id":5,"lat":-66.5,"lon":116.25,"mslp":961.9,"hvtl":-53.7,"hvtu":-37.1,"hb":29.9,"idx":-1.3,"cls":4,"psfc":960.6,"terrain":false,"radius_km":200,"name":"asym cold","track":"T01"},"geometry":{"type":"Point","coordinates":[116.25,-66.5]}},{"type":"Feature","properties":{"kind":"center","id":6,"lat":-71.25,"lon":-103.5,"mslp":964.8,"hvtl":47.3,"hvtu":-30.6,"hb":15.6,"idx":0.6,"cls":3,"psfc":964.8,"terrain":false,"radius_km":200,"name":"asym shallow warm","track":"T18"},"geometry":{"type":"Point","coordinates":[-103.5,-71.25]}},{"type":"Feature","properties":{"kind":"center","id":7,"lat":-65.25,"lon":75.25,"mslp":966.8,"hvtl":-335.3,"hvtu":-164.4,"hb":79.4,"idx":-2.9,"cls":4,"psfc":966.8,"terrain":false,"radius_km":200,"name":"asym cold","track":"T37"},"geometry":{"type":"Point","coordinates":[75.25,-65.25]}},{"type":"Feature","properties":{"kind":"center","id":8,"lat":54.75,"lon":153.75,"mslp":967.1,"hvtl":115.1,"hvtu":51.5,"hb":-12.7,"idx":2.1,"cls":0,"psfc":967.1,"terrain":false,"radius_km":200,"name":"sym deep warm","track":"T26"},"geometry":{"type":"Point","coordinates":[153.75,54.75]}},{"type":"Feature","properties":{"kind":"center","id":9,"lat":-66.0,"lon":105.75,"mslp":967.3,"hvtl":-50.9,"hvtu":-59.5,"hb":-7.2,"idx":-1.5,"cls":5,"psfc":967.3,"terrain":false,"radius_km":200,"name":"sym cold","track":"T24"},"geometry":{"type":"Point","coordinates":[105.75,-66.0]}},{"type":"Feature","properties":{"kind":"center","id":10,"lat":-54.25,"lon":107.25,"mslp":968.5,"hvtl":-167.8,"hvtu":-444.7,"hb":40.4,"idx":-2.9,"cls":4,"psfc":968.5,"terrain":false,"radius_km":200,"name":"asym cold","track":"T31"},"geometry":{"type":"Point","coordinates":[107.25,-54.25]}},{"type":"Feature","properties":{"kind":"center","id":11,"lat":-67.5,"lon":61.25,"mslp":971.5,"hvtl":-377.8,"hvtu":-144.8,"hb":122.3,"idx":-2.9,"cls":4,"psfc":955.7,"terrain":false,"radius_km":200,"name":"asym cold","track":"T30"},"geometry":{"type":"Point","coordinates":[61.25,-67.5]}},{"type":"Feature","properties":{"kind":"center","id":12,"lat":-59.0,"lon":127.5,"mslp":972.0,"hvtl":-264.7,"hvtu":-187.1,"hb":64.1,"idx":-2.9,"cls":4,"psfc":972.0,"terrain":false,"radius_km":200,"name":"asym cold","track":"T38"},"geometry":{"type":"Point","coordinates":[127.5,-59.0]}},{"type":"Feature","properties":{"kind":"center","id":13,"lat":-68.75,"lon":-85.25,"mslp":973.4,"hvtl":-175.3,"hvtu":-227.9,"hb":38.1,"idx":-2.9,"cls":4,"psfc":973.4,"terrain":false,"radius_km":200,"name":"asym cold","track":"T43"},"geometry":{"type":"Point","coordinates":[-85.25,-68.75]}},{"type":"Feature","properties":{"kind":"center","id":14,"lat":-61.5,"lon":-106.75,"mslp":974.4,"hvtl":-107.3,"hvtu":-239.5,"hb":40.5,"idx":-2.6,"cls":4,"psfc":974.4,"terrain":false,"radius_km":200,"name":"asym cold","track":"T33"},"geometry":{"type":"Point","coordinates":[-106.75,-61.5]}},{"type":"Feature","properties":{"kind":"center","id":15,"lat":-80.75,"lon":-152.0,"mslp":978.4,"hvtl":-47.0,"hvtu":-136.9,"hb":13.3,"idx":-1.8,"cls":4,"psfc":966.5,"terrain":false,"radius_km":200,"name":"asym cold","track":"T05"},"geometry":{"type":"Point","coordinates":[-152.0,-80.75]}},{"type":"Feature","properties":{"kind":"center","id":16,"lat":-77.5,"lon":-33.25,"mslp":978.5,"hvtl":-335.7,"hvtu":-5.0,"hb":37.0,"idx":-2.0,"cls":4,"psfc":900.9,"terrain":false,"radius_km":200,"name":"asym cold","track":"T51"},"geometry":{"type":"Point","coordinates":[-33.25,-77.5]}},{"type":"Feature","properties":{"kind":"center","id":17,"lat":-80.75,"lon":-150.0,"mslp":978.5,"hvtl":-34.8,"hvtu":-130.5,"hb":10.7,"idx":-1.5,"cls":4,"psfc":966.2,"terrain":false,"radius_km":200,"name":"asym cold","track":"T54"},"geometry":{"type":"Point","coordinates":[-150.0,-80.75]}},{"type":"Feature","properties":{"kind":"center","id":18,"lat":-50.0,"lon":119.5,"mslp":978.7,"hvtl":-190.7,"hvtu":-309.0,"hb":34.2,"idx":-2.9,"cls":4,"psfc":978.7,"terrain":false,"radius_km":200,"name":"asym cold","track":"T22"},"geometry":{"type":"Point","coordinates":[119.5,-50.0]}},{"type":"Feature","properties":{"kind":"center","id":19,"lat":-76.0,"lon":-22.5,"mslp":979.2,"hvtl":-305.0,"hvtu":-25.6,"hb":25.3,"idx":-2.2,"cls":4,"psfc":900.2,"terrain":false,"radius_km":200,"name":"asym cold","track":"T50"},"geometry":{"type":"Point","coordinates":[-22.5,-76.0]}},{"type":"Feature","properties":{"kind":"center","id":20,"lat":73.0,"lon":50.75,"mslp":980.9,"hvtl":44.6,"hvtu":-38.1,"hb":3.4,"idx":0.5,"cls":1,"psfc":980.9,"terrain":false,"radius_km":200,"name":"sym shallow warm","track":"T41"},"geometry":{"type":"Point","coordinates":[50.75,73.0]}},{"type":"Feature","properties":{"kind":"center","id":21,"lat":-76.75,"lon":168.25,"mslp":982.3,"hvtl":46.1,"hvtu":-99.9,"hb":35.2,"idx":0.1,"cls":3,"psfc":982.3,"terrain":false,"radius_km":200,"name":"asym shallow warm","track":"T59"},"geometry":{"type":"Point","coordinates":[168.25,-76.75]}},{"type":"Feature","properties":{"kind":"center","id":22,"lat":64.5,"lon":-31.75,"mslp":982.5,"hvtl":193.8,"hvtu":-151.7,"hb":19.5,"idx":1.0,"cls":3,"psfc":982.5,"terrain":false,"radius_km":200,"name":"asym shallow warm","track":"T62"},"geometry":{"type":"Point","coordinates":[-31.75,64.5]}},{"type":"Feature","properties":{"kind":"center","id":23,"lat":-81.0,"lon":-47.5,"mslp":982.8,"hvtl":-230.6,"hvtu":-25.2,"hb":27.3,"idx":-2.2,"cls":4,"psfc":967.4,"terrain":false,"radius_km":200,"name":"asym cold","track":"T58"},"geometry":{"type":"Point","coordinates":[-47.5,-81.0]}},{"type":"Feature","properties":{"kind":"center","id":24,"lat":22.0,"lon":-124.0,"mslp":986.4,"hvtl":50.0,"hvtu":135.3,"hb":1.9,"idx":1.8,"cls":0,"psfc":986.4,"terrain":false,"radius_km":200,"name":"sym deep warm","track":"T48"},"geometry":{"type":"Point","coordinates":[-124.0,22.0]}},{"type":"Feature","properties":{"kind":"center","id":25,"lat":32.75,"lon":-163.5,"mslp":998.0,"hvtl":6.6,"hvtu":-246.6,"hb":37.9,"idx":-0.9,"cls":3,"psfc":998.0,"terrain":false,"radius_km":200,"name":"asym shallow warm","track":"T81"},"geometry":{"type":"Point","coordinates":[-163.5,32.75]}},{"type":"Feature","properties":{"kind":"center","id":26,"lat":55.25,"lon":-77.75,"mslp":998.8,"hvtl":46.1,"hvtu":-72.6,"hb":4.0,"idx":0.2,"cls":1,"psfc":987.7,"terrain":false,"radius_km":200,"name":"sym shallow warm","track":"T88"},"geometry":{"type":"Point","coordinates":[-77.75,55.25]}},{"type":"Feature","properties":{"kind":"center","id":27,"lat":57.5,"lon":20.0,"mslp":999.0,"hvtl":-145.2,"hvtu":-309.9,"hb":65.4,"idx":-2.8,"cls":4,"psfc":999.0,"terrain":false,"radius_km":200,"name":"asym cold","track":"T67"},"geometry":{"type":"Point","coordinates":[20.0,57.5]}},{"type":"Feature","properties":{"kind":"center","id":28,"lat":15.25,"lon":165.5,"mslp":999.8,"hvtl":-44.2,"hvtu":87.4,"hb":10.1,"idx":-0.1,"cls":6,"psfc":999.8,"terrain":false,"radius_km":200,"name":"shallow cold","track":"T02"},"geometry":{"type":"Point","coordinates":[165.5,15.25]}},{"type":"Feature","properties":{"kind":"center","id":29,"lat":16.0,"lon":147.5,"mslp":1002.1,"hvtl":35.9,"hvtu":35.9,"hb":3.8,"idx":1.0,"cls":0,"psfc":1002.1,"terrain":false,"radius_km":200,"name":"sym deep warm","track":"T08"},"geometry":{"type":"Point","coordinates":[147.5,16.0]}},{"type":"Feature","properties":{"kind":"center","id":30,"lat":30.75,"lon":156.75,"mslp":1002.2,"hvtl":54.3,"hvtu":33.5,"hb":5.4,"idx":1.3,"cls":0,"psfc":1002.2,"terrain":false,"radius_km":200,"name":"sym deep warm","track":"T40"},"geometry":{"type":"Point","coordinates":[156.75,30.75]}},{"type":"Feature","properties":{"kind":"center","id":31,"lat":64.75,"lon":-50.0,"mslp":1002.2,"hvtl":126.1,"hvtu":-35.2,"hb":-6.7,"idx":1.4,"cls":1,"psfc":931.7,"terrain":false,"radius_km":200,"name":"sym shallow warm","track":"T44"},"geometry":{"type":"Point","coordinates":[-50.0,64.75]}},{"type":"Feature","properties":{"kind":"center","id":32,"lat":30.25,"lon":70.75,"mslp":1004.3,"hvtl":-27.0,"hvtu":-97.4,"hb":17.7,"idx":-1.3,"cls":4,"psfc":990.1,"terrain":false,"radius_km":200,"name":"asym cold","track":"T108"},"geometry":{"type":"Point","coordinates":[70.75,30.25]}},{"type":"Feature","properties":{"kind":"center","id":33,"lat":28.0,"lon":67.75,"mslp":1004.8,"hvtl":2.1,"hvtu":-54.8,"hb":2.2,"idx":-0.5,"cls":1,"psfc":999.3,"terrain":false,"radius_km":200,"name":"sym shallow warm","track":"T100"},"geometry":{"type":"Point","coordinates":[67.75,28.0]}},{"type":"Feature","properties":{"kind":"center","id":34,"lat":31.25,"lon":-114.5,"mslp":1005.5,"hvtl":-12.3,"hvtu":-180.4,"hb":-7.2,"idx":-1.2,"cls":5,"psfc":1005.5,"terrain":false,"radius_km":200,"name":"sym cold","track":"T95"},"geometry":{"type":"Point","coordinates":[-114.5,31.25]}},{"type":"Feature","properties":{"kind":"center","id":35,"lat":70.0,"lon":-52.0,"mslp":1005.6,"hvtl":19.0,"hvtu":-57.2,"hb":3.7,"idx":-0.1,"cls":1,"psfc":991.5,"terrain":false,"radius_km":200,"name":"sym shallow warm"},"geometry":{"type":"Point","coordinates":[-52.0,70.0]}},{"type":"Feature","properties":{"kind":"center","id":36,"lat":74.75,"lon":-60.5,"mslp":1007.4,"hvtl":-128.6,"hvtu":-109.9,"hb":12.7,"idx":-2.5,"cls":4,"psfc":1007.4,"terrain":false,"radius_km":200,"name":"asym cold","track":"T115"},"geometry":{"type":"Point","coordinates":[-60.5,74.75]}},{"type":"Feature","properties":{"kind":"center","id":37,"lat":77.75,"lon":-102.75,"mslp":1007.6,"hvtl":-95.0,"hvtu":-26.0,"hb":-2.1,"idx":-1.7,"cls":5,"psfc":1007.5,"terrain":false,"radius_km":200,"name":"sym cold","track":"T116"},"geometry":{"type":"Point","coordinates":[-102.75,77.75]}},{"type":"Feature","properties":{"kind":"center","id":38,"lat":32.0,"lon":-72.75,"mslp":1007.9,"hvtl":-31.1,"hvtu":-178.0,"hb":24.7,"idx":-1.5,"cls":4,"psfc":1007.9,"terrain":false,"radius_km":200,"name":"asym cold"},"geometry":{"type":"Point","coordinates":[-72.75,32.0]}},{"type":"Feature","properties":{"kind":"center","id":39,"lat":-38.0,"lon":166.0,"mslp":1008.5,"hvtl":-30.5,"hvtu":26.8,"hb":38.1,"idx":-0.3,"cls":6,"psfc":1008.5,"terrain":false,"radius_km":200,"name":"shallow cold"},"geometry":{"type":"Point","coordinates":[166.0,-38.0]}},{"type":"Feature","properties":{"kind":"center","id":40,"lat":73.25,"lon":-18.25,"mslp":1008.7,"hvtl":-229.6,"hvtu":-258.3,"hb":46.1,"idx":-2.9,"cls":4,"psfc":1008.7,"terrain":false,"radius_km":200,"name":"asym cold","track":"T104"},"geometry":{"type":"Point","coordinates":[-18.25,73.25]}},{"type":"Feature","properties":{"kind":"center","id":41,"lat":24.75,"lon":95.0,"mslp":1008.7,"hvtl":-9.9,"hvtu":-87.9,"hb":12.4,"idx":-0.9,"cls":4,"psfc":990.1,"terrain":false,"radius_km":200,"name":"asym cold"},"geometry":{"type":"Point","coordinates":[95.0,24.75]}},{"type":"Feature","properties":{"kind":"center","id":42,"lat":26.25,"lon":94.0,"mslp":1010.0,"hvtl":-9.2,"hvtu":-80.4,"hb":7.8,"idx":-0.8,"cls":5,"psfc":989.3,"terrain":false,"radius_km":200,"name":"sym cold","track":"T124"},"geometry":{"type":"Point","coordinates":[94.0,26.25]}},{"type":"Feature","properties":{"kind":"center","id":43,"lat":63.0,"lon":132.75,"mslp":1010.0,"hvtl":-52.4,"hvtu":-34.5,"hb":35.4,"idx":-1.3,"cls":4,"psfc":988.2,"terrain":false,"radius_km":200,"name":"asym cold"},"geometry":{"type":"Point","coordinates":[132.75,63.0]}},{"type":"Feature","properties":{"kind":"center","id":44,"lat":33.5,"lon":-68.25,"mslp":1010.8,"hvtl":0.8,"hvtu":-188.7,"hb":29.6,"idx":-0.9,"cls":3,"psfc":1010.8,"terrain":false,"radius_km":200,"name":"asym shallow warm"},"geometry":{"type":"Point","coordinates":[-68.25,33.5]}},{"type":"Feature","properties":{"kind":"center","id":45,"lat":31.0,"lon":61.5,"mslp":1012.7,"hvtl":131.6,"hvtu":-17.4,"hb":18.5,"idx":1.6,"cls":3,"psfc":958.5,"terrain":false,"radius_km":200,"name":"asym shallow warm","track":"T129"},"geometry":{"type":"Point","coordinates":[61.5,31.0]}},{"type":"Feature","properties":{"kind":"center","id":46,"lat":48.0,"lon":-145.5,"mslp":1012.8,"hvtl":-185.8,"hvtu":-323.8,"hb":82.2,"idx":-2.9,"cls":4,"psfc":1012.8,"terrain":false,"radius_km":200,"name":"asym cold","track":"T68"},"geometry":{"type":"Point","coordinates":[-145.5,48.0]}},{"type":"Feature","properties":{"kind":"center","id":47,"lat":32.5,"lon":62.0,"mslp":1012.9,"hvtl":132.3,"hvtu":-75.0,"hb":49.3,"idx":1.1,"cls":3,"psfc":933.6,"terrain":false,"radius_km":200,"name":"asym shallow warm","track":"T125"},"geometry":{"type":"Point","coordinates":[62.0,32.5]}},{"type":"Feature","properties":{"kind":"center","id":48,"lat":50.0,"lon":116.25,"mslp":1013.9,"hvtl":-162.5,"hvtu":-314.1,"hb":65.2,"idx":-2.8,"cls":4,"psfc":934.5,"terrain":false,"radius_km":200,"name":"asym cold"},"geometry":{"type":"Point","coordinates":[116.25,50.0]}},{"type":"Feature","properties":{"kind":"center","id":49,"lat":44.5,"lon":126.5,"mslp":1014.9,"hvtl":-257.2,"hvtu":-302.4,"hb":77.4,"idx":-3.0,"cls":4,"psfc":993.2,"terrain":false,"radius_km":200,"name":"asym cold"},"geometry":{"type":"Point","coordinates":[126.5,44.5]}}]}