{"type":"FeatureCollection","features":[{"type":"Feature","properties":{"kind":"blob","cls":1,"id":1},"geometry":{"type":"MultiPolygon","coordinates":[[[[-144.75,-65.88],[-144.88,-66.0],[-144.5,-66.12],[-144.75,-65.88]]],[[[-142.5,-66.62],[-138.5,-66.62],[-137.25,-66.12],[-136.38,-65.0],[-137.25,-63.88],[-140.0,-63.12],[-143.5,-63.38],[-145.38,-64.5],[-145.62,-65.0],[-145.0,-65.88],[-144.75,-65.38],[-143.0,-65.38],[-142.75,-65.88],[-144.38,-66.25],[-142.5,-66.62]]]]}},{"type":"Feature","properties":{"kind":"blob","cls":1,"id":2},"geometry":{"type":"Polygon","coordinates":[[[79.25,-62.62],[80.88,-61.5],[80.88,-60.25],[79.0,-58.88],[76.5,-58.12],[73.25,-58.12],[71.5,-58.62],[70.38,-59.5],[70.12,-61.0],[72.5,-62.62],[79.25,-62.62]],[[72.88,-61.25],[74.0,-60.62],[76.88,-60.75],[76.0,-61.38],[72.88,-61.25]]]}},{"type":"Feature","properties":{"kind":"blob","cls":0,"id":3},"geometry":{"type":"Polygon","coordinates":[[[129.75,-64.38],[131.75,-63.88],[132.62,-63.25],[132.88,-62.25],[131.5,-60.88],[129.0,-60.12],[125.75,-60.38],[123.88,-61.75],[124.25,-63.12],[126.25,-64.12],[129.75,-64.38]]]}},{"type":"Feature","properties":{"kind":"blob","cls":3,"id":4},"geometry":{"type":"Polygon","coordinates":[[[120.0,-65.88],[121.75,-65.12],[122.88,-64.0],[118.5,-64.12],[118.12,-63.75],[119.0,-63.12],[122.12,-62.75],[120.75,-61.88],[115.75,-61.88],[113.75,-62.88],[112.88,-63.75],[112.88,-64.5],[113.25,-65.12],[114.75,-65.88],[120.0,-65.88]]]}},{"type":"Feature","properties":{"kind":"blob","cls":3,"id":5},"geometry":{"type":"Polygon","coordinates":[[[38.75,-52.38],[40.25,-51.88],[41.12,-50.75],[40.88,-49.75],[40.25,-49.12],[38.75,-48.62],[36.0,-49.12],[35.38,-49.75],[35.12,-50.75],[36.0,-51.88],[38.75,-52.38]]]}},{"type":"Feature","properties":{"kind":"blob","cls":1,"id":6},"geometry":{"type":"Polygon","coordinates":[[[-83.0,-71.12],[-77.25,-71.12],[-75.0,-70.12],[-74.38,-69.0],[-75.25,-68.12],[-77.0,-67.38],[-82.25,-67.12],[-84.75,-67.62],[-86.88,-69.0],[-86.88,-69.75],[-86.0,-70.62],[-83.0,-71.12]]]}},{"type":"Feature","properties":{"kind":"blob","cls":4,"id":7},"geometry":{"type":"Polygon","coordinates":[[[27.25,-62.88],[28.25,-62.38],[28.88,-61.75],[28.88,-60.75],[27.25,-59.62],[24.25,-59.38],[23.0,-59.62],[21.38,-60.75],[21.38,-61.75],[23.0,-62.88],[27.25,-62.88]]]}},{"type":"Feature","properties":{"kind":"blob","cls":1,"id":8},"geometry":{"type":"Polygon","coordinates":[[[-43.25,55.12],[-41.5,55.62],[-40.38,56.75],[-40.62,58.0],[-43.0,59.12],[-45.0,59.12],[-47.0,58.38],[-47.62,57.5],[-47.38,56.5],[-45.75,55.38],[-43.25,55.12]]]}},{"type":"Feature","properties":{"kind":"blob","cls":4,"id":9},"geometry":{"type":"Polygon","coordinates":[[[-48.5,-72.62],[-46.5,-71.88],[-45.88,-71.0],[-45.88,-70.25],[-46.5,-69.62],[-48.5,-68.88],[-54.25,-68.62],[-58.25,-69.62],[-59.38,-71.0],[-58.25,-72.12],[-56.75,-72.62],[-48.5,-72.62]]]}},{"type":"Feature","properties":{"kind":"blob","cls":4,"id":10},"geometry":{"type":"Polygon","coordinates":[[[-22.75,-73.88],[-16.5,-73.88],[-11.75,-72.12],[-10.88,-71.0],[-11.5,-70.12],[-13.5,-69.38],[-19.25,-69.12],[-21.25,-69.38],[-26.0,-70.88],[-27.12,-71.75],[-27.12,-72.5],[-26.0,-73.38],[-22.75,-73.88]]]}},{"type":"Feature","properties":{"kind":"blob","cls":1,"id":11},"geometry":{"type":"Polygon","coordinates":[[[-110.88,-74.25],[-110.75,-74.62],[-99.25,-74.38],[-98.75,-73.88],[-96.5,-73.88],[-94.62,-73.25],[-98.75,-72.38],[-105.5,-72.38],[-109.0,-72.88],[-110.25,-73.38],[-110.88,-74.25]]]}},{"type":"Feature","properties":{"kind":"blob","cls":4,"id":12},"geometry":{"type":"Polygon","coordinates":[[[157.5,-69.38],[159.25,-68.62],[159.62,-68.25],[159.62,-67.25],[157.0,-65.88],[151.25,-65.62],[149.0,-66.12],[146.88,-67.5],[147.0,-67.88],[152.25,-68.88],[157.5,-69.38]]]}},{"type":"Feature","properties":{"kind":"blob","cls":4,"id":13},"geometry":{"type":"Polygon","coordinates":[[[103.75,79.62],[115.0,80.12],[119.5,80.88],[120.88,81.75],[120.25,82.38],[116.5,83.38],[104.75,84.38],[94.5,84.38],[87.0,83.88],[83.25,83.38],[80.38,82.25],[80.38,81.75],[81.0,81.38],[84.0,80.62],[103.75,79.62]],[[94.62,80.5],[95.38,80.5],[95.25,80.38],[94.62,80.5]]]}},{"type":"Feature","properties":{"kind":"blob","cls":5,"id":14},"geometry":{"type":"MultiPolygon","coordinates":[[[[174.38,-82.25],[171.5,-81.62],[169.38,-81.75],[170.75,-82.12],[174.38,-82.25]]],[[[179.75,-82.88],[180.0,-80.38],[176.75,-80.62],[175.0,-81.12],[174.38,-81.75],[174.88,-82.25],[174.5,-82.62],[179.75,-82.88]]]]}},{"type":"Feature","properties":{"kind":"blob","cls":5,"id":14},"geometry":{"type":"Polygon","coordinates":[[[-160.25,-83.38],[-155.25,-83.12],[-154.12,-82.75],[-162.0,-82.38],[-163.75,-82.12],[-164.12,-81.75],[-159.5,-80.62],[-159.5,-80.12],[-175.75,-79.88],[-180.0,-80.38],[-180.0,-82.88],[-160.25,-83.38]]]}},{"type":"Feature","properties":{"kind":"blob","cls":1,"id":15},"geometry":{"type":"Polygon","coordinates":[[[56.0,-67.12],[57.5,-67.12],[57.62,-66.5],[56.25,-65.38],[53.38,-65.0],[54.25,-66.12],[55.25,-66.12],[56.0,-67.12]]]}},{"type":"Feature","properties":{"kind":"blob","cls":1,"id":16},"geometry":{"type":"Polygon","coordinates":[[[-147.75,50.12],[-146.25,50.62],[-145.38,51.5],[-145.38,52.75],[-146.25,53.62],[-147.75,54.12],[-150.75,53.62],[-151.62,52.75],[-151.62,51.5],[-150.75,50.62],[-147.75,50.12]]]}},{"type":"Feature","properties":{"kind":"blob","cls":1,"id":17},"geometry":{"type":"Polygon","coordinates":[[[168.25,-81.62],[169.12,-81.5],[169.0,-81.38],[168.25,-81.62]]]}},{"type":"Feature","properties":{"kind":"blob","cls":3,"id":18},"geometry":{"type":"Polygon","coordinates":[[[-46.25,59.88],[-43.0,59.88],[-42.0,60.38],[-41.12,61.5],[-42.25,62.88],[-43.0,62.88],[-43.12,62.5],[-42.62,62.0],[-43.62,61.0],[-43.62,60.25],[-44.25,60.12],[-45.25,61.38],[-47.5,61.12],[-48.75,62.12],[-49.12,62.0],[-48.88,61.0],[-48.25,60.38],[-46.25,59.88]]]}},{"type":"Feature","properties":{"kind":"blob","cls":4,"id":19},"geometry":{"type":"Polygon","coordinates":[[[170.25,79.38],[175.0,80.38],[175.38,81.25],[173.5,82.12],[170.25,82.62],[159.5,82.88],[152.5,82.12],[150.62,81.25],[151.0,80.38],[152.5,79.88],[155.75,79.38],[170.25,79.38]]]}},{"type":"Feature","properties":{"kind":"blob","cls":1,"id":20},"geometry":{"type":"Polygon","coordinates":[[[156.75,53.88],[157.38,55.25],[157.12,55.5],[158.38,56.5],[157.75,57.12],[152.75,57.12],[151.88,56.25],[151.88,55.25],[153.0,54.12],[156.75,53.88]]]}},{"type":"Feature","properties":{"kind":"blob","cls":0,"id":21},"geometry":{"type":"Polygon","coordinates":[[[-83.25,84.62],[-73.5,85.38],[-70.88,86.25],[-73.5,87.12],[-83.25,87.88],[-95.25,87.12],[-122.25,87.38],[-125.75,86.88],[-126.88,86.25],[-125.75,85.62],[-119.0,84.88],[-83.25,84.62]]]}},{"type":"Feature","properties":{"kind":"blob","cls":0,"id":22},"geometry":{"type":"MultiPolygon","coordinates":[[[[-98.75,11.62],[-98.88,11.5],[-98.75,11.38],[-98.75,11.62]]],[[[-99.12,12.0],[-99.0,11.88],[-99.0,13.12],[-99.12,12.0]]],[[[-98.25,10.88],[-97.0,10.62],[-95.62,11.5],[-95.38,13.0],[-96.25,14.12],[-97.5,14.38],[-98.88,13.5],[-98.75,13.12],[-97.75,13.88],[-97.0,13.88],[-96.62,13.5],[-96.88,11.75],[-98.5,11.38],[-98.25,10.88]]]]}},{"type":"Feature","properties":{"kind":"blob","cls":1,"id":23},"geometry":{"type":"MultiPolygon","coordinates":[[[[158.0,54.88],[157.88,54.75],[158.0,54.62],[158.0,54.88]]],[[[158.38,55.0],[158.25,55.12],[158.12,55.0],[158.38,55.0]]],[[[158.62,55.25],[158.5,55.38],[158.38,55.25],[158.62,55.25]]]]}},{"type":"Feature","properties":{"kind":"blob","cls":4,"id":24},"geometry":{"type":"Polygon","coordinates":[[[-71.5,58.38],[-69.75,58.88],[-68.62,60.0],[-68.62,61.25],[-69.5,62.12],[-71.75,62.88],[-74.5,62.88],[-76.75,62.12],[-77.38,61.5],[-77.38,60.25],[-75.5,58.88],[-71.5,58.38]]]}},{"type":"Feature","properties":{"kind":"blob","cls":0,"id":25},"geometry":{"type":"Polygon","coordinates":[[[146.25,12.38],[147.75,12.38],[148.62,13.5],[148.38,15.0],[147.0,15.88],[145.75,15.62],[144.88,14.5],[145.12,13.0],[146.25,12.38]]]}},{"type":"Feature","properties":{"kind":"blob","cls":4,"id":26},"geometry":{"type":"Polygon","coordinates":[[[-70.75,45.88],[-69.0,46.62],[-68.12,47.5],[-68.12,48.5],[-69.25,49.62],[-70.5,50.12],[-72.0,50.12],[-74.0,49.38],[-74.88,48.5],[-74.88,47.5],[-74.0,46.62],[-70.75,45.88]],[[-71.0,47.38],[-71.38,47.75],[-71.0,47.88],[-71.0,47.38]]]}},{"type":"Feature","properties":{"kind":"blob","cls":4,"id":27},"geometry":{"type":"Polygon","coordinates":[[[172.0,45.12],[173.25,45.62],[174.12,46.5],[174.12,47.5],[173.25,48.38],[172.0,48.88],[169.5,48.38],[168.62,47.5],[168.62,46.5],[169.5,45.62],[172.0,45.12]]]}},{"type":"Feature","properties":{"kind":"blob","cls":0,"id":28},"geometry":{"type":"Polygon","coordinates":[[[87.75,14.88],[89.25,14.88],[90.12,16.0],[89.88,17.75],[88.5,18.62],[87.38,18.25],[87.12,17.25],[86.38,16.5],[86.62,15.5],[87.75,14.88]]]}},{"type":"Feature","properties":{"kind":"blob","cls":4,"id":29},"geometry":{"type":"Polygon","coordinates":[[[-119.25,64.12],[-117.0,64.62],[-115.88,65.25],[-115.62,67.0],[-116.5,67.88],[-118.5,68.62],[-127.0,69.88],[-131.25,69.62],[-134.38,68.25],[-134.38,67.0],[-132.25,65.88],[-126.5,65.62],[-123.5,64.38],[-119.25,64.12]]]}},{"type":"Feature","properties":{"kind":"blob","cls":4,"id":30},"geometry":{"type":"Polygon","coordinates":[[[-35.5,-30.62],[-34.38,-29.25],[-34.62,-28.0],[-36.0,-26.62],[-36.75,-26.38],[-38.25,-26.62],[-39.38,-28.0],[-39.12,-29.5],[-38.25,-30.38],[-35.5,-30.62]]]}},{"type":"Feature","properties":{"kind":"blob","cls":2,"id":31},"geometry":{"type":"Polygon","coordinates":[[[-166.12,-14.0],[-166.12,-13.0],[-167.0,-11.88],[-168.25,-11.62],[-169.62,-12.5],[-167.75,-12.62],[-166.12,-14.0]]]}},{"type":"Feature","properties":{"kind":"blob","cls":4,"id":32},"geometry":{"type":"Polygon","coordinates":[[[-156.0,41.12],[-154.25,41.88],[-153.62,42.75],[-153.88,44.25],[-155.5,45.12],[-157.0,45.12],[-159.0,44.38],[-159.62,43.5],[-159.62,42.5],[-159.0,41.62],[-156.0,41.12]]]}},{"type":"Feature","properties":{"kind":"blob","cls":4,"id":33},"geometry":{"type":"Polygon","coordinates":[[[104.25,-37.88],[106.25,-38.12],[107.25,-37.62],[107.88,-37.0],[107.88,-35.5],[106.25,-34.38],[104.5,-34.38],[103.5,-34.88],[102.88,-35.5],[102.88,-37.0],[104.25,-37.88]]]}},{"type":"Feature","properties":{"kind":"blob","cls":4,"id":34},"geometry":{"type":"Polygon","coordinates":[[[105.88,28.0],[106.0,27.88],[106.12,28.0],[105.88,28.0]]]}},{"type":"Feature","properties":{"kind":"blob","cls":4,"id":35},"geometry":{"type":"Polygon","coordinates":[[[-122.25,56.12],[-119.5,56.38],[-119.5,56.88],[-119.0,56.62],[-117.88,57.5],[-117.88,58.5],[-118.5,59.12],[-120.5,59.88],[-122.25,59.88],[-124.25,59.12],[-124.25,58.62],[-122.12,57.25],[-122.62,56.75],[-122.25,56.12]]]}},{"type":"Feature","properties":{"kind":"blob","cls":4,"id":36},"geometry":{"type":"Polygon","coordinates":[[[-16.25,72.38],[-13.25,73.38],[-12.62,74.5],[-13.25,75.12],[-15.75,75.88],[-21.25,76.12],[-22.62,75.75],[-21.62,75.5],[-21.75,74.62],[-24.25,74.38],[-24.62,74.0],[-24.88,73.0],[-24.25,72.62],[-16.25,72.38]],[[-23.25,73.62],[-23.38,73.75],[-23.25,73.88],[-23.25,73.62]]]}},{"type":"Feature","properties":{"kind":"blob","cls":2,"id":37},"geometry":{"type":"Polygon","coordinates":[[[-73.75,-11.38],[-73.0,-11.38],[-72.38,-10.75],[-72.25,-9.12],[-74.12,-10.25],[-73.75,-11.38]]]}},{"type":"Feature","properties":{"kind":"blob","cls":4,"id":38},"geometry":{"type":"Polygon","coordinates":[[[-90.5,-38.62],[-89.25,-38.88],[-87.62,-37.75],[-87.62,-36.25],[-88.25,-35.62],[-90.25,-35.12],[-91.88,-36.25],[-91.88,-37.75],[-90.5,-38.62]]]}},{"type":"Feature","properties":{"kind":"blob","cls":4,"id":39},"geometry":{"type":"Polygon","coordinates":[[[134.0,62.62],[137.0,63.62],[137.38,64.0],[137.0,64.38],[136.12,64.5],[136.88,65.5],[136.25,66.12],[135.75,65.88],[135.5,66.38],[131.5,66.88],[129.88,66.5],[130.62,66.0],[130.75,65.12],[135.0,65.12],[135.62,64.75],[135.62,64.25],[135.12,64.0],[135.62,63.75],[131.0,64.12],[130.75,64.62],[128.12,64.5],[131.0,62.88],[134.0,62.62]]]}},{"type":"Feature","properties":{"kind":"blob","cls":3,"id":40},"geometry":{"type":"Polygon","coordinates":[[[142.0,-25.88],[142.88,-25.0],[142.88,-23.5],[141.0,-22.12],[139.75,-22.38],[138.88,-23.25],[138.88,-25.0],[139.75,-25.88],[142.0,-25.88]]]}},{"type":"Feature","properties":{"kind":"blob","cls":3,"id":41},"geometry":{"type":"Polygon","coordinates":[[[-74.5,-11.38],[-74.12,-11.25],[-74.25,-11.12],[-74.5,-11.38]]]}},{"type":"Feature","properties":{"kind":"blob","cls":1,"id":42},"geometry":{"type":"Polygon","coordinates":[[[-107.5,22.88],[-106.38,24.0],[-106.62,25.0],[-107.62,25.75],[-107.62,26.25],[-108.12,26.5],[-107.88,27.0],[-108.62,27.25],[-108.5,27.62],[-109.38,27.75],[-109.62,29.25],[-110.75,30.38],[-113.5,30.38],[-114.88,28.75],[-114.62,27.75],[-112.75,26.12],[-111.25,26.12],[-111.12,24.25],[-109.75,22.88],[-107.5,22.88]]]}},{"type":"Feature","properties":{"kind":"blob","cls":4,"id":43},"geometry":{"type":"Polygon","coordinates":[[[38.75,44.62],[40.0,45.12],[41.12,46.25],[41.12,47.5],[40.25,48.38],[39.0,48.88],[38.0,48.88],[36.25,48.12],[35.12,47.0],[35.12,46.0],[36.0,45.12],[38.75,44.62]]]}},{"type":"Feature","properties":{"kind":"blob","cls":3,"id":44},"geometry":{"type":"Polygon","coordinates":[[[47.5,42.62],[49.5,42.38],[50.75,42.88],[51.62,44.25],[51.38,45.0],[50.5,45.88],[48.75,46.62],[47.0,46.62],[45.75,46.12],[44.88,45.0],[45.12,44.0],[47.5,42.62]]]}},{"type":"Feature","properties":{"kind":"blob","cls":4,"id":45},"geometry":{"type":"Polygon","coordinates":[[[127.88,65.0],[128.0,64.88],[128.12,65.0],[127.88,65.0]]]}},{"type":"Feature","properties":{"kind":"blob","cls":1,"id":46},"geometry":{"type":"Polygon","coordinates":[[[13.12,54.25],[12.12,55.0],[12.5,56.12],[14.0,55.62],[14.75,54.62],[15.62,55.5],[15.38,57.0],[14.5,57.88],[12.25,58.62],[9.25,58.12],[8.12,56.75],[8.38,56.0],[10.0,54.62],[13.12,54.25]]]}},{"type":"Feature","properties":{"kind":"blob","cls":3,"id":47},"geometry":{"type":"Polygon","coordinates":[[[-111.75,48.12],[-111.38,48.5],[-111.5,49.12],[-110.62,49.0],[-110.62,50.75],[-112.0,51.88],[-114.25,52.12],[-113.62,50.75],[-113.62,49.75],[-112.25,49.38],[-111.88,49.0],[-111.75,48.12]]]}},{"type":"Feature","properties":{"kind":"blob","cls":3,"id":48},"geometry":{"type":"Polygon","coordinates":[[[69.62,40.5],[69.62,41.75],[70.5,42.88],[71.5,42.62],[73.25,42.88],[73.38,43.25],[71.75,44.12],[69.5,43.88],[68.38,42.75],[68.38,41.5],[69.62,40.5]]]}},{"type":"Feature","properties":{"kind":"blob","cls":3,"id":49},"geometry":{"type":"MultiPolygon","coordinates":[[[[69.88,40.5],[70.25,40.12],[70.88,40.75],[70.5,40.88],[69.88,40.5]]],[[[71.0,41.12],[70.88,41.0],[71.0,40.88],[71.0,41.12]]]]}},{"type":"Feature","properties":{"kind":"center","id":1,"lat":-65.0,"lon":-141.0,"mslp":914.0,"hvtl":176.2,"hvtu":-38.0,"hb":-8.1,"idx":1.5,"cls":1,"psfc":914.0,"terrain":false,"radius_km":200,"name":"sym shallow warm","track":"T01"},"geometry":{"type":"Point","coordinates":[-141.0,-65.0]}},{"type":"Feature","properties":{"kind":"center","id":2,"lat":-60.5,"lon":74.5,"mslp":945.7,"hvtl":46.2,"hvtu":-38.7,"hb":7.9,"idx":0.5,"cls":1,"psfc":945.7,"terrain":false,"radius_km":200,"name":"sym shallow warm","track":"T05"},"geometry":{"type":"Point","coordinates":[74.5,-60.5]}},{"type":"Feature","properties":{"kind":"center","id":3,"lat":-62.25,"lon":128.25,"mslp":960.5,"hvtl":87.8,"hvtu":1.4,"hb":-7.6,"idx":1.4,"cls":0,"psfc":960.6,"terrain":false,"radius_km":200,"name":"sym deep warm"},"geometry":{"type":"Point","coordinates":[128.25,-62.25]}},{"type":"Feature","properties":{"kind":"center","id":4,"lat":-63.75,"lon":118.0,"mslp":964.0,"hvtl":123.1,"hvtu":-32.9,"hb":23.4,"idx":1.4,"cls":3,"psfc":964.0,"terrain":false,"radius_km":200,"name":"asym shallow warm","track":"T20"},"geometry":{"type":"Point","coordinates":[118.0,-63.75]}},{"type":"Feature","properties":{"kind":"center","id":5,"lat":-50.5,"lon":38.0,"mslp":965.3,"hvtl":54.1,"hvtu":-407.2,"hb":31.7,"idx":-0.0,"cls":3,"psfc":965.3,"terrain":false,"radius_km":200,"name":"asym shallow warm","track":"T31"},"geometry":{"type":"Point","coordinates":[38.0,-50.5]}},{"type":"Feature","properties":{"kind":"center","id":6,"lat":-69.25,"lon":-80.75,"mslp":965.5,"hvtl":11.8,"hvtu":-61.6,"hb":-1.8,"idx":-0.3,"cls":1,"psfc":965.5,"terrain":false,"radius_km":200,"name":"sym shallow warm","track":"T16"},"geometry":{"type":"Point","coordinates":[-80.75,-69.25]}},{"type":"Feature","properties":{"kind":"center","id":7,"lat":-61.25,"lon":25.25,"mslp":968.8,"hvtl":-27.7,"hvtu":-101.9,"hb":10.1,"idx":-1.3,"cls":4,"psfc":968.8,"terrain":false,"radius_km":200,"name":"asym cold","track":"T35"},"geometry":{"type":"Point","coordinates":[25.25,-61.25]}},{"type":"Feature","properties":{"kind":"center","id":8,"lat":57.25,"lon":-44.0,"mslp":972.5,"hvtl":77.5,"hvtu":-58.8,"hb":-12.7,"idx":0.8,"cls":1,"psfc":972.5,"terrain":false,"radius_km":200,"name":"sym shallow warm","track":"T41"},"geometry":{"type":"Point","coordinates":[-44.0,57.25]}},{"type":"Feature","properties":{"kind":"center","id":9,"lat":-70.75,"lon":-52.75,"mslp":973.6,"hvtl":-109.3,"hvtu":-172.9,"hb":46.1,"idx":-2.5,"cls":4,"psfc":973.6,"terrain":false,"radius_km":200,"name":"asym cold","track":"T22"},"geometry":{"type":"Point","coordinates":[-52.75,-70.75]}},{"type":"Feature","properties":{"kind":"center","id":10,"lat":-71.25,"lon":-18.25,"mslp":974.3,"hvtl":-142.1,"hvtu":-156.0,"hb":28.9,"idx":-2.7,"cls":4,"psfc":974.3,"terrain":false,"radius_km":200,"name":"asym cold","track":"T43"},"geometry":{"type":"Point","coordinates":[-18.25,-71.25]}},{"type":"Feature","properties":{"kind":"center","id":11,"lat":-73.0,"lon":-95.25,"mslp":975.6,"hvtl":87.7,"hvtu":-96.8,"hb":1.9,"idx":0.7,"cls":1,"psfc":970.2,"terrain":false,"radius_km":200,"name":"sym shallow warm","track":"T39"},"geometry":{"type":"Point","coordinates":[-95.25,-73.0]}},{"type":"Feature","properties":{"kind":"center","id":12,"lat":-67.75,"lon":152.5,"mslp":976.1,"hvtl":-149.0,"hvtu":-195.3,"hb":57.7,"idx":-2.8,"cls":4,"psfc":976.1,"terrain":false,"radius_km":200,"name":"asym cold"},"geometry":{"type":"Point","coordinates":[152.5,-67.75]}},{"type":"Feature","properties":{"kind":"center","id":13,"lat":82.25,"lon":101.0,"mslp":976.4,"hvtl":-28.9,"hvtu":-167.3,"hb":79.8,"idx":-1.5,"cls":4,"psfc":976.4,"terrain":false,"radius_km":200,"name":"asym cold","track":"T45"},"geometry":{"type":"Point","coordinates":[101.0,82.25]}},{"type":"Feature","properties":{"kind":"center","id":14,"lat":-81.25,"lon":-169.75,"mslp":976.8,"hvtl":-4.2,"hvtu":-41.9,"hb":-8.6,"idx":-0.5,"cls":5,"psfc":969.5,"terrain":false,"radius_km":200,"name":"sym cold","track":"T36"},"geometry":{"type":"Point","coordinates":[-169.75,-81.25]}},{"type":"Feature","properties":{"kind":"center","id":15,"lat":-66.5,"lon":57.5,"mslp":976.9,"hvtl":51.1,"hvtu":-125.1,"hb":-2.5,"idx":0.1,"cls":1,"psfc":976.2,"terrain":false,"radius_km":200,"name":"sym shallow warm"},"geometry":{"type":"Point","coordinates":[57.5,-66.5]}},{"type":"Feature","properties":{"kind":"center","id":16,"lat":52.25,"lon":-148.5,"mslp":980.1,"hvtl":15.0,"hvtu":-148.1,"hb":5.3,"idx":-0.6,"cls":1,"psfc":980.1,"terrain":false,"radius_km":200,"name":"sym shallow warm","track":"T34"},"geometry":{"type":"Point","coordinates":[-148.5,52.25]}},{"type":"Feature","properties":{"kind":"center","id":17,"lat":-81.5,"lon":169.0,"mslp":981.4,"hvtl":34.5,"hvtu":-54.4,"hb":-17.1,"idx":0.2,"cls":1,"psfc":974.7,"terrain":false,"radius_km":200,"name":"sym shallow warm","track":"T25"},"geometry":{"type":"Point","coordinates":[169.0,-81.5]}},{"type":"Feature","properties":{"kind":"center","id":18,"lat":61.0,"lon":-47.0,"mslp":982.6,"hvtl":138.3,"hvtu":-91.6,"hb":32.4,"idx":1.0,"cls":3,"psfc":946.3,"terrain":false,"radius_km":200,"name":"asym shallow warm","track":"T63"},"geometry":{"type":"Point","coordinates":[-47.0,61.0]}},{"type":"Feature","properties":{"kind":"center","id":19,"lat":80.75,"lon":160.25,"mslp":982.8,"hvtl":-97.3,"hvtu":-73.1,"hb":33.8,"idx":-2.1,"cls":4,"psfc":982.8,"terrain":false,"radius_km":200,"name":"asym cold","track":"T58"},"geometry":{"type":"Point","coordinates":[160.25,80.75]}},{"type":"Feature","properties":{"kind":"center","id":20,"lat":55.75,"lon":155.5,"mslp":984.8,"hvtl":98.8,"hvtu":-45.5,"hb":6.0,"idx":1.1,"cls":1,"psfc":984.7,"terrain":false,"radius_km":200,"name":"sym shallow warm","track":"T30"},"geometry":{"type":"Point","coordinates":[155.5,55.75]}},{"type":"Feature","properties":{"kind":"center","id":21,"lat":86.25,"lon":-99.0,"mslp":986.8,"hvtl":19.9,"hvtu":31.0,"hb":-20.1,"idx":0.7,"cls":0,"psfc":986.8,"terrain":false,"radius_km":200,"name":"sym deep warm","track":"T59"},"geometry":{"type":"Point","coordinates":[-99.0,86.25]}},{"type":"Feature","properties":{"kind":"center","id":22,"lat":12.0,"lon":-96.75,"mslp":992.8,"hvtl":84.8,"hvtu":219.1,"hb":-0.6,"idx":2.4,"cls":0,"psfc":992.8,"terrain":false,"radius_km":200,"name":"sym deep warm","track":"T24"},"geometry":{"type":"Point","coordinates":[-96.75,12.0]}},{"type":"Feature","properties":{"kind":"center","id":23,"lat":54.75,"lon":158.0,"mslp":993.0,"hvtl":100.9,"hvtu":-79.3,"hb":1.1,"idx":0.9,"cls":1,"psfc":908.9,"terrain":false,"radius_km":200,"name":"sym shallow warm","track":"T75"},"geometry":{"type":"Point","coordinates":[158.0,54.75]}},{"type":"Feature","properties":{"kind":"center","id":24,"lat":60.25,"lon":-72.5,"mslp":993.2,"hvtl":-75.8,"hvtu":-223.8,"hb":17.4,"idx":-2.3,"cls":4,"psfc":960.0,"terrain":false,"radius_km":200,"name":"asym cold","track":"T71"},"geometry":{"type":"Point","coordinates":[-72.5,60.25]}},{"type":"Feature","properties":{"kind":"center","id":25,"lat":14.0,"lon":146.75,"mslp":993.5,"hvtl":82.8,"hvtu":45.9,"hb":3.8,"idx":1.8,"cls":0,"psfc":993.5,"terrain":false,"radius_km":200,"name":"sym deep warm","track":"T50"},"geometry":{"type":"Point","coordinates":[146.75,14.0]}},{"type":"Feature","properties":{"kind":"center","id":26,"lat":48.0,"lon":-71.25,"mslp":994.4,"hvtl":-516.8,"hvtu":-405.6,"hb":125.2,"idx":-3.0,"cls":4,"psfc":913.2,"terrain":false,"radius_km":200,"name":"asym cold","track":"T78"},"geometry":{"type":"Point","coordinates":[-71.25,48.0]}},{"type":"Feature","properties":{"kind":"center","id":27,"lat":47.0,"lon":171.5,"mslp":996.6,"hvtl":-55.0,"hvtu":-315.3,"hb":45.7,"idx":-2.0,"cls":4,"psfc":996.6,"terrain":false,"radius_km":200,"name":"asym cold","track":"T81"},"geometry":{"type":"Point","coordinates":[171.5,47.0]}},{"type":"Feature","properties":{"kind":"center","id":28,"lat":16.5,"lon":88.25,"mslp":997.4,"hvtl":25.4,"hvtu":65.4,"hb":5.7,"idx":1.1,"cls":0,"psfc":997.4,"terrain":false,"radius_km":200,"name":"sym deep warm","track":"T42"},"geometry":{"type":"Point","coordinates":[88.25,16.5]}},{"type":"Feature","properties":{"kind":"center","id":29,"lat":66.75,"lon":-121.25,"mslp":997.7,"hvtl":-242.2,"hvtu":-69.9,"hb":75.9,"idx":-2.6,"cls":4,"psfc":977.6,"terrain":false,"radius_km":200,"name":"asym cold","track":"T77"},"geometry":{"type":"Point","coordinates":[-121.25,66.75]}},{"type":"Feature","properties":{"kind":"center","id":30,"lat":-28.75,"lon":-36.75,"mslp":998.2,"hvtl":-8.4,"hvtu":-227.0,"hb":74.0,"idx":-1.1,"cls":4,"psfc":998.2,"terrain":false,"radius_km":200,"name":"asym cold","track":"T76"},"geometry":{"type":"Point","coordinates":[-36.75,-28.75]}},{"type":"Feature","properties":{"kind":"center","id":31,"lat":-12.25,"lon":-168.0,"mslp":1002.7,"hvtl":22.0,"hvtu":40.2,"hb":11.4,"idx":0.8,"cls":2,"psfc":1002.7,"terrain":false,"radius_km":200,"name":"asym deep warm","track":"T88"},"geometry":{"type":"Point","coordinates":[-168.0,-12.25]}},{"type":"Feature","properties":{"kind":"center","id":32,"lat":43.25,"lon":-156.5,"mslp":1002.7,"hvtl":-229.4,"hvtu":-175.9,"hb":59.7,"idx":-2.9,"cls":4,"psfc":1002.7,"terrain":false,"radius_km":200,"name":"asym cold"},"geometry":{"type":"Point","coordinates":[-156.5,43.25]}},{"type":"Feature","properties":{"kind":"center","id":33,"lat":-36.25,"lon":105.5,"mslp":1004.3,"hvtl":-107.9,"hvtu":-203.6,"hb":67.7,"idx":-2.6,"cls":4,"psfc":1004.3,"terrain":false,"radius_km":200,"name":"asym cold","track":"T53"},"geometry":{"type":"Point","coordinates":[105.5,-36.25]}},{"type":"Feature","properties":{"kind":"center","id":34,"lat":28.0,"lon":106.0,"mslp":1004.5,"hvtl":-86.6,"hvtu":-119.0,"hb":36.7,"idx":-2.2,"cls":4,"psfc":901.2,"terrain":true,"radius_km":200,"name":"asym cold"},"geometry":{"type":"Point","coordinates":[106.0,28.0]}},{"type":"Feature","properties":{"kind":"center","id":35,"lat":58.5,"lon":-123.0,"mslp":1005.2,"hvtl":-118.8,"hvtu":-357.7,"hb":28.3,"idx":-2.7,"cls":4,"psfc":938.7,"terrain":false,"radius_km":200,"name":"asym cold"},"geometry":{"type":"Point","coordinates":[-123.0,58.5]}},{"type":"Feature","properties":{"kind":"center","id":36,"lat":75.5,"lon":-18.5,"mslp":1006.1,"hvtl":-279.8,"hvtu":-430.2,"hb":61.0,"idx":-3.0,"cls":4,"psfc":1006.0,"terrain":false,"radius_km":200,"name":"asym cold"},"geometry":{"type":"Point","coordinates":[-18.5,75.5]}},{"type":"Feature","properties":{"kind":"center","id":37,"lat":-9.5,"lon":-73.0,"mslp":1006.3,"hvtl":1.6,"hvtu":9.3,"hb":22.6,"idx":0.1,"cls":2,"psfc":971.7,"terrain":false,"radius_km":200,"name":"asym deep warm"},"geometry":{"type":"Point","coordinates":[-73.0,-9.5]}},{"type":"Feature","properties":{"kind":"center","id":38,"lat":-38.0,"lon":-89.75,"mslp":1007.9,"hvtl":-91.3,"hvtu":-181.9,"hb":14.6,"idx":-2.4,"cls":4,"psfc":1007.9,"terrain":false,"radius_km":200,"name":"asym cold","track":"T102"},"geometry":{"type":"Point","coordinates":[-89.75,-38.0]}},{"type":"Feature","properties":{"kind":"center","id":39,"lat":65.0,"lon":133.0,"mslp":1008.3,"hvtl":-65.8,"hvtu":-95.8,"hb":11.5,"idx":-1.9,"cls":4,"psfc":900.9,"terrain":true,"radius_km":200,"name":"asym cold"},"geometry":{"type":"Point","coordinates":[133.0,65.0]}},{"type":"Feature","properties":{"kind":"center","id":40,"lat":-23.5,"lon":140.5,"mslp":1008.6,"hvtl":12.8,"hvtu":-116.6,"hb":30.6,"idx":-0.6,"cls":3,"psfc":991.7,"terrain":false,"radius_km":200,"name":"asym shallow warm"},"geometry":{"type":"Point","coordinates":[140.5,-23.5]}},{"type":"Feature","properties":{"kind":"center","id":41,"lat":-11.25,"lon":-74.25,"mslp":1009.3,"hvtl":31.3,"hvtu":-21.9,"hb":25.0,"idx":0.4,"cls":3,"psfc":902.3,"terrain":true,"radius_km":200,"name":"asym shallow warm"},"geometry":{"type":"Point","coordinates":[-74.25,-11.25]}},{"type":"Feature","properties":{"kind":"center","id":42,"lat":25.25,"lon":-108.5,"mslp":1009.6,"hvtl":53.6,"hvtu":-126.8,"hb":-0.5,"idx":0.1,"cls":1,"psfc":1009.6,"terrain":false,"radius_km":200,"name":"sym shallow warm","track":"T106"},"geometry":{"type":"Point","coordinates":[-108.5,25.25]}},{"type":"Feature","properties":{"kind":"center","id":43,"lat":46.75,"lon":38.5,"mslp":1010.4,"hvtl":-61.5,"hvtu":-24.4,"hb":23.9,"idx":-1.3,"cls":4,"psfc":1008.4,"terrain":false,"radius_km":200,"name":"asym cold","track":"T98"},"geometry":{"type":"Point","coordinates":[38.5,46.75]}},{"type":"Feature","properties":{"kind":"center","id":44,"lat":44.25,"lon":48.75,"mslp":1012.4,"hvtl":24.7,"hvtu":-118.6,"hb":34.0,"idx":-0.3,"cls":3,"psfc":1015.6,"terrain":false,"radius_km":200,"name":"asym shallow warm","track":"T99"},"geometry":{"type":"Point","coordinates":[48.75,44.25]}},{"type":"Feature","properties":{"kind":"center","id":45,"lat":65.0,"lon":128.0,"mslp":1013.9,"hvtl":-44.4,"hvtu":-125.4,"hb":10.7,"idx":-1.7,"cls":4,"psfc":900.4,"terrain":true,"radius_km":200,"name":"asym cold"},"geometry":{"type":"Point","coordinates":[128.0,65.0]}},{"type":"Feature","properties":{"kind":"center","id":46,"lat":56.5,"lon":11.75,"mslp":1015.9,"hvtl":71.4,"hvtu":-94.1,"hb":-12.4,"idx":0.5,"cls":1,"psfc":1015.9,"terrain":false,"radius_km":200,"name":"sym shallow warm","track":"T116"},"geometry":{"type":"Point","coordinates":[11.75,56.5]}},{"type":"Feature","properties":{"kind":"center","id":47,"lat":49.75,"lon":-113.25,"mslp":1018.4,"hvtl":34.1,"hvtu":-118.6,"hb":20.9,"idx":-0.2,"cls":3,"psfc":909.5,"terrain":true,"radius_km":200,"name":"asym shallow warm"},"geometry":{"type":"Point","coordinates":[-113.25,49.75]}},{"type":"Feature","properties":{"kind":"center","id":48,"lat":40.5,"lon":69.5,"mslp":1019.9,"hvtl":78.6,"hvtu":-222.4,"hb":95.2,"idx":0.3,"cls":3,"psfc":929.5,"terrain":true,"radius_km":200,"name":"asym shallow warm"},"geometry":{"type":"Point","coordinates":[69.5,40.5]}},{"type":"Feature","properties":{"kind":"center","id":49,"lat":40.75,"lon":70.75,"mslp":1020.1,"hvtl":53.9,"hvtu":-183.8,"hb":117.8,"idx":0.0,"cls":3,"psfc":960.9,"terrain":false,"radius_km":200,"name":"asym shallow warm","track":"T115"},"geometry":{"type":"Point","coordinates":[70.75,40.75]}}]}