{"type":"FeatureCollection","features":[{"type":"Feature","properties":{"kind":"blob","cls":4,"id":1},"geometry":{"type":"Polygon","coordinates":[[[-134.5,-66.38],[-131.5,-65.88],[-129.12,-64.25],[-128.88,-62.75],[-130.75,-61.62],[-133.75,-61.38],[-138.25,-62.12],[-140.88,-63.5],[-141.12,-64.5],[-140.5,-65.38],[-139.0,-66.12],[-134.5,-66.38]],[[-136.75,-63.62],[-137.38,-63.0],[-136.75,-62.62],[-135.5,-62.62],[-135.12,-63.0],[-135.75,-63.62],[-136.75,-63.62]]]}},{"type":"Feature","properties":{"kind":"blob","cls":0,"id":2},"geometry":{"type":"MultiPolygon","coordinates":[[[[125.0,-58.62],[126.75,-58.12],[128.38,-56.5],[128.38,-55.5],[127.5,-54.62],[125.75,-54.12],[123.25,-54.12],[121.5,-54.62],[120.38,-55.75],[120.75,-57.38],[124.0,-55.88],[125.62,-56.25],[124.75,-57.12],[121.88,-58.25],[125.0,-58.62]]],[[[131.25,-55.88],[133.25,-55.12],[133.88,-54.25],[133.62,-53.25],[131.25,-52.12],[128.25,-52.88],[127.62,-53.75],[127.88,-54.75],[131.25,-55.88]]]]}},{"type":"Feature","properties":{"kind":"blob","cls":3,"id":3},"geometry":{"type":"Polygon","coordinates":[[[49.75,-66.38],[51.62,-65.25],[51.62,-64.25],[49.75,-63.12],[45.25,-62.88],[43.0,-63.38],[41.88,-64.25],[41.88,-65.25],[42.25,-65.62],[43.75,-66.38],[49.75,-66.38]]]}},{"type":"Feature","properties":{"kind":"blob","cls":1,"id":4},"geometry":{"type":"Polygon","coordinates":[[[168.25,55.62],[173.25,55.62],[175.75,56.62],[176.38,58.0],[175.75,58.88],[173.75,59.62],[168.25,59.38],[166.12,58.0],[165.88,57.0],[166.5,56.12],[168.25,55.62]]]}},{"type":"Feature","properties":{"kind":"blob","cls":4,"id":5},"geometry":{"type":"Polygon","coordinates":[[[148.75,-61.62],[150.5,-61.12],[151.62,-60.0],[151.62,-59.25],[150.0,-57.62],[147.5,-56.62],[144.25,-56.88],[142.62,-58.0],[142.62,-59.25],[144.0,-60.62],[148.75,-61.62]]]}},{"type":"Feature","properties":{"kind":"blob","cls":4,"id":6},"geometry":{"type":"Polygon","coordinates":[[[60.5,-66.62],[62.75,-66.12],[63.88,-65.25],[63.88,-64.0],[62.0,-62.88],[57.75,-62.38],[56.25,-62.62],[54.12,-64.0],[54.12,-65.0],[54.5,-65.38],[56.0,-66.12],[60.5,-66.62]]]}},{"type":"Feature","properties":{"kind":"blob","cls":3,"id":7},"geometry":{"type":"Polygon","coordinates":[[[20.62,-70.25],[20.75,-70.62],[21.75,-70.62],[31.25,-70.12],[33.5,-69.88],[33.75,-69.38],[37.25,-69.38],[42.12,-68.25],[39.5,-67.12],[34.25,-66.88],[31.75,-67.38],[29.5,-68.88],[23.25,-68.88],[21.25,-69.62],[20.62,-70.25]]]}},{"type":"Feature","properties":{"kind":"blob","cls":4,"id":8},"geometry":{"type":"Polygon","coordinates":[[[-8.0,-72.12],[-5.0,-71.38],[-1.75,-71.62],[3.5,-70.88],[13.75,-70.88],[16.25,-70.62],[16.38,-70.25],[14.5,-68.88],[11.75,-68.38],[9.25,-68.38],[5.5,-69.12],[3.5,-68.12],[1.75,-67.88],[-3.5,-67.88],[-8.5,-68.62],[-11.0,-69.62],[-11.62,-70.75],[-10.25,-71.88],[-8.0,-72.12]]]}},{"type":"Feature","properties":{"kind":"blob","cls":4,"id":9},"geometry":{"type":"Polygon","coordinates":[[[-40.5,-74.62],[-37.75,-73.62],[-37.12,-72.75],[-37.12,-72.0],[-38.0,-71.12],[-40.25,-70.38],[-47.25,-70.12],[-51.5,-71.12],[-52.62,-72.0],[-52.88,-72.75],[-52.25,-73.62],[-49.5,-74.62],[-40.5,-74.62]]]}},{"type":"Feature","properties":{"kind":"blob","cls":1,"id":10},"geometry":{"type":"Polygon","coordinates":[[[-111.38,-74.25],[-111.25,-74.62],[-106.5,-74.62],[-99.25,-74.38],[-98.75,-73.88],[-96.62,-73.75],[-99.5,-72.62],[-104.25,-72.38],[-109.5,-73.12],[-111.38,-74.25]]]}},{"type":"Feature","properties":{"kind":"blob","cls":3,"id":11},"geometry":{"type":"Polygon","coordinates":[[[135.0,-66.62],[136.5,-66.12],[137.88,-65.0],[137.88,-64.0],[135.25,-62.62],[130.75,-62.38],[129.25,-62.62],[127.75,-63.38],[127.38,-64.0],[127.38,-65.0],[128.75,-66.12],[135.0,-66.62]]]}},{"type":"Feature","properties":{"kind":"blob","cls":4,"id":12},"geometry":{"type":"Polygon","coordinates":[[[-84.25,-70.88],[-80.75,-70.12],[-79.38,-69.25],[-79.38,-68.25],[-81.0,-67.12],[-85.0,-66.38],[-89.75,-66.62],[-91.25,-67.12],[-92.12,-68.0],[-92.12,-68.75],[-91.25,-69.62],[-88.75,-70.62],[-84.25,-70.88]]]}},{"type":"Feature","properties":{"kind":"blob","cls":4,"id":13},"geometry":{"type":"Polygon","coordinates":[[[-27.25,-76.12],[-22.25,-76.12],[-20.88,-75.25],[-24.25,-75.38],[-27.25,-76.12]]]}},{"type":"Feature","properties":{"kind":"blob","cls":1,"id":14},"geometry":{"type":"Polygon","coordinates":[[[-11.75,65.62],[-12.62,66.25],[-12.25,66.62],[-9.25,66.62],[-8.0,66.12],[-6.62,67.0],[-6.62,68.0],[-8.75,69.12],[-13.25,69.38],[-15.5,68.88],[-16.88,68.0],[-16.88,67.0],[-16.5,66.62],[-14.75,65.88],[-11.75,65.62]]]}},{"type":"Feature","properties":{"kind":"blob","cls":4,"id":15},"geometry":{"type":"Polygon","coordinates":[[[-61.75,-81.12],[-47.25,-81.38],[-43.88,-81.0],[-46.75,-80.62],[-55.0,-80.62],[-61.75,-81.12]]]}},{"type":"Feature","properties":{"kind":"blob","cls":4,"id":16},"geometry":{"type":"Polygon","coordinates":[[[-96.5,-55.62],[-93.88,-54.5],[-93.38,-53.5],[-93.38,-51.0],[-94.25,-50.12],[-95.75,-49.62],[-98.0,-49.88],[-100.38,-52.0],[-100.62,-53.25],[-100.12,-54.5],[-98.75,-55.38],[-96.5,-55.62]]]}},{"type":"Feature","properties":{"kind":"blob","cls":4,"id":17},"geometry":{"type":"Polygon","coordinates":[[[179.75,-82.88],[180.0,-80.62],[177.25,-80.88],[174.88,-81.75],[174.88,-82.25],[175.5,-82.62],[179.75,-82.88]]]}},{"type":"Feature","properties":{"kind":"blob","cls":4,"id":17},"geometry":{"type":"Polygon","coordinates":[[[-179.75,-80.62],[-180.0,-82.88],[-177.75,-83.12],[-161.75,-83.38],[-158.12,-82.25],[-158.25,-81.62],[-159.5,-81.12],[-164.0,-80.38],[-175.0,-80.12],[-179.75,-80.62]]]}},{"type":"Feature","properties":{"kind":"blob","cls":4,"id":18},"geometry":{"type":"Polygon","coordinates":[[[-79.0,-79.38],[-77.5,-79.38],[-76.38,-78.5],[-77.0,-77.88],[-78.5,-77.38],[-79.0,-79.38]]]}},{"type":"Feature","properties":{"kind":"blob","cls":4,"id":19},"geometry":{"type":"Polygon","coordinates":[[[161.75,-71.38],[162.62,-71.5],[162.5,-70.62],[164.5,-71.12],[164.75,-70.62],[166.0,-70.62],[170.25,-71.62],[172.25,-70.88],[172.88,-70.0],[172.25,-69.12],[168.75,-67.62],[166.0,-67.12],[162.25,-67.12],[159.0,-66.12],[151.75,-66.62],[150.25,-67.12],[149.38,-68.0],[149.5,-68.38],[152.0,-68.88],[159.5,-69.62],[161.75,-71.38]]]}},{"type":"Feature","properties":{"kind":"blob","cls":4,"id":20},"geometry":{"type":"Polygon","coordinates":[[[101.5,-65.62],[104.0,-65.12],[105.25,-64.62],[106.12,-63.5],[104.75,-62.12],[100.5,-61.12],[97.5,-61.38],[95.12,-62.75],[95.12,-63.75],[96.0,-64.62],[97.75,-65.38],[101.5,-65.62]]]}},{"type":"Feature","properties":{"kind":"blob","cls":0,"id":21},"geometry":{"type":"Polygon","coordinates":[[[160.5,12.62],[162.25,12.62],[163.12,13.75],[163.12,15.0],[162.25,16.12],[160.25,16.12],[159.12,14.75],[159.38,13.25],[160.5,12.62]],[[161.25,13.88],[160.38,14.25],[160.75,14.88],[162.38,14.75],[162.0,14.12],[161.25,13.88]]]}},{"type":"Feature","properties":{"kind":"blob","cls":5,"id":22},"geometry":{"type":"Polygon","coordinates":[[[162.5,-79.62],[163.5,-79.88],[167.75,-79.38],[170.0,-78.62],[170.38,-77.75],[167.75,-76.62],[163.5,-76.12],[162.38,-77.0],[164.62,-78.5],[161.75,-78.62],[162.5,-79.62]],[[166.62,-77.5],[169.12,-77.5],[169.0,-77.62],[166.62,-77.5]]]}},{"type":"Feature","properties":{"kind":"blob","cls":0,"id":23},"geometry":{"type":"Polygon","coordinates":[[[145.25,14.88],[146.12,16.0],[145.88,17.5],[144.5,18.38],[143.25,18.12],[142.62,17.5],[142.38,16.5],[144.75,15.88],[145.25,14.88]]]}},{"type":"Feature","properties":{"kind":"blob","cls":1,"id":24},"geometry":{"type":"Polygon","coordinates":[[[31.25,53.88],[33.0,54.38],[33.88,55.25],[33.88,56.5],[33.0,57.38],[31.25,57.88],[28.0,57.38],[27.12,56.5],[27.12,55.25],[28.5,54.12],[31.25,53.88]]]}},{"type":"Feature","properties":{"kind":"blob","cls":4,"id":25},"geometry":{"type":"Polygon","coordinates":[[[28.75,83.38],[36.0,84.12],[37.25,84.38],[38.38,85.25],[37.5,85.88],[34.75,86.38],[25.5,87.12],[-0.5,87.38],[-14.5,86.62],[-18.0,85.88],[-18.62,85.25],[-16.5,84.38],[-10.5,83.62],[28.75,83.38]]]}},{"type":"Feature","properties":{"kind":"blob","cls":4,"id":26},"geometry":{"type":"Polygon","coordinates":[[[54.0,74.62],[58.0,75.12],[60.5,76.12],[61.38,77.5],[60.25,78.62],[59.0,79.12],[53.75,79.88],[45.5,79.62],[42.5,78.88],[41.62,78.25],[41.62,77.5],[42.5,76.62],[45.0,75.62],[48.0,74.88],[54.0,74.62]]]}},{"type":"Feature","properties":{"kind":"blob","cls":1,"id":27},"geometry":{"type":"Polygon","coordinates":[[[-128.5,50.88],[-127.12,52.0],[-127.12,52.5],[-128.38,53.25],[-128.12,53.5],[-128.5,54.12],[-131.75,54.12],[-133.12,53.0],[-133.12,52.0],[-132.25,51.12],[-128.5,50.88]]]}},{"type":"Feature","properties":{"kind":"blob","cls":4,"id":28},"geometry":{"type":"Polygon","coordinates":[[[30.25,58.62],[33.25,59.12],[34.75,59.88],[36.38,61.5],[36.38,62.0],[35.5,62.88],[33.25,63.62],[30.25,63.62],[28.0,63.12],[29.38,59.0],[29.0,58.88],[27.75,59.62],[26.0,61.62],[25.38,61.0],[25.38,60.0],[27.0,58.88],[30.25,58.62]]]}},{"type":"Feature","properties":{"kind":"blob","cls":0,"id":29},"geometry":{"type":"MultiPolygon","coordinates":[[[[-128.38,21.75],[-128.5,21.88],[-128.62,21.75],[-128.38,21.75]]],[[[-127.75,20.88],[-126.25,20.62],[-124.62,21.75],[-124.62,23.75],[-125.5,24.62],[-126.38,24.75],[-126.12,23.75],[-126.62,22.25],[-127.25,21.62],[-128.38,21.5],[-127.75,20.88]]],[[[-128.75,21.88],[-128.25,24.38],[-128.88,23.75],[-128.75,21.88]]],[[[-127.88,24.5],[-128.0,24.62],[-128.12,24.5],[-127.88,24.5]]]]}},{"type":"Feature","properties":{"kind":"blob","cls":4,"id":30},"geometry":{"type":"Polygon","coordinates":[[[13.0,56.38],[14.62,57.5],[14.62,58.5],[14.0,59.12],[11.5,60.12],[9.0,59.88],[7.12,58.5],[7.12,57.5],[8.75,56.38],[13.0,56.38]]]}},{"type":"Feature","properties":{"kind":"blob","cls":1,"id":31},"geometry":{"type":"Polygon","coordinates":[[[-172.75,29.88],[-170.88,31.0],[-170.62,32.5],[-171.25,33.38],[-173.5,33.88],[-175.12,33.0],[-175.38,31.25],[-174.75,30.38],[-172.75,29.88]]]}},{"type":"Feature","properties":{"kind":"blob","cls":0,"id":32},"geometry":{"type":"Polygon","coordinates":[[[-94.5,17.12],[-93.12,18.0],[-92.88,19.5],[-93.75,20.62],[-95.25,20.88],[-96.62,20.0],[-96.88,18.5],[-96.0,17.38],[-94.5,17.12]]]}},{"type":"Feature","properties":{"kind":"blob","cls":3,"id":33},"geometry":{"type":"Polygon","coordinates":[[[-159.5,75.38],[-150.75,75.38],[-147.75,76.12],[-145.88,77.5],[-146.75,78.38],[-154.0,78.38],[-165.62,77.25],[-164.75,76.12],[-164.0,75.88],[-159.5,75.38]]]}},{"type":"Feature","properties":{"kind":"blob","cls":4,"id":34},"geometry":{"type":"Polygon","coordinates":[[[-36.75,59.62],[-33.5,60.38],[-31.12,61.75],[-30.88,63.25],[-31.75,64.38],[-32.75,64.62],[-33.38,65.75],[-34.5,66.62],[-36.75,66.12],[-40.25,64.38],[-41.5,64.38],[-42.5,62.88],[-43.12,62.75],[-43.12,61.5],[-40.75,59.88],[-36.75,59.62]]]}},{"type":"Feature","properties":{"kind":"blob","cls":6,"id":35},"geometry":{"type":"Polygon","coordinates":[[[167.0,-36.88],[168.62,-36.0],[168.88,-34.25],[168.25,-33.38],[166.25,-32.88],[164.62,-33.75],[164.38,-35.5],[165.0,-36.38],[167.0,-36.88]],[[166.62,-36.5],[166.12,-36.25],[166.12,-35.75],[167.0,-35.38],[167.38,-36.0],[166.62,-36.5]]]}},{"type":"Feature","properties":{"kind":"blob","cls":3,"id":36},"geometry":{"type":"Polygon","coordinates":[[[162.25,32.62],[163.88,33.5],[164.12,35.0],[163.5,35.88],[161.5,36.38],[159.88,35.5],[159.88,33.5],[162.25,32.62]]]}},{"type":"Feature","properties":{"kind":"blob","cls":0,"id":37},"geometry":{"type":"Polygon","coordinates":[[[144.25,14.62],[144.62,14.75],[144.5,14.88],[144.25,14.62]]]}},{"type":"Feature","properties":{"kind":"blob","cls":1,"id":38},"geometry":{"type":"Polygon","coordinates":[[[68.75,25.12],[70.38,27.25],[69.88,29.0],[68.0,30.12],[67.38,29.75],[66.88,27.0],[65.38,26.75],[66.5,25.12],[68.75,25.12]]]}},{"type":"Feature","properties":{"kind":"blob","cls":3,"id":39},"geometry":{"type":"Polygon","coordinates":[[[-57.25,34.88],[-56.0,34.62],[-54.38,35.75],[-54.38,37.5],[-56.0,38.62],[-57.0,38.62],[-58.62,37.5],[-58.62,35.75],[-57.25,34.88]]]}},{"type":"Feature","properties":{"kind":"blob","cls":4,"id":40},"geometry":{"type":"MultiPolygon","coordinates":[[[[-123.75,49.88],[-123.88,49.75],[-123.75,49.62],[-123.75,49.88]]],[[[-124.75,49.88],[-123.88,50.0],[-125.75,50.88],[-124.75,49.88]]]]}},{"type":"Feature","properties":{"kind":"blob","cls":4,"id":41},"geometry":{"type":"Polygon","coordinates":[[[150.0,69.88],[152.75,71.12],[152.88,72.25],[151.0,73.62],[148.75,74.38],[143.25,74.62],[136.75,73.12],[135.12,72.25],[135.12,71.25],[136.75,70.38],[139.5,69.88],[150.0,69.88]]]}},{"type":"Feature","properties":{"kind":"blob","cls":3,"id":42},"geometry":{"type":"Polygon","coordinates":[[[92.5,61.12],[94.5,61.62],[95.88,62.75],[95.88,64.0],[93.75,65.62],[91.5,66.12],[90.12,66.0],[90.62,65.5],[90.62,64.5],[89.25,63.38],[87.5,63.62],[85.25,65.12],[84.38,64.0],[84.62,62.75],[86.25,61.62],[92.5,61.12]]]}},{"type":"Feature","properties":{"kind":"blob","cls":4,"id":43},"geometry":{"type":"Polygon","coordinates":[[[-123.38,49.75],[-123.25,49.62],[-123.12,49.75],[-123.38,49.75]]]}},{"type":"Feature","properties":{"kind":"blob","cls":4,"id":44},"geometry":{"type":"MultiPolygon","coordinates":[[[[-69.0,-13.62],[-69.12,-13.75],[-69.0,-13.88],[-69.0,-13.62]]],[[[-70.5,-13.38],[-70.0,-13.62],[-69.12,-13.5],[-70.0,-13.12],[-70.5,-13.38]]]]}},{"type":"Feature","properties":{"kind":"blob","cls":0,"id":45},"geometry":{"type":"Polygon","coordinates":[[[42.0,11.38],[42.88,12.25],[43.12,13.75],[41.75,15.38],[40.5,15.62],[39.62,15.25],[40.12,13.25],[39.88,12.0],[42.0,11.38]]]}},{"type":"Feature","properties":{"kind":"blob","cls":4,"id":46},"geometry":{"type":"Polygon","coordinates":[[[-66.38,-28.75],[-66.25,-27.62],[-67.12,-28.25],[-66.38,-28.75]]]}},{"type":"Feature","properties":{"kind":"blob","cls":3,"id":47},"geometry":{"type":"Polygon","coordinates":[[[58.75,28.62],[59.25,28.38],[59.88,29.0],[59.5,30.88],[58.12,30.0],[58.75,28.62]]]}},{"type":"Feature","properties":{"kind":"blob","cls":4,"id":48},"geometry":{"type":"Polygon","coordinates":[[[-64.5,-17.38],[-64.38,-17.0],[-65.25,-15.88],[-66.5,-15.62],[-66.62,-16.0],[-64.5,-17.38]]]}},{"type":"Feature","properties":{"kind":"blob","cls":3,"id":49},"geometry":{"type":"Polygon","coordinates":[[[19.0,-28.62],[20.38,-27.75],[19.5,-26.88],[19.0,-27.88],[18.0,-27.88],[18.25,-26.88],[19.62,-26.5],[19.0,-26.12],[18.25,-26.62],[18.38,-26.0],[17.75,-25.38],[17.62,-26.5],[17.12,-26.75],[17.12,-28.0],[19.0,-28.62]]]}},{"type":"Feature","properties":{"kind":"blob","cls":5,"id":50},"geometry":{"type":"MultiPolygon","coordinates":[[[[64.75,29.62],[64.75,29.12],[65.62,29.5],[65.5,29.62],[64.75,29.62]]],[[[65.75,29.88],[65.62,29.75],[65.75,29.62],[65.75,29.88]]]]}},{"type":"Feature","properties":{"kind":"blob","cls":5,"id":51},"geometry":{"type":"Polygon","coordinates":[[[58.0,28.12],[58.38,28.25],[57.75,28.88],[58.0,28.12]]]}},{"type":"Feature","properties":{"kind":"blob","cls":4,"id":52},"geometry":{"type":"Polygon","coordinates":[[[63.0,29.38],[63.12,29.75],[61.25,30.88],[60.62,30.75],[61.0,29.88],[63.0,29.38]]]}},{"type":"Feature","properties":{"kind":"blob","cls":1,"id":53},"geometry":{"type":"Polygon","coordinates":[[[63.5,28.88],[64.38,29.0],[64.25,29.12],[63.5,28.88]]]}},{"type":"Feature","properties":{"kind":"blob","cls":4,"id":54},"geometry":{"type":"Polygon","coordinates":[[[-63.5,-19.62],[-63.12,-19.5],[-63.75,-18.88],[-63.5,-19.62]]]}},{"type":"Feature","properties":{"kind":"blob","cls":4,"id":55},"geometry":{"type":"Polygon","coordinates":[[[-63.5,-21.62],[-63.38,-21.0],[-64.0,-20.62],[-64.12,-21.25],[-63.5,-21.62]]]}},{"type":"Feature","properties":{"kind":"blob","cls":4,"id":56},"geometry":{"type":"MultiPolygon","coordinates":[[[[102.75,52.38],[102.62,52.25],[102.75,52.12],[102.75,52.38]]],[[[102.25,52.62],[102.12,52.5],[102.5,52.38],[102.25,52.62]]],[[[101.75,52.88],[101.62,52.75],[102.0,52.62],[101.75,52.88]]]]}},{"type":"Feature","properties":{"kind":"blob","cls":4,"id":57},"geometry":{"type":"Polygon","coordinates":[[[-63.25,-20.62],[-63.12,-20.0],[-63.5,-19.88],[-63.62,-20.0],[-63.25,-20.62]]]}},{"type":"Feature","properties":{"kind":"blob","cls":4,"id":58},"geometry":{"type":"Polygon","coordinates":[[[-68.75,-33.12],[-68.0,-32.88],[-67.38,-32.0],[-67.5,-31.38],[-68.12,-31.5],[-67.62,-31.0],[-68.25,-29.88],[-68.62,-30.5],[-68.75,-33.12]]]}},{"type":"Feature","properties":{"kind":"blob","cls":4,"id":59},"geometry":{"type":"MultiPolygon","coordinates":[[[[-65.88,-28.75],[-66.0,-28.62],[-66.12,-28.75],[-65.88,-28.75]]],[[[-65.62,-28.5],[-65.75,-28.38],[-65.88,-28.5],[-65.62,-28.5]]],[[[-65.25,-28.62],[-64.12,-27.0],[-64.5,-24.62],[-65.12,-25.75],[-64.88,-26.5],[-65.25,-26.12],[-65.88,-27.25],[-65.25,-28.62]]],[[[-65.0,-25.12],[-64.88,-25.0],[-65.0,-24.88],[-65.0,-25.12]]],[[[-64.75,-24.62],[-64.62,-24.5],[-64.75,-24.38],[-64.75,-24.62]]]]}},{"type":"Feature","properties":{"kind":"blob","cls":4,"id":60},"geometry":{"type":"Polygon","coordinates":[[[-64.25,-22.62],[-63.62,-22.0],[-64.0,-21.88],[-64.25,-22.62]]]}},{"type":"Feature","properties":{"kind":"blob","cls":4,"id":61},"geometry":{"type":"Polygon","coordinates":[[[-71.25,-32.62],[-70.62,-32.75],[-71.12,-32.0],[-71.0,-29.88],[-71.62,-30.75],[-71.25,-32.62]]]}},{"type":"Feature","properties":{"kind":"blob","cls":4,"id":62},"geometry":{"type":"Polygon","coordinates":[[[-36.5,44.12],[-35.25,44.62],[-34.38,45.75],[-34.62,47.0],[-36.5,48.12],[-39.0,47.62],[-39.88,46.75],[-40.12,45.75],[-39.25,44.62],[-36.5,44.12]]]}},{"type":"Feature","properties":{"kind":"blob","cls":4,"id":63},"geometry":{"type":"Polygon","coordinates":[[[85.88,41.75],[86.0,41.62],[86.12,41.75],[85.88,41.75]]]}},{"type":"Feature","properties":{"kind":"blob","cls":4,"id":64},"geometry":{"type":"Polygon","coordinates":[[[86.5,41.88],[87.38,42.0],[87.25,42.12],[86.5,41.88]]]}},{"type":"Feature","properties":{"kind":"center","id":1,"lat":-64.0,"lon":-136.25,"mslp":949.8,"hvtl":-61.4,"hvtu":-76.7,"hb":13.3,"idx":-1.7,"cls":4,"psfc":949.8,"terrain":false,"radius_km":200,"name":"asym cold","track":"T14"},"geometry":{"type":"Point","coordinates":[-136.25,-64.0]}},{"type":"Feature","properties":{"kind":"center","id":2,"lat":-56.0,"lon":123.75,"mslp":954.8,"hvtl":207.0,"hvtu":36.4,"hb":-31.5,"idx":2.3,"cls":0,"psfc":954.8,"terrain":false,"radius_km":200,"name":"sym deep warm","track":"T22"},"geometry":{"type":"Point","coordinates":[123.75,-56.0]}},{"type":"Feature","properties":{"kind":"center","id":3,"lat":-64.75,"lon":46.75,"mslp":955.2,"hvtl":182.8,"hvtu":-141.7,"hb":33.8,"idx":1.0,"cls":3,"psfc":955.2,"terrain":false,"radius_km":200,"name":"asym shallow warm","track":"T16"},"geometry":{"type":"Point","coordinates":[46.75,-64.75]}},{"type":"Feature","properties":{"kind":"center","id":4,"lat":57.25,"lon":169.75,"mslp":962.1,"hvtl":72.8,"hvtu":-163.3,"hb":-10.0,"idx":0.3,"cls":1,"psfc":962.1,"terrain":false,"radius_km":200,"name":"sym shallow warm","track":"T07"},"geometry":{"type":"Point","coordinates":[169.75,57.25]}},{"type":"Feature","properties":{"kind":"center","id":5,"lat":-59.0,"lon":146.75,"mslp":962.5,"hvtl":-52.6,"hvtu":-371.0,"hb":57.2,"idx":-2.0,"cls":4,"psfc":962.5,"terrain":false,"radius_km":200,"name":"asym cold","track":"T17"},"geometry":{"type":"Point","coordinates":[146.75,-59.0]}},{"type":"Feature","properties":{"kind":"center","id":6,"lat":-64.5,"lon":58.5,"mslp":964.6,"hvtl":-81.2,"hvtu":-160.6,"hb":59.0,"idx":-2.3,"cls":4,"psfc":964.6,"terrain":false,"radius_km":200,"name":"asym cold"},"geometry":{"type":"Point","coordinates":[58.5,-64.5]}},{"type":"Feature","properties":{"kind":"center","id":7,"lat":-68.5,"lon":40.75,"mslp":966.5,"hvtl":185.9,"hvtu":-165.2,"hb":27.9,"idx":1.0,"cls":3,"psfc":965.4,"terrain":false,"radius_km":200,"name":"asym shallow warm","track":"T36"},"geometry":{"type":"Point","coordinates":[40.75,-68.5]}},{"type":"Feature","properties":{"kind":"center","id":8,"lat":-70.5,"lon":11.0,"mslp":973.1,"hvtl":-144.8,"hvtu":-106.1,"hb":24.4,"idx":-2.6,"cls":4,"psfc":965.8,"terrain":false,"radius_km":200,"name":"asym cold","track":"T46"},"geometry":{"type":"Point","coordinates":[11.0,-70.5]}},{"type":"Feature","properties":{"kind":"center","id":9,"lat":-72.5,"lon":-43.75,"mslp":974.5,"hvtl":-187.0,"hvtu":-65.6,"hb":38.4,"idx":-2.5,"cls":4,"psfc":974.5,"terrain":false,"radius_km":200,"name":"asym cold","track":"T45"},"geometry":{"type":"Point","coordinates":[-43.75,-72.5]}},{"type":"Feature","properties":{"kind":"center","id":10,"lat":-74.25,"lon":-103.0,"mslp":974.8,"hvtl":19.6,"hvtu":-232.4,"hb":3.2,"idx":-0.6,"cls":1,"psfc":974.7,"terrain":false,"radius_km":200,"name":"sym shallow warm","track":"T18"},"geometry":{"type":"Point","coordinates":[-103.0,-74.25]}},{"type":"Feature","properties":{"kind":"center","id":11,"lat":-64.75,"lon":132.75,"mslp":975.0,"hvtl":108.5,"hvtu":-187.1,"hb":38.8,"idx":0.6,"cls":3,"psfc":974.9,"terrain":false,"radius_km":200,"name":"asym shallow warm","track":"T38"},"geometry":{"type":"Point","coordinates":[132.75,-64.75]}},{"type":"Feature","properties":{"kind":"center","id":12,"lat":-69.0,"lon":-85.75,"mslp":976.5,"hvtl":-151.3,"hvtu":-274.0,"hb":33.3,"idx":-2.8,"cls":4,"psfc":976.5,"terrain":false,"radius_km":200,"name":"asym cold","track":"T33"},"geometry":{"type":"Point","coordinates":[-85.75,-69.0]}},{"type":"Feature","properties":{"kind":"center","id":13,"lat":-75.75,"lon":-22.0,"mslp":977.2,"hvtl":-344.0,"hvtu":-82.3,"hb":36.3,"idx":-2.7,"cls":4,"psfc":953.7,"terrain":false,"radius_km":200,"name":"asym cold","track":"T50"},"geometry":{"type":"Point","coordinates":[-22.0,-75.75]}},{"type":"Feature","properties":{"kind":"center","id":14,"lat":67.5,"lon":-11.75,"mslp":977.4,"hvtl":309.8,"hvtu":-45.5,"hb":-26.1,"idx":1.6,"cls":1,"psfc":977.4,"terrain":false,"radius_km":200,"name":"sym shallow warm","track":"T53"},"geometry":{"type":"Point","coordinates":[-11.75,67.5]}},{"type":"Feature","properties":{"kind":"center","id":15,"lat":-81.0,"lon":-47.5,"mslp":981.5,"hvtl":-326.8,"hvtu":-13.4,"hb":44.3,"idx":-2.1,"cls":4,"psfc":965.6,"terrain":false,"radius_km":200,"name":"asym cold","track":"T60"},"geometry":{"type":"Point","coordinates":[-47.5,-81.0]}},{"type":"Feature","properties":{"kind":"center","id":16,"lat":-52.5,"lon":-97.0,"mslp":982.1,"hvtl":-19.4,"hvtu":-196.2,"hb":44.3,"idx":-1.3,"cls":4,"psfc":982.1,"terrain":false,"radius_km":200,"name":"asym cold","track":"T39"},"geometry":{"type":"Point","coordinates":[-97.0,-52.5]}},{"type":"Feature","properties":{"kind":"center","id":17,"lat":-81.25,"lon":-170.5,"mslp":982.9,"hvtl":-41.5,"hvtu":-147.9,"hb":16.7,"idx":-1.7,"cls":4,"psfc":975.3,"terrain":false,"radius_km":200,"name":"asym cold","track":"T54"},"geometry":{"type":"Point","coordinates":[-170.5,-81.25]}},{"type":"Feature","properties":{"kind":"center","id":18,"lat":-77.5,"lon":-78.5,"mslp":983.6,"hvtl":-144.9,"hvtu":-85.2,"hb":18.7,"idx":-2.5,"cls":4,"psfc":908.7,"terrain":false,"radius_km":200,"name":"asym cold","track":"T43"},"geometry":{"type":"Point","coordinates":[-78.5,-77.5]}},{"type":"Feature","properties":{"kind":"center","id":19,"lat":-70.0,"lon":168.75,"mslp":984.2,"hvtl":-243.7,"hvtu":-371.1,"hb":70.3,"idx":-3.0,"cls":4,"psfc":984.2,"terrain":false,"radius_km":200,"name":"asym cold","track":"T64"},"geometry":{"type":"Point","coordinates":[168.75,-70.0]}},{"type":"Feature","properties":{"kind":"center","id":20,"lat":-63.25,"lon":99.5,"mslp":985.2,"hvtl":-175.7,"hvtu":-260.7,"hb":40.0,"idx":-2.9,"cls":4,"psfc":985.2,"terrain":false,"radius_km":200,"name":"asym cold","track":"T37"},"geometry":{"type":"Point","coordinates":[99.5,-63.25]}},{"type":"Feature","properties":{"kind":"center","id":21,"lat":15.0,"lon":161.25,"mslp":985.3,"hvtl":91.7,"hvtu":123.3,"hb":3.8,"idx":2.3,"cls":0,"psfc":985.3,"terrain":false,"radius_km":200,"name":"sym deep warm","track":"T02"},"geometry":{"type":"Point","coordinates":[161.25,15.0]}},{"type":"Feature","properties":{"kind":"center","id":22,"lat":-79.75,"lon":163.5,"mslp":986.1,"hvtl":-73.5,"hvtu":-39.9,"hb":-22.9,"idx":-1.6,"cls":5,"psfc":979.0,"terrain":false,"radius_km":200,"name":"sym cold","track":"T59"},"geometry":{"type":"Point","coordinates":[163.5,-79.75]}},{"type":"Feature","properties":{"kind":"center","id":23,"lat":16.5,"lon":144.25,"mslp":986.7,"hvtl":61.4,"hvtu":107.7,"hb":3.8,"idx":1.9,"cls":0,"psfc":986.7,"terrain":false,"radius_km":200,"name":"sym deep warm","track":"T08"},"geometry":{"type":"Point","coordinates":[144.25,16.5]}},{"type":"Feature","properties":{"kind":"center","id":24,"lat":55.75,"lon":30.5,"mslp":990.7,"hvtl":23.0,"hvtu":-123.6,"hb":-15.2,"idx":-0.4,"cls":1,"psfc":971.1,"terrain":false,"radius_km":200,"name":"sym shallow warm","track":"T67"},"geometry":{"type":"Point","coordinates":[30.5,55.75]}},{"type":"Feature","properties":{"kind":"center","id":25,"lat":85.0,"lon":9.0,"mslp":991.0,"hvtl":-21.0,"hvtu":-109.3,"hb":58.3,"idx":-1.2,"cls":4,"psfc":991.0,"terrain":false,"radius_km":200,"name":"asym cold","track":"T73"},"geometry":{"type":"Point","coordinates":[9.0,85.0]}},{"type":"Feature","properties":{"kind":"center","id":26,"lat":77.5,"lon":51.5,"mslp":991.7,"hvtl":-10.2,"hvtu":-23.3,"hb":23.4,"idx":-0.4,"cls":4,"psfc":991.7,"terrain":false,"radius_km":200,"name":"asym cold","track":"T41"},"geometry":{"type":"Point","coordinates":[51.5,77.5]}},{"type":"Feature","properties":{"kind":"center","id":27,"lat":52.5,"lon":-130.0,"mslp":992.3,"hvtl":112.0,"hvtu":-251.3,"hb":-3.9,"idx":0.6,"cls":1,"psfc":992.3,"terrain":false,"radius_km":200,"name":"sym shallow warm","track":"T68"},"geometry":{"type":"Point","coordinates":[-130.0,52.5]}},{"type":"Feature","properties":{"kind":"center","id":28,"lat":61.0,"lon":30.0,"mslp":992.6,"hvtl":-56.3,"hvtu":-154.0,"hb":30.4,"idx":-1.9,"cls":4,"psfc":990.3,"terrain":false,"radius_km":200,"name":"asym cold","track":"T70"},"geometry":{"type":"Point","coordinates":[30.0,61.0]}},{"type":"Feature","properties":{"kind":"center","id":29,"lat":22.5,"lon":-126.5,"mslp":994.7,"hvtl":70.4,"hvtu":91.8,"hb":3.0,"idx":1.9,"cls":0,"psfc":994.7,"terrain":false,"radius_km":200,"name":"sym deep warm","track":"T48"},"geometry":{"type":"Point","coordinates":[-126.5,22.5]}},{"type":"Feature","properties":{"kind":"center","id":30,"lat":58.0,"lon":11.0,"mslp":997.1,"hvtl":-207.1,"hvtu":-210.6,"hb":58.3,"idx":-2.9,"cls":4,"psfc":997.1,"terrain":false,"radius_km":200,"name":"asym cold","track":"T83"},"geometry":{"type":"Point","coordinates":[11.0,58.0]}},{"type":"Feature","properties":{"kind":"center","id":31,"lat":32.0,"lon":-173.0,"mslp":999.9,"hvtl":44.7,"hvtu":-218.7,"hb":7.6,"idx":-0.1,"cls":1,"psfc":999.9,"terrain":false,"radius_km":200,"name":"sym shallow warm","track":"T81"},"geometry":{"type":"Point","coordinates":[-173.0,32.0]}},{"type":"Feature","properties":{"kind":"center","id":32,"lat":19.0,"lon":-94.75,"mslp":1000.8,"hvtl":15.9,"hvtu":58.0,"hb":6.3,"idx":0.8,"cls":0,"psfc":1000.8,"terrain":false,"radius_km":200,"name":"sym deep warm","track":"T90"},"geometry":{"type":"Point","coordinates":[-94.75,19.0]}},{"type":"Feature","properties":{"kind":"center","id":33,"lat":77.25,"lon":-156.25,"mslp":1001.2,"hvtl":131.0,"hvtu":-310.8,"hb":62.0,"idx":0.7,"cls":3,"psfc":1001.2,"terrain":false,"radius_km":200,"name":"asym shallow warm","track":"T101"},"geometry":{"type":"Point","coordinates":[-156.25,77.25]}},{"type":"Feature","properties":{"kind":"center","id":34,"lat":62.5,"lon":-37.25,"mslp":1002.2,"hvtl":-65.3,"hvtu":-150.0,"hb":21.8,"idx":-2.1,"cls":4,"psfc":1002.1,"terrain":false,"radius_km":200,"name":"asym cold","track":"T62"},"geometry":{"type":"Point","coordinates":[-37.25,62.5]}},{"type":"Feature","properties":{"kind":"center","id":35,"lat":-34.75,"lon":166.75,"mslp":1002.9,"hvtl":-6.0,"hvtu":3.8,"hb":8.2,"idx":-0.1,"cls":6,"psfc":1002.9,"terrain":false,"radius_km":200,"name":"shallow cold","track":"T107"},"geometry":{"type":"Point","coordinates":[166.75,-34.75]}},{"type":"Feature","properties":{"kind":"center","id":36,"lat":34.5,"lon":162.0,"mslp":1003.7,"hvtl":195.2,"hvtu":-151.6,"hb":39.3,"idx":1.0,"cls":3,"psfc":1003.7,"terrain":false,"radius_km":200,"name":"asym shallow warm","track":"T40"},"geometry":{"type":"Point","coordinates":[162.0,34.5]}},{"type":"Feature","properties":{"kind":"center","id":37,"lat":14.75,"lon":144.5,"mslp":1003.7,"hvtl":79.4,"hvtu":95.6,"hb":-0.9,"idx":2.1,"cls":0,"psfc":1003.7,"terrain":false,"radius_km":200,"name":"sym deep warm"},"geometry":{"type":"Point","coordinates":[144.5,14.75]}},{"type":"Feature","properties":{"kind":"center","id":38,"lat":27.0,"lon":67.75,"mslp":1003.9,"hvtl":4.8,"hvtu":-15.2,"hb":5.7,"idx":-0.1,"cls":1,"psfc":999.1,"terrain":false,"radius_km":200,"name":"sym shallow warm","track":"T100"},"geometry":{"type":"Point","coordinates":[67.75,27.0]}},{"type":"Feature","properties":{"kind":"center","id":39,"lat":36.5,"lon":-56.5,"mslp":1004.8,"hvtl":63.9,"hvtu":-221.9,"hb":40.4,"idx":0.2,"cls":3,"psfc":1004.8,"terrain":false,"radius_km":200,"name":"asym shallow warm","track":"T113"},"geometry":{"type":"Point","coordinates":[-56.5,36.5]}},{"type":"Feature","properties":{"kind":"center","id":40,"lat":50.25,"lon":-124.5,"mslp":1004.9,"hvtl":-122.7,"hvtu":-247.8,"hb":68.3,"idx":-2.7,"cls":4,"psfc":907.3,"terrain":true,"radius_km":200,"name":"asym cold"},"geometry":{"type":"Point","coordinates":[-124.5,50.25]}},{"type":"Feature","properties":{"kind":"center","id":41,"lat":71.75,"lon":145.75,"mslp":1004.9,"hvtl":-34.3,"hvtu":-76.7,"hb":33.5,"idx":-1.3,"cls":4,"psfc":1004.5,"terrain":false,"radius_km":200,"name":"asym cold","track":"T110"},"geometry":{"type":"Point","coordinates":[145.75,71.75]}},{"type":"Feature","properties":{"kind":"center","id":42,"lat":63.75,"lon":90.0,"mslp":1005.2,"hvtl":38.2,"hvtu":-13.3,"hb":25.9,"idx":0.6,"cls":3,"psfc":967.7,"terrain":false,"radius_km":200,"name":"asym shallow warm","track":"T103"},"geometry":{"type":"Point","coordinates":[90.0,63.75]}},{"type":"Feature","properties":{"kind":"center","id":43,"lat":49.75,"lon":-123.25,"mslp":1006.6,"hvtl":-249.5,"hvtu":-235.4,"hb":98.8,"idx":-3.0,"cls":4,"psfc":904.0,"terrain":true,"radius_km":200,"name":"asym cold"},"geometry":{"type":"Point","coordinates":[-123.25,49.75]}},{"type":"Feature","properties":{"kind":"center","id":44,"lat":-13.25,"lon":-70.5,"mslp":1007.2,"hvtl":-18.4,"hvtu":-64.3,"hb":22.9,"idx":-0.9,"cls":4,"psfc":938.5,"terrain":false,"radius_km":200,"name":"asym cold"},"geometry":{"type":"Point","coordinates":[-70.5,-13.25]}},{"type":"Feature","properties":{"kind":"center","id":45,"lat":13.25,"lon":40.75,"mslp":1007.6,"hvtl":81.9,"hvtu":10.0,"hb":8.0,"idx":1.4,"cls":0,"psfc":1010.3,"terrain":false,"radius_km":200,"name":"sym deep warm"},"geometry":{"type":"Point","coordinates":[40.75,13.25]}},{"type":"Feature","properties":{"kind":"center","id":46,"lat":-28.0,"lon":-66.5,"mslp":1008.0,"hvtl":-35.4,"hvtu":-199.6,"hb":23.9,"idx":-1.6,"cls":4,"psfc":922.0,"terrain":false,"radius_km":200,"name":"asym cold","track":"T119"},"geometry":{"type":"Point","coordinates":[-66.5,-28.0]}},{"type":"Feature","properties":{"kind":"center","id":47,"lat":30.0,"lon":58.25,"mslp":1008.0,"hvtl":44.5,"hvtu":-64.3,"hb":22.4,"idx":0.3,"cls":3,"psfc":975.3,"terrain":false,"radius_km":200,"name":"asym shallow warm","track":"T106"},"geometry":{"type":"Point","coordinates":[58.25,30.0]}},{"type":"Feature","properties":{"kind":"center","id":48,"lat":-15.75,"lon":-66.25,"mslp":1009.0,"hvtl":-145.6,"hvtu":-108.8,"hb":27.7,"idx":-2.6,"cls":4,"psfc":974.4,"terrain":false,"radius_km":200,"name":"asym cold"},"geometry":{"type":"Point","coordinates":[-66.25,-15.75]}},{"type":"Feature","properties":{"kind":"center","id":49,"lat":-26.75,"lon":18.5,"mslp":1009.8,"hvtl":3.8,"hvtu":-61.3,"hb":60.9,"idx":-0.5,"cls":3,"psfc":912.0,"terrain":true,"radius_km":200,"name":"asym shallow warm"},"geometry":{"type":"Point","coordinates":[18.5,-26.75]}},{"type":"Feature","properties":{"kind":"center","id":50,"lat":29.25,"lon":65.0,"mslp":1010.1,"hvtl":-8.9,"hvtu":-30.2,"hb":3.8,"idx":-0.5,"cls":5,"psfc":916.1,"terrain":true,"radius_km":200,"name":"sym cold"},"geometry":{"type":"Point","coordinates":[65.0,29.25]}},{"type":"Feature","properties":{"kind":"center","id":51,"lat":28.5,"lon":57.75,"mslp":1010.3,"hvtl":-17.7,"hvtu":-66.6,"hb":9.1,"idx":-0.9,"cls":5,"psfc":941.0,"terrain":false,"radius_km":200,"name":"sym cold","track":"T112"},"geometry":{"type":"Point","coordinates":[57.75,28.5]}},{"type":"Feature","properties":{"kind":"center","id":52,"lat":30.0,"lon":62.5,"mslp":1010.9,"hvtl":-1.9,"hvtu":-33.8,"hb":11.1,"idx":-0.4,"cls":4,"psfc":952.3,"terrain":false,"radius_km":200,"name":"asym cold","track":"T114"},"geometry":{"type":"Point","coordinates":[62.5,30.0]}},{"type":"Feature","properties":{"kind":"center","id":53,"lat":29.0,"lon":64.25,"mslp":1011.1,"hvtl":1.7,"hvtu":-23.5,"hb":5.9,"idx":-0.2,"cls":1,"psfc":904.4,"terrain":true,"radius_km":200,"name":"sym shallow warm"},"geometry":{"type":"Point","coordinates":[64.25,29.0]}},{"type":"Feature","properties":{"kind":"center","id":54,"lat":-19.0,"lon":-63.5,"mslp":1011.4,"hvtl":-143.1,"hvtu":-233.8,"hb":44.6,"idx":-2.8,"cls":4,"psfc":931.2,"terrain":false,"radius_km":200,"name":"asym cold"},"geometry":{"type":"Point","coordinates":[-63.5,-19.0]}},{"type":"Feature","properties":{"kind":"center","id":55,"lat":-21.25,"lon":-63.75,"mslp":1012.1,"hvtl":-124.5,"hvtu":-242.9,"hb":53.3,"idx":-2.7,"cls":4,"psfc":927.5,"terrain":false,"radius_km":200,"name":"asym cold"},"geometry":{"type":"Point","coordinates":[-63.75,-21.25]}},{"type":"Feature","properties":{"kind":"center","id":56,"lat":52.5,"lon":102.5,"mslp":1012.1,"hvtl":-172.8,"hvtu":-268.9,"hb":55.4,"idx":-2.9,"cls":4,"psfc":915.9,"terrain":true,"radius_km":200,"name":"asym cold"},"geometry":{"type":"Point","coordinates":[102.5,52.5]}},{"type":"Feature","properties":{"kind":"center","id":57,"lat":-20.0,"lon":-63.5,"mslp":1012.1,"hvtl":-163.6,"hvtu":-246.8,"hb":49.1,"idx":-2.8,"cls":4,"psfc":901.6,"terrain":true,"radius_km":200,"name":"asym cold"},"geometry":{"type":"Point","coordinates":[-63.5,-20.0]}},{"type":"Feature","properties":{"kind":"center","id":58,"lat":-30.0,"lon":-68.25,"mslp":1012.1,"hvtl":-28.9,"hvtu":-155.1,"hb":41.1,"idx":-1.5,"cls":4,"psfc":906.5,"terrain":true,"radius_km":200,"name":"asym cold"},"geometry":{"type":"Point","coordinates":[-68.25,-30.0]}},{"type":"Feature","properties":{"kind":"center","id":59,"lat":-28.75,"lon":-66.0,"mslp":1013.2,"hvtl":-40.6,"hvtu":-220.4,"hb":33.3,"idx":-1.7,"cls":4,"psfc":950.7,"terrain":false,"radius_km":200,"name":"asym cold"},"geometry":{"type":"Point","coordinates":[-66.0,-28.75]}},{"type":"Feature","properties":{"kind":"center","id":60,"lat":-22.0,"lon":-63.75,"mslp":1013.7,"hvtl":-105.0,"hvtu":-257.2,"hb":54.8,"idx":-2.6,"cls":4,"psfc":920.4,"terrain":true,"radius_km":200,"name":"asym cold"},"geometry":{"type":"Point","coordinates":[-63.75,-22.0]}},{"type":"Feature","properties":{"kind":"center","id":61,"lat":-30.75,"lon":-71.0,"mslp":1015.0,"hvtl":-28.6,"hvtu":-232.0,"hb":41.4,"idx":-1.5,"cls":4,"psfc":934.9,"terrain":false,"radius_km":200,"name":"asym cold"},"geometry":{"type":"Point","coordinates":[-71.0,-30.75]}},{"type":"Feature","properties":{"kind":"center","id":62,"lat":46.0,"lon":-37.25,"mslp":1017.6,"hvtl":-46.5,"hvtu":-154.7,"hb":22.1,"idx":-1.8,"cls":4,"psfc":1017.6,"terrain":false,"radius_km":200,"name":"asym cold","track":"T42"},"geometry":{"type":"Point","coordinates":[-37.25,46.0]}},{"type":"Feature","properties":{"kind":"center","id":63,"lat":41.75,"lon":86.0,"mslp":1019.6,"hvtl":-13.7,"hvtu":-124.7,"hb":79.5,"idx":-1.1,"cls":4,"psfc":905.4,"terrain":true,"radius_km":200,"name":"asym cold"},"geometry":{"type":"Point","coordinates":[86.0,41.75]}},{"type":"Feature","properties":{"kind":"center","id":64,"lat":42.0,"lon":87.25,"mslp":1020.5,"hvtl":-51.9,"hvtu":-152.0,"hb":84.0,"idx":-1.9,"cls":4,"psfc":901.4,"terrain":true,"radius_km":200,"name":"asym cold"},"geometry":{"type":"Point","coordinates":[87.25,42.0]}}]}