{"type":"FeatureCollection","features":[{"type":"Feature","properties":{"kind":"blob","cls":4,"id":1},"geometry":{"type":"Polygon","coordinates":[[[168.25,-68.38],[169.5,-67.88],[170.38,-67.0],[170.38,-66.5],[169.5,-65.62],[167.75,-64.88],[163.5,-64.62],[160.5,-65.62],[159.88,-66.5],[163.0,-67.62],[168.25,-68.38]]]}},{"type":"Feature","properties":{"kind":"blob","cls":3,"id":2},"geometry":{"type":"Polygon","coordinates":[[[179.75,-70.12],[180.0,-66.62],[177.25,-67.12],[176.38,-68.0],[176.38,-68.5],[177.25,-69.38],[179.75,-70.12]]]}},{"type":"Feature","properties":{"kind":"blob","cls":3,"id":2},"geometry":{"type":"Polygon","coordinates":[[[-179.88,-66.5],[-180.0,-70.12],[-179.5,-70.38],[-174.0,-70.62],[-170.75,-69.88],[-169.38,-68.75],[-169.38,-68.25],[-170.25,-67.38],[-171.75,-66.88],[-175.0,-66.38],[-179.88,-66.5]]]}},{"type":"Feature","properties":{"kind":"blob","cls":3,"id":3},"geometry":{"type":"Polygon","coordinates":[[[-112.75,-69.12],[-111.0,-68.38],[-110.12,-67.5],[-110.12,-67.0],[-111.25,-65.88],[-112.5,-65.38],[-117.0,-65.12],[-117.38,-66.0],[-118.0,-66.38],[-119.5,-66.62],[-120.5,-66.12],[-121.38,-67.0],[-120.75,-68.38],[-119.0,-69.12],[-112.75,-69.12]]]}},{"type":"Feature","properties":{"kind":"blob","cls":1,"id":4},"geometry":{"type":"Polygon","coordinates":[[[-4.75,-62.12],[-2.5,-61.62],[-1.25,-61.12],[-0.12,-60.0],[-0.12,-59.25],[-1.25,-58.12],[-2.5,-57.62],[-6.25,-57.38],[-11.5,-58.38],[-12.62,-59.5],[-12.12,-60.75],[-11.25,-61.38],[-4.75,-62.12]],[[-6.75,-60.88],[-7.88,-59.75],[-6.75,-58.62],[-5.88,-59.25],[-5.88,-60.0],[-6.75,-60.88]]]}},{"type":"Feature","properties":{"kind":"blob","cls":4,"id":5},"geometry":{"type":"Polygon","coordinates":[[[160.75,-62.38],[163.25,-61.62],[164.12,-61.0],[164.38,-59.5],[163.25,-58.38],[161.5,-57.88],[159.5,-57.88],[157.75,-58.38],[156.62,-59.25],[156.38,-61.0],[158.0,-62.12],[160.75,-62.38]]]}},{"type":"Feature","properties":{"kind":"blob","cls":1,"id":6},"geometry":{"type":"Polygon","coordinates":[[[150.5,-63.12],[153.5,-63.12],[154.5,-62.62],[155.38,-61.5],[154.5,-60.38],[153.5,-59.88],[149.75,-59.88],[149.62,-59.25],[148.5,-58.12],[146.75,-57.62],[143.5,-57.88],[141.62,-59.25],[141.62,-59.75],[143.25,-61.12],[146.5,-61.62],[147.75,-61.12],[147.88,-62.0],[148.5,-62.62],[150.5,-63.12]]]}},{"type":"Feature","properties":{"kind":"blob","cls":0,"id":7},"geometry":{"type":"Polygon","coordinates":[[[-34.75,56.88],[-33.12,58.0],[-33.12,59.0],[-34.0,59.88],[-36.0,60.62],[-39.0,60.38],[-39.62,60.0],[-37.25,59.88],[-36.88,59.5],[-37.75,59.12],[-40.5,59.38],[-40.62,58.0],[-39.0,56.88],[-34.75,56.88]]]}},{"type":"Feature","properties":{"kind":"blob","cls":1,"id":8},"geometry":{"type":"Polygon","coordinates":[[[-118.0,-52.88],[-116.62,-51.75],[-116.62,-50.75],[-118.0,-49.62],[-120.75,-49.38],[-121.25,-48.38],[-123.0,-47.62],[-125.25,-47.88],[-126.38,-48.75],[-126.62,-49.5],[-126.0,-50.62],[-124.0,-51.38],[-123.0,-52.62],[-118.0,-52.88]]]}},{"type":"Feature","properties":{"kind":"blob","cls":4,"id":9},"geometry":{"type":"Polygon","coordinates":[[[-26.75,60.88],[-24.75,61.38],[-23.62,62.25],[-23.62,63.5],[-25.5,64.62],[-28.5,64.88],[-30.5,64.38],[-32.12,63.25],[-32.12,62.25],[-31.5,61.62],[-26.75,60.88]]]}},{"type":"Feature","properties":{"kind":"blob","cls":1,"id":10},"geometry":{"type":"Polygon","coordinates":[[[-40.12,59.75],[-40.0,59.62],[-39.88,59.75],[-40.12,59.75]]]}},{"type":"Feature","properties":{"kind":"blob","cls":4,"id":11},"geometry":{"type":"Polygon","coordinates":[[[121.25,-66.88],[123.62,-66.5],[122.25,-65.38],[120.0,-64.88],[115.0,-64.88],[112.75,-65.38],[111.88,-66.0],[112.75,-65.88],[114.25,-66.62],[121.25,-66.88]]]}},{"type":"Feature","properties":{"kind":"blob","cls":1,"id":12},"geometry":{"type":"Polygon","coordinates":[[[79.5,-67.12],[83.25,-66.38],[84.38,-65.5],[84.5,-64.62],[86.25,-65.12],[90.25,-65.12],[93.25,-64.38],[94.75,-63.38],[96.0,-63.62],[96.25,-62.88],[99.5,-63.12],[100.88,-62.0],[100.88,-61.5],[99.0,-60.12],[95.0,-59.88],[93.75,-60.12],[92.25,-61.12],[88.25,-60.88],[85.75,-61.38],[83.75,-62.12],[83.12,-62.75],[83.0,-63.62],[81.0,-63.12],[78.25,-63.12],[76.0,-63.62],[74.62,-64.75],[74.38,-65.25],[75.25,-66.38],[79.5,-67.12]]]}},{"type":"Feature","properties":{"kind":"blob","cls":0,"id":13},"geometry":{"type":"Polygon","coordinates":[[[148.0,26.62],[148.88,27.5],[149.12,28.5],[148.0,29.88],[146.5,30.12],[144.88,29.0],[144.88,27.5],[145.75,26.62],[148.0,26.62]]]}},{"type":"Feature","properties":{"kind":"blob","cls":1,"id":14},"geometry":{"type":"Polygon","coordinates":[[[69.25,-62.12],[71.5,-61.38],[72.12,-60.5],[71.88,-59.25],[69.25,-58.12],[67.25,-58.12],[64.75,-59.12],[64.38,-59.75],[64.62,-60.75],[65.75,-61.62],[69.25,-62.12]]]}},{"type":"Feature","properties":{"kind":"blob","cls":4,"id":15},"geometry":{"type":"Polygon","coordinates":[[[34.25,-58.62],[36.75,-58.12],[38.38,-56.5],[37.25,-55.12],[34.0,-54.12],[28.75,-54.38],[26.88,-55.75],[26.88,-56.75],[28.0,-57.88],[34.25,-58.62]]]}},{"type":"Feature","properties":{"kind":"blob","cls":4,"id":16},"geometry":{"type":"Polygon","coordinates":[[[73.25,67.38],[77.75,68.12],[80.5,69.12],[81.38,70.0],[81.38,70.5],[80.75,71.12],[78.25,72.12],[71.0,72.38],[70.38,72.0],[70.88,71.5],[70.5,70.38],[68.5,70.12],[66.5,70.88],[66.12,70.5],[65.88,69.25],[66.75,68.38],[68.5,67.62],[73.25,67.38]]]}},{"type":"Feature","properties":{"kind":"blob","cls":5,"id":17},"geometry":{"type":"Polygon","coordinates":[[[131.25,-53.12],[132.75,-52.62],[133.88,-51.25],[133.62,-50.0],[133.0,-49.38],[131.0,-48.62],[128.25,-49.12],[127.38,-50.0],[127.12,-51.25],[128.25,-52.62],[131.25,-53.12]]]}},{"type":"Feature","properties":{"kind":"blob","cls":1,"id":18},"geometry":{"type":"Polygon","coordinates":[[[-168.0,60.38],[-166.12,61.5],[-165.88,62.75],[-166.75,63.88],[-168.0,64.38],[-171.5,64.62],[-171.38,63.5],[-171.75,63.12],[-175.25,62.88],[-175.62,62.5],[-175.25,61.38],[-173.5,60.38],[-168.0,60.38]]]}},{"type":"Feature","properties":{"kind":"blob","cls":4,"id":19},"geometry":{"type":"Polygon","coordinates":[[[-63.75,-77.62],[-60.75,-76.62],[-60.38,-75.75],[-61.75,-74.88],[-63.5,-74.62],[-67.0,-75.88],[-73.0,-76.12],[-72.12,-75.5],[-78.75,-74.62],[-79.25,-75.12],[-80.5,-75.38],[-80.88,-75.75],[-80.62,-76.0],[-81.12,-76.25],[-78.5,-76.62],[-77.75,-77.38],[-75.25,-77.12],[-73.75,-77.62],[-63.75,-77.62]]]}},{"type":"Feature","properties":{"kind":"blob","cls":4,"id":20},"geometry":{"type":"Polygon","coordinates":[[[-31.25,-79.12],[-29.25,-78.62],[-30.75,-78.38],[-35.0,-78.62],[-35.12,-78.25],[-33.75,-77.62],[-31.25,-77.38],[-30.5,-76.88],[-28.0,-76.38],[-21.5,-76.12],[-19.5,-74.88],[-17.88,-74.5],[-22.0,-73.62],[-28.5,-73.62],[-34.25,-74.62],[-36.5,-75.62],[-39.25,-76.12],[-40.62,-77.0],[-40.25,-77.88],[-39.25,-78.38],[-31.25,-79.12]]]}},{"type":"Feature","properties":{"kind":"blob","cls":3,"id":21},"geometry":{"type":"Polygon","coordinates":[[[179.75,-80.88],[180.0,-78.88],[179.5,-78.62],[171.5,-78.38],[166.12,-79.0],[173.5,-80.38],[179.75,-80.88]]]}},{"type":"Feature","properties":{"kind":"blob","cls":3,"id":21},"geometry":{"type":"Polygon","coordinates":[[[-179.75,-78.88],[-180.0,-80.88],[-179.5,-81.12],[-176.75,-81.12],[-175.62,-80.5],[-175.75,-79.88],[-176.75,-79.38],[-179.75,-78.88]]]}},{"type":"Feature","properties":{"kind":"blob","cls":4,"id":22},"geometry":{"type":"Polygon","coordinates":[[[180.0,84.12],[180.0,84.88],[179.62,84.75],[180.0,84.12]]]}},{"type":"Feature","properties":{"kind":"blob","cls":4,"id":22},"geometry":{"type":"Polygon","coordinates":[[[-179.88,85.0],[-179.75,83.88],[-177.25,83.38],[-169.25,82.62],[-155.0,82.12],[-138.5,82.62],[-134.25,83.38],[-133.12,84.0],[-133.25,84.62],[-137.25,85.62],[-153.0,86.62],[-170.5,86.38],[-176.0,85.88],[-179.88,85.0]]]}},{"type":"Feature","properties":{"kind":"blob","cls":4,"id":23},"geometry":{"type":"Polygon","coordinates":[[[-96.75,70.88],[-93.25,71.38],[-90.25,72.38],[-88.88,73.5],[-88.88,74.0],[-89.75,75.12],[-92.25,75.88],[-100.75,76.12],[-105.5,75.38],[-107.88,74.0],[-107.88,73.5],[-106.75,72.38],[-105.75,71.88],[-96.75,70.88]]]}},{"type":"Feature","properties":{"kind":"blob","cls":4,"id":24},"geometry":{"type":"Polygon","coordinates":[[[-63.88,-81.25],[-70.75,-79.88],[-79.12,-79.75],[-73.75,-80.88],[-63.88,-81.25]]]}},{"type":"Feature","properties":{"kind":"blob","cls":4,"id":25},"geometry":{"type":"Polygon","coordinates":[[[-83.5,-74.12],[-80.62,-74.0],[-80.75,-73.88],[-83.5,-74.12]]]}},{"type":"Feature","properties":{"kind":"blob","cls":5,"id":26},"geometry":{"type":"Polygon","coordinates":[[[173.88,-82.5],[174.0,-82.62],[174.12,-82.5],[173.88,-82.5]]]}},{"type":"Feature","properties":{"kind":"blob","cls":4,"id":27},"geometry":{"type":"Polygon","coordinates":[[[-79.25,-77.62],[-78.62,-77.5],[-78.75,-77.38],[-79.25,-77.62]]]}},{"type":"Feature","properties":{"kind":"blob","cls":3,"id":28},"geometry":{"type":"Polygon","coordinates":[[[-119.0,36.12],[-118.88,36.5],[-120.25,37.88],[-120.12,37.0],[-119.0,36.12]]]}},{"type":"Feature","properties":{"kind":"blob","cls":4,"id":29},"geometry":{"type":"Polygon","coordinates":[[[-10.25,81.62],[2.5,81.62],[8.0,82.38],[10.38,83.5],[9.5,84.12],[7.5,84.62],[-4.25,85.62],[-17.5,85.38],[-23.25,84.62],[-25.12,83.75],[-23.0,82.62],[-20.0,82.12],[-10.25,81.62]]]}},{"type":"Feature","properties":{"kind":"blob","cls":4,"id":30},"geometry":{"type":"Polygon","coordinates":[[[-101.0,38.38],[-99.5,38.62],[-98.38,39.75],[-98.38,40.75],[-99.5,41.88],[-100.62,42.0],[-101.12,40.5],[-101.0,38.38]]]}},{"type":"Feature","properties":{"kind":"blob","cls":4,"id":31},"geometry":{"type":"Polygon","coordinates":[[[-143.88,61.5],[-144.88,62.0],[-144.38,62.5],[-144.5,62.88],[-145.25,62.88],[-145.62,62.0],[-143.88,61.5]]]}},{"type":"Feature","properties":{"kind":"blob","cls":4,"id":32},"geometry":{"type":"Polygon","coordinates":[[[-140.75,62.38],[-139.62,63.75],[-141.75,63.62],[-141.75,64.12],[-142.5,64.12],[-144.12,63.5],[-140.75,62.38]]]}},{"type":"Feature","properties":{"kind":"blob","cls":5,"id":33},"geometry":{"type":"Polygon","coordinates":[[[-80.75,-51.12],[-79.0,-50.38],[-78.38,-49.5],[-78.62,-48.0],[-80.75,-46.88],[-82.25,-46.88],[-84.0,-47.62],[-84.88,-49.25],[-84.62,-50.0],[-83.5,-50.88],[-80.75,-51.12]]]}},{"type":"Feature","properties":{"kind":"blob","cls":4,"id":34},"geometry":{"type":"Polygon","coordinates":[[[86.25,-46.88],[87.5,-46.38],[88.38,-45.25],[88.12,-44.25],[86.25,-43.12],[84.0,-43.62],[83.38,-44.25],[83.12,-45.25],[84.0,-46.38],[86.25,-46.88]]]}},{"type":"Feature","properties":{"kind":"blob","cls":4,"id":35},"geometry":{"type":"Polygon","coordinates":[[[-68.25,49.62],[-66.88,50.75],[-66.88,51.75],[-68.0,52.88],[-69.5,53.38],[-73.5,53.12],[-75.12,51.75],[-75.12,50.75],[-74.25,49.88],[-68.25,49.62]]]}},{"type":"Feature","properties":{"kind":"blob","cls":4,"id":36},"geometry":{"type":"Polygon","coordinates":[[[-143.25,61.12],[-142.62,61.25],[-142.75,61.38],[-143.25,61.12]]]}},{"type":"Feature","properties":{"kind":"blob","cls":3,"id":37},"geometry":{"type":"Polygon","coordinates":[[[18.25,55.12],[21.0,55.12],[23.25,56.12],[24.38,57.5],[23.62,59.5],[22.75,60.38],[21.0,60.88],[18.75,58.12],[17.75,57.88],[17.12,58.5],[16.88,59.5],[17.12,60.5],[16.25,60.38],[15.38,59.5],[15.12,56.75],[16.25,55.62],[18.25,55.12]]]}},{"type":"Feature","properties":{"kind":"blob","cls":0,"id":38},"geometry":{"type":"Polygon","coordinates":[[[-24.0,13.62],[-23.12,14.75],[-23.38,16.25],[-24.75,17.12],[-26.12,16.75],[-26.12,15.5],[-26.62,14.75],[-26.0,13.62],[-24.0,13.62]]]}},{"type":"Feature","properties":{"kind":"blob","cls":0,"id":39},"geometry":{"type":"Polygon","coordinates":[[[-73.75,-11.12],[-72.25,-10.62],[-71.62,-10.0],[-71.38,-8.75],[-72.25,-7.38],[-75.0,-6.12],[-76.62,-7.25],[-76.62,-7.75],[-75.88,-8.0],[-75.38,-10.25],[-74.75,-10.62],[-74.25,-10.12],[-73.75,-11.12]]]}},{"type":"Feature","properties":{"kind":"blob","cls":4,"id":40},"geometry":{"type":"Polygon","coordinates":[[[-144.5,60.88],[-144.12,61.0],[-144.25,61.12],[-144.5,60.88]]]}},{"type":"Feature","properties":{"kind":"blob","cls":4,"id":41},"geometry":{"type":"Polygon","coordinates":[[[-40.5,-41.12],[-38.75,-40.12],[-37.5,-40.88],[-34.5,-41.12],[-33.25,-40.62],[-31.88,-39.25],[-31.62,-38.25],[-32.75,-36.88],[-33.5,-36.62],[-37.0,-36.88],[-39.0,-38.12],[-40.75,-36.88],[-42.5,-37.12],[-43.25,-36.12],[-44.25,-35.62],[-45.75,-35.62],[-47.38,-36.75],[-47.62,-38.0],[-46.5,-39.38],[-43.75,-39.38],[-42.5,-40.88],[-40.5,-41.12]]]}},{"type":"Feature","properties":{"kind":"blob","cls":4,"id":42},"geometry":{"type":"Polygon","coordinates":[[[125.25,46.88],[127.12,47.75],[127.62,49.25],[128.88,50.5],[128.62,51.5],[128.0,52.12],[126.5,52.62],[124.5,52.38],[122.38,51.0],[121.88,50.25],[122.38,49.75],[122.0,49.38],[121.62,49.5],[122.0,49.88],[121.38,50.0],[121.12,49.25],[121.62,48.25],[122.75,47.38],[125.25,46.88]]]}},{"type":"Feature","properties":{"kind":"blob","cls":1,"id":43},"geometry":{"type":"Polygon","coordinates":[[[40.25,12.62],[43.0,12.88],[43.12,13.75],[42.0,15.12],[40.75,15.38],[39.88,15.0],[40.25,12.62]]]}},{"type":"Feature","properties":{"kind":"blob","cls":3,"id":44},"geometry":{"type":"Polygon","coordinates":[[[4.0,63.88],[8.75,63.88],[10.0,64.38],[10.88,65.25],[10.88,65.75],[10.0,66.62],[8.25,67.38],[4.75,67.62],[2.5,67.12],[0.62,65.75],[0.62,65.25],[1.5,64.38],[4.0,63.88]]]}},{"type":"Feature","properties":{"kind":"blob","cls":4,"id":45},"geometry":{"type":"MultiPolygon","coordinates":[[[[-139.5,59.62],[-139.12,60.0],[-142.38,60.0],[-139.5,59.62]]],[[[-143.12,60.25],[-142.38,60.25],[-142.5,60.38],[-143.12,60.25]]]]}},{"type":"Feature","properties":{"kind":"blob","cls":4,"id":46},"geometry":{"type":"MultiPolygon","coordinates":[[[[-73.25,-49.88],[-73.38,-50.0],[-73.25,-50.12],[-73.25,-49.88]]],[[[-70.0,-52.12],[-68.5,-51.62],[-67.88,-51.0],[-67.38,-49.25],[-68.25,-47.62],[-70.0,-46.88],[-72.5,-47.12],[-71.38,-47.75],[-71.88,-48.25],[-71.38,-48.5],[-71.75,-49.12],[-72.62,-48.5],[-72.12,-48.25],[-72.88,-47.75],[-72.75,-47.38],[-73.62,-47.75],[-74.12,-49.5],[-73.62,-49.75],[-73.62,-48.5],[-73.0,-48.38],[-72.38,-49.25],[-73.12,-49.5],[-72.62,-50.0],[-73.12,-50.25],[-73.12,-51.0],[-72.5,-51.62],[-70.0,-52.12]],[[-72.5,-50.88],[-72.62,-50.75],[-72.0,-50.38],[-72.5,-50.88]]]]}},{"type":"Feature","properties":{"kind":"blob","cls":0,"id":47},"geometry":{"type":"MultiPolygon","coordinates":[[[[-76.38,-8.75],[-76.25,-8.88],[-76.12,-8.5],[-76.38,-8.75]]],[[[-76.5,-8.12],[-76.62,-8.25],[-76.5,-8.38],[-76.5,-8.12]]]]}},{"type":"Feature","properties":{"kind":"blob","cls":3,"id":48},"geometry":{"type":"Polygon","coordinates":[[[143.5,31.12],[144.75,31.62],[145.62,32.75],[145.38,34.5],[143.75,35.38],[142.0,34.88],[141.12,33.75],[141.5,31.88],[142.25,32.12],[143.5,31.12]]]}},{"type":"Feature","properties":{"kind":"blob","cls":1,"id":49},"geometry":{"type":"Polygon","coordinates":[[[50.5,28.12],[52.12,29.25],[51.12,30.0],[51.25,30.38],[50.75,30.38],[49.88,31.25],[49.5,32.38],[48.0,32.88],[47.75,33.38],[47.5,32.88],[46.75,33.12],[46.38,32.5],[46.62,30.75],[48.75,28.38],[50.5,28.12]]]}},{"type":"Feature","properties":{"kind":"blob","cls":0,"id":50},"geometry":{"type":"Polygon","coordinates":[[[-76.12,-9.25],[-76.0,-9.38],[-75.88,-9.25],[-76.12,-9.25]]]}},{"type":"Feature","properties":{"kind":"blob","cls":5,"id":51},"geometry":{"type":"Polygon","coordinates":[[[-68.75,-33.12],[-68.0,-32.88],[-67.38,-32.0],[-67.5,-31.38],[-68.12,-31.5],[-67.62,-31.0],[-68.25,-29.88],[-68.62,-30.5],[-68.75,-33.12]]]}},{"type":"Feature","properties":{"kind":"blob","cls":4,"id":52},"geometry":{"type":"MultiPolygon","coordinates":[[[[-71.38,-32.5],[-70.62,-32.75],[-71.12,-32.0],[-70.88,-30.5],[-71.25,-30.12],[-71.62,-30.5],[-71.38,-32.5]]],[[[-71.12,-30.0],[-71.0,-30.12],[-70.88,-29.75],[-71.12,-30.0]]]]}},{"type":"Feature","properties":{"kind":"blob","cls":4,"id":53},"geometry":{"type":"Polygon","coordinates":[[[-64.38,-22.5],[-64.25,-22.88],[-63.38,-22.0],[-63.38,-21.0],[-64.0,-20.62],[-64.12,-21.25],[-63.62,-21.75],[-64.38,-22.5]]]}},{"type":"Feature","properties":{"kind":"blob","cls":3,"id":54},"geometry":{"type":"Polygon","coordinates":[[[63.0,29.62],[63.12,30.0],[62.5,30.12],[61.25,31.62],[60.38,31.5],[61.25,30.12],[63.0,29.62]]]}},{"type":"Feature","properties":{"kind":"blob","cls":4,"id":55},"geometry":{"type":"MultiPolygon","coordinates":[[[[-65.12,-25.75],[-64.75,-26.38],[-64.12,-25.75],[-64.25,-24.12],[-64.88,-25.5],[-65.12,-25.75]]],[[[-64.88,-25.0],[-65.0,-24.88],[-65.12,-25.0],[-64.88,-25.0]]],[[[-64.88,-24.25],[-64.75,-24.62],[-64.62,-24.5],[-64.88,-24.25]]],[[[-64.38,-24.0],[-64.5,-23.88],[-64.62,-24.0],[-64.38,-24.0]]]]}},{"type":"Feature","properties":{"kind":"blob","cls":4,"id":56},"geometry":{"type":"Polygon","coordinates":[[[90.5,23.38],[92.12,24.5],[92.0,25.38],[91.12,25.5],[92.12,25.75],[91.5,26.88],[88.5,27.12],[87.62,26.25],[87.62,24.75],[88.75,23.62],[90.5,23.38]]]}},{"type":"Feature","properties":{"kind":"blob","cls":3,"id":57},"geometry":{"type":"Polygon","coordinates":[[[62.12,32.25],[61.5,33.62],[60.62,33.0],[60.62,32.5],[62.12,32.25]]]}},{"type":"Feature","properties":{"kind":"blob","cls":5,"id":58},"geometry":{"type":"Polygon","coordinates":[[[84.25,25.62],[85.38,27.25],[84.5,27.88],[83.0,27.88],[81.5,28.88],[80.75,28.88],[80.12,28.25],[79.88,27.25],[81.0,25.88],[84.25,25.62]]]}},{"type":"Feature","properties":{"kind":"blob","cls":4,"id":59},"geometry":{"type":"Polygon","coordinates":[[[-65.38,-26.5],[-65.25,-26.62],[-65.12,-26.25],[-65.38,-26.5]]]}},{"type":"Feature","properties":{"kind":"blob","cls":5,"id":60},"geometry":{"type":"Polygon","coordinates":[[[-67.62,-30.5],[-67.5,-30.62],[-67.38,-30.5],[-67.62,-30.5]]]}},{"type":"Feature","properties":{"kind":"center","id":1,"lat":-66.5,"lon":165.0,"mslp":954.4,"hvtl":-148.1,"hvtu":-14.9,"hb":93.8,"idx":-2.0,"cls":4,"psfc":954.4,"terrain":false,"radius_km":200,"name":"asym cold","track":"T06"},"geometry":{"type":"Point","coordinates":[165.0,-66.5]}},{"type":"Feature","properties":{"kind":"center","id":2,"lat":-68.5,"lon":-176.25,"mslp":954.7,"hvtl":60.3,"hvtu":-94.6,"hb":38.7,"idx":0.3,"cls":3,"psfc":954.6,"terrain":false,"radius_km":200,"name":"asym shallow warm","track":"T15"},"geometry":{"type":"Point","coordinates":[-176.25,-68.5]}},{"type":"Feature","properties":{"kind":"center","id":3,"lat":-67.25,"lon":-116.0,"mslp":954.9,"hvtl":24.4,"hvtu":-43.5,"hb":16.6,"idx":0.1,"cls":3,"psfc":954.9,"terrain":false,"radius_km":200,"name":"asym shallow warm","track":"T12"},"geometry":{"type":"Point","coordinates":[-116.0,-67.25]}},{"type":"Feature","properties":{"kind":"center","id":4,"lat":-59.75,"lon":-5.75,"mslp":956.6,"hvtl":132.9,"hvtu":-102.3,"hb":0.5,"idx":1.0,"cls":1,"psfc":956.6,"terrain":false,"radius_km":200,"name":"sym shallow warm","track":"T19"},"geometry":{"type":"Point","coordinates":[-5.75,-59.75]}},{"type":"Feature","properties":{"kind":"center","id":5,"lat":-60.0,"lon":160.25,"mslp":956.7,"hvtl":-277.9,"hvtu":-238.6,"hb":63.5,"idx":-3.0,"cls":4,"psfc":956.7,"terrain":false,"radius_km":200,"name":"asym cold","track":"T04"},"geometry":{"type":"Point","coordinates":[160.25,-60.0]}},{"type":"Feature","properties":{"kind":"center","id":6,"lat":-59.5,"lon":145.75,"mslp":956.7,"hvtl":17.6,"hvtu":-57.3,"hb":6.7,"idx":-0.2,"cls":1,"psfc":956.7,"terrain":false,"radius_km":200,"name":"sym shallow warm","track":"T03"},"geometry":{"type":"Point","coordinates":[145.75,-59.5]}},{"type":"Feature","properties":{"kind":"center","id":7,"lat":58.5,"lon":-37.0,"mslp":958.6,"hvtl":95.6,"hvtu":65.4,"hb":-13.7,"idx":2.1,"cls":0,"psfc":958.6,"terrain":false,"radius_km":200,"name":"sym deep warm"},"geometry":{"type":"Point","coordinates":[-37.0,58.5]}},{"type":"Feature","properties":{"kind":"center","id":8,"lat":-49.5,"lon":-123.75,"mslp":961.5,"hvtl":107.3,"hvtu":-306.8,"hb":-10.1,"idx":0.6,"cls":1,"psfc":961.5,"terrain":false,"radius_km":200,"name":"sym shallow warm","track":"T26"},"geometry":{"type":"Point","coordinates":[-123.75,-49.5]}},{"type":"Feature","properties":{"kind":"center","id":9,"lat":62.75,"lon":-27.75,"mslp":962.5,"hvtl":-71.6,"hvtu":-188.5,"hb":12.3,"idx":-2.2,"cls":4,"psfc":962.4,"terrain":false,"radius_km":200,"name":"asym cold","track":"T17"},"geometry":{"type":"Point","coordinates":[-27.75,62.75]}},{"type":"Feature","properties":{"kind":"center","id":10,"lat":59.75,"lon":-40.0,"mslp":966.2,"hvtl":159.0,"hvtu":-73.0,"hb":-5.1,"idx":1.2,"cls":1,"psfc":966.2,"terrain":false,"radius_km":200,"name":"sym shallow warm","track":"T14"},"geometry":{"type":"Point","coordinates":[-40.0,59.75]}},{"type":"Feature","properties":{"kind":"center","id":11,"lat":-66.75,"lon":117.25,"mslp":969.2,"hvtl":-240.2,"hvtu":-235.4,"hb":41.0,"idx":-2.9,"cls":4,"psfc":968.7,"terrain":false,"radius_km":200,"name":"asym cold","track":"T33"},"geometry":{"type":"Point","coordinates":[117.25,-66.75]}},{"type":"Feature","properties":{"kind":"center","id":12,"lat":-63.0,"lon":89.25,"mslp":973.5,"hvtl":15.4,"hvtu":-213.0,"hb":-1.2,"idx":-0.7,"cls":1,"psfc":973.5,"terrain":false,"radius_km":200,"name":"sym shallow warm","track":"T38"},"geometry":{"type":"Point","coordinates":[89.25,-63.0]}},{"type":"Feature","properties":{"kind":"center","id":13,"lat":28.25,"lon":147.0,"mslp":973.6,"hvtl":75.8,"hvtu":223.4,"hb":0.7,"idx":2.3,"cls":0,"psfc":973.6,"terrain":false,"radius_km":200,"name":"sym deep warm","track":"T09"},"geometry":{"type":"Point","coordinates":[147.0,28.25]}},{"type":"Feature","properties":{"kind":"center","id":14,"lat":-60.25,"lon":68.5,"mslp":973.6,"hvtl":4.8,"hvtu":-123.7,"hb":-1.7,"idx":-0.7,"cls":1,"psfc":973.6,"terrain":false,"radius_km":200,"name":"sym shallow warm","track":"T27"},"geometry":{"type":"Point","coordinates":[68.5,-60.25]}},{"type":"Feature","properties":{"kind":"center","id":15,"lat":-56.5,"lon":32.25,"mslp":979.2,"hvtl":-21.1,"hvtu":-176.4,"hb":51.7,"idx":-1.4,"cls":4,"psfc":979.2,"terrain":false,"radius_km":200,"name":"asym cold","track":"T46"},"geometry":{"type":"Point","coordinates":[32.25,-56.5]}},{"type":"Feature","properties":{"kind":"center","id":16,"lat":70.25,"lon":74.75,"mslp":980.9,"hvtl":-5.5,"hvtu":-15.5,"hb":11.6,"idx":-0.3,"cls":4,"psfc":975.6,"terrain":false,"radius_km":200,"name":"asym cold","track":"T57"},"geometry":{"type":"Point","coordinates":[74.75,70.25]}},{"type":"Feature","properties":{"kind":"center","id":17,"lat":-51.0,"lon":130.5,"mslp":982.8,"hvtl":-3.1,"hvtu":-221.1,"hb":1.9,"idx":-1.0,"cls":5,"psfc":982.8,"terrain":false,"radius_km":200,"name":"sym cold","track":"T55"},"geometry":{"type":"Point","coordinates":[130.5,-51.0]}},{"type":"Feature","properties":{"kind":"center","id":18,"lat":62.5,"lon":-170.5,"mslp":986.0,"hvtl":3.9,"hvtu":-127.3,"hb":4.3,"idx":-0.8,"cls":1,"psfc":986.0,"terrain":false,"radius_km":200,"name":"sym shallow warm","track":"T48"},"geometry":{"type":"Point","coordinates":[-170.5,62.5]}},{"type":"Feature","properties":{"kind":"center","id":19,"lat":-75.75,"lon":-80.75,"mslp":988.3,"hvtl":-354.4,"hvtu":-142.4,"hb":104.1,"idx":-2.9,"cls":4,"psfc":900.7,"terrain":false,"radius_km":200,"name":"asym cold"},"geometry":{"type":"Point","coordinates":[-80.75,-75.75]}},{"type":"Feature","properties":{"kind":"center","id":20,"lat":-76.0,"lon":-27.25,"mslp":988.5,"hvtl":-194.4,"hvtu":-56.1,"hb":20.4,"idx":-2.4,"cls":4,"psfc":987.4,"terrain":false,"radius_km":200,"name":"asym cold","track":"T56"},"geometry":{"type":"Point","coordinates":[-27.25,-76.0]}},{"type":"Feature","properties":{"kind":"center","id":21,"lat":-80.5,"lon":-179.25,"mslp":989.8,"hvtl":32.6,"hvtu":-271.7,"hb":13.7,"idx":-0.4,"cls":3,"psfc":982.8,"terrain":false,"radius_km":200,"name":"asym shallow warm","track":"T60"},"geometry":{"type":"Point","coordinates":[-179.25,-80.5]}},{"type":"Feature","properties":{"kind":"center","id":22,"lat":84.5,"lon":-159.5,"mslp":989.9,"hvtl":-16.5,"hvtu":-125.0,"hb":35.3,"idx":-1.2,"cls":4,"psfc":989.9,"terrain":false,"radius_km":200,"name":"asym cold","track":"T72"},"geometry":{"type":"Point","coordinates":[-159.5,84.5]}},{"type":"Feature","properties":{"kind":"center","id":23,"lat":73.5,"lon":-97.5,"mslp":990.6,"hvtl":-162.2,"hvtu":-222.3,"hb":64.1,"idx":-2.8,"cls":4,"psfc":986.8,"terrain":false,"radius_km":200,"name":"asym cold","track":"T68"},"geometry":{"type":"Point","coordinates":[-97.5,73.5]}},{"type":"Feature","properties":{"kind":"center","id":24,"lat":-80.75,"lon":-65.75,"mslp":993.1,"hvtl":-297.2,"hvtu":-33.4,"hb":59.2,"idx":-2.3,"cls":4,"psfc":977.1,"terrain":false,"radius_km":200,"name":"asym cold","track":"T65"},"geometry":{"type":"Point","coordinates":[-65.75,-80.75]}},{"type":"Feature","properties":{"kind":"center","id":25,"lat":-74.0,"lon":-83.5,"mslp":993.3,"hvtl":-220.5,"hvtu":-165.4,"hb":67.2,"idx":-2.9,"cls":4,"psfc":912.5,"terrain":false,"radius_km":200,"name":"asym cold"},"geometry":{"type":"Point","coordinates":[-83.5,-74.0]}},{"type":"Feature","properties":{"kind":"center","id":26,"lat":-82.5,"lon":174.0,"mslp":993.9,"hvtl":-36.1,"hvtu":-111.2,"hb":-9.2,"idx":-1.5,"cls":5,"psfc":986.1,"terrain":false,"radius_km":200,"name":"sym cold","track":"T54"},"geometry":{"type":"Point","coordinates":[174.0,-82.5]}},{"type":"Feature","properties":{"kind":"center","id":27,"lat":-77.5,"lon":-79.25,"mslp":997.4,"hvtl":-404.1,"hvtu":-102.7,"hb":113.0,"idx":-2.8,"cls":4,"psfc":911.4,"terrain":false,"radius_km":200,"name":"asym cold","track":"T40"},"geometry":{"type":"Point","coordinates":[-79.25,-77.5]}},{"type":"Feature","properties":{"kind":"center","id":28,"lat":37.0,"lon":-120.0,"mslp":998.2,"hvtl":19.0,"hvtu":-160.6,"hb":15.3,"idx":-0.5,"cls":3,"psfc":986.6,"terrain":false,"radius_km":200,"name":"asym shallow warm"},"geometry":{"type":"Point","coordinates":[-120.0,37.0]}},{"type":"Feature","properties":{"kind":"center","id":29,"lat":83.5,"lon":-7.0,"mslp":999.4,"hvtl":-164.5,"hvtu":-159.7,"hb":84.8,"idx":-2.8,"cls":4,"psfc":999.4,"terrain":false,"radius_km":200,"name":"asym cold","track":"T59"},"geometry":{"type":"Point","coordinates":[-7.0,83.5]}},{"type":"Feature","properties":{"kind":"center","id":30,"lat":40.25,"lon":-100.75,"mslp":999.9,"hvtl":-56.6,"hvtu":-156.1,"hb":37.6,"idx":-1.9,"cls":4,"psfc":910.6,"terrain":false,"radius_km":200,"name":"asym cold"},"geometry":{"type":"Point","coordinates":[-100.75,40.25]}},{"type":"Feature","properties":{"kind":"center","id":31,"lat":62.25,"lon":-145.0,"mslp":1000.2,"hvtl":-96.5,"hvtu":-308.4,"hb":14.4,"idx":-2.5,"cls":4,"psfc":915.7,"terrain":false,"radius_km":200,"name":"asym cold"},"geometry":{"type":"Point","coordinates":[-145.0,62.25]}},{"type":"Feature","properties":{"kind":"center","id":32,"lat":63.25,"lon":-143.25,"mslp":1000.3,"hvtl":-81.7,"hvtu":-286.8,"hb":16.1,"idx":-2.3,"cls":4,"psfc":900.5,"terrain":true,"radius_km":200,"name":"asym cold"},"geometry":{"type":"Point","coordinates":[-143.25,63.25]}},{"type":"Feature","properties":{"kind":"center","id":33,"lat":-49.0,"lon":-81.25,"mslp":1001.4,"hvtl":-31.2,"hvtu":-47.3,"hb":-2.4,"idx":-1.0,"cls":5,"psfc":1001.4,"terrain":false,"radius_km":200,"name":"sym cold","track":"T79"},"geometry":{"type":"Point","coordinates":[-81.25,-49.0]}},{"type":"Feature","properties":{"kind":"center","id":34,"lat":-45.5,"lon":86.5,"mslp":1001.6,"hvtl":-263.6,"hvtu":-260.3,"hb":63.4,"idx":-3.0,"cls":4,"psfc":1001.6,"terrain":false,"radius_km":200,"name":"asym cold"},"geometry":{"type":"Point","coordinates":[86.5,-45.5]}},{"type":"Feature","properties":{"kind":"center","id":35,"lat":51.5,"lon":-70.25,"mslp":1002.4,"hvtl":-434.4,"hvtu":-267.2,"hb":149.6,"idx":-3.0,"cls":4,"psfc":932.4,"terrain":false,"radius_km":200,"name":"asym cold"},"geometry":{"type":"Point","coordinates":[-70.25,51.5]}},{"type":"Feature","properties":{"kind":"center","id":36,"lat":61.25,"lon":-142.75,"mslp":1004.0,"hvtl":-108.1,"hvtu":-375.8,"hb":17.7,"idx":-2.6,"cls":4,"psfc":916.8,"terrain":false,"radius_km":200,"name":"asym cold"},"geometry":{"type":"Point","coordinates":[-142.75,61.25]}},{"type":"Feature","properties":{"kind":"center","id":37,"lat":58.25,"lon":19.25,"mslp":1004.4,"hvtl":112.4,"hvtu":-188.6,"hb":29.3,"idx":0.7,"cls":3,"psfc":1004.4,"terrain":false,"radius_km":200,"name":"asym shallow warm","track":"T80"},"geometry":{"type":"Point","coordinates":[19.25,58.25]}},{"type":"Feature","properties":{"kind":"center","id":38,"lat":15.25,"lon":-25.0,"mslp":1004.5,"hvtl":12.8,"hvtu":57.0,"hb":-9.0,"idx":0.8,"cls":0,"psfc":1004.5,"terrain":false,"radius_km":200,"name":"sym deep warm","track":"T86"},"geometry":{"type":"Point","coordinates":[-25.0,15.25]}},{"type":"Feature","properties":{"kind":"center","id":39,"lat":-8.75,"lon":-74.5,"mslp":1005.2,"hvtl":32.8,"hvtu":2.3,"hb":-15.0,"idx":0.7,"cls":0,"psfc":986.8,"terrain":false,"radius_km":200,"name":"sym deep warm"},"geometry":{"type":"Point","coordinates":[-74.5,-8.75]}},{"type":"Feature","properties":{"kind":"center","id":40,"lat":61.0,"lon":-144.25,"mslp":1005.5,"hvtl":-104.1,"hvtu":-374.9,"hb":17.1,"idx":-2.6,"cls":4,"psfc":905.6,"terrain":true,"radius_km":200,"name":"asym cold"},"geometry":{"type":"Point","coordinates":[-144.25,61.0]}},{"type":"Feature","properties":{"kind":"center","id":41,"lat":-38.75,"lon":-35.0,"mslp":1006.0,"hvtl":-138.2,"hvtu":-255.4,"hb":76.6,"idx":-2.8,"cls":4,"psfc":1006.0,"terrain":false,"radius_km":200,"name":"asym cold","track":"T05"},"geometry":{"type":"Point","coordinates":[-35.0,-38.75]}},{"type":"Feature","properties":{"kind":"center","id":42,"lat":49.0,"lon":124.5,"mslp":1006.6,"hvtl":-236.9,"hvtu":-347.3,"hb":83.8,"idx":-3.0,"cls":4,"psfc":971.0,"terrain":false,"radius_km":200,"name":"asym cold","track":"T83"},"geometry":{"type":"Point","coordinates":[124.5,49.0]}},{"type":"Feature","properties":{"kind":"center","id":43,"lat":14.0,"lon":40.5,"mslp":1006.7,"hvtl":60.2,"hvtu":-78.7,"hb":-8.9,"idx":0.4,"cls":1,"psfc":1018.4,"terrain":false,"radius_km":200,"name":"sym shallow warm","track":"T95"},"geometry":{"type":"Point","coordinates":[40.5,14.0]}},{"type":"Feature","properties":{"kind":"center","id":44,"lat":65.5,"lon":6.0,"mslp":1006.9,"hvtl":139.5,"hvtu":-247.0,"hb":33.0,"idx":0.8,"cls":3,"psfc":1006.9,"terrain":false,"radius_km":200,"name":"asym shallow warm","track":"T82"},"geometry":{"type":"Point","coordinates":[6.0,65.5]}},{"type":"Feature","properties":{"kind":"center","id":45,"lat":60.25,"lon":-143.0,"mslp":1007.1,"hvtl":-132.0,"hvtu":-407.2,"hb":23.1,"idx":-2.7,"cls":4,"psfc":970.4,"terrain":false,"radius_km":200,"name":"asym cold"},"geometry":{"type":"Point","coordinates":[-143.0,60.25]}},{"type":"Feature","properties":{"kind":"center","id":46,"lat":-49.25,"lon":-71.0,"mslp":1007.1,"hvtl":-151.0,"hvtu":-176.1,"hb":37.8,"idx":-2.8,"cls":4,"psfc":966.1,"terrain":false,"radius_km":200,"name":"asym cold","track":"T105"},"geometry":{"type":"Point","coordinates":[-71.0,-49.25]}},{"type":"Feature","properties":{"kind":"center","id":47,"lat":-8.25,"lon":-76.5,"mslp":1008.6,"hvtl":36.9,"hvtu":9.5,"hb":-33.4,"idx":0.8,"cls":0,"psfc":932.7,"terrain":false,"radius_km":200,"name":"sym deep warm"},"geometry":{"type":"Point","coordinates":[-76.5,-8.25]}},{"type":"Feature","properties":{"kind":"center","id":48,"lat":33.0,"lon":143.5,"mslp":1008.7,"hvtl":127.5,"hvtu":-121.7,"hb":31.8,"idx":0.9,"cls":3,"psfc":1008.7,"terrain":false,"radius_km":200,"name":"asym shallow warm","track":"T91"},"geometry":{"type":"Point","coordinates":[143.5,33.0]}},{"type":"Feature","properties":{"kind":"center","id":49,"lat":30.0,"lon":50.0,"mslp":1009.5,"hvtl":55.3,"hvtu":-108.6,"hb":1.7,"idx":0.2,"cls":1,"psfc":1009.5,"terrain":false,"radius_km":200,"name":"sym shallow warm"},"geometry":{"type":"Point","coordinates":[50.0,30.0]}},{"type":"Feature","properties":{"kind":"center","id":50,"lat":-9.25,"lon":-76.0,"mslp":1010.9,"hvtl":44.9,"hvtu":3.7,"hb":-41.8,"idx":0.9,"cls":0,"psfc":901.5,"terrain":true,"radius_km":200,"name":"sym deep warm"},"geometry":{"type":"Point","coordinates":[-76.0,-9.25]}},{"type":"Feature","properties":{"kind":"center","id":51,"lat":-31.5,"lon":-67.5,"mslp":1011.5,"hvtl":-13.5,"hvtu":-178.8,"hb":0.8,"idx":-1.2,"cls":5,"psfc":940.6,"terrain":false,"radius_km":200,"name":"sym cold","track":"T101"},"geometry":{"type":"Point","coordinates":[-67.5,-31.5]}},{"type":"Feature","properties":{"kind":"center","id":52,"lat":-31.0,"lon":-71.0,"mslp":1012.6,"hvtl":-173.5,"hvtu":-171.9,"hb":22.2,"idx":-2.8,"cls":4,"psfc":902.6,"terrain":true,"radius_km":200,"name":"asym cold"},"geometry":{"type":"Point","coordinates":[-71.0,-31.0]}},{"type":"Feature","properties":{"kind":"center","id":53,"lat":-21.25,"lon":-63.75,"mslp":1012.6,"hvtl":-121.7,"hvtu":-181.8,"hb":49.4,"idx":-2.6,"cls":4,"psfc":927.8,"terrain":false,"radius_km":200,"name":"asym cold"},"geometry":{"type":"Point","coordinates":[-63.75,-21.25]}},{"type":"Feature","properties":{"kind":"center","id":54,"lat":30.0,"lon":62.75,"mslp":1013.3,"hvtl":90.8,"hvtu":-147.4,"hb":13.6,"idx":0.5,"cls":3,"psfc":946.6,"terrain":false,"radius_km":200,"name":"asym shallow warm"},"geometry":{"type":"Point","coordinates":[62.75,30.0]}},{"type":"Feature","properties":{"kind":"center","id":55,"lat":-24.25,"lon":-64.75,"mslp":1013.6,"hvtl":-106.4,"hvtu":-257.7,"hb":24.7,"idx":-2.6,"cls":4,"psfc":948.8,"terrain":false,"radius_km":200,"name":"asym cold","track":"T96"},"geometry":{"type":"Point","coordinates":[-64.75,-24.25]}},{"type":"Feature","properties":{"kind":"center","id":56,"lat":23.5,"lon":90.5,"mslp":1013.6,"hvtl":-51.0,"hvtu":-154.6,"hb":18.1,"idx":-1.9,"cls":4,"psfc":1013.0,"terrain":false,"radius_km":200,"name":"asym cold","track":"T113"},"geometry":{"type":"Point","coordinates":[90.5,23.5]}},{"type":"Feature","properties":{"kind":"center","id":57,"lat":32.25,"lon":62.0,"mslp":1013.7,"hvtl":108.9,"hvtu":-165.8,"hb":94.6,"idx":0.7,"cls":3,"psfc":941.8,"terrain":false,"radius_km":200,"name":"asym shallow warm","track":"T112"},"geometry":{"type":"Point","coordinates":[62.0,32.25]}},{"type":"Feature","properties":{"kind":"center","id":58,"lat":25.75,"lon":83.75,"mslp":1014.6,"hvtl":-76.2,"hvtu":-133.4,"hb":-5.9,"idx":-2.2,"cls":5,"psfc":1006.5,"terrain":false,"radius_km":200,"name":"sym cold"},"geometry":{"type":"Point","coordinates":[83.75,25.75]}},{"type":"Feature","properties":{"kind":"center","id":59,"lat":-26.25,"lon":-65.25,"mslp":1014.7,"hvtl":-125.9,"hvtu":-250.4,"hb":27.4,"idx":-2.7,"cls":4,"psfc":918.7,"terrain":true,"radius_km":200,"name":"asym cold"},"geometry":{"type":"Point","coordinates":[-65.25,-26.25]}},{"type":"Feature","properties":{"kind":"center","id":60,"lat":-30.5,"lon":-67.5,"mslp":1015.3,"hvtl":-23.5,"hvtu":-189.9,"hb":3.8,"idx":-1.4,"cls":5,"psfc":901.6,"terrain":true,"radius_km":200,"name":"sym cold"},"geometry":{"type":"Point","coordinates":[-67.5,-30.5]}}]}