{"type":"FeatureCollection","features":[{"type":"Feature","properties":{"kind":"blob","cls":1,"id":1},"geometry":{"type":"Polygon","coordinates":[[[118.5,-66.38],[124.75,-66.62],[125.75,-66.12],[127.0,-66.12],[129.25,-65.12],[129.62,-63.75],[127.25,-62.12],[125.25,-61.62],[121.75,-61.62],[118.5,-62.12],[117.25,-62.62],[116.38,-63.5],[116.38,-64.0],[117.62,-65.0],[117.62,-65.75],[118.5,-66.38]],[[119.0,-64.62],[117.38,-64.25],[118.75,-63.62],[120.88,-64.0],[120.5,-64.38],[119.0,-64.62]]]}},{"type":"Feature","properties":{"kind":"blob","cls":1,"id":2},"geometry":{"type":"Polygon","coordinates":[[[-170.5,-67.62],[-168.75,-66.88],[-167.62,-65.75],[-167.62,-65.25],[-168.5,-64.12],[-169.75,-63.62],[-174.75,-63.38],[-177.0,-63.88],[-178.88,-65.25],[-178.88,-66.0],[-178.25,-66.88],[-176.5,-67.62],[-170.5,-67.62]]]}},{"type":"Feature","properties":{"kind":"blob","cls":4,"id":3},"geometry":{"type":"Polygon","coordinates":[[[-6.75,-63.38],[-3.75,-63.38],[-3.38,-63.0],[-4.88,-62.25],[-4.75,-61.62],[-3.0,-61.88],[-1.75,-62.62],[-1.0,-62.38],[0.38,-61.25],[0.62,-59.5],[-0.75,-58.12],[-2.5,-57.62],[-4.5,-57.62],[-6.25,-58.12],[-8.88,-60.25],[-9.62,-61.5],[-9.62,-62.0],[-8.75,-62.88],[-6.75,-63.38]]]}},{"type":"Feature","properties":{"kind":"blob","cls":3,"id":4},"geometry":{"type":"Polygon","coordinates":[[[2.75,-68.38],[7.5,-68.38],[8.75,-67.88],[9.62,-66.75],[8.5,-66.12],[3.25,-64.88],[0.75,-65.38],[-0.62,-66.5],[-0.62,-67.0],[0.25,-67.88],[2.75,-68.38]]]}},{"type":"Feature","properties":{"kind":"blob","cls":3,"id":5},"geometry":{"type":"Polygon","coordinates":[[[-120.75,-58.38],[-119.0,-57.88],[-117.88,-56.75],[-117.88,-55.25],[-118.75,-54.38],[-120.5,-53.88],[-123.25,-54.38],[-124.62,-55.75],[-124.88,-56.5],[-123.75,-57.88],[-120.75,-58.38]]]}},{"type":"Feature","properties":{"kind":"blob","cls":4,"id":6},"geometry":{"type":"Polygon","coordinates":[[[33.25,-67.38],[40.25,-67.38],[41.5,-66.88],[42.38,-66.0],[42.38,-65.5],[41.0,-64.12],[37.75,-63.12],[30.25,-63.62],[29.0,-64.12],[28.12,-65.25],[29.0,-66.38],[30.0,-66.88],[33.25,-67.38]]]}},{"type":"Feature","properties":{"kind":"blob","cls":4,"id":7},"geometry":{"type":"Polygon","coordinates":[[[-110.0,-65.88],[-108.38,-65.0],[-108.12,-63.75],[-110.0,-62.38],[-113.5,-62.12],[-115.0,-62.38],[-116.88,-63.75],[-116.5,-65.12],[-115.0,-65.88],[-110.0,-65.88]]]}},{"type":"Feature","properties":{"kind":"blob","cls":3,"id":8},"geometry":{"type":"Polygon","coordinates":[[[146.0,54.12],[147.75,54.62],[148.88,55.75],[149.38,57.0],[149.12,58.25],[146.75,59.38],[144.75,59.38],[142.75,58.62],[142.12,57.75],[142.38,55.5],[143.75,54.38],[146.0,54.12]],[[145.0,56.62],[144.12,57.25],[144.5,57.62],[145.5,57.62],[145.62,57.0],[145.0,56.62]]]}},{"type":"Feature","properties":{"kind":"blob","cls":4,"id":9},"geometry":{"type":"Polygon","coordinates":[[[158.5,41.38],[159.75,41.88],[160.62,42.75],[160.62,44.25],[158.25,45.62],[155.75,45.12],[155.12,44.5],[155.12,43.0],[156.25,41.88],[158.5,41.38]]]}},{"type":"Feature","properties":{"kind":"blob","cls":1,"id":10},"geometry":{"type":"Polygon","coordinates":[[[8.0,-65.62],[8.38,-65.5],[8.25,-65.38],[8.0,-65.62]]]}},{"type":"Feature","properties":{"kind":"blob","cls":1,"id":11},"geometry":{"type":"Polygon","coordinates":[[[6.75,-65.38],[7.62,-65.25],[7.5,-65.12],[6.75,-65.38]]]}},{"type":"Feature","properties":{"kind":"blob","cls":1,"id":12},"geometry":{"type":"Polygon","coordinates":[[[5.75,-65.12],[6.12,-65.0],[6.0,-64.88],[5.75,-65.12]]]}},{"type":"Feature","properties":{"kind":"blob","cls":4,"id":13},"geometry":{"type":"Polygon","coordinates":[[[8.75,-51.88],[10.25,-51.38],[11.38,-50.0],[11.12,-49.0],[10.0,-48.12],[8.0,-47.38],[6.25,-47.38],[4.5,-48.12],[3.88,-49.25],[4.12,-50.0],[6.0,-51.38],[8.75,-51.88]]]}},{"type":"Feature","properties":{"kind":"blob","cls":4,"id":14},"geometry":{"type":"Polygon","coordinates":[[[69.25,-68.88],[77.12,-68.75],[74.25,-68.12],[69.25,-68.88]]]}},{"type":"Feature","properties":{"kind":"blob","cls":1,"id":15},"geometry":{"type":"Polygon","coordinates":[[[48.25,68.12],[51.0,68.62],[52.88,70.0],[52.88,70.5],[51.0,71.88],[47.25,72.62],[42.0,72.12],[40.12,70.75],[40.75,69.62],[41.75,69.12],[44.5,68.38],[48.25,68.12]]]}},{"type":"Feature","properties":{"kind":"blob","cls":4,"id":16},"geometry":{"type":"Polygon","coordinates":[[[48.38,-67.25],[48.5,-67.62],[51.0,-67.38],[51.38,-67.0],[51.25,-66.38],[52.25,-66.12],[55.25,-66.12],[55.88,-66.5],[56.0,-67.12],[57.62,-67.0],[56.75,-66.12],[55.5,-65.62],[52.0,-65.38],[49.25,-66.12],[48.38,-67.25]]]}},{"type":"Feature","properties":{"kind":"blob","cls":1,"id":17},"geometry":{"type":"Polygon","coordinates":[[[-53.25,53.88],[-51.5,54.38],[-50.62,55.25],[-50.62,56.5],[-52.0,57.62],[-53.25,57.38],[-53.75,57.88],[-54.75,57.88],[-56.5,57.38],[-57.38,56.5],[-57.38,55.5],[-55.5,54.12],[-53.25,53.88]]]}},{"type":"Feature","properties":{"kind":"blob","cls":4,"id":18},"geometry":{"type":"Polygon","coordinates":[[[-31.5,-77.38],[-28.25,-76.38],[-23.5,-75.88],[-22.0,-76.12],[-20.0,-74.88],[-19.25,-74.88],[-19.12,-74.5],[-22.75,-73.88],[-31.25,-74.12],[-34.25,-74.88],[-35.62,-75.75],[-35.25,-76.62],[-31.5,-77.38]]]}},{"type":"Feature","properties":{"kind":"blob","cls":3,"id":19},"geometry":{"type":"Polygon","coordinates":[[[-111.62,-74.75],[-112.75,-73.88],[-117.0,-73.12],[-124.0,-73.38],[-126.0,-73.88],[-126.88,-74.5],[-111.62,-74.75]]]}},{"type":"Feature","properties":{"kind":"blob","cls":0,"id":20},"geometry":{"type":"Polygon","coordinates":[[[-120.75,19.88],[-119.5,19.88],[-118.62,20.75],[-118.62,22.25],[-119.75,23.38],[-121.0,23.62],[-122.88,22.25],[-122.88,20.75],[-121.5,21.12],[-120.62,20.5],[-120.75,19.88]]]}},{"type":"Feature","properties":{"kind":"blob","cls":4,"id":21},"geometry":{"type":"Polygon","coordinates":[[[-73.0,-68.88],[-71.25,-68.12],[-70.38,-67.25],[-70.38,-66.5],[-72.25,-65.12],[-75.0,-64.38],[-79.75,-64.38],[-82.75,-65.12],[-84.12,-66.0],[-84.38,-67.0],[-83.25,-68.12],[-81.0,-68.88],[-73.0,-68.88]]]}},{"type":"Feature","properties":{"kind":"blob","cls":4,"id":22},"geometry":{"type":"Polygon","coordinates":[[[-60.25,-81.38],[-45.12,-81.25],[-48.5,-80.88],[-60.25,-81.38]]]}},{"type":"Feature","properties":{"kind":"blob","cls":4,"id":23},"geometry":{"type":"Polygon","coordinates":[[[169.75,54.38],[171.88,56.5],[170.25,58.38],[169.25,58.88],[166.75,59.12],[165.0,58.62],[163.38,57.25],[163.38,56.5],[165.0,54.62],[169.75,54.38]]]}},{"type":"Feature","properties":{"kind":"blob","cls":4,"id":24},"geometry":{"type":"Polygon","coordinates":[[[-79.0,49.12],[-77.5,49.62],[-76.12,51.0],[-76.38,52.5],[-78.0,53.88],[-79.5,54.38],[-82.0,54.38],[-83.5,53.88],[-84.38,53.0],[-84.38,51.75],[-83.0,50.38],[-81.25,49.38],[-79.0,49.12]]]}},{"type":"Feature","properties":{"kind":"blob","cls":0,"id":25},"geometry":{"type":"Polygon","coordinates":[[[161.75,25.88],[163.12,27.5],[162.88,28.5],[162.0,29.38],[159.5,29.38],[158.38,28.0],[158.62,27.0],[159.75,25.88],[161.75,25.88]]]}},{"type":"Feature","properties":{"kind":"blob","cls":3,"id":26},"geometry":{"type":"Polygon","coordinates":[[[-52.75,63.12],[-50.0,63.88],[-49.38,64.5],[-50.12,65.0],[-49.88,65.5],[-50.25,65.88],[-52.25,65.62],[-52.88,66.25],[-52.75,66.62],[-49.75,66.38],[-50.12,67.5],[-51.25,68.12],[-55.0,68.12],[-57.5,67.38],[-57.62,67.0],[-56.12,65.0],[-56.12,63.5],[-52.75,63.12]]]}},{"type":"Feature","properties":{"kind":"blob","cls":4,"id":27},"geometry":{"type":"Polygon","coordinates":[[[-90.5,55.88],[-88.12,57.0],[-90.75,57.88],[-95.75,60.62],[-96.5,60.62],[-97.38,59.75],[-97.38,58.75],[-96.25,57.62],[-93.5,56.12],[-90.5,55.88]]]}},{"type":"Feature","properties":{"kind":"blob","cls":1,"id":28},"geometry":{"type":"MultiPolygon","coordinates":[[[[-87.88,57.5],[-88.12,58.75],[-90.0,60.38],[-91.5,60.88],[-92.38,60.75],[-91.25,60.12],[-87.88,57.5]]],[[[-92.5,61.12],[-92.62,61.0],[-92.5,60.88],[-92.5,61.12]]]]}},{"type":"Feature","properties":{"kind":"blob","cls":4,"id":29},"geometry":{"type":"MultiPolygon","coordinates":[[[[-64.75,-24.38],[-64.88,-24.5],[-64.75,-24.62],[-64.75,-24.38]]],[[[-65.0,-29.38],[-63.25,-29.38],[-62.38,-28.5],[-60.62,-22.5],[-60.62,-20.5],[-61.62,-19.5],[-61.38,-18.0],[-62.25,-16.88],[-63.0,-16.62],[-64.62,-17.25],[-63.38,-18.25],[-63.88,-19.0],[-63.12,-19.75],[-63.38,-20.75],[-64.12,-21.0],[-63.62,-21.75],[-64.38,-22.75],[-64.62,-24.0],[-64.12,-24.25],[-65.12,-25.75],[-64.88,-26.5],[-65.25,-26.12],[-65.88,-27.25],[-65.38,-28.75],[-65.75,-28.38],[-66.12,-28.75],[-65.0,-29.38]]]]}},{"type":"Feature","properties":{"kind":"blob","cls":4,"id":30},"geometry":{"type":"Polygon","coordinates":[[[-66.5,-28.62],[-66.12,-28.0],[-66.5,-27.62],[-66.88,-28.0],[-66.5,-28.62]]]}},{"type":"Feature","properties":{"kind":"blob","cls":6,"id":31},"geometry":{"type":"Polygon","coordinates":[[[-101.0,63.88],[-100.88,64.25],[-104.25,67.38],[-106.0,67.12],[-107.38,66.0],[-107.38,65.5],[-106.5,64.62],[-101.0,63.88]]]}},{"type":"Feature","properties":{"kind":"blob","cls":4,"id":32},"geometry":{"type":"Polygon","coordinates":[[[124.0,-35.12],[125.25,-34.62],[125.88,-33.75],[125.88,-32.75],[124.75,-31.38],[123.0,-30.88],[121.38,-31.75],[121.12,-33.25],[122.25,-34.62],[124.0,-35.12]]]}},{"type":"Feature","properties":{"kind":"blob","cls":4,"id":33},"geometry":{"type":"Polygon","coordinates":[[[-115.75,76.62],[-110.75,77.12],[-105.0,78.38],[-104.12,79.0],[-104.12,79.5],[-105.75,80.38],[-108.5,80.88],[-119.75,81.12],[-114.75,80.88],[-113.88,80.5],[-116.0,79.62],[-120.5,78.88],[-128.88,79.0],[-128.25,77.88],[-127.0,77.38],[-115.75,76.62]]]}},{"type":"Feature","properties":{"kind":"blob","cls":1,"id":34},"geometry":{"type":"Polygon","coordinates":[[[68.75,25.62],[70.12,27.0],[70.38,28.0],[69.5,29.38],[70.0,28.88],[71.25,28.62],[73.75,29.62],[74.62,30.75],[74.62,32.25],[71.0,32.12],[70.12,31.5],[70.12,30.0],[69.75,29.62],[67.5,29.88],[66.88,27.0],[65.88,26.75],[66.75,25.62],[68.75,25.62]]]}},{"type":"Feature","properties":{"kind":"blob","cls":4,"id":35},"geometry":{"type":"Polygon","coordinates":[[[-77.25,-38.62],[-76.75,-37.62],[-76.25,-37.62],[-75.25,-38.62],[-74.5,-38.38],[-73.88,-37.75],[-73.88,-35.5],[-75.5,-34.38],[-77.0,-34.38],[-78.0,-34.88],[-78.88,-35.75],[-78.88,-37.5],[-77.25,-38.62]]]}},{"type":"Feature","properties":{"kind":"blob","cls":3,"id":36},"geometry":{"type":"Polygon","coordinates":[[[167.38,-44.0],[166.62,-42.0],[165.12,-40.0],[165.25,-38.88],[165.88,-39.25],[166.88,-42.0],[168.75,-43.88],[170.25,-43.12],[170.88,-42.25],[170.62,-40.5],[167.75,-37.38],[167.0,-37.12],[164.75,-37.38],[163.38,-39.0],[163.62,-42.25],[164.5,-43.38],[167.38,-44.0]]]}},{"type":"Feature","properties":{"kind":"blob","cls":3,"id":37},"geometry":{"type":"Polygon","coordinates":[[[-0.25,44.38],[1.0,44.88],[2.88,46.75],[2.88,47.75],[2.0,48.62],[0.75,49.12],[-1.5,49.12],[-2.75,48.62],[-3.88,47.5],[-4.12,46.0],[-3.0,44.88],[-0.25,44.38]]]}},{"type":"Feature","properties":{"kind":"blob","cls":4,"id":38},"geometry":{"type":"Polygon","coordinates":[[[-145.25,57.88],[-143.5,58.38],[-142.38,59.5],[-142.38,60.25],[-143.5,60.38],[-144.25,61.12],[-145.0,61.12],[-144.88,60.75],[-145.25,60.62],[-146.0,61.12],[-149.25,61.38],[-150.12,60.75],[-150.38,60.25],[-149.88,60.0],[-150.38,59.5],[-149.25,58.38],[-145.25,57.88]],[[-148.75,60.12],[-148.88,60.25],[-148.75,60.38],[-148.75,60.12]]]}},{"type":"Feature","properties":{"kind":"blob","cls":5,"id":39},"geometry":{"type":"MultiPolygon","coordinates":[[[[97.5,23.38],[97.38,23.25],[97.5,23.12],[97.5,23.38]]],[[[97.25,23.38],[97.38,24.0],[95.5,25.62],[94.25,24.62],[93.38,25.25],[94.38,26.0],[94.25,26.38],[93.25,26.88],[91.12,26.75],[91.75,25.62],[92.38,25.5],[92.25,25.12],[92.75,25.38],[93.75,24.12],[94.12,24.25],[94.25,23.62],[97.25,23.38]]]]}},{"type":"Feature","properties":{"kind":"blob","cls":3,"id":40},"geometry":{"type":"Polygon","coordinates":[[[62.12,32.25],[61.25,34.12],[60.62,32.75],[62.12,32.25]]]}},{"type":"Feature","properties":{"kind":"blob","cls":3,"id":41},"geometry":{"type":"Polygon","coordinates":[[[61.12,31.5],[61.25,31.38],[61.38,31.5],[61.12,31.5]]]}},{"type":"Feature","properties":{"kind":"blob","cls":4,"id":42},"geometry":{"type":"Polygon","coordinates":[[[-146.0,61.62],[-145.12,61.75],[-145.25,61.88],[-146.0,61.62]]]}},{"type":"Feature","properties":{"kind":"blob","cls":3,"id":43},"geometry":{"type":"Polygon","coordinates":[[[-179.88,-34.5],[-180.0,-36.88],[-178.5,-37.88],[-177.0,-37.88],[-175.38,-36.75],[-175.38,-34.75],[-176.5,-33.88],[-178.25,-33.62],[-179.88,-34.5]]]}},{"type":"Feature","properties":{"kind":"blob","cls":3,"id":44},"geometry":{"type":"Polygon","coordinates":[[[54.88,35.25],[55.0,35.12],[55.12,35.25],[54.88,35.25]]]}},{"type":"Feature","properties":{"kind":"blob","cls":4,"id":45},"geometry":{"type":"Polygon","coordinates":[[[-144.5,61.38],[-144.12,61.5],[-144.25,61.62],[-144.5,61.38]]]}},{"type":"Feature","properties":{"kind":"blob","cls":3,"id":46},"geometry":{"type":"Polygon","coordinates":[[[62.0,34.12],[62.38,34.25],[62.25,34.38],[62.0,34.12]]]}},{"type":"Feature","properties":{"kind":"blob","cls":4,"id":47},"geometry":{"type":"Polygon","coordinates":[[[46.25,-43.12],[47.38,-42.0],[47.38,-41.0],[44.5,-38.38],[41.5,-38.38],[40.38,-39.5],[40.38,-40.5],[43.25,-42.88],[46.25,-43.12]]]}},{"type":"Feature","properties":{"kind":"blob","cls":4,"id":48},"geometry":{"type":"MultiPolygon","coordinates":[[[[47.5,39.38],[47.38,39.25],[47.5,39.12],[47.5,39.38]]],[[[47.0,39.62],[46.88,39.5],[47.25,39.38],[47.0,39.62]]]]}},{"type":"Feature","properties":{"kind":"center","id":1,"lat":-63.75,"lon":123.0,"mslp":941.4,"hvtl":94.3,"hvtu":-35.0,"hb":-12.0,"idx":1.1,"cls":1,"psfc":941.3,"terrain":false,"radius_km":200,"name":"sym shallow warm","track":"T01"},"geometry":{"type":"Point","coordinates":[123.0,-63.75]}},{"type":"Feature","properties":{"kind":"center","id":2,"lat":-65.5,"lon":-173.25,"mslp":954.3,"hvtl":115.1,"hvtu":-165.3,"hb":7.4,"idx":0.7,"cls":1,"psfc":954.3,"terrain":false,"radius_km":200,"name":"sym shallow warm","track":"T15"},"geometry":{"type":"Point","coordinates":[-173.25,-65.5]}},{"type":"Feature","properties":{"kind":"center","id":3,"lat":-60.5,"lon":-4.0,"mslp":958.9,"hvtl":-157.8,"hvtu":-28.0,"hb":19.5,"idx":-2.1,"cls":4,"psfc":958.9,"terrain":false,"radius_km":200,"name":"asym cold","track":"T23"},"geometry":{"type":"Point","coordinates":[-4.0,-60.5]}},{"type":"Feature","properties":{"kind":"center","id":4,"lat":-66.75,"lon":4.5,"mslp":961.0,"hvtl":25.4,"hvtu":-14.5,"hb":15.1,"idx":0.4,"cls":3,"psfc":961.0,"terrain":false,"radius_km":200,"name":"asym shallow warm","track":"T04"},"geometry":{"type":"Point","coordinates":[4.5,-66.75]}},{"type":"Feature","properties":{"kind":"center","id":5,"lat":-56.25,"lon":-121.25,"mslp":965.1,"hvtl":3.6,"hvtu":-38.4,"hb":20.1,"idx":-0.3,"cls":3,"psfc":965.1,"terrain":false,"radius_km":200,"name":"asym shallow warm","track":"T33"},"geometry":{"type":"Point","coordinates":[-121.25,-56.25]}},{"type":"Feature","properties":{"kind":"center","id":6,"lat":-65.5,"lon":34.25,"mslp":965.2,"hvtl":-45.6,"hvtu":-196.2,"hb":18.7,"idx":-1.8,"cls":4,"psfc":965.2,"terrain":false,"radius_km":200,"name":"asym cold","track":"T19"},"geometry":{"type":"Point","coordinates":[34.25,-65.5]}},{"type":"Feature","properties":{"kind":"center","id":7,"lat":-64.0,"lon":-112.5,"mslp":965.4,"hvtl":-47.2,"hvtu":-79.1,"hb":33.5,"idx":-1.5,"cls":4,"psfc":965.4,"terrain":false,"radius_km":200,"name":"asym cold","track":"T18"},"geometry":{"type":"Point","coordinates":[-112.5,-64.0]}},{"type":"Feature","properties":{"kind":"center","id":8,"lat":57.25,"lon":145.75,"mslp":965.7,"hvtl":209.4,"hvtu":-108.4,"hb":10.5,"idx":1.1,"cls":3,"psfc":965.7,"terrain":false,"radius_km":200,"name":"asym shallow warm","track":"T26"},"geometry":{"type":"Point","coordinates":[145.75,57.25]}},{"type":"Feature","properties":{"kind":"center","id":9,"lat":43.5,"lon":158.0,"mslp":965.9,"hvtl":-23.4,"hvtu":-148.3,"hb":98.5,"idx":-1.4,"cls":4,"psfc":965.9,"terrain":false,"radius_km":200,"name":"asym cold"},"geometry":{"type":"Point","coordinates":[158.0,43.5]}},{"type":"Feature","properties":{"kind":"center","id":10,"lat":-65.5,"lon":8.0,"mslp":966.0,"hvtl":73.3,"hvtu":-78.8,"hb":1.7,"idx":0.6,"cls":1,"psfc":966.0,"terrain":false,"radius_km":200,"name":"sym shallow warm","track":"T03"},"geometry":{"type":"Point","coordinates":[8.0,-65.5]}},{"type":"Feature","properties":{"kind":"center","id":11,"lat":-65.25,"lon":6.75,"mslp":966.4,"hvtl":69.6,"hvtu":-67.8,"hb":0.2,"idx":0.6,"cls":1,"psfc":966.4,"terrain":false,"radius_km":200,"name":"sym shallow warm"},"geometry":{"type":"Point","coordinates":[6.75,-65.25]}},{"type":"Feature","properties":{"kind":"center","id":12,"lat":-65.0,"lon":5.75,"mslp":966.7,"hvtl":68.2,"hvtu":-60.7,"hb":-1.8,"idx":0.6,"cls":1,"psfc":966.7,"terrain":false,"radius_km":200,"name":"sym shallow warm"},"geometry":{"type":"Point","coordinates":[5.75,-65.0]}},{"type":"Feature","properties":{"kind":"center","id":13,"lat":-49.75,"lon":7.75,"mslp":970.3,"hvtl":-153.2,"hvtu":-250.7,"hb":101.2,"idx":-2.8,"cls":4,"psfc":970.3,"terrain":false,"radius_km":200,"name":"asym cold","track":"T16"},"geometry":{"type":"Point","coordinates":[7.75,-49.75]}},{"type":"Feature","properties":{"kind":"center","id":14,"lat":-68.75,"lon":77.0,"mslp":970.8,"hvtl":-238.9,"hvtu":-139.8,"hb":32.4,"idx":-2.9,"cls":4,"psfc":970.8,"terrain":false,"radius_km":200,"name":"asym cold","track":"T37"},"geometry":{"type":"Point","coordinates":[77.0,-68.75]}},{"type":"Feature","properties":{"kind":"center","id":15,"lat":70.25,"lon":46.75,"mslp":971.9,"hvtl":69.3,"hvtu":-35.8,"hb":3.0,"idx":0.9,"cls":1,"psfc":971.9,"terrain":false,"radius_km":200,"name":"sym shallow warm","track":"T41"},"geometry":{"type":"Point","coordinates":[46.75,70.25]}},{"type":"Feature","properties":{"kind":"center","id":16,"lat":-67.25,"lon":48.5,"mslp":973.0,"hvtl":-89.2,"hvtu":-108.0,"hb":36.5,"idx":-2.2,"cls":4,"psfc":969.1,"terrain":false,"radius_km":200,"name":"asym cold","track":"T30"},"geometry":{"type":"Point","coordinates":[48.5,-67.25]}},{"type":"Feature","properties":{"kind":"center","id":17,"lat":56.0,"lon":-54.0,"mslp":974.5,"hvtl":157.6,"hvtu":-50.4,"hb":-11.1,"idx":1.4,"cls":1,"psfc":974.5,"terrain":false,"radius_km":200,"name":"sym shallow warm","track":"T44"},"geometry":{"type":"Point","coordinates":[-54.0,56.0]}},{"type":"Feature","properties":{"kind":"center","id":18,"lat":-75.75,"lon":-24.75,"mslp":976.5,"hvtl":-247.6,"hvtu":-134.6,"hb":35.6,"idx":-2.8,"cls":4,"psfc":970.6,"terrain":false,"radius_km":200,"name":"asym cold","track":"T51"},"geometry":{"type":"Point","coordinates":[-24.75,-75.75]}},{"type":"Feature","properties":{"kind":"center","id":19,"lat":-73.75,"lon":-116.5,"mslp":976.6,"hvtl":49.0,"hvtu":-84.6,"hb":15.2,"idx":0.2,"cls":3,"psfc":976.4,"terrain":false,"radius_km":200,"name":"asym shallow warm","track":"T34"},"geometry":{"type":"Point","coordinates":[-116.5,-73.75]}},{"type":"Feature","properties":{"kind":"center","id":20,"lat":21.5,"lon":-120.75,"mslp":979.6,"hvtl":63.2,"hvtu":176.2,"hb":6.7,"idx":2.1,"cls":0,"psfc":979.6,"terrain":false,"radius_km":200,"name":"sym deep warm","track":"T48"},"geometry":{"type":"Point","coordinates":[-120.75,21.5]}},{"type":"Feature","properties":{"kind":"center","id":21,"lat":-66.75,"lon":-77.25,"mslp":984.0,"hvtl":-44.8,"hvtu":-89.7,"hb":17.5,"idx":-1.6,"cls":4,"psfc":984.0,"terrain":false,"radius_km":200,"name":"asym cold","track":"T65"},"geometry":{"type":"Point","coordinates":[-77.25,-66.75]}},{"type":"Feature","properties":{"kind":"center","id":22,"lat":-81.0,"lon":-48.5,"mslp":989.1,"hvtl":-138.2,"hvtu":-101.3,"hb":17.8,"idx":-2.5,"cls":4,"psfc":973.7,"terrain":false,"radius_km":200,"name":"asym cold","track":"T58"},"geometry":{"type":"Point","coordinates":[-48.5,-81.0]}},{"type":"Feature","properties":{"kind":"center","id":23,"lat":55.0,"lon":164.75,"mslp":989.5,"hvtl":-365.9,"hvtu":-417.0,"hb":67.4,"idx":-3.0,"cls":4,"psfc":989.5,"terrain":false,"radius_km":200,"name":"asym cold"},"geometry":{"type":"Point","coordinates":[164.75,55.0]}},{"type":"Feature","properties":{"kind":"center","id":24,"lat":52.0,"lon":-80.25,"mslp":997.0,"hvtl":-119.9,"hvtu":-208.0,"hb":45.5,"idx":-2.6,"cls":4,"psfc":997.0,"terrain":false,"radius_km":200,"name":"asym cold","track":"T88"},"geometry":{"type":"Point","coordinates":[-80.25,52.0]}},{"type":"Feature","properties":{"kind":"center","id":25,"lat":27.75,"lon":160.75,"mslp":998.0,"hvtl":108.5,"hvtu":42.1,"hb":8.0,"idx":2.0,"cls":0,"psfc":998.0,"terrain":false,"radius_km":200,"name":"sym deep warm","track":"T40"},"geometry":{"type":"Point","coordinates":[160.75,27.75]}},{"type":"Feature","properties":{"kind":"center","id":26,"lat":65.75,"lon":-54.0,"mslp":998.4,"hvtl":29.9,"hvtu":-254.5,"hb":37.8,"idx":-0.4,"cls":3,"psfc":998.4,"terrain":false,"radius_km":200,"name":"asym shallow warm"},"geometry":{"type":"Point","coordinates":[-54.0,65.75]}},{"type":"Feature","properties":{"kind":"center","id":27,"lat":58.0,"lon":-91.75,"mslp":998.9,"hvtl":-48.7,"hvtu":-19.3,"hb":30.5,"idx":-1.1,"cls":4,"psfc":998.9,"terrain":false,"radius_km":200,"name":"asym cold","track":"T89"},"geometry":{"type":"Point","coordinates":[-91.75,58.0]}},{"type":"Feature","properties":{"kind":"center","id":28,"lat":58.0,"lon":-88.75,"mslp":1001.7,"hvtl":28.5,"hvtu":-82.1,"hb":-7.9,"idx":-0.1,"cls":1,"psfc":1001.7,"terrain":false,"radius_km":200,"name":"sym shallow warm"},"geometry":{"type":"Point","coordinates":[-88.75,58.0]}},{"type":"Feature","properties":{"kind":"center","id":29,"lat":-26.0,"lon":-63.75,"mslp":1003.3,"hvtl":-41.0,"hvtu":-243.2,"hb":23.0,"idx":-1.8,"cls":4,"psfc":973.9,"terrain":false,"radius_km":200,"name":"asym cold"},"geometry":{"type":"Point","coordinates":[-63.75,-26.0]}},{"type":"Feature","properties":{"kind":"center","id":30,"lat":-28.25,"lon":-66.5,"mslp":1004.2,"hvtl":-18.0,"hvtu":-328.3,"hb":71.6,"idx":-1.4,"cls":4,"psfc":921.7,"terrain":false,"radius_km":200,"name":"asym cold","track":"T99"},"geometry":{"type":"Point","coordinates":[-66.5,-28.25]}},{"type":"Feature","properties":{"kind":"center","id":31,"lat":64.75,"lon":-101.5,"mslp":1005.3,"hvtl":-4.2,"hvtu":4.9,"hb":15.1,"idx":-0.0,"cls":6,"psfc":981.6,"terrain":false,"radius_km":200,"name":"shallow cold"},"geometry":{"type":"Point","coordinates":[-101.5,64.75]}},{"type":"Feature","properties":{"kind":"center","id":32,"lat":-32.75,"lon":123.25,"mslp":1005.8,"hvtl":-310.5,"hvtu":-141.8,"hb":65.8,"idx":-2.9,"cls":4,"psfc":983.8,"terrain":false,"radius_km":200,"name":"asym cold"},"geometry":{"type":"Point","coordinates":[123.25,-32.75]}},{"type":"Feature","properties":{"kind":"center","id":33,"lat":79.0,"lon":-117.25,"mslp":1006.8,"hvtl":-14.5,"hvtu":-75.9,"hb":16.2,"idx":-0.9,"cls":4,"psfc":1006.8,"terrain":false,"radius_km":200,"name":"asym cold","track":"T116"},"geometry":{"type":"Point","coordinates":[-117.25,79.0]}},{"type":"Feature","properties":{"kind":"center","id":34,"lat":27.5,"lon":67.75,"mslp":1006.9,"hvtl":39.5,"hvtu":-15.4,"hb":7.0,"idx":0.6,"cls":1,"psfc":1001.8,"terrain":false,"radius_km":200,"name":"sym shallow warm","track":"T105"},"geometry":{"type":"Point","coordinates":[67.75,27.5]}},{"type":"Feature","properties":{"kind":"center","id":35,"lat":-36.5,"lon":-76.25,"mslp":1008.9,"hvtl":-34.7,"hvtu":-90.9,"hb":22.8,"idx":-1.4,"cls":4,"psfc":1008.9,"terrain":false,"radius_km":200,"name":"asym cold","track":"T92"},"geometry":{"type":"Point","coordinates":[-76.25,-36.5]}},{"type":"Feature","properties":{"kind":"center","id":36,"lat":-39.25,"lon":166.25,"mslp":1009.2,"hvtl":73.6,"hvtu":-7.6,"hb":51.6,"idx":1.2,"cls":3,"psfc":1009.2,"terrain":false,"radius_km":200,"name":"asym shallow warm","track":"T107"},"geometry":{"type":"Point","coordinates":[166.25,-39.25]}},{"type":"Feature","properties":{"kind":"center","id":37,"lat":46.5,"lon":-1.25,"mslp":1009.6,"hvtl":118.6,"hvtu":-120.2,"hb":19.1,"idx":0.8,"cls":3,"psfc":1006.2,"terrain":false,"radius_km":200,"name":"asym shallow warm","track":"T121"},"geometry":{"type":"Point","coordinates":[-1.25,46.5]}},{"type":"Feature","properties":{"kind":"center","id":38,"lat":60.0,"lon":-146.5,"mslp":1010.0,"hvtl":-7.0,"hvtu":-186.9,"hb":17.4,"idx":-1.1,"cls":4,"psfc":1010.0,"terrain":false,"radius_km":200,"name":"asym cold","track":"T35"},"geometry":{"type":"Point","coordinates":[-146.5,60.0]}},{"type":"Feature","properties":{"kind":"center","id":39,"lat":24.75,"lon":95.0,"mslp":1011.2,"hvtl":-33.2,"hvtu":-117.1,"hb":5.9,"idx":-1.5,"cls":5,"psfc":992.6,"terrain":false,"radius_km":200,"name":"sym cold","track":"T124"},"geometry":{"type":"Point","coordinates":[95.0,24.75]}},{"type":"Feature","properties":{"kind":"center","id":40,"lat":32.25,"lon":62.0,"mslp":1012.9,"hvtl":41.1,"hvtu":-44.5,"hb":41.5,"idx":0.4,"cls":3,"psfc":942.3,"terrain":false,"radius_km":200,"name":"asym shallow warm","track":"T125"},"geometry":{"type":"Point","coordinates":[62.0,32.25]}},{"type":"Feature","properties":{"kind":"center","id":41,"lat":31.5,"lon":61.25,"mslp":1013.7,"hvtl":25.4,"hvtu":-34.9,"hb":30.1,"idx":0.2,"cls":3,"psfc":958.6,"terrain":false,"radius_km":200,"name":"asym shallow warm","track":"T129"},"geometry":{"type":"Point","coordinates":[61.25,31.5]}},{"type":"Feature","properties":{"kind":"center","id":42,"lat":61.75,"lon":-145.5,"mslp":1014.4,"hvtl":-57.9,"hvtu":-114.8,"hb":29.0,"idx":-1.9,"cls":4,"psfc":919.7,"terrain":true,"radius_km":200,"name":"asym cold"},"geometry":{"type":"Point","coordinates":[-145.5,61.75]}},{"type":"Feature","properties":{"kind":"center","id":43,"lat":-35.75,"lon":-177.75,"mslp":1014.7,"hvtl":57.4,"hvtu":-140.8,"hb":10.3,"idx":0.1,"cls":3,"psfc":1014.6,"terrain":false,"radius_km":200,"name":"asym shallow warm","track":"T130"},"geometry":{"type":"Point","coordinates":[-177.75,-35.75]}},{"type":"Feature","properties":{"kind":"center","id":44,"lat":35.25,"lon":55.0,"mslp":1014.8,"hvtl":54.0,"hvtu":-77.6,"hb":106.8,"idx":0.3,"cls":3,"psfc":930.7,"terrain":false,"radius_km":200,"name":"asym shallow warm"},"geometry":{"type":"Point","coordinates":[55.0,35.25]}},{"type":"Feature","properties":{"kind":"center","id":45,"lat":61.5,"lon":-144.25,"mslp":1014.9,"hvtl":-48.2,"hvtu":-142.2,"hb":23.4,"idx":-1.8,"cls":4,"psfc":930.5,"terrain":false,"radius_km":200,"name":"asym cold"},"geometry":{"type":"Point","coordinates":[-144.25,61.5]}},{"type":"Feature","properties":{"kind":"center","id":46,"lat":34.25,"lon":62.25,"mslp":1016.1,"hvtl":122.3,"hvtu":-67.3,"hb":82.4,"idx":1.1,"cls":3,"psfc":904.9,"terrain":true,"radius_km":200,"name":"asym shallow warm"},"geometry":{"type":"Point","coordinates":[62.25,34.25]}},{"type":"Feature","properties":{"kind":"center","id":47,"lat":-40.25,"lon":43.25,"mslp":1018.1,"hvtl":-145.3,"hvtu":-178.4,"hb":52.6,"idx":-2.7,"cls":4,"psfc":1018.1,"terrain":false,"radius_km":200,"name":"asym cold"},"geometry":{"type":"Point","coordinates":[43.25,-40.25]}},{"type":"Feature","properties":{"kind":"center","id":48,"lat":39.25,"lon":47.5,"mslp":1022.5,"hvtl":-99.6,"hvtu":-187.7,"hb":53.6,"idx":-2.5,"cls":4,"psfc":973.0,"terrain":false,"radius_km":200,"name":"asym cold","track":"T122"},"geometry":{"type":"Point","coordinates":[47.5,39.25]}}]}