{"type":"FeatureCollection","features":[{"type":"Feature","properties":{"kind":"blob","cls":1,"id":1},"geometry":{"type":"Polygon","coordinates":[[[122.75,-65.88],[126.0,-64.88],[127.88,-63.25],[127.88,-61.5],[126.25,-60.62],[122.75,-60.38],[119.25,-60.88],[117.5,-61.62],[116.88,-62.25],[117.0,-63.38],[119.25,-63.12],[119.62,-63.5],[117.5,-63.62],[117.62,-64.25],[119.5,-65.62],[122.75,-65.88]]]}},{"type":"Feature","properties":{"kind":"blob","cls":3,"id":2},"geometry":{"type":"Polygon","coordinates":[[[4.25,-68.38],[9.0,-68.38],[10.25,-67.88],[11.12,-67.0],[11.12,-66.5],[10.5,-66.12],[2.25,-65.38],[0.88,-66.5],[0.88,-67.0],[1.75,-67.88],[4.25,-68.38]]]}},{"type":"Feature","properties":{"kind":"blob","cls":6,"id":3},"geometry":{"type":"Polygon","coordinates":[[[-5.0,-64.38],[-6.12,-63.5],[-5.75,-63.12],[-3.0,-63.38],[-2.38,-62.5],[-2.62,-61.0],[-4.75,-59.62],[-6.0,-59.38],[-8.0,-59.38],[-10.25,-60.12],[-11.12,-61.5],[-10.88,-63.25],[-9.75,-64.12],[-5.0,-64.38]]]}},{"type":"Feature","properties":{"kind":"blob","cls":1,"id":4},"geometry":{"type":"Polygon","coordinates":[[[8.0,-65.38],[9.12,-65.25],[9.0,-65.12],[8.0,-65.38]]]}},{"type":"Feature","properties":{"kind":"blob","cls":2,"id":5},"geometry":{"type":"Polygon","coordinates":[[[154.0,38.38],[155.38,39.75],[155.38,40.75],[154.25,41.88],[152.0,42.12],[150.12,40.75],[150.12,39.75],[151.5,38.38],[154.0,38.38]]]}},{"type":"Feature","properties":{"kind":"blob","cls":1,"id":6},"geometry":{"type":"Polygon","coordinates":[[[6.5,-65.12],[7.62,-65.0],[7.5,-64.88],[6.5,-65.12]]]}},{"type":"Feature","properties":{"kind":"blob","cls":2,"id":7},"geometry":{"type":"Polygon","coordinates":[[[-120.5,-65.62],[-119.5,-64.38],[-118.5,-64.38],[-116.25,-65.62],[-114.38,-64.25],[-114.38,-63.75],[-115.5,-62.62],[-116.75,-62.12],[-120.75,-62.12],[-122.0,-62.62],[-123.12,-63.75],[-123.12,-64.25],[-122.25,-65.12],[-120.5,-65.62]]]}},{"type":"Feature","properties":{"kind":"blob","cls":5,"id":8},"geometry":{"type":"Polygon","coordinates":[[[28.75,-67.62],[31.0,-67.12],[33.25,-66.12],[34.12,-65.25],[34.12,-64.25],[32.25,-63.12],[25.75,-62.62],[24.25,-62.88],[22.12,-64.25],[21.88,-65.75],[22.25,-66.12],[26.75,-66.38],[26.5,-66.88],[23.88,-67.0],[28.75,-67.62]]]}},{"type":"Feature","properties":{"kind":"blob","cls":4,"id":9},"geometry":{"type":"Polygon","coordinates":[[[179.88,-70.75],[180.0,-62.12],[179.0,-62.12],[177.25,-62.88],[175.88,-64.25],[175.38,-65.75],[175.88,-66.5],[174.25,-67.12],[173.12,-68.25],[173.12,-68.75],[174.5,-69.88],[179.88,-70.75]]]}},{"type":"Feature","properties":{"kind":"blob","cls":4,"id":9},"geometry":{"type":"Polygon","coordinates":[[[-179.88,-62.0],[-180.0,-70.88],[-174.25,-70.62],[-171.88,-69.25],[-171.88,-68.25],[-172.25,-67.88],[-174.12,-67.0],[-173.38,-65.25],[-173.88,-64.0],[-175.25,-62.62],[-177.75,-61.88],[-179.88,-62.0]]]}},{"type":"Feature","properties":{"kind":"blob","cls":3,"id":10},"geometry":{"type":"Polygon","coordinates":[[[-121.25,-57.38],[-119.5,-56.88],[-118.38,-55.75],[-118.38,-54.75],[-119.25,-53.88],[-120.88,-53.5],[-120.88,-52.25],[-121.75,-51.38],[-123.25,-50.88],[-125.25,-51.12],[-126.62,-52.25],[-126.62,-53.25],[-125.38,-54.25],[-125.62,-55.75],[-124.5,-56.88],[-121.25,-57.38]]]}},{"type":"Feature","properties":{"kind":"blob","cls":3,"id":11},"geometry":{"type":"Polygon","coordinates":[[[145.25,55.62],[146.25,56.12],[147.0,57.12],[150.5,57.62],[151.62,59.25],[150.75,60.38],[149.75,60.12],[148.75,60.62],[145.25,60.62],[144.0,59.12],[141.75,58.88],[140.38,58.0],[140.38,56.5],[141.75,55.62],[145.25,55.62]],[[141.62,57.5],[142.0,57.88],[143.25,57.88],[143.62,57.5],[143.25,57.12],[141.62,57.5]]]}},{"type":"Feature","properties":{"kind":"blob","cls":4,"id":12},"geometry":{"type":"Polygon","coordinates":[[[-110.5,-69.88],[-106.5,-69.88],[-105.0,-69.38],[-104.12,-68.5],[-104.12,-68.0],[-104.75,-67.12],[-105.75,-66.62],[-108.0,-66.12],[-112.25,-66.38],[-114.38,-67.5],[-114.38,-68.5],[-113.25,-69.38],[-110.5,-69.88]]]}},{"type":"Feature","properties":{"kind":"blob","cls":1,"id":13},"geometry":{"type":"Polygon","coordinates":[[[43.75,68.12],[49.25,68.12],[51.5,69.12],[52.38,70.0],[52.38,70.75],[50.5,72.12],[45.5,72.62],[41.0,71.62],[39.38,70.5],[39.62,69.5],[40.75,68.62],[43.75,68.12]]]}},{"type":"Feature","properties":{"kind":"blob","cls":1,"id":14},"geometry":{"type":"Polygon","coordinates":[[[-112.25,-74.88],[-106.88,-74.5],[-110.75,-73.38],[-118.5,-73.12],[-122.75,-73.88],[-123.62,-74.5],[-112.25,-74.88]]]}},{"type":"Feature","properties":{"kind":"blob","cls":1,"id":15},"geometry":{"type":"Polygon","coordinates":[[[-52.5,55.12],[-51.12,56.25],[-50.88,57.25],[-52.5,58.62],[-56.5,58.62],[-58.12,57.25],[-58.12,56.75],[-57.0,55.38],[-52.5,55.12]],[[-54.75,55.62],[-55.12,55.75],[-55.12,56.5],[-54.0,57.12],[-53.62,56.5],[-54.75,55.62]]]}},{"type":"Feature","properties":{"kind":"blob","cls":3,"id":16},"geometry":{"type":"Polygon","coordinates":[[[180.0,-80.62],[180.0,-79.88],[179.62,-80.0],[180.0,-80.62]]]}},{"type":"Feature","properties":{"kind":"blob","cls":3,"id":16},"geometry":{"type":"Polygon","coordinates":[[[-179.88,-79.75],[-180.0,-80.62],[-178.5,-81.38],[-161.0,-80.12],[-155.0,-80.12],[-154.12,-80.5],[-154.25,-80.88],[-158.75,-82.12],[-153.0,-81.38],[-151.25,-80.62],[-150.88,-80.0],[-152.0,-78.62],[-153.25,-78.12],[-159.25,-77.38],[-165.5,-77.38],[-174.75,-78.12],[-177.5,-78.62],[-179.88,-79.75]]]}},{"type":"Feature","properties":{"kind":"blob","cls":4,"id":17},"geometry":{"type":"Polygon","coordinates":[[[2.75,-49.62],[4.0,-49.12],[4.88,-48.25],[4.88,-47.25],[3.75,-46.12],[2.0,-45.38],[-0.25,-45.38],[-1.5,-45.88],[-2.38,-46.75],[-2.38,-47.75],[-1.5,-48.62],[2.75,-49.62]]]}},{"type":"Feature","properties":{"kind":"blob","cls":0,"id":18},"geometry":{"type":"Polygon","coordinates":[[[-120.0,19.62],[-118.75,19.62],[-117.88,20.5],[-117.88,22.25],[-119.5,23.38],[-121.0,23.12],[-121.88,22.25],[-121.88,20.5],[-120.5,20.62],[-119.88,20.0],[-120.0,19.62]]]}},{"type":"Feature","properties":{"kind":"blob","cls":4,"id":19},"geometry":{"type":"Polygon","coordinates":[[[-51.0,-81.62],[-42.88,-81.0],[-55.25,-80.62],[-62.12,-81.25],[-51.0,-81.62]]]}},{"type":"Feature","properties":{"kind":"blob","cls":4,"id":20},"geometry":{"type":"Polygon","coordinates":[[[164.0,52.88],[167.25,52.88],[169.62,54.5],[169.62,55.5],[168.0,56.62],[165.5,57.38],[162.75,56.88],[161.62,55.75],[161.38,54.5],[162.25,53.38],[164.0,52.88]]]}},{"type":"Feature","properties":{"kind":"blob","cls":0,"id":21},"geometry":{"type":"Polygon","coordinates":[[[163.75,25.38],[164.62,26.25],[164.88,27.5],[163.75,28.88],[161.5,28.88],[160.38,27.5],[160.62,26.25],[161.5,25.38],[163.75,25.38]]]}},{"type":"Feature","properties":{"kind":"blob","cls":4,"id":22},"geometry":{"type":"Polygon","coordinates":[[[129.5,72.38],[133.0,72.88],[134.25,73.38],[134.88,74.5],[133.0,75.62],[127.0,76.12],[123.5,75.62],[121.62,74.5],[122.25,73.38],[123.5,72.88],[129.5,72.38]]]}},{"type":"Feature","properties":{"kind":"blob","cls":4,"id":23},"geometry":{"type":"Polygon","coordinates":[[[-81.5,48.62],[-80.0,49.12],[-78.88,50.5],[-78.88,51.75],[-81.25,53.62],[-83.5,53.88],[-85.0,53.38],[-86.38,51.75],[-86.38,50.5],[-85.25,49.12],[-81.5,48.62]]]}},{"type":"Feature","properties":{"kind":"blob","cls":4,"id":24},"geometry":{"type":"Polygon","coordinates":[[[-91.75,56.12],[-89.75,56.88],[-88.88,57.75],[-88.88,59.0],[-90.5,60.62],[-92.25,61.38],[-95.5,61.62],[-97.25,61.12],[-98.38,60.0],[-98.38,59.25],[-96.5,57.38],[-94.5,56.38],[-91.75,56.12]]]}},{"type":"Feature","properties":{"kind":"blob","cls":3,"id":25},"geometry":{"type":"MultiPolygon","coordinates":[[[[-66.5,-30.62],[-66.25,-31.12],[-65.0,-30.88],[-64.12,-30.0],[-63.88,-28.75],[-62.12,-27.5],[-61.88,-26.75],[-62.38,-25.75],[-60.88,-24.25],[-60.62,-22.25],[-60.62,-20.75],[-61.5,-19.88],[-63.0,-19.62],[-63.38,-20.75],[-64.12,-21.0],[-63.62,-21.75],[-64.38,-22.75],[-64.62,-24.0],[-64.12,-24.25],[-65.12,-25.75],[-64.62,-26.0],[-64.88,-26.5],[-65.25,-26.12],[-65.88,-27.25],[-65.38,-28.75],[-65.75,-28.38],[-66.38,-28.75],[-66.5,-27.62],[-66.88,-28.0],[-66.62,-29.0],[-67.38,-30.75],[-66.5,-30.62]]],[[[-64.75,-24.38],[-64.88,-24.5],[-64.75,-24.62],[-64.75,-24.38]]]]}},{"type":"Feature","properties":{"kind":"blob","cls":5,"id":26},"geometry":{"type":"Polygon","coordinates":[[[-65.5,-16.12],[-64.12,-15.25],[-64.12,-13.25],[-65.0,-12.38],[-69.75,-12.62],[-69.88,-13.5],[-68.5,-13.88],[-67.88,-15.25],[-65.5,-16.12]]]}},{"type":"Feature","properties":{"kind":"blob","cls":5,"id":27},"geometry":{"type":"Polygon","coordinates":[[[171.0,72.38],[173.75,73.38],[174.12,74.0],[173.75,74.62],[171.0,75.62],[165.75,75.88],[161.75,75.12],[160.38,74.0],[160.75,73.38],[162.5,72.62],[171.0,72.38]]]}},{"type":"Feature","properties":{"kind":"blob","cls":1,"id":28},"geometry":{"type":"Polygon","coordinates":[[[81.0,56.88],[85.75,56.88],[87.38,58.0],[87.62,59.25],[86.5,60.62],[83.5,61.62],[82.62,61.5],[83.38,61.0],[83.38,60.0],[82.75,59.62],[81.0,60.12],[80.25,61.38],[79.5,61.12],[77.88,59.75],[77.88,58.5],[78.75,57.62],[81.0,56.88]]]}},{"type":"Feature","properties":{"kind":"blob","cls":3,"id":29},"geometry":{"type":"Polygon","coordinates":[[[-71.5,-12.88],[-71.12,-12.75],[-71.25,-12.62],[-71.5,-12.88]]]}},{"type":"Feature","properties":{"kind":"blob","cls":3,"id":30},"geometry":{"type":"Polygon","coordinates":[[[-145.25,57.62],[-143.5,58.12],[-142.38,59.25],[-142.38,59.75],[-143.0,60.38],[-144.0,60.62],[-144.25,61.12],[-145.0,61.12],[-144.88,60.75],[-145.25,60.62],[-146.0,61.12],[-149.0,61.12],[-150.38,59.75],[-150.38,59.25],[-149.25,58.12],[-145.25,57.62]],[[-148.75,60.12],[-148.88,60.25],[-148.75,60.38],[-148.75,60.12]]]}},{"type":"Feature","properties":{"kind":"blob","cls":3,"id":31},"geometry":{"type":"Polygon","coordinates":[[[167.75,-45.38],[168.25,-44.38],[169.62,-43.75],[169.62,-42.5],[168.75,-41.38],[166.5,-40.88],[165.25,-41.38],[164.38,-42.25],[164.38,-44.25],[165.0,-44.88],[167.75,-45.38]]]}},{"type":"Feature","properties":{"kind":"blob","cls":3,"id":32},"geometry":{"type":"Polygon","coordinates":[[[-77.12,-38.75],[-77.38,-38.5],[-76.75,-37.62],[-75.75,-38.62],[-75.0,-38.38],[-74.38,-37.75],[-74.38,-36.0],[-76.0,-34.88],[-77.5,-34.88],[-78.5,-35.38],[-79.12,-36.0],[-79.12,-37.75],[-77.12,-38.75]]]}},{"type":"Feature","properties":{"kind":"blob","cls":4,"id":33},"geometry":{"type":"Polygon","coordinates":[[[-109.0,76.62],[-104.75,77.62],[-103.62,78.5],[-105.25,79.62],[-108.5,80.38],[-118.75,80.88],[-118.38,80.5],[-118.75,80.12],[-123.0,79.12],[-131.62,78.5],[-130.0,77.38],[-128.25,76.88],[-109.0,76.62]]]}},{"type":"Feature","properties":{"kind":"blob","cls":3,"id":34},"geometry":{"type":"Polygon","coordinates":[[[-1.5,44.62],[-0.25,45.12],[1.38,46.75],[1.62,48.25],[0.5,49.38],[-0.75,49.88],[-2.0,49.88],[-3.75,49.12],[-5.12,47.75],[-5.12,46.25],[-4.0,45.12],[-1.5,44.62]]]}},{"type":"Feature","properties":{"kind":"blob","cls":1,"id":35},"geometry":{"type":"Polygon","coordinates":[[[-121.5,37.12],[-120.12,38.0],[-121.88,40.25],[-122.0,41.12],[-123.5,41.12],[-124.38,40.25],[-124.62,39.0],[-123.25,37.38],[-121.5,37.12]],[[-122.75,39.38],[-123.12,39.5],[-123.5,40.62],[-122.88,40.5],[-122.75,39.38]]]}},{"type":"Feature","properties":{"kind":"blob","cls":4,"id":36},"geometry":{"type":"Polygon","coordinates":[[[71.25,28.62],[73.0,29.38],[73.88,30.75],[73.88,31.75],[73.25,32.38],[70.25,31.88],[70.12,30.0],[69.12,29.5],[71.25,28.62]]]}},{"type":"Feature","properties":{"kind":"blob","cls":3,"id":37},"geometry":{"type":"Polygon","coordinates":[[[179.88,-36.5],[180.0,-33.62],[179.38,-34.5],[179.38,-35.75],[179.88,-36.5]]]}},{"type":"Feature","properties":{"kind":"blob","cls":3,"id":37},"geometry":{"type":"Polygon","coordinates":[[[-179.75,-33.62],[-179.75,-36.88],[-178.0,-37.38],[-176.12,-36.25],[-175.88,-34.5],[-176.5,-33.62],[-178.75,-33.12],[-179.75,-33.62]]]}},{"type":"Feature","properties":{"kind":"blob","cls":4,"id":38},"geometry":{"type":"MultiPolygon","coordinates":[[[[169.0,-44.62],[168.88,-44.75],[169.0,-44.88],[169.0,-44.62]]],[[[169.25,-44.38],[169.12,-44.5],[169.25,-44.62],[169.25,-44.38]]]]}},{"type":"Feature","properties":{"kind":"blob","cls":4,"id":39},"geometry":{"type":"Polygon","coordinates":[[[90.0,52.38],[90.62,52.5],[90.5,52.62],[90.0,52.38]]]}},{"type":"Feature","properties":{"kind":"blob","cls":4,"id":40},"geometry":{"type":"Polygon","coordinates":[[[68.62,30.0],[68.75,29.88],[68.88,30.0],[68.62,30.0]]]}},{"type":"Feature","properties":{"kind":"blob","cls":3,"id":41},"geometry":{"type":"Polygon","coordinates":[[[168.38,-45.0],[168.5,-45.12],[168.62,-45.0],[168.38,-45.0]]]}},{"type":"Feature","properties":{"kind":"blob","cls":3,"id":42},"geometry":{"type":"Polygon","coordinates":[[[151.25,-30.88],[151.62,-30.5],[151.38,-30.0],[151.75,-29.62],[152.0,-30.12],[152.38,-29.5],[152.12,-28.25],[150.5,-27.12],[149.25,-27.38],[148.12,-28.75],[148.38,-30.0],[149.25,-30.88],[151.25,-30.88]]]}},{"type":"Feature","properties":{"kind":"blob","cls":4,"id":43},"geometry":{"type":"Polygon","coordinates":[[[43.75,-43.88],[45.25,-43.12],[45.62,-42.5],[45.38,-41.0],[42.25,-38.12],[39.5,-38.12],[38.38,-39.5],[38.38,-40.5],[41.25,-43.12],[43.75,-43.88]]]}},{"type":"Feature","properties":{"kind":"blob","cls":4,"id":44},"geometry":{"type":"Polygon","coordinates":[[[88.62,52.25],[88.75,52.12],[88.88,52.25],[88.62,52.25]]]}},{"type":"Feature","properties":{"kind":"center","id":1,"lat":-63.5,"lon":122.75,"mslp":937.5,"hvtl":86.9,"hvtu":-75.1,"hb":3.1,"idx":0.8,"cls":1,"psfc":937.5,"terrain":false,"radius_km":200,"name":"sym shallow warm","track":"T01"},"geometry":{"type":"Point","coordinates":[122.75,-63.5]}},{"type":"Feature","properties":{"kind":"center","id":2,"lat":-66.75,"lon":6.0,"mslp":956.1,"hvtl":82.9,"hvtu":-6.6,"hb":14.3,"idx":1.3,"cls":3,"psfc":956.1,"terrain":false,"radius_km":200,"name":"asym shallow warm","track":"T04"},"geometry":{"type":"Point","coordinates":[6.0,-66.75]}},{"type":"Feature","properties":{"kind":"center","id":3,"lat":-62.0,"lon":-6.75,"mslp":957.8,"hvtl":-135.5,"hvtu":0.0,"hb":9.3,"idx":-1.8,"cls":6,"psfc":957.8,"terrain":false,"radius_km":200,"name":"shallow cold","track":"T23"},"geometry":{"type":"Point","coordinates":[-6.75,-62.0]}},{"type":"Feature","properties":{"kind":"center","id":4,"lat":-65.25,"lon":9.0,"mslp":960.8,"hvtl":97.8,"hvtu":-108.7,"hb":-4.4,"idx":0.7,"cls":1,"psfc":960.8,"terrain":false,"radius_km":200,"name":"sym shallow warm","track":"T03"},"geometry":{"type":"Point","coordinates":[9.0,-65.25]}},{"type":"Feature","properties":{"kind":"center","id":5,"lat":40.25,"lon":152.75,"mslp":961.7,"hvtl":11.5,"hvtu":7.3,"hb":75.1,"idx":0.3,"cls":2,"psfc":961.7,"terrain":false,"radius_km":200,"name":"asym deep warm","track":"T07"},"geometry":{"type":"Point","coordinates":[152.75,40.25]}},{"type":"Feature","properties":{"kind":"center","id":6,"lat":-65.0,"lon":7.5,"mslp":961.8,"hvtl":98.0,"hvtu":-82.9,"hb":-7.6,"idx":0.8,"cls":1,"psfc":961.8,"terrain":false,"radius_km":200,"name":"sym shallow warm"},"geometry":{"type":"Point","coordinates":[7.5,-65.0]}},{"type":"Feature","properties":{"kind":"center","id":7,"lat":-64.0,"lon":-118.75,"mslp":961.9,"hvtl":125.0,"hvtu":14.7,"hb":20.2,"idx":1.8,"cls":2,"psfc":961.9,"terrain":false,"radius_km":200,"name":"asym deep warm"},"geometry":{"type":"Point","coordinates":[-118.75,-64.0]}},{"type":"Feature","properties":{"kind":"center","id":8,"lat":-64.75,"lon":27.5,"mslp":962.4,"hvtl":-12.9,"hvtu":-159.7,"hb":5.9,"idx":-1.2,"cls":5,"psfc":962.4,"terrain":false,"radius_km":200,"name":"sym cold","track":"T19"},"geometry":{"type":"Point","coordinates":[27.5,-64.75]}},{"type":"Feature","properties":{"kind":"center","id":9,"lat":-65.0,"lon":-179.0,"mslp":963.0,"hvtl":-155.2,"hvtu":-262.6,"hb":52.5,"idx":-2.8,"cls":4,"psfc":963.0,"terrain":false,"radius_km":200,"name":"asym cold","track":"T15"},"geometry":{"type":"Point","coordinates":[-179.0,-65.0]}},{"type":"Feature","properties":{"kind":"center","id":10,"lat":-55.25,"lon":-122.0,"mslp":966.0,"hvtl":7.6,"hvtu":-100.2,"hb":20.1,"idx":-0.6,"cls":3,"psfc":966.0,"terrain":false,"radius_km":200,"name":"asym shallow warm","track":"T33"},"geometry":{"type":"Point","coordinates":[-122.0,-55.25]}},{"type":"Feature","properties":{"kind":"center","id":11,"lat":59.25,"lon":147.75,"mslp":969.4,"hvtl":310.2,"hvtu":-192.9,"hb":27.1,"idx":1.0,"cls":3,"psfc":964.3,"terrain":false,"radius_km":200,"name":"asym shallow warm","track":"T26"},"geometry":{"type":"Point","coordinates":[147.75,59.25]}},{"type":"Feature","properties":{"kind":"center","id":12,"lat":-68.0,"lon":-109.25,"mslp":969.7,"hvtl":-19.0,"hvtu":-9.2,"hb":24.7,"idx":-0.5,"cls":4,"psfc":969.7,"terrain":false,"radius_km":200,"name":"asym cold","track":"T10"},"geometry":{"type":"Point","coordinates":[-109.25,-68.0]}},{"type":"Feature","properties":{"kind":"center","id":13,"lat":70.0,"lon":46.0,"mslp":970.4,"hvtl":39.4,"hvtu":-48.0,"hb":0.4,"idx":0.3,"cls":1,"psfc":970.4,"terrain":false,"radius_km":200,"name":"sym shallow warm","track":"T41"},"geometry":{"type":"Point","coordinates":[46.0,70.0]}},{"type":"Feature","properties":{"kind":"center","id":14,"lat":-74.75,"lon":-116.5,"mslp":972.5,"hvtl":78.2,"hvtu":-92.0,"hb":-1.6,"idx":0.6,"cls":1,"psfc":900.3,"terrain":false,"radius_km":200,"name":"sym shallow warm","track":"T34"},"geometry":{"type":"Point","coordinates":[-116.5,-74.75]}},{"type":"Feature","properties":{"kind":"center","id":15,"lat":57.0,"lon":-54.75,"mslp":972.9,"hvtl":193.9,"hvtu":-6.3,"hb":-15.8,"idx":1.9,"cls":1,"psfc":972.9,"terrain":false,"radius_km":200,"name":"sym shallow warm","track":"T44"},"geometry":{"type":"Point","coordinates":[-54.75,57.0]}},{"type":"Feature","properties":{"kind":"center","id":16,"lat":-80.0,"lon":-163.25,"mslp":973.3,"hvtl":2.1,"hvtu":-139.6,"hb":27.6,"idx":-0.8,"cls":3,"psfc":963.8,"terrain":false,"radius_km":200,"name":"asym shallow warm","track":"T05"},"geometry":{"type":"Point","coordinates":[-163.25,-80.0]}},{"type":"Feature","properties":{"kind":"center","id":17,"lat":-47.5,"lon":0.75,"mslp":974.0,"hvtl":-128.3,"hvtu":-282.3,"hb":103.1,"idx":-2.7,"cls":4,"psfc":974.0,"terrain":false,"radius_km":200,"name":"asym cold","track":"T16"},"geometry":{"type":"Point","coordinates":[0.75,-47.5]}},{"type":"Feature","properties":{"kind":"center","id":18,"lat":21.25,"lon":-119.75,"mslp":980.2,"hvtl":48.6,"hvtu":183.3,"hb":4.4,"idx":1.9,"cls":0,"psfc":980.2,"terrain":false,"radius_km":200,"name":"sym deep warm","track":"T48"},"geometry":{"type":"Point","coordinates":[-119.75,21.25]}},{"type":"Feature","properties":{"kind":"center","id":19,"lat":-81.25,"lon":-46.75,"mslp":991.6,"hvtl":-160.0,"hvtu":-137.0,"hb":17.3,"idx":-2.7,"cls":4,"psfc":975.3,"terrain":false,"radius_km":200,"name":"asym cold","track":"T58"},"geometry":{"type":"Point","coordinates":[-46.75,-81.25]}},{"type":"Feature","properties":{"kind":"center","id":20,"lat":54.75,"lon":163.75,"mslp":992.3,"hvtl":-321.2,"hvtu":-419.6,"hb":77.0,"idx":-3.0,"cls":4,"psfc":992.3,"terrain":false,"radius_km":200,"name":"asym cold"},"geometry":{"type":"Point","coordinates":[163.75,54.75]}},{"type":"Feature","properties":{"kind":"center","id":21,"lat":27.0,"lon":162.5,"mslp":995.2,"hvtl":103.9,"hvtu":47.6,"hb":5.3,"idx":2.0,"cls":0,"psfc":995.2,"terrain":false,"radius_km":200,"name":"sym deep warm","track":"T40"},"geometry":{"type":"Point","coordinates":[162.5,27.0]}},{"type":"Feature","properties":{"kind":"center","id":22,"lat":75.75,"lon":126.75,"mslp":998.3,"hvtl":-114.0,"hvtu":-195.6,"hb":49.3,"idx":-2.6,"cls":4,"psfc":998.3,"terrain":false,"radius_km":200,"name":"asym cold"},"geometry":{"type":"Point","coordinates":[126.75,75.75]}},{"type":"Feature","properties":{"kind":"center","id":23,"lat":51.0,"lon":-83.0,"mslp":998.8,"hvtl":-207.2,"hvtu":-222.5,"hb":54.5,"idx":-2.9,"cls":4,"psfc":983.2,"terrain":false,"radius_km":200,"name":"asym cold","track":"T88"},"geometry":{"type":"Point","coordinates":[-83.0,51.0]}},{"type":"Feature","properties":{"kind":"center","id":24,"lat":58.25,"lon":-92.75,"mslp":999.0,"hvtl":-83.2,"hvtu":-22.8,"hb":33.4,"idx":-1.6,"cls":4,"psfc":998.9,"terrain":false,"radius_km":200,"name":"asym cold","track":"T89"},"geometry":{"type":"Point","coordinates":[-92.75,58.25]}},{"type":"Feature","properties":{"kind":"center","id":25,"lat":-29.0,"lon":-66.0,"mslp":999.9,"hvtl":28.7,"hvtu":-322.6,"hb":55.6,"idx":-0.4,"cls":3,"psfc":964.3,"terrain":false,"radius_km":200,"name":"asym shallow warm","track":"T99"},"geometry":{"type":"Point","coordinates":[-66.0,-29.0]}},{"type":"Feature","properties":{"kind":"center","id":26,"lat":-13.75,"lon":-66.5,"mslp":1002.9,"hvtl":-116.0,"hvtu":-34.4,"hb":7.0,"idx":-2.0,"cls":5,"psfc":984.5,"terrain":false,"radius_km":200,"name":"sym cold","track":"T87"},"geometry":{"type":"Point","coordinates":[-66.5,-13.75]}},{"type":"Feature","properties":{"kind":"center","id":27,"lat":74.0,"lon":167.25,"mslp":1003.2,"hvtl":-26.8,"hvtu":-128.5,"hb":-11.1,"idx":-1.4,"cls":5,"psfc":1003.2,"terrain":false,"radius_km":200,"name":"sym cold"},"geometry":{"type":"Point","coordinates":[167.25,74.0]}},{"type":"Feature","properties":{"kind":"center","id":28,"lat":58.75,"lon":82.5,"mslp":1004.6,"hvtl":34.0,"hvtu":-199.5,"hb":-11.4,"idx":-0.3,"cls":1,"psfc":996.3,"terrain":false,"radius_km":200,"name":"sym shallow warm","track":"T77"},"geometry":{"type":"Point","coordinates":[82.5,58.75]}},{"type":"Feature","properties":{"kind":"center","id":29,"lat":-12.75,"lon":-71.25,"mslp":1005.3,"hvtl":126.5,"hvtu":-24.0,"hb":16.8,"idx":1.5,"cls":3,"psfc":940.2,"terrain":false,"radius_km":200,"name":"asym shallow warm"},"geometry":{"type":"Point","coordinates":[-71.25,-12.75]}},{"type":"Feature","properties":{"kind":"center","id":30,"lat":59.5,"lon":-146.5,"mslp":1006.0,"hvtl":27.9,"hvtu":-208.8,"hb":13.3,"idx":-0.4,"cls":3,"psfc":1006.0,"terrain":false,"radius_km":200,"name":"asym shallow warm","track":"T35"},"geometry":{"type":"Point","coordinates":[-146.5,59.5]}},{"type":"Feature","properties":{"kind":"center","id":31,"lat":-43.25,"lon":166.75,"mslp":1006.3,"hvtl":128.2,"hvtu":-37.8,"hb":57.6,"idx":1.4,"cls":3,"psfc":1006.3,"terrain":false,"radius_km":200,"name":"asym shallow warm","track":"T107"},"geometry":{"type":"Point","coordinates":[166.75,-43.25]}},{"type":"Feature","properties":{"kind":"center","id":32,"lat":-36.75,"lon":-76.75,"mslp":1006.4,"hvtl":31.4,"hvtu":-54.8,"hb":16.6,"idx":0.1,"cls":3,"psfc":1006.4,"terrain":false,"radius_km":200,"name":"asym shallow warm","track":"T92"},"geometry":{"type":"Point","coordinates":[-76.75,-36.75]}},{"type":"Feature","properties":{"kind":"center","id":33,"lat":78.75,"lon":-117.0,"mslp":1008.0,"hvtl":-69.3,"hvtu":-131.9,"hb":30.7,"idx":-2.1,"cls":4,"psfc":1008.0,"terrain":false,"radius_km":200,"name":"asym cold","track":"T116"},"geometry":{"type":"Point","coordinates":[-117.0,78.75]}},{"type":"Feature","properties":{"kind":"center","id":34,"lat":47.0,"lon":-2.25,"mslp":1008.5,"hvtl":124.1,"hvtu":-160.3,"hb":28.7,"idx":0.8,"cls":3,"psfc":1008.5,"terrain":false,"radius_km":200,"name":"asym shallow warm","track":"T121"},"geometry":{"type":"Point","coordinates":[-2.25,47.0]}},{"type":"Feature","properties":{"kind":"center","id":35,"lat":39.0,"lon":-122.0,"mslp":1009.3,"hvtl":34.6,"hvtu":-170.0,"hb":0.3,"idx":-0.3,"cls":1,"psfc":1004.3,"terrain":false,"radius_km":200,"name":"sym shallow warm"},"geometry":{"type":"Point","coordinates":[-122.0,39.0]}},{"type":"Feature","properties":{"kind":"center","id":36,"lat":31.0,"lon":71.0,"mslp":1009.9,"hvtl":-3.6,"hvtu":-82.7,"hb":18.8,"idx":-0.8,"cls":4,"psfc":993.0,"terrain":false,"radius_km":200,"name":"asym cold","track":"T105"},"geometry":{"type":"Point","coordinates":[71.0,31.0]}},{"type":"Feature","properties":{"kind":"center","id":37,"lat":-35.0,"lon":-178.25,"mslp":1013.2,"hvtl":40.7,"hvtu":-144.1,"hb":11.9,"idx":-0.1,"cls":3,"psfc":1013.2,"terrain":false,"radius_km":200,"name":"asym shallow warm","track":"T130"},"geometry":{"type":"Point","coordinates":[-178.25,-35.0]}},{"type":"Feature","properties":{"kind":"center","id":38,"lat":-44.75,"lon":169.0,"mslp":1013.6,"hvtl":-7.1,"hvtu":-133.0,"hb":71.5,"idx":-1.0,"cls":4,"psfc":903.4,"terrain":true,"radius_km":200,"name":"asym cold"},"geometry":{"type":"Point","coordinates":[169.0,-44.75]}},{"type":"Feature","properties":{"kind":"center","id":39,"lat":52.5,"lon":90.5,"mslp":1013.6,"hvtl":-384.1,"hvtu":-225.1,"hb":55.5,"idx":-3.0,"cls":4,"psfc":917.2,"terrain":true,"radius_km":200,"name":"asym cold"},"geometry":{"type":"Point","coordinates":[90.5,52.5]}},{"type":"Feature","properties":{"kind":"center","id":40,"lat":30.0,"lon":68.75,"mslp":1013.7,"hvtl":-36.1,"hvtu":-27.9,"hb":10.8,"idx":-1.0,"cls":4,"psfc":903.7,"terrain":true,"radius_km":200,"name":"asym cold"},"geometry":{"type":"Point","coordinates":[68.75,30.0]}},{"type":"Feature","properties":{"kind":"center","id":41,"lat":-45.0,"lon":168.5,"mslp":1014.0,"hvtl":18.0,"hvtu":-134.5,"hb":74.2,"idx":-0.5,"cls":3,"psfc":908.8,"terrain":true,"radius_km":200,"name":"asym shallow warm"},"geometry":{"type":"Point","coordinates":[168.5,-45.0]}},{"type":"Feature","properties":{"kind":"center","id":42,"lat":-28.5,"lon":150.0,"mslp":1015.2,"hvtl":114.6,"hvtu":-100.6,"hb":38.2,"idx":0.9,"cls":3,"psfc":991.9,"terrain":false,"radius_km":200,"name":"asym shallow warm"},"geometry":{"type":"Point","coordinates":[150.0,-28.5]}},{"type":"Feature","properties":{"kind":"center","id":43,"lat":-42.0,"lon":43.25,"mslp":1016.6,"hvtl":-196.2,"hvtu":-183.8,"hb":52.9,"idx":-2.9,"cls":4,"psfc":1016.6,"terrain":false,"radius_km":200,"name":"asym cold"},"geometry":{"type":"Point","coordinates":[43.25,-42.0]}},{"type":"Feature","properties":{"kind":"center","id":44,"lat":52.25,"lon":88.75,"mslp":1022.0,"hvtl":-269.9,"hvtu":-246.3,"hb":53.9,"idx":-3.0,"cls":4,"psfc":901.6,"terrain":true,"radius_km":200,"name":"asym cold"},"geometry":{"type":"Point","coordinates":[88.75,52.25]}}]}