{"type":"FeatureCollection","features":[{"type":"Feature","properties":{"kind":"blob","cls":0,"id":1},"geometry":{"type":"Polygon","coordinates":[[[5.25,-65.38],[8.5,-65.38],[10.25,-64.62],[11.12,-63.5],[10.25,-62.38],[9.5,-62.62],[6.25,-61.62],[4.25,-61.88],[4.12,-61.0],[3.38,-60.5],[3.25,-59.88],[1.0,-59.12],[-1.75,-59.38],[-3.62,-60.75],[-3.62,-61.75],[-3.0,-62.38],[-0.75,-63.12],[2.0,-62.88],[2.12,-64.0],[3.0,-64.88],[5.25,-65.38]]]}},{"type":"Feature","properties":{"kind":"blob","cls":3,"id":2},"geometry":{"type":"Polygon","coordinates":[[[140.75,-62.38],[142.38,-61.25],[142.38,-60.0],[141.75,-59.12],[139.0,-57.62],[136.5,-57.38],[134.75,-57.88],[133.38,-59.25],[133.38,-61.0],[135.25,-62.38],[140.75,-62.38]]]}},{"type":"Feature","properties":{"kind":"blob","cls":0,"id":3},"geometry":{"type":"Polygon","coordinates":[[[146.25,24.38],[147.12,25.25],[147.38,26.25],[146.25,27.88],[145.5,28.12],[144.25,27.88],[143.12,26.25],[143.38,25.25],[144.25,24.38],[146.25,24.38]],[[144.25,25.12],[143.62,25.5],[144.0,26.12],[144.62,25.75],[144.25,25.12]]]}},{"type":"Feature","properties":{"kind":"blob","cls":3,"id":4},"geometry":{"type":"Polygon","coordinates":[[[90.25,-56.38],[92.25,-55.62],[93.12,-54.5],[92.88,-53.25],[90.5,-52.12],[88.75,-52.12],[86.75,-52.88],[86.12,-53.75],[86.38,-55.0],[88.25,-56.12],[90.25,-56.38]]]}},{"type":"Feature","properties":{"kind":"blob","cls":3,"id":5},"geometry":{"type":"Polygon","coordinates":[[[-140.0,-75.62],[-136.25,-74.88],[-134.0,-74.88],[-130.75,-73.88],[-130.12,-72.75],[-131.0,-71.88],[-133.25,-71.12],[-138.5,-70.88],[-142.75,-71.38],[-146.75,-72.38],[-148.62,-73.5],[-148.62,-74.0],[-147.5,-74.88],[-145.75,-75.38],[-140.0,-75.62]]]}},{"type":"Feature","properties":{"kind":"blob","cls":3,"id":6},"geometry":{"type":"Polygon","coordinates":[[[-131.0,-60.12],[-129.38,-59.0],[-129.38,-58.0],[-130.5,-56.88],[-133.5,-55.88],[-136.5,-56.12],[-138.38,-57.5],[-138.38,-58.5],[-137.75,-59.12],[-135.25,-60.12],[-131.0,-60.12]]]}},{"type":"Feature","properties":{"kind":"blob","cls":4,"id":7},"geometry":{"type":"Polygon","coordinates":[[[-166.25,-71.12],[-160.25,-71.12],[-156.5,-69.62],[-155.12,-68.0],[-155.75,-67.12],[-158.0,-66.12],[-164.75,-66.12],[-166.5,-66.88],[-167.5,-67.88],[-169.25,-68.38],[-170.12,-69.25],[-170.12,-69.75],[-169.25,-70.62],[-166.25,-71.12]]]}},{"type":"Feature","properties":{"kind":"blob","cls":3,"id":8},"geometry":{"type":"Polygon","coordinates":[[[-128.5,-65.62],[-126.5,-65.12],[-125.12,-64.0],[-125.12,-62.75],[-126.25,-61.88],[-128.25,-61.38],[-131.5,-61.62],[-133.25,-62.38],[-133.88,-63.0],[-134.12,-64.0],[-132.75,-65.12],[-128.5,-65.62]]]}},{"type":"Feature","properties":{"kind":"blob","cls":6,"id":9},"geometry":{"type":"Polygon","coordinates":[[[170.5,-79.12],[173.5,-78.38],[174.38,-77.5],[173.5,-76.62],[170.75,-75.62],[164.75,-75.12],[162.62,-77.0],[164.0,-78.38],[164.88,-78.5],[161.88,-78.75],[162.25,-79.12],[170.5,-79.12]],[[166.62,-77.5],[169.12,-77.5],[169.0,-77.62],[166.62,-77.5]]]}},{"type":"Feature","properties":{"kind":"blob","cls":4,"id":10},"geometry":{"type":"Polygon","coordinates":[[[95.5,-66.38],[96.5,-66.62],[103.75,-66.12],[107.0,-66.62],[111.25,-66.62],[111.25,-66.12],[113.5,-66.12],[113.62,-65.75],[113.25,-65.12],[111.5,-64.38],[108.0,-64.12],[105.5,-64.88],[103.5,-63.62],[99.75,-63.38],[97.0,-64.12],[95.62,-65.25],[95.5,-66.38]]]}},{"type":"Feature","properties":{"kind":"blob","cls":4,"id":11},"geometry":{"type":"Polygon","coordinates":[[[-104.75,-66.88],[-102.0,-66.12],[-100.62,-65.0],[-100.0,-63.12],[-98.0,-63.12],[-95.75,-62.38],[-94.88,-61.5],[-94.88,-60.5],[-97.0,-59.12],[-100.25,-58.88],[-103.0,-59.88],[-103.75,-60.88],[-106.5,-61.12],[-108.75,-62.12],[-110.38,-63.75],[-110.38,-65.25],[-109.0,-66.38],[-104.75,-66.88]]]}},{"type":"Feature","properties":{"kind":"blob","cls":0,"id":12},"geometry":{"type":"Polygon","coordinates":[[[177.25,23.88],[178.12,24.75],[178.12,26.25],[176.5,27.38],[175.25,27.12],[174.38,26.25],[174.38,24.75],[175.25,23.88],[177.25,23.88]]]}},{"type":"Feature","properties":{"kind":"blob","cls":3,"id":13},"geometry":{"type":"Polygon","coordinates":[[[12.75,68.88],[15.5,69.38],[17.5,70.12],[18.62,71.25],[18.62,72.25],[16.75,73.38],[12.5,73.88],[11.25,73.12],[9.25,73.12],[8.75,73.62],[7.5,73.38],[6.0,72.88],[4.38,71.5],[4.62,70.5],[5.75,69.62],[12.75,68.88]]]}},{"type":"Feature","properties":{"kind":"blob","cls":4,"id":14},"geometry":{"type":"Polygon","coordinates":[[[-19.0,-74.88],[-14.38,-73.75],[-15.5,-73.38],[-11.75,-73.38],[-10.12,-72.25],[-10.5,-71.88],[-13.5,-71.38],[-18.5,-71.62],[-21.0,-72.38],[-22.12,-73.25],[-21.75,-74.12],[-19.0,-74.88]]]}},{"type":"Feature","properties":{"kind":"blob","cls":0,"id":15},"geometry":{"type":"Polygon","coordinates":[[[-115.0,18.88],[-114.0,18.88],[-113.38,19.5],[-113.12,21.0],[-114.0,22.12],[-115.25,22.38],[-116.62,21.5],[-116.88,20.0],[-116.5,19.62],[-116.0,20.12],[-115.25,20.12],[-114.62,19.5],[-115.0,18.88]]]}},{"type":"Feature","properties":{"kind":"blob","cls":4,"id":16},"geometry":{"type":"Polygon","coordinates":[[[-2.0,62.62],[0.75,63.38],[1.88,64.25],[1.88,65.75],[4.25,66.62],[4.88,67.25],[4.88,68.25],[3.0,69.38],[0.75,69.88],[-3.0,69.62],[-5.25,68.62],[-5.62,68.25],[-5.38,66.75],[-7.0,66.12],[-7.88,65.0],[-7.0,63.62],[-5.5,62.88],[-2.0,62.62]]]}},{"type":"Feature","properties":{"kind":"blob","cls":3,"id":17},"geometry":{"type":"Polygon","coordinates":[[[49.5,79.38],[57.25,80.12],[61.0,81.12],[61.62,82.25],[59.25,83.12],[43.0,82.88],[34.25,81.88],[26.62,80.5],[27.75,80.12],[35.5,79.62],[49.5,79.38]]]}},{"type":"Feature","properties":{"kind":"blob","cls":1,"id":18},"geometry":{"type":"Polygon","coordinates":[[[20.12,82.25],[20.25,81.88],[21.75,81.88],[25.25,82.38],[32.75,82.62],[37.25,83.12],[40.62,84.0],[26.25,83.88],[21.5,83.12],[20.12,82.25]]]}},{"type":"Feature","properties":{"kind":"blob","cls":5,"id":19},"geometry":{"type":"Polygon","coordinates":[[[-159.0,53.62],[-157.25,54.12],[-156.12,55.25],[-156.12,56.25],[-157.0,57.12],[-158.75,57.62],[-161.75,57.38],[-163.38,56.0],[-163.38,55.0],[-162.5,54.12],[-159.0,53.62]],[[-159.25,56.12],[-159.38,56.25],[-159.25,56.38],[-159.25,56.12]]]}},{"type":"Feature","properties":{"kind":"blob","cls":4,"id":20},"geometry":{"type":"Polygon","coordinates":[[[-106.25,-52.88],[-104.75,-52.38],[-104.12,-51.75],[-104.12,-50.0],[-105.25,-48.62],[-108.0,-48.12],[-109.5,-48.62],[-110.12,-49.25],[-110.38,-50.75],[-109.88,-51.75],[-108.75,-52.62],[-106.25,-52.88]]]}},{"type":"Feature","properties":{"kind":"blob","cls":4,"id":21},"geometry":{"type":"Polygon","coordinates":[[[-40.75,-45.12],[-39.5,-44.62],[-37.62,-42.75],[-37.38,-41.0],[-39.25,-39.62],[-41.25,-39.62],[-43.25,-40.62],[-44.62,-42.25],[-44.62,-43.75],[-44.0,-44.62],[-40.75,-45.12]]]}},{"type":"Feature","properties":{"kind":"blob","cls":3,"id":22},"geometry":{"type":"Polygon","coordinates":[[[-117.75,65.12],[-116.5,65.62],[-115.62,66.5],[-115.62,67.0],[-117.25,68.38],[-120.5,69.12],[-125.75,68.88],[-127.0,68.38],[-127.88,67.5],[-127.88,67.0],[-126.5,65.88],[-124.25,65.12],[-117.75,65.12]]]}},{"type":"Feature","properties":{"kind":"blob","cls":4,"id":23},"geometry":{"type":"Polygon","coordinates":[[[63.25,53.12],[66.75,53.12],[68.88,54.5],[68.88,55.75],[68.25,56.38],[66.75,56.38],[66.75,57.12],[65.75,57.38],[63.75,57.38],[62.0,56.88],[60.88,55.75],[60.88,54.5],[61.5,53.62],[63.25,53.12]]]}},{"type":"Feature","properties":{"kind":"blob","cls":1,"id":24},"geometry":{"type":"Polygon","coordinates":[[[-77.0,49.38],[-75.5,49.88],[-74.62,50.75],[-74.62,52.0],[-75.5,52.88],[-77.0,53.38],[-79.75,52.88],[-80.62,52.0],[-80.62,50.75],[-79.75,49.88],[-77.0,49.38]]]}},{"type":"Feature","properties":{"kind":"blob","cls":4,"id":25},"geometry":{"type":"Polygon","coordinates":[[[-48.0,-80.38],[-46.5,-80.12],[-46.25,-79.38],[-44.0,-79.38],[-42.62,-78.25],[-43.5,-77.12],[-45.5,-76.38],[-49.75,-75.88],[-54.5,-75.88],[-59.75,-76.62],[-60.5,-77.12],[-63.25,-77.62],[-64.62,-78.5],[-64.25,-79.38],[-63.0,-79.88],[-60.5,-80.38],[-48.0,-80.38]]]}},{"type":"Feature","properties":{"kind":"blob","cls":3,"id":26},"geometry":{"type":"Polygon","coordinates":[[[83.5,59.38],[85.12,60.5],[85.12,61.75],[83.5,62.88],[77.5,62.88],[75.0,63.88],[72.0,63.88],[69.75,63.38],[67.88,62.0],[67.88,61.5],[69.0,60.38],[70.0,59.88],[74.75,59.62],[76.75,60.12],[78.0,59.38],[83.5,59.38]]]}},{"type":"Feature","properties":{"kind":"blob","cls":1,"id":27},"geometry":{"type":"Polygon","coordinates":[[[-87.5,-39.38],[-86.38,-38.0],[-86.62,-36.75],[-88.25,-35.62],[-89.75,-35.62],[-90.75,-36.12],[-91.38,-36.75],[-91.62,-38.0],[-90.5,-39.38],[-87.5,-39.38]]]}},{"type":"Feature","properties":{"kind":"blob","cls":4,"id":28},"geometry":{"type":"Polygon","coordinates":[[[-33.0,62.38],[-31.12,63.5],[-30.38,65.25],[-31.25,66.38],[-34.0,67.12],[-40.88,64.25],[-40.5,63.62],[-38.25,62.38],[-33.0,62.38]]]}},{"type":"Feature","properties":{"kind":"blob","cls":5,"id":29},"geometry":{"type":"Polygon","coordinates":[[[-53.75,68.88],[-51.38,70.0],[-52.75,71.88],[-55.75,72.62],[-61.0,72.38],[-62.75,71.88],[-63.62,71.0],[-63.62,70.5],[-62.75,69.62],[-61.75,69.12],[-53.75,68.88]],[[-53.25,69.62],[-53.88,70.0],[-52.62,69.75],[-53.25,69.62]],[[-53.12,70.5],[-52.12,70.5],[-52.25,70.38],[-53.12,70.5]]]}},{"type":"Feature","properties":{"kind":"blob","cls":6,"id":30},"geometry":{"type":"Polygon","coordinates":[[[-57.75,-55.12],[-56.25,-54.62],[-56.0,-53.88],[-59.25,-53.38],[-60.12,-52.5],[-59.75,-51.88],[-58.25,-51.38],[-56.12,-51.5],[-57.5,-50.62],[-60.0,-50.12],[-62.5,-50.62],[-63.38,-51.5],[-63.38,-52.5],[-61.5,-54.62],[-57.75,-55.12]]]}},{"type":"Feature","properties":{"kind":"blob","cls":4,"id":31},"geometry":{"type":"Polygon","coordinates":[[[-45.62,-79.75],[-45.5,-79.88],[-45.38,-79.75],[-45.62,-79.75]]]}},{"type":"Feature","properties":{"kind":"blob","cls":4,"id":32},"geometry":{"type":"Polygon","coordinates":[[[-28.5,67.12],[-25.88,67.75],[-30.25,68.62],[-32.38,67.75],[-32.25,67.38],[-28.5,67.12]]]}},{"type":"Feature","properties":{"kind":"blob","cls":4,"id":33},"geometry":{"type":"Polygon","coordinates":[[[137.0,41.38],[138.25,41.88],[138.88,42.75],[138.62,44.25],[136.75,45.38],[134.5,44.88],[133.62,43.75],[133.62,42.75],[134.25,41.88],[137.0,41.38]]]}},{"type":"Feature","properties":{"kind":"blob","cls":4,"id":34},"geometry":{"type":"Polygon","coordinates":[[[127.0,59.12],[129.75,59.88],[131.25,60.62],[132.12,61.5],[132.12,62.0],[131.25,62.88],[129.0,63.62],[126.25,63.62],[124.25,63.12],[121.62,61.5],[121.62,60.5],[123.25,59.38],[127.0,59.12]]]}},{"type":"Feature","properties":{"kind":"blob","cls":1,"id":35},"geometry":{"type":"MultiPolygon","coordinates":[[[[67.0,25.62],[68.75,25.62],[69.88,26.75],[70.38,28.5],[69.5,29.62],[68.0,30.12],[67.38,29.75],[67.12,27.5],[66.75,26.88],[65.88,26.5],[67.0,25.62]]],[[[71.5,29.12],[74.25,30.12],[74.88,31.0],[74.88,32.0],[74.5,32.38],[72.5,32.38],[70.5,31.88],[70.12,31.5],[69.88,29.75],[71.5,29.12]]]]}},{"type":"Feature","properties":{"kind":"blob","cls":4,"id":36},"geometry":{"type":"Polygon","coordinates":[[[-57.38,74.25],[-58.75,74.88],[-60.25,76.38],[-66.75,76.62],[-64.62,77.5],[-65.75,77.88],[-66.5,77.88],[-67.12,77.25],[-66.75,76.12],[-64.5,75.12],[-61.25,74.38],[-57.38,74.25]]]}},{"type":"Feature","properties":{"kind":"blob","cls":6,"id":37},"geometry":{"type":"Polygon","coordinates":[[[168.25,10.62],[169.75,10.62],[170.62,11.75],[170.38,13.5],[169.0,14.38],[167.75,14.12],[166.88,13.0],[167.12,11.25],[168.25,10.62]]]}},{"type":"Feature","properties":{"kind":"blob","cls":3,"id":38},"geometry":{"type":"Polygon","coordinates":[[[51.25,27.62],[52.62,28.5],[51.12,30.0],[51.25,30.38],[50.75,30.38],[50.0,31.12],[49.12,30.25],[48.88,29.25],[50.0,27.88],[51.25,27.62]]]}},{"type":"Feature","properties":{"kind":"blob","cls":3,"id":39},"geometry":{"type":"Polygon","coordinates":[[[-84.75,28.88],[-83.62,30.0],[-83.62,31.0],[-85.5,32.38],[-86.75,32.12],[-87.88,31.0],[-87.88,30.0],[-86.75,28.88],[-84.75,28.88]]]}},{"type":"Feature","properties":{"kind":"blob","cls":5,"id":40},"geometry":{"type":"Polygon","coordinates":[[[-66.0,-16.38],[-65.12,-15.25],[-65.38,-13.0],[-66.0,-12.38],[-67.75,-11.88],[-69.0,-12.12],[-69.88,-13.5],[-68.5,-13.88],[-67.88,-15.25],[-66.0,-16.38]]]}},{"type":"Feature","properties":{"kind":"blob","cls":3,"id":41},"geometry":{"type":"Polygon","coordinates":[[[97.5,22.38],[98.12,22.75],[97.5,23.38],[97.0,22.62],[96.62,22.75],[97.38,23.75],[95.5,25.62],[94.25,24.62],[93.62,24.75],[95.75,22.62],[97.5,22.38]]]}},{"type":"Feature","properties":{"kind":"blob","cls":4,"id":42},"geometry":{"type":"Polygon","coordinates":[[[-63.75,41.62],[-62.5,42.12],[-61.88,42.75],[-61.88,44.25],[-63.75,45.38],[-66.0,44.88],[-66.62,44.25],[-66.62,42.75],[-66.0,42.12],[-63.75,41.62]]]}},{"type":"Feature","properties":{"kind":"blob","cls":4,"id":43},"geometry":{"type":"Polygon","coordinates":[[[93.75,25.62],[94.38,26.25],[93.75,26.38],[93.75,25.62]]]}},{"type":"Feature","properties":{"kind":"blob","cls":3,"id":44},"geometry":{"type":"MultiPolygon","coordinates":[[[[45.38,-18.0],[46.25,-18.38],[47.25,-17.88],[47.5,-18.38],[47.75,-17.62],[48.25,-18.12],[48.88,-17.5],[50.12,-15.5],[50.12,-14.25],[49.25,-13.12],[48.62,-13.25],[49.38,-14.0],[49.25,-14.88],[48.5,-14.62],[47.0,-15.62],[44.88,-16.0],[44.88,-17.25],[45.38,-18.0]],[[48.12,-16.75],[48.0,-16.88],[47.88,-16.75],[48.12,-16.75]]],[[[48.75,-13.88],[48.62,-14.0],[48.75,-14.12],[48.75,-13.88]]]]}},{"type":"Feature","properties":{"kind":"blob","cls":1,"id":45},"geometry":{"type":"Polygon","coordinates":[[[98.38,23.0],[98.5,22.88],[98.62,23.0],[98.38,23.0]]]}},{"type":"Feature","properties":{"kind":"blob","cls":3,"id":46},"geometry":{"type":"Polygon","coordinates":[[[179.88,-31.5],[180.0,-29.12],[179.38,-30.0],[179.38,-31.0],[179.88,-31.5]]]}},{"type":"Feature","properties":{"kind":"blob","cls":3,"id":46},"geometry":{"type":"Polygon","coordinates":[[[-179.88,-29.0],[-180.0,-31.62],[-179.5,-32.12],[-177.25,-32.12],[-175.88,-30.5],[-176.12,-29.5],[-177.0,-28.62],[-178.75,-28.38],[-179.88,-29.0]]]}},{"type":"Feature","properties":{"kind":"center","id":1,"lat":-63.5,"lon":6.5,"mslp":936.1,"hvtl":231.9,"hvtu":7.1,"hb":-0.0,"idx":2.0,"cls":0,"psfc":936.1,"terrain":false,"radius_km":200,"name":"sym deep warm","track":"T03"},"geometry":{"type":"Point","coordinates":[6.5,-63.5]}},{"type":"Feature","properties":{"kind":"center","id":2,"lat":-60.25,"lon":137.75,"mslp":943.3,"hvtl":21.2,"hvtu":-212.8,"hb":51.2,"idx":-0.6,"cls":3,"psfc":943.3,"terrain":false,"radius_km":200,"name":"asym shallow warm","track":"T06"},"geometry":{"type":"Point","coordinates":[137.75,-60.25]}},{"type":"Feature","properties":{"kind":"center","id":3,"lat":26.25,"lon":145.25,"mslp":943.9,"hvtl":155.9,"hvtu":232.5,"hb":-5.8,"idx":2.8,"cls":0,"psfc":943.9,"terrain":false,"radius_km":200,"name":"sym deep warm","track":"T07"},"geometry":{"type":"Point","coordinates":[145.25,26.25]}},{"type":"Feature","properties":{"kind":"center","id":4,"lat":-54.0,"lon":89.75,"mslp":949.5,"hvtl":123.3,"hvtu":-216.7,"hb":21.7,"idx":0.7,"cls":3,"psfc":949.5,"terrain":false,"radius_km":200,"name":"asym shallow warm","track":"T12"},"geometry":{"type":"Point","coordinates":[89.75,-54.0]}},{"type":"Feature","properties":{"kind":"center","id":5,"lat":-73.25,"lon":-138.75,"mslp":950.6,"hvtl":100.4,"hvtu":-5.7,"hb":40.7,"idx":1.5,"cls":3,"psfc":950.6,"terrain":false,"radius_km":200,"name":"asym shallow warm","track":"T05"},"geometry":{"type":"Point","coordinates":[-138.75,-73.25]}},{"type":"Feature","properties":{"kind":"center","id":6,"lat":-58.0,"lon":-134.0,"mslp":956.3,"hvtl":198.7,"hvtu":-25.6,"hb":12.7,"idx":1.7,"cls":3,"psfc":956.3,"terrain":false,"radius_km":200,"name":"asym shallow warm","track":"T18"},"geometry":{"type":"Point","coordinates":[-134.0,-58.0]}},{"type":"Feature","properties":{"kind":"center","id":7,"lat":-68.0,"lon":-161.25,"mslp":962.5,"hvtl":-274.0,"hvtu":-224.9,"hb":83.8,"idx":-3.0,"cls":4,"psfc":962.5,"terrain":false,"radius_km":200,"name":"asym cold","track":"T28"},"geometry":{"type":"Point","coordinates":[-161.25,-68.0]}},{"type":"Feature","properties":{"kind":"center","id":8,"lat":-63.5,"lon":-129.5,"mslp":963.9,"hvtl":68.5,"hvtu":-26.5,"hb":35.1,"idx":0.9,"cls":3,"psfc":963.9,"terrain":false,"radius_km":200,"name":"asym shallow warm","track":"T10"},"geometry":{"type":"Point","coordinates":[-129.5,-63.5]}},{"type":"Feature","properties":{"kind":"center","id":9,"lat":-77.5,"lon":166.0,"mslp":971.5,"hvtl":-231.6,"hvtu":36.7,"hb":58.5,"idx":-1.6,"cls":6,"psfc":967.6,"terrain":false,"radius_km":200,"name":"shallow cold","track":"T13"},"geometry":{"type":"Point","coordinates":[166.0,-77.5]}},{"type":"Feature","properties":{"kind":"center","id":10,"lat":-66.0,"lon":109.0,"mslp":972.2,"hvtl":-40.1,"hvtu":-143.4,"hb":10.2,"idx":-1.7,"cls":4,"psfc":972.2,"terrain":false,"radius_km":200,"name":"asym cold","track":"T01"},"geometry":{"type":"Point","coordinates":[109.0,-66.0]}},{"type":"Feature","properties":{"kind":"center","id":11,"lat":-64.0,"lon":-105.75,"mslp":973.6,"hvtl":-170.9,"hvtu":-196.2,"hb":72.2,"idx":-2.8,"cls":4,"psfc":973.6,"terrain":false,"radius_km":200,"name":"asym cold","track":"T34"},"geometry":{"type":"Point","coordinates":[-105.75,-64.0]}},{"type":"Feature","properties":{"kind":"center","id":12,"lat":25.5,"lon":176.25,"mslp":974.4,"hvtl":99.8,"hvtu":276.7,"hb":-1.2,"idx":2.5,"cls":0,"psfc":974.4,"terrain":false,"radius_km":200,"name":"sym deep warm","track":"T40"},"geometry":{"type":"Point","coordinates":[176.25,25.5]}},{"type":"Feature","properties":{"kind":"center","id":13,"lat":71.25,"lon":11.25,"mslp":976.4,"hvtl":12.6,"hvtu":-96.0,"hb":16.4,"idx":-0.5,"cls":3,"psfc":976.3,"terrain":false,"radius_km":200,"name":"asym shallow warm","track":"T41"},"geometry":{"type":"Point","coordinates":[11.25,71.25]}},{"type":"Feature","properties":{"kind":"center","id":14,"lat":-73.25,"lon":-12.25,"mslp":977.2,"hvtl":-157.9,"hvtu":-141.6,"hb":24.1,"idx":-2.7,"cls":4,"psfc":912.7,"terrain":false,"radius_km":200,"name":"asym cold","track":"T23"},"geometry":{"type":"Point","coordinates":[-12.25,-73.25]}},{"type":"Feature","properties":{"kind":"center","id":15,"lat":20.5,"lon":-115.0,"mslp":978.1,"hvtl":85.1,"hvtu":165.8,"hb":2.6,"idx":2.3,"cls":0,"psfc":978.1,"terrain":false,"radius_km":200,"name":"sym deep warm","track":"T48"},"geometry":{"type":"Point","coordinates":[-115.0,20.5]}},{"type":"Feature","properties":{"kind":"center","id":16,"lat":64.75,"lon":-2.75,"mslp":978.7,"hvtl":-133.8,"hvtu":-279.1,"hb":21.0,"idx":-2.7,"cls":4,"psfc":978.7,"terrain":false,"radius_km":200,"name":"asym cold","track":"T55"},"geometry":{"type":"Point","coordinates":[-2.75,64.75]}},{"type":"Feature","properties":{"kind":"center","id":17,"lat":81.75,"lon":42.0,"mslp":981.5,"hvtl":89.6,"hvtu":-179.0,"hb":18.5,"idx":0.5,"cls":3,"psfc":981.5,"terrain":false,"radius_km":200,"name":"asym shallow warm","track":"T61"},"geometry":{"type":"Point","coordinates":[42.0,81.75]}},{"type":"Feature","properties":{"kind":"center","id":18,"lat":82.75,"lon":32.75,"mslp":983.0,"hvtl":222.4,"hvtu":-139.7,"hb":-11.0,"idx":1.1,"cls":1,"psfc":983.0,"terrain":false,"radius_km":200,"name":"sym shallow warm"},"geometry":{"type":"Point","coordinates":[32.75,82.75]}},{"type":"Feature","properties":{"kind":"center","id":19,"lat":55.5,"lon":-159.75,"mslp":985.3,"hvtl":-16.2,"hvtu":-168.4,"hb":9.5,"idx":-1.3,"cls":5,"psfc":984.8,"terrain":false,"radius_km":200,"name":"sym cold","track":"T35"},"geometry":{"type":"Point","coordinates":[-159.75,55.5]}},{"type":"Feature","properties":{"kind":"center","id":20,"lat":-50.5,"lon":-107.25,"mslp":987.9,"hvtl":-140.0,"hvtu":-213.8,"hb":34.6,"idx":-2.7,"cls":4,"psfc":987.9,"terrain":false,"radius_km":200,"name":"asym cold","track":"T65"},"geometry":{"type":"Point","coordinates":[-107.25,-50.5]}},{"type":"Feature","properties":{"kind":"center","id":21,"lat":-41.75,"lon":-40.25,"mslp":994.7,"hvtl":-92.4,"hvtu":-315.7,"hb":54.5,"idx":-2.5,"cls":4,"psfc":994.7,"terrain":false,"radius_km":200,"name":"asym cold","track":"T16"},"geometry":{"type":"Point","coordinates":[-40.25,-41.75]}},{"type":"Feature","properties":{"kind":"center","id":22,"lat":67.0,"lon":-121.5,"mslp":994.9,"hvtl":67.1,"hvtu":-123.0,"hb":37.3,"idx":0.3,"cls":3,"psfc":966.0,"terrain":false,"radius_km":200,"name":"asym shallow warm","track":"T85"},"geometry":{"type":"Point","coordinates":[-121.5,67.0]}},{"type":"Feature","properties":{"kind":"center","id":23,"lat":55.0,"lon":64.75,"mslp":996.6,"hvtl":-89.4,"hvtu":-73.2,"hb":14.8,"idx":-2.1,"cls":4,"psfc":982.4,"terrain":false,"radius_km":200,"name":"asym cold","track":"T77"},"geometry":{"type":"Point","coordinates":[64.75,55.0]}},{"type":"Feature","properties":{"kind":"center","id":24,"lat":51.5,"lon":-77.75,"mslp":996.6,"hvtl":123.5,"hvtu":-11.0,"hb":-22.7,"idx":1.6,"cls":1,"psfc":977.7,"terrain":false,"radius_km":200,"name":"sym shallow warm","track":"T57"},"geometry":{"type":"Point","coordinates":[-77.75,51.5]}},{"type":"Feature","properties":{"kind":"center","id":25,"lat":-78.5,"lon":-53.5,"mslp":997.6,"hvtl":-206.5,"hvtu":-157.3,"hb":60.8,"idx":-2.9,"cls":4,"psfc":989.5,"terrain":false,"radius_km":200,"name":"asym cold"},"geometry":{"type":"Point","coordinates":[-53.5,-78.5]}},{"type":"Feature","properties":{"kind":"center","id":26,"lat":61.0,"lon":80.75,"mslp":998.4,"hvtl":15.0,"hvtu":-292.4,"hb":38.1,"idx":-0.7,"cls":3,"psfc":987.0,"terrain":false,"radius_km":200,"name":"asym shallow warm","track":"T91"},"geometry":{"type":"Point","coordinates":[80.75,61.0]}},{"type":"Feature","properties":{"kind":"center","id":27,"lat":-37.5,"lon":-89.0,"mslp":998.5,"hvtl":46.4,"hvtu":-118.7,"hb":-7.9,"idx":0.0,"cls":1,"psfc":998.5,"terrain":false,"radius_km":200,"name":"sym shallow warm","track":"T92"},"geometry":{"type":"Point","coordinates":[-89.0,-37.5]}},{"type":"Feature","properties":{"kind":"center","id":28,"lat":65.0,"lon":-36.25,"mslp":1000.2,"hvtl":-114.9,"hvtu":-75.0,"hb":19.9,"idx":-2.3,"cls":4,"psfc":1000.1,"terrain":false,"radius_km":200,"name":"asym cold","track":"T78"},"geometry":{"type":"Point","coordinates":[-36.25,65.0]}},{"type":"Feature","properties":{"kind":"center","id":29,"lat":70.75,"lon":-58.0,"mslp":1000.3,"hvtl":-34.2,"hvtu":-95.4,"hb":2.7,"idx":-1.4,"cls":5,"psfc":1000.3,"terrain":false,"radius_km":200,"name":"sym cold","track":"T69"},"geometry":{"type":"Point","coordinates":[-58.0,70.75]}},{"type":"Feature","properties":{"kind":"center","id":30,"lat":-51.75,"lon":-59.5,"mslp":1000.4,"hvtl":-5.5,"hvtu":14.2,"hb":-8.6,"idx":0.0,"cls":6,"psfc":997.5,"terrain":false,"radius_km":200,"name":"shallow cold","track":"T86"},"geometry":{"type":"Point","coordinates":[-59.5,-51.75]}},{"type":"Feature","properties":{"kind":"center","id":31,"lat":-79.75,"lon":-45.5,"mslp":1001.0,"hvtl":-144.1,"hvtu":-151.7,"hb":36.1,"idx":-2.7,"cls":4,"psfc":901.4,"terrain":true,"radius_km":200,"name":"asym cold"},"geometry":{"type":"Point","coordinates":[-45.5,-79.75]}},{"type":"Feature","properties":{"kind":"center","id":32,"lat":67.75,"lon":-30.0,"mslp":1001.3,"hvtl":-63.3,"hvtu":-8.9,"hb":30.1,"idx":-1.2,"cls":4,"psfc":1001.3,"terrain":false,"radius_km":200,"name":"asym cold","track":"T102"},"geometry":{"type":"Point","coordinates":[-30.0,67.75]}},{"type":"Feature","properties":{"kind":"center","id":33,"lat":43.25,"lon":136.25,"mslp":1001.6,"hvtl":-129.2,"hvtu":-411.0,"hb":61.0,"idx":-2.7,"cls":4,"psfc":1001.6,"terrain":false,"radius_km":200,"name":"asym cold","track":"T26"},"geometry":{"type":"Point","coordinates":[136.25,43.25]}},{"type":"Feature","properties":{"kind":"center","id":34,"lat":61.5,"lon":126.75,"mslp":1002.2,"hvtl":-304.9,"hvtu":-136.4,"hb":56.9,"idx":-2.9,"cls":4,"psfc":968.7,"terrain":false,"radius_km":200,"name":"asym cold","track":"T82"},"geometry":{"type":"Point","coordinates":[126.75,61.5]}},{"type":"Feature","properties":{"kind":"center","id":35,"lat":30.25,"lon":70.75,"mslp":1002.6,"hvtl":42.6,"hvtu":-91.0,"hb":3.6,"idx":0.1,"cls":1,"psfc":988.4,"terrain":false,"radius_km":200,"name":"sym shallow warm","track":"T105"},"geometry":{"type":"Point","coordinates":[70.75,30.25]}},{"type":"Feature","properties":{"kind":"center","id":36,"lat":74.25,"lon":-57.5,"mslp":1003.9,"hvtl":-143.8,"hvtu":-62.9,"hb":49.8,"idx":-2.3,"cls":4,"psfc":1003.7,"terrain":false,"radius_km":200,"name":"asym cold","track":"T75"},"geometry":{"type":"Point","coordinates":[-57.5,74.25]}},{"type":"Feature","properties":{"kind":"center","id":37,"lat":12.5,"lon":168.75,"mslp":1004.3,"hvtl":-2.8,"hvtu":33.7,"hb":3.1,"idx":0.3,"cls":6,"psfc":1004.3,"terrain":false,"radius_km":200,"name":"shallow cold"},"geometry":{"type":"Point","coordinates":[168.75,12.5]}},{"type":"Feature","properties":{"kind":"center","id":38,"lat":29.5,"lon":51.0,"mslp":1006.4,"hvtl":63.6,"hvtu":-103.5,"hb":10.2,"idx":0.3,"cls":3,"psfc":996.3,"terrain":false,"radius_km":200,"name":"asym shallow warm"},"geometry":{"type":"Point","coordinates":[51.0,29.5]}},{"type":"Feature","properties":{"kind":"center","id":39,"lat":30.5,"lon":-85.75,"mslp":1007.3,"hvtl":22.9,"hvtu":-117.2,"hb":21.6,"idx":-0.4,"cls":3,"psfc":1003.7,"terrain":false,"radius_km":200,"name":"asym shallow warm"},"geometry":{"type":"Point","coordinates":[-85.75,30.5]}},{"type":"Feature","properties":{"kind":"center","id":40,"lat":-14.25,"lon":-67.0,"mslp":1007.5,"hvtl":-32.7,"hvtu":-121.1,"hb":-0.8,"idx":-1.5,"cls":5,"psfc":987.9,"terrain":false,"radius_km":200,"name":"sym cold"},"geometry":{"type":"Point","coordinates":[-67.0,-14.25]}},{"type":"Feature","properties":{"kind":"center","id":41,"lat":24.25,"lon":96.5,"mslp":1008.0,"hvtl":7.6,"hvtu":-80.2,"hb":15.6,"idx":-0.5,"cls":3,"psfc":992.4,"terrain":false,"radius_km":200,"name":"asym shallow warm","track":"T118"},"geometry":{"type":"Point","coordinates":[96.5,24.25]}},{"type":"Feature","properties":{"kind":"center","id":42,"lat":43.5,"lon":-64.5,"mslp":1008.7,"hvtl":-273.4,"hvtu":-397.2,"hb":59.4,"idx":-3.0,"cls":4,"psfc":1008.7,"terrain":false,"radius_km":200,"name":"asym cold"},"geometry":{"type":"Point","coordinates":[-64.5,43.5]}},{"type":"Feature","properties":{"kind":"center","id":43,"lat":26.25,"lon":94.0,"mslp":1010.2,"hvtl":-2.2,"hvtu":-115.9,"hb":13.1,"idx":-0.9,"cls":4,"psfc":989.4,"terrain":false,"radius_km":200,"name":"asym cold"},"geometry":{"type":"Point","coordinates":[94.0,26.25]}},{"type":"Feature","properties":{"kind":"center","id":44,"lat":-15.0,"lon":48.0,"mslp":1010.6,"hvtl":74.6,"hvtu":-63.4,"hb":15.7,"idx":0.7,"cls":3,"psfc":1003.8,"terrain":false,"radius_km":200,"name":"asym shallow warm"},"geometry":{"type":"Point","coordinates":[48.0,-15.0]}},{"type":"Feature","properties":{"kind":"center","id":45,"lat":23.0,"lon":98.5,"mslp":1011.2,"hvtl":96.1,"hvtu":-60.6,"hb":-7.4,"idx":0.9,"cls":1,"psfc":903.5,"terrain":true,"radius_km":200,"name":"sym shallow warm"},"geometry":{"type":"Point","coordinates":[98.5,23.0]}},{"type":"Feature","properties":{"kind":"center","id":46,"lat":-30.5,"lon":-178.25,"mslp":1017.3,"hvtl":7.4,"hvtu":-199.1,"hb":50.5,"idx":-0.8,"cls":3,"psfc":1017.3,"terrain":false,"radius_km":200,"name":"asym shallow warm","track":"T130"},"geometry":{"type":"Point","coordinates":[-178.25,-30.5]}}]}