{"type":"FeatureCollection","features":[{"type":"Feature","properties":{"kind":"blob","cls":3,"id":1},"geometry":{"type":"Polygon","coordinates":[[[-21.0,64.62],[-19.5,65.38],[-19.0,66.12],[-18.0,66.12],[-18.0,65.62],[-17.25,65.38],[-15.5,65.88],[-14.75,65.12],[-13.75,64.88],[-12.38,65.75],[-12.38,66.75],[-14.0,67.88],[-15.75,68.38],[-21.5,68.38],[-22.75,67.88],[-23.62,67.0],[-23.62,66.5],[-22.75,65.38],[-21.0,64.62]]]}},{"type":"Feature","properties":{"kind":"blob","cls":4,"id":2},"geometry":{"type":"Polygon","coordinates":[[[108.0,-60.12],[111.25,-60.12],[113.38,-58.75],[113.38,-57.5],[112.75,-56.88],[110.25,-55.88],[108.5,-55.88],[106.0,-56.88],[105.38,-57.5],[105.38,-58.75],[106.25,-59.62],[108.0,-60.12]]]}},{"type":"Feature","properties":{"kind":"blob","cls":4,"id":3},"geometry":{"type":"Polygon","coordinates":[[[-99.5,-74.12],[-94.25,-73.38],[-93.12,-72.5],[-92.62,-71.0],[-93.5,-70.12],[-95.5,-69.38],[-100.5,-69.12],[-104.75,-69.88],[-107.38,-71.25],[-107.38,-72.25],[-106.75,-72.88],[-104.0,-73.88],[-99.5,-74.12]],[[-99.12,-72.25],[-97.88,-72.25],[-98.0,-72.38],[-99.12,-72.25]]]}},{"type":"Feature","properties":{"kind":"blob","cls":1,"id":4},"geometry":{"type":"Polygon","coordinates":[[[92.25,-54.62],[96.5,-54.62],[97.62,-53.25],[97.38,-52.5],[96.5,-51.62],[95.0,-51.12],[92.5,-51.38],[91.12,-52.5],[90.88,-53.25],[92.25,-54.62]]]}},{"type":"Feature","properties":{"kind":"blob","cls":1,"id":5},"geometry":{"type":"Polygon","coordinates":[[[-14.62,64.75],[-14.5,64.62],[-14.38,64.75],[-14.62,64.75]]]}},{"type":"Feature","properties":{"kind":"blob","cls":3,"id":6},"geometry":{"type":"Polygon","coordinates":[[[-114.25,-62.88],[-112.38,-61.5],[-112.38,-60.5],[-113.25,-59.62],[-115.5,-58.88],[-120.0,-59.38],[-121.88,-60.75],[-121.88,-61.75],[-120.25,-62.88],[-114.25,-62.88]]]}},{"type":"Feature","properties":{"kind":"blob","cls":3,"id":7},"geometry":{"type":"Polygon","coordinates":[[[17.25,-65.62],[19.12,-64.25],[19.12,-63.75],[17.5,-62.38],[15.0,-61.38],[13.75,-61.12],[13.5,-61.62],[12.5,-61.62],[9.75,-60.62],[6.25,-61.12],[4.88,-62.25],[4.88,-63.25],[6.5,-64.62],[10.75,-65.62],[17.25,-65.62]]]}},{"type":"Feature","properties":{"kind":"blob","cls":4,"id":8},"geometry":{"type":"Polygon","coordinates":[[[-95.75,-64.12],[-93.75,-63.62],[-92.88,-63.0],[-92.62,-61.75],[-94.5,-60.38],[-99.25,-60.38],[-101.12,-61.75],[-101.12,-62.5],[-100.0,-63.62],[-95.75,-64.12]]]}},{"type":"Feature","properties":{"kind":"blob","cls":4,"id":9},"geometry":{"type":"Polygon","coordinates":[[[173.75,-63.62],[175.62,-62.25],[175.62,-61.75],[173.75,-60.38],[171.25,-59.88],[166.25,-60.12],[164.38,-61.5],[164.38,-62.0],[165.25,-62.88],[167.0,-63.62],[173.75,-63.62]]]}},{"type":"Feature","properties":{"kind":"blob","cls":4,"id":10},"geometry":{"type":"Polygon","coordinates":[[[168.0,-69.88],[174.75,-69.88],[176.25,-69.38],[177.38,-68.5],[177.38,-67.0],[174.75,-65.62],[171.0,-65.38],[167.0,-66.12],[164.38,-68.0],[164.38,-68.5],[165.25,-69.38],[168.0,-69.88]]]}},{"type":"Feature","properties":{"kind":"blob","cls":3,"id":11},"geometry":{"type":"Polygon","coordinates":[[[17.25,79.62],[26.5,81.12],[28.25,81.62],[28.88,82.25],[27.5,83.12],[22.75,83.88],[12.0,84.12],[2.5,83.38],[-2.38,81.75],[-2.25,81.12],[0.0,80.12],[3.25,79.62],[17.25,79.62]]]}},{"type":"Feature","properties":{"kind":"blob","cls":4,"id":12},"geometry":{"type":"Polygon","coordinates":[[[25.0,-51.12],[26.12,-50.25],[26.12,-48.75],[25.0,-47.62],[22.5,-46.62],[21.25,-46.62],[19.5,-47.38],[19.12,-48.0],[19.38,-49.5],[21.0,-50.88],[25.0,-51.12]]]}},{"type":"Feature","properties":{"kind":"blob","cls":4,"id":13},"geometry":{"type":"Polygon","coordinates":[[[96.75,-44.38],[98.0,-43.88],[98.62,-43.0],[98.38,-41.5],[96.75,-40.62],[94.25,-40.62],[93.0,-41.12],[92.38,-42.0],[92.38,-43.0],[93.0,-43.88],[96.75,-44.38]]]}},{"type":"Feature","properties":{"kind":"blob","cls":4,"id":14},"geometry":{"type":"Polygon","coordinates":[[[-158.75,45.38],[-157.5,45.88],[-156.62,46.75],[-156.62,48.0],[-157.5,48.88],[-158.75,49.38],[-161.0,48.88],[-161.88,46.75],[-161.0,45.88],[-158.75,45.38]]]}},{"type":"Feature","properties":{"kind":"blob","cls":4,"id":15},"geometry":{"type":"Polygon","coordinates":[[[52.5,81.62],[63.0,82.12],[73.0,83.38],[74.5,83.88],[74.62,84.5],[73.0,85.12],[66.5,85.88],[51.5,86.12],[35.25,85.62],[30.25,85.12],[27.38,84.25],[27.5,83.62],[28.5,83.12],[30.75,82.62],[37.5,81.88],[52.5,81.62]]]}},{"type":"Feature","properties":{"kind":"blob","cls":4,"id":16},"geometry":{"type":"Polygon","coordinates":[[[146.5,48.62],[148.0,49.12],[148.62,49.75],[148.88,51.25],[147.75,52.62],[145.0,53.12],[143.5,52.62],[142.62,51.75],[142.88,50.0],[143.75,49.12],[146.5,48.62]]]}},{"type":"Feature","properties":{"kind":"blob","cls":1,"id":17},"geometry":{"type":"Polygon","coordinates":[[[-10.25,-72.62],[-9.75,-72.12],[-7.75,-72.12],[-4.75,-71.38],[-3.25,-71.88],[3.5,-71.12],[3.62,-70.75],[3.25,-70.38],[0.5,-69.88],[-7.5,-69.38],[-10.25,-69.88],[-11.88,-71.0],[-11.25,-72.12],[-10.25,-72.62]]]}},{"type":"Feature","properties":{"kind":"blob","cls":4,"id":18},"geometry":{"type":"Polygon","coordinates":[[[77.75,-49.38],[79.0,-48.88],[79.88,-48.0],[79.88,-47.0],[79.0,-46.12],[77.75,-45.62],[75.5,-46.12],[74.62,-47.0],[74.62,-48.0],[75.5,-48.88],[77.75,-49.38]]]}},{"type":"Feature","properties":{"kind":"blob","cls":4,"id":19},"geometry":{"type":"Polygon","coordinates":[[[179.75,82.62],[180.0,87.62],[169.0,87.62],[153.0,86.88],[145.5,85.88],[143.62,85.0],[144.5,84.38],[147.0,83.88],[157.25,82.62],[179.75,82.62]]]}},{"type":"Feature","properties":{"kind":"blob","cls":4,"id":19},"geometry":{"type":"Polygon","coordinates":[[[-179.75,87.62],[-180.0,82.62],[-154.5,83.62],[-146.0,84.62],[-143.88,85.5],[-145.0,86.12],[-147.75,86.62],[-157.75,87.38],[-179.75,87.62]]]}},{"type":"Feature","properties":{"kind":"blob","cls":3,"id":20},"geometry":{"type":"Polygon","coordinates":[[[164.75,41.38],[166.0,41.88],[166.62,42.75],[166.38,44.25],[164.5,45.38],[162.0,44.88],[161.38,44.25],[161.38,42.75],[162.0,41.88],[164.75,41.38]]]}},{"type":"Feature","properties":{"kind":"blob","cls":3,"id":21},"geometry":{"type":"Polygon","coordinates":[[[-71.75,65.12],[-69.0,65.62],[-66.62,67.0],[-67.62,67.5],[-67.38,67.75],[-67.75,68.12],[-66.12,68.0],[-67.25,69.38],[-69.0,69.88],[-68.62,69.5],[-69.0,69.12],[-69.75,69.12],[-70.12,69.75],[-69.5,70.12],[-72.5,70.62],[-77.5,70.38],[-79.88,69.25],[-79.88,68.25],[-78.5,66.62],[-76.0,65.38],[-71.75,65.12]],[[-74.38,70.25],[-73.25,70.38],[-72.88,70.0],[-73.0,69.88],[-74.38,70.25]]]}},{"type":"Feature","properties":{"kind":"blob","cls":4,"id":22},"geometry":{"type":"Polygon","coordinates":[[[65.25,-67.88],[66.25,-67.38],[66.88,-66.5],[66.0,-65.38],[65.0,-64.88],[62.0,-64.12],[57.5,-64.38],[55.12,-65.75],[55.25,-66.38],[55.88,-66.5],[55.75,-67.12],[65.25,-67.88]]]}},{"type":"Feature","properties":{"kind":"blob","cls":4,"id":23},"geometry":{"type":"Polygon","coordinates":[[[-61.25,47.12],[-59.5,47.88],[-58.62,49.25],[-58.88,50.25],[-60.25,51.38],[-61.75,51.88],[-63.5,51.88],[-65.0,51.38],[-66.12,50.0],[-65.88,49.0],[-64.25,47.62],[-61.25,47.12]]]}},{"type":"Feature","properties":{"kind":"blob","cls":4,"id":24},"geometry":{"type":"Polygon","coordinates":[[[-57.25,72.38],[-55.0,72.62],[-54.88,73.0],[-58.75,74.62],[-60.75,76.38],[-66.25,76.38],[-68.62,77.0],[-66.25,76.88],[-65.25,77.12],[-65.0,77.62],[-74.0,77.62],[-76.0,77.12],[-77.38,76.25],[-77.0,75.38],[-75.25,74.62],[-69.25,74.12],[-67.75,73.62],[-64.0,73.38],[-62.0,72.62],[-57.25,72.38]]]}},{"type":"Feature","properties":{"kind":"blob","cls":4,"id":25},"geometry":{"type":"MultiPolygon","coordinates":[[[[-52.0,70.88],[-52.12,70.75],[-52.0,70.62],[-52.0,70.88]]],[[[-52.25,71.12],[-52.38,71.0],[-52.25,70.88],[-52.25,71.12]]]]}},{"type":"Feature","properties":{"kind":"blob","cls":4,"id":26},"geometry":{"type":"Polygon","coordinates":[[[-100.0,68.12],[-94.5,68.12],[-93.0,68.62],[-92.12,69.5],[-92.12,70.0],[-92.75,70.88],[-93.75,71.38],[-96.5,71.88],[-101.5,71.62],[-103.88,70.5],[-104.12,70.0],[-103.0,68.62],[-100.0,68.12]]]}},{"type":"Feature","properties":{"kind":"blob","cls":4,"id":27},"geometry":{"type":"Polygon","coordinates":[[[175.5,-46.12],[176.75,-45.62],[177.62,-44.25],[177.38,-43.0],[176.75,-42.38],[175.75,-42.12],[175.38,-41.0],[174.5,-40.38],[171.75,-40.38],[170.88,-41.0],[170.62,-42.5],[171.0,-43.12],[173.0,-41.62],[173.62,-42.0],[171.62,-43.5],[172.12,-43.75],[172.12,-44.75],[173.0,-45.62],[175.5,-46.12]],[[172.38,-41.5],[172.5,-40.88],[172.62,-41.0],[172.38,-41.5]]]}},{"type":"Feature","properties":{"kind":"blob","cls":1,"id":28},"geometry":{"type":"Polygon","coordinates":[[[165.5,-41.88],[166.62,-40.75],[166.62,-39.5],[164.75,-38.12],[162.75,-38.38],[161.38,-39.75],[161.38,-40.75],[162.5,-41.88],[165.5,-41.88]]]}},{"type":"Feature","properties":{"kind":"blob","cls":6,"id":29},"geometry":{"type":"Polygon","coordinates":[[[157.75,10.12],[159.25,10.12],[160.12,11.25],[159.88,12.75],[158.5,13.62],[157.25,13.38],[156.38,12.25],[156.62,10.75],[157.75,10.12]]]}},{"type":"Feature","properties":{"kind":"blob","cls":4,"id":30},"geometry":{"type":"MultiPolygon","coordinates":[[[[-63.5,-17.88],[-63.62,-18.0],[-63.5,-18.12],[-63.5,-17.88]]],[[[-63.75,-17.88],[-63.62,-17.5],[-64.5,-16.62],[-66.12,-16.5],[-65.5,-17.12],[-63.75,-17.88]]]]}},{"type":"Feature","properties":{"kind":"blob","cls":4,"id":31},"geometry":{"type":"Polygon","coordinates":[[[-106.0,-40.38],[-104.62,-39.0],[-104.38,-37.75],[-105.5,-36.38],[-107.75,-36.12],[-109.38,-37.25],[-109.62,-39.0],[-108.5,-40.38],[-106.0,-40.38]]]}},{"type":"Feature","properties":{"kind":"blob","cls":3,"id":32},"geometry":{"type":"Polygon","coordinates":[[[167.25,-47.12],[168.25,-46.88],[169.38,-45.75],[169.62,-44.75],[169.25,-44.38],[169.0,-44.88],[168.38,-45.0],[169.12,-45.25],[169.0,-45.62],[168.25,-45.38],[167.88,-44.75],[169.12,-44.0],[168.5,-43.38],[167.25,-42.88],[165.25,-42.88],[166.38,-44.25],[167.25,-47.12]]]}},{"type":"Feature","properties":{"kind":"blob","cls":4,"id":33},"geometry":{"type":"Polygon","coordinates":[[[-79.62,-78.25],[-79.5,-78.38],[-79.38,-78.25],[-79.62,-78.25]]]}},{"type":"Feature","properties":{"kind":"blob","cls":1,"id":34},"geometry":{"type":"Polygon","coordinates":[[[-73.0,-11.62],[-72.12,-10.25],[-73.75,-10.38],[-74.12,-10.75],[-73.0,-11.62]]]}},{"type":"Feature","properties":{"kind":"blob","cls":1,"id":35},"geometry":{"type":"Polygon","coordinates":[[[165.38,-47.25],[165.38,-46.0],[164.88,-43.25],[164.5,-43.12],[162.62,-44.25],[162.38,-45.25],[163.75,-46.88],[165.38,-47.25]]]}},{"type":"Feature","properties":{"kind":"blob","cls":4,"id":36},"geometry":{"type":"Polygon","coordinates":[[[-80.38,-79.0],[-80.25,-79.12],[-80.12,-79.0],[-80.38,-79.0]]]}},{"type":"Feature","properties":{"kind":"blob","cls":3,"id":37},"geometry":{"type":"Polygon","coordinates":[[[-74.12,-11.75],[-74.0,-11.88],[-73.88,-11.75],[-74.12,-11.75]]]}},{"type":"Feature","properties":{"kind":"blob","cls":4,"id":38},"geometry":{"type":"Polygon","coordinates":[[[-113.0,50.12],[-112.25,50.12],[-111.12,51.25],[-111.62,53.25],[-112.62,54.25],[-112.12,56.5],[-113.5,57.62],[-116.25,58.38],[-119.0,57.88],[-119.88,57.0],[-118.88,56.75],[-120.12,56.5],[-119.62,55.5],[-118.5,54.38],[-116.0,54.12],[-116.38,53.75],[-115.25,52.88],[-114.25,52.88],[-114.12,52.25],[-113.62,52.0],[-113.62,51.25],[-112.88,50.5],[-113.0,50.12]],[[-116.38,54.5],[-116.25,54.88],[-114.88,55.0],[-115.5,54.38],[-116.38,54.5]]]}},{"type":"Feature","properties":{"kind":"blob","cls":3,"id":39},"geometry":{"type":"Polygon","coordinates":[[[119.75,65.38],[122.25,65.88],[124.0,66.62],[124.88,68.0],[123.75,69.38],[122.25,69.88],[117.75,70.12],[114.75,69.38],[112.62,68.0],[112.62,67.0],[113.0,66.62],[115.25,65.62],[119.75,65.38]]]}},{"type":"Feature","properties":{"kind":"blob","cls":3,"id":40},"geometry":{"type":"Polygon","coordinates":[[[-27.12,17.25],[-27.38,18.5],[-29.0,19.62],[-30.5,19.38],[-31.38,18.25],[-31.25,17.62],[-27.12,17.25]]]}},{"type":"Feature","properties":{"kind":"blob","cls":3,"id":41},"geometry":{"type":"Polygon","coordinates":[[[-74.38,-11.25],[-74.25,-11.38],[-74.12,-11.25],[-74.38,-11.25]]]}},{"type":"Feature","properties":{"kind":"blob","cls":5,"id":42},"geometry":{"type":"MultiPolygon","coordinates":[[[[66.75,25.12],[68.0,24.88],[69.62,26.0],[70.12,27.0],[70.12,28.75],[69.5,29.62],[67.75,30.12],[67.38,29.75],[66.88,27.0],[65.38,26.75],[65.62,26.0],[66.75,25.12]]],[[[68.75,30.12],[68.62,30.0],[68.75,29.88],[68.75,30.12]]]]}},{"type":"Feature","properties":{"kind":"blob","cls":4,"id":43},"geometry":{"type":"Polygon","coordinates":[[[21.75,-30.38],[21.88,-29.75],[19.5,-27.38],[18.88,-28.0],[18.62,-29.0],[19.75,-30.38],[21.75,-30.38]],[[19.38,-29.5],[19.5,-29.12],[19.62,-29.25],[19.38,-29.5]]]}},{"type":"Feature","properties":{"kind":"blob","cls":3,"id":44},"geometry":{"type":"MultiPolygon","coordinates":[[[[37.75,0.62],[38.38,1.75],[38.38,3.0],[38.0,3.62],[37.62,3.5],[37.75,4.12],[36.25,4.62],[34.88,3.5],[36.38,3.0],[37.38,1.75],[37.75,0.62]]],[[[34.75,3.38],[34.62,3.25],[34.75,3.12],[34.75,3.38]]]]}},{"type":"Feature","properties":{"kind":"blob","cls":4,"id":45},"geometry":{"type":"Polygon","coordinates":[[[-63.38,-19.0],[-63.5,-18.38],[-63.62,-18.75],[-63.38,-19.0]]]}},{"type":"Feature","properties":{"kind":"blob","cls":4,"id":46},"geometry":{"type":"Polygon","coordinates":[[[27.75,34.62],[29.0,34.38],[30.0,34.88],[30.88,35.75],[30.88,37.25],[30.5,37.38],[30.0,36.38],[29.5,36.38],[28.75,37.38],[28.5,37.12],[27.88,37.75],[28.0,38.62],[26.5,38.12],[25.88,37.5],[25.88,36.0],[27.75,34.62]]]}},{"type":"Feature","properties":{"kind":"blob","cls":4,"id":47},"geometry":{"type":"MultiPolygon","coordinates":[[[[118.25,44.12],[118.25,43.62],[119.0,43.62],[120.25,44.12],[121.12,45.25],[120.88,46.25],[120.25,46.62],[119.62,45.5],[119.88,45.25],[118.88,44.0],[118.25,44.12]]],[[[116.25,44.38],[116.75,45.38],[118.0,44.88],[119.5,45.62],[116.38,45.75],[117.0,46.38],[118.5,46.12],[119.62,47.5],[118.5,48.12],[117.0,48.12],[115.75,47.62],[115.12,46.75],[115.5,46.12],[116.12,46.25],[116.25,44.38]]]]}},{"type":"Feature","properties":{"kind":"blob","cls":3,"id":48},"geometry":{"type":"Polygon","coordinates":[[[42.75,13.38],[42.88,14.0],[42.0,15.12],[40.75,15.38],[39.88,15.0],[40.25,14.12],[42.75,13.38]]]}},{"type":"Feature","properties":{"kind":"blob","cls":4,"id":49},"geometry":{"type":"MultiPolygon","coordinates":[[[[-65.62,-27.0],[-65.25,-27.12],[-64.88,-26.75],[-65.25,-26.12],[-65.62,-27.0]]],[[[-64.75,-26.62],[-64.38,-26.25],[-64.5,-24.62],[-65.12,-25.75],[-64.75,-26.62]]],[[[-64.88,-25.0],[-65.0,-24.88],[-65.12,-25.0],[-64.88,-25.0]]],[[[-64.62,-24.5],[-64.75,-24.38],[-64.88,-24.5],[-64.62,-24.5]]]]}},{"type":"Feature","properties":{"kind":"blob","cls":3,"id":50},"geometry":{"type":"Polygon","coordinates":[[[29.88,38.0],[30.0,37.88],[30.12,38.0],[29.88,38.0]]]}},{"type":"Feature","properties":{"kind":"blob","cls":3,"id":51},"geometry":{"type":"Polygon","coordinates":[[[29.25,37.62],[29.62,38.25],[29.25,38.38],[29.25,37.62]]]}},{"type":"Feature","properties":{"kind":"blob","cls":4,"id":52},"geometry":{"type":"Polygon","coordinates":[[[96.25,24.38],[96.62,24.75],[95.25,25.62],[94.62,25.0],[96.25,24.38]]]}},{"type":"Feature","properties":{"kind":"blob","cls":5,"id":53},"geometry":{"type":"MultiPolygon","coordinates":[[[[93.5,25.12],[93.38,25.0],[93.5,24.88],[93.5,25.12]]],[[[93.25,25.12],[94.38,26.25],[93.25,26.88],[91.75,26.88],[91.88,26.0],[93.25,25.12]]]]}},{"type":"Feature","properties":{"kind":"blob","cls":1,"id":54},"geometry":{"type":"Polygon","coordinates":[[[-6.5,32.12],[-5.62,33.0],[-5.75,33.38],[-5.0,33.88],[-4.38,33.75],[-4.38,35.0],[-5.0,35.88],[-6.75,36.38],[-8.88,35.25],[-8.88,33.25],[-8.25,32.62],[-6.5,32.12]]]}},{"type":"Feature","properties":{"kind":"blob","cls":4,"id":55},"geometry":{"type":"Polygon","coordinates":[[[62.12,30.5],[61.62,31.75],[62.38,32.75],[61.62,33.0],[61.5,33.62],[60.88,32.75],[60.88,31.5],[62.12,30.5]]]}},{"type":"Feature","properties":{"kind":"blob","cls":4,"id":56},"geometry":{"type":"Polygon","coordinates":[[[20.0,53.38],[21.75,53.88],[22.88,55.0],[22.88,56.5],[21.25,57.88],[18.75,58.12],[16.0,57.62],[14.62,56.5],[14.62,55.25],[15.5,54.38],[20.0,53.38]]]}},{"type":"Feature","properties":{"kind":"center","id":1,"lat":66.5,"lon":-17.75,"mslp":948.4,"hvtl":188.8,"hvtu":-188.8,"hb":48.3,"idx":1.0,"cls":3,"psfc":948.3,"terrain":false,"radius_km":200,"name":"asym shallow warm","track":"T02"},"geometry":{"type":"Point","coordinates":[-17.75,66.5]}},{"type":"Feature","properties":{"kind":"center","id":2,"lat":-58.0,"lon":109.25,"mslp":952.7,"hvtl":-41.3,"hvtu":-246.0,"hb":65.8,"idx":-1.8,"cls":4,"psfc":952.7,"terrain":false,"radius_km":200,"name":"asym cold","track":"T07"},"geometry":{"type":"Point","coordinates":[109.25,-58.0]}},{"type":"Feature","properties":{"kind":"center","id":3,"lat":-71.5,"lon":-100.0,"mslp":952.9,"hvtl":-5.3,"hvtu":-95.0,"hb":13.0,"idx":-0.8,"cls":4,"psfc":952.9,"terrain":false,"radius_km":200,"name":"asym cold","track":"T11"},"geometry":{"type":"Point","coordinates":[-100.0,-71.5]}},{"type":"Feature","properties":{"kind":"center","id":4,"lat":-53.0,"lon":94.25,"mslp":954.6,"hvtl":18.3,"hvtu":-67.8,"hb":5.7,"idx":-0.2,"cls":1,"psfc":954.6,"terrain":false,"radius_km":200,"name":"sym shallow warm","track":"T13"},"geometry":{"type":"Point","coordinates":[94.25,-53.0]}},{"type":"Feature","properties":{"kind":"center","id":5,"lat":64.75,"lon":-14.5,"mslp":957.1,"hvtl":27.0,"hvtu":-195.8,"hb":3.9,"idx":-0.4,"cls":1,"psfc":902.1,"terrain":false,"radius_km":200,"name":"sym shallow warm","track":"T10"},"geometry":{"type":"Point","coordinates":[-14.5,64.75]}},{"type":"Feature","properties":{"kind":"center","id":6,"lat":-61.0,"lon":-117.25,"mslp":959.7,"hvtl":13.1,"hvtu":-154.1,"hb":19.6,"idx":-0.7,"cls":3,"psfc":959.7,"terrain":false,"radius_km":200,"name":"asym shallow warm","track":"T16"},"geometry":{"type":"Point","coordinates":[-117.25,-61.0]}},{"type":"Feature","properties":{"kind":"center","id":7,"lat":-63.25,"lon":11.75,"mslp":962.3,"hvtl":23.5,"hvtu":-127.8,"hb":15.6,"idx":-0.4,"cls":3,"psfc":962.3,"terrain":false,"radius_km":200,"name":"asym shallow warm","track":"T23"},"geometry":{"type":"Point","coordinates":[11.75,-63.25]}},{"type":"Feature","properties":{"kind":"center","id":8,"lat":-62.25,"lon":-97.0,"mslp":974.8,"hvtl":-149.4,"hvtu":-97.0,"hb":36.1,"idx":-2.6,"cls":4,"psfc":974.8,"terrain":false,"radius_km":200,"name":"asym cold","track":"T39"},"geometry":{"type":"Point","coordinates":[-97.0,-62.25]}},{"type":"Feature","properties":{"kind":"center","id":9,"lat":-62.0,"lon":170.0,"mslp":975.0,"hvtl":-290.7,"hvtu":-183.2,"hb":51.3,"idx":-2.9,"cls":4,"psfc":975.0,"terrain":false,"radius_km":200,"name":"asym cold","track":"T18"},"geometry":{"type":"Point","coordinates":[170.0,-62.0]}},{"type":"Feature","properties":{"kind":"center","id":10,"lat":-67.5,"lon":172.25,"mslp":976.4,"hvtl":-253.2,"hvtu":-99.1,"hb":87.2,"idx":-2.7,"cls":4,"psfc":976.3,"terrain":false,"radius_km":200,"name":"asym cold","track":"T47"},"geometry":{"type":"Point","coordinates":[172.25,-67.5]}},{"type":"Feature","properties":{"kind":"center","id":11,"lat":81.5,"lon":10.75,"mslp":977.1,"hvtl":53.0,"hvtu":-289.1,"hb":71.5,"idx":-0.0,"cls":3,"psfc":977.1,"terrain":false,"radius_km":200,"name":"asym shallow warm","track":"T32"},"geometry":{"type":"Point","coordinates":[10.75,81.5]}},{"type":"Feature","properties":{"kind":"center","id":12,"lat":-49.25,"lon":22.75,"mslp":978.1,"hvtl":-347.1,"hvtu":-378.8,"hb":94.9,"idx":-3.0,"cls":4,"psfc":978.1,"terrain":false,"radius_km":200,"name":"asym cold","track":"T05"},"geometry":{"type":"Point","coordinates":[22.75,-49.25]}},{"type":"Feature","properties":{"kind":"center","id":13,"lat":-42.5,"lon":95.25,"mslp":978.3,"hvtl":-354.5,"hvtu":-349.5,"hb":60.9,"idx":-3.0,"cls":4,"psfc":978.3,"terrain":false,"radius_km":200,"name":"asym cold","track":"T20"},"geometry":{"type":"Point","coordinates":[95.25,-42.5]}},{"type":"Feature","properties":{"kind":"center","id":14,"lat":47.25,"lon":-159.25,"mslp":979.4,"hvtl":-6.8,"hvtu":-129.1,"hb":32.8,"idx":-1.0,"cls":4,"psfc":979.4,"terrain":false,"radius_km":200,"name":"asym cold","track":"T34"},"geometry":{"type":"Point","coordinates":[-159.25,47.25]}},{"type":"Feature","properties":{"kind":"center","id":15,"lat":83.75,"lon":46.25,"mslp":980.3,"hvtl":-166.7,"hvtu":-312.2,"hb":96.1,"idx":-2.9,"cls":4,"psfc":980.3,"terrain":false,"radius_km":200,"name":"asym cold","track":"T58"},"geometry":{"type":"Point","coordinates":[46.25,83.75]}},{"type":"Feature","properties":{"kind":"center","id":16,"lat":50.75,"lon":145.75,"mslp":982.0,"hvtl":-58.4,"hvtu":-407.6,"hb":91.8,"idx":-2.0,"cls":4,"psfc":982.0,"terrain":false,"radius_km":200,"name":"asym cold","track":"T30"},"geometry":{"type":"Point","coordinates":[145.75,50.75]}},{"type":"Feature","properties":{"kind":"center","id":17,"lat":-71.25,"lon":-1.75,"mslp":983.1,"hvtl":61.5,"hvtu":-186.7,"hb":-6.7,"idx":0.1,"cls":1,"psfc":976.3,"terrain":false,"radius_km":200,"name":"sym shallow warm","track":"T61"},"geometry":{"type":"Point","coordinates":[-1.75,-71.25]}},{"type":"Feature","properties":{"kind":"center","id":18,"lat":-46.75,"lon":79.25,"mslp":984.5,"hvtl":-296.1,"hvtu":-232.3,"hb":51.7,"idx":-3.0,"cls":4,"psfc":984.4,"terrain":false,"radius_km":200,"name":"asym cold","track":"T29"},"geometry":{"type":"Point","coordinates":[79.25,-46.75]}},{"type":"Feature","properties":{"kind":"center","id":19,"lat":84.75,"lon":175.0,"mslp":985.3,"hvtl":-127.7,"hvtu":-136.4,"hb":24.8,"idx":-2.6,"cls":4,"psfc":985.3,"terrain":false,"radius_km":200,"name":"asym cold","track":"T59"},"geometry":{"type":"Point","coordinates":[175.0,84.75]}},{"type":"Feature","properties":{"kind":"center","id":20,"lat":43.25,"lon":164.0,"mslp":985.6,"hvtl":79.2,"hvtu":-18.8,"hb":53.1,"idx":1.1,"cls":3,"psfc":985.6,"terrain":false,"radius_km":200,"name":"asym shallow warm","track":"T09"},"geometry":{"type":"Point","coordinates":[164.0,43.25]}},{"type":"Feature","properties":{"kind":"center","id":21,"lat":68.25,"lon":-72.5,"mslp":987.8,"hvtl":80.4,"hvtu":-147.0,"hb":31.2,"idx":0.4,"cls":3,"psfc":976.8,"terrain":false,"radius_km":200,"name":"asym shallow warm","track":"T70"},"geometry":{"type":"Point","coordinates":[-72.5,68.25]}},{"type":"Feature","properties":{"kind":"center","id":22,"lat":-66.0,"lon":62.0,"mslp":989.2,"hvtl":-102.3,"hvtu":-69.2,"hb":16.9,"idx":-2.1,"cls":4,"psfc":989.2,"terrain":false,"radius_km":200,"name":"asym cold"},"geometry":{"type":"Point","coordinates":[62.0,-66.0]}},{"type":"Feature","properties":{"kind":"center","id":23,"lat":49.5,"lon":-62.25,"mslp":993.4,"hvtl":-200.7,"hvtu":-87.6,"hb":83.3,"idx":-2.6,"cls":4,"psfc":990.5,"terrain":false,"radius_km":200,"name":"asym cold","track":"T44"},"geometry":{"type":"Point","coordinates":[-62.25,49.5]}},{"type":"Feature","properties":{"kind":"center","id":24,"lat":72.75,"lon":-62.0,"mslp":994.2,"hvtl":-29.5,"hvtu":-131.8,"hb":38.4,"idx":-1.4,"cls":4,"psfc":994.2,"terrain":false,"radius_km":200,"name":"asym cold","track":"T73"},"geometry":{"type":"Point","coordinates":[-62.0,72.75]}},{"type":"Feature","properties":{"kind":"center","id":25,"lat":70.75,"lon":-52.0,"mslp":995.4,"hvtl":-77.9,"hvtu":-126.0,"hb":22.7,"idx":-2.2,"cls":4,"psfc":987.1,"terrain":false,"radius_km":200,"name":"asym cold","track":"T51"},"geometry":{"type":"Point","coordinates":[-52.0,70.75]}},{"type":"Feature","properties":{"kind":"center","id":26,"lat":69.75,"lon":-98.5,"mslp":995.9,"hvtl":-171.3,"hvtu":-51.1,"hb":47.3,"idx":-2.3,"cls":4,"psfc":995.8,"terrain":false,"radius_km":200,"name":"asym cold","track":"T71"},"geometry":{"type":"Point","coordinates":[-98.5,69.75]}},{"type":"Feature","properties":{"kind":"center","id":27,"lat":-44.0,"lon":174.75,"mslp":999.8,"hvtl":-148.4,"hvtu":-251.6,"hb":57.9,"idx":-2.8,"cls":4,"psfc":999.8,"terrain":false,"radius_km":200,"name":"asym cold","track":"T01"},"geometry":{"type":"Point","coordinates":[174.75,-44.0]}},{"type":"Feature","properties":{"kind":"center","id":28,"lat":-40.25,"lon":164.0,"mslp":1000.8,"hvtl":44.5,"hvtu":-130.2,"hb":5.0,"idx":-0.0,"cls":1,"psfc":1000.8,"terrain":false,"radius_km":200,"name":"sym shallow warm","track":"T55"},"geometry":{"type":"Point","coordinates":[164.0,-40.25]}},{"type":"Feature","properties":{"kind":"center","id":29,"lat":11.75,"lon":158.25,"mslp":1001.1,"hvtl":-58.2,"hvtu":48.4,"hb":7.2,"idx":-0.6,"cls":6,"psfc":1001.1,"terrain":false,"radius_km":200,"name":"shallow cold","track":"T50"},"geometry":{"type":"Point","coordinates":[158.25,11.75]}},{"type":"Feature","properties":{"kind":"center","id":30,"lat":-16.5,"lon":-65.5,"mslp":1001.8,"hvtl":-144.8,"hvtu":-121.4,"hb":46.9,"idx":-2.6,"cls":4,"psfc":977.6,"terrain":false,"radius_km":200,"name":"asym cold","track":"T92"},"geometry":{"type":"Point","coordinates":[-65.5,-16.5]}},{"type":"Feature","properties":{"kind":"center","id":31,"lat":-38.0,"lon":-107.0,"mslp":1003.2,"hvtl":-87.3,"hvtu":-123.9,"hb":23.0,"idx":-2.3,"cls":4,"psfc":1003.2,"terrain":false,"radius_km":200,"name":"asym cold","track":"T90"},"geometry":{"type":"Point","coordinates":[-107.0,-38.0]}},{"type":"Feature","properties":{"kind":"center","id":32,"lat":-44.25,"lon":168.25,"mslp":1003.6,"hvtl":115.4,"hvtu":-172.4,"hb":30.4,"idx":0.7,"cls":3,"psfc":951.9,"terrain":false,"radius_km":200,"name":"asym shallow warm"},"geometry":{"type":"Point","coordinates":[168.25,-44.25]}},{"type":"Feature","properties":{"kind":"center","id":33,"lat":-78.25,"lon":-79.5,"mslp":1003.9,"hvtl":-186.7,"hvtu":-75.6,"hb":94.9,"idx":-2.5,"cls":4,"psfc":959.6,"terrain":false,"radius_km":200,"name":"asym cold","track":"T49"},"geometry":{"type":"Point","coordinates":[-79.5,-78.25]}},{"type":"Feature","properties":{"kind":"center","id":34,"lat":-10.5,"lon":-73.0,"mslp":1003.9,"hvtl":77.2,"hvtu":-8.5,"hb":-3.8,"idx":1.2,"cls":1,"psfc":968.8,"terrain":false,"radius_km":200,"name":"sym shallow warm"},"geometry":{"type":"Point","coordinates":[-73.0,-10.5]}},{"type":"Feature","properties":{"kind":"center","id":35,"lat":-45.0,"lon":165.0,"mslp":1004.0,"hvtl":67.0,"hvtu":-49.4,"hb":-18.3,"idx":0.7,"cls":1,"psfc":1004.0,"terrain":false,"radius_km":200,"name":"sym shallow warm"},"geometry":{"type":"Point","coordinates":[165.0,-45.0]}},{"type":"Feature","properties":{"kind":"center","id":36,"lat":-79.0,"lon":-80.25,"mslp":1005.1,"hvtl":-272.9,"hvtu":-137.4,"hb":103.8,"idx":-2.9,"cls":4,"psfc":983.5,"terrain":false,"radius_km":200,"name":"asym cold"},"geometry":{"type":"Point","coordinates":[-80.25,-79.0]}},{"type":"Feature","properties":{"kind":"center","id":37,"lat":-11.75,"lon":-74.0,"mslp":1005.2,"hvtl":89.6,"hvtu":-23.7,"hb":28.5,"idx":1.2,"cls":3,"psfc":932.5,"terrain":false,"radius_km":200,"name":"asym shallow warm","track":"T97"},"geometry":{"type":"Point","coordinates":[-74.0,-11.75]}},{"type":"Feature","properties":{"kind":"center","id":38,"lat":53.75,"lon":-113.0,"mslp":1006.0,"hvtl":-225.4,"hvtu":-273.4,"hb":66.8,"idx":-2.9,"cls":4,"psfc":929.5,"terrain":false,"radius_km":200,"name":"asym cold","track":"T84"},"geometry":{"type":"Point","coordinates":[-113.0,53.75]}},{"type":"Feature","properties":{"kind":"center","id":39,"lat":67.75,"lon":119.75,"mslp":1006.0,"hvtl":62.1,"hvtu":-56.5,"hb":23.1,"idx":0.6,"cls":3,"psfc":973.5,"terrain":false,"radius_km":200,"name":"asym shallow warm"},"geometry":{"type":"Point","coordinates":[119.75,67.75]}},{"type":"Feature","properties":{"kind":"center","id":40,"lat":17.75,"lon":-29.25,"mslp":1006.7,"hvtl":128.0,"hvtu":-19.5,"hb":15.0,"idx":1.5,"cls":3,"psfc":1006.7,"terrain":false,"radius_km":200,"name":"asym shallow warm","track":"T86"},"geometry":{"type":"Point","coordinates":[-29.25,17.75]}},{"type":"Feature","properties":{"kind":"center","id":41,"lat":-11.25,"lon":-74.25,"mslp":1007.1,"hvtl":75.6,"hvtu":-20.6,"hb":22.1,"idx":1.1,"cls":3,"psfc":901.9,"terrain":true,"radius_km":200,"name":"asym shallow warm"},"geometry":{"type":"Point","coordinates":[-74.25,-11.25]}},{"type":"Feature","properties":{"kind":"center","id":42,"lat":26.75,"lon":67.5,"mslp":1008.1,"hvtl":-45.0,"hvtu":-159.0,"hb":2.2,"idx":-1.8,"cls":5,"psfc":1002.1,"terrain":false,"radius_km":200,"name":"sym cold","track":"T104"},"geometry":{"type":"Point","coordinates":[67.5,26.75]}},{"type":"Feature","properties":{"kind":"center","id":43,"lat":-28.75,"lon":20.75,"mslp":1008.1,"hvtl":-156.6,"hvtu":-82.3,"hb":86.7,"idx":-2.5,"cls":4,"psfc":926.4,"terrain":false,"radius_km":200,"name":"asym cold"},"geometry":{"type":"Point","coordinates":[20.75,-28.75]}},{"type":"Feature","properties":{"kind":"center","id":44,"lat":2.75,"lon":36.5,"mslp":1008.3,"hvtl":142.5,"hvtu":-6.1,"hb":10.5,"idx":1.7,"cls":3,"psfc":964.1,"terrain":false,"radius_km":200,"name":"asym shallow warm"},"geometry":{"type":"Point","coordinates":[36.5,2.75]}},{"type":"Feature","properties":{"kind":"center","id":45,"lat":-19.0,"lon":-63.5,"mslp":1008.5,"hvtl":-89.2,"hvtu":-170.5,"hb":76.0,"idx":-2.4,"cls":4,"psfc":928.7,"terrain":false,"radius_km":200,"name":"asym cold"},"geometry":{"type":"Point","coordinates":[-63.5,-19.0]}},{"type":"Feature","properties":{"kind":"center","id":46,"lat":36.25,"lon":29.0,"mslp":1008.6,"hvtl":-14.4,"hvtu":-242.9,"hb":25.2,"idx":-1.3,"cls":4,"psfc":1008.6,"terrain":false,"radius_km":200,"name":"asym cold"},"geometry":{"type":"Point","coordinates":[29.0,36.25]}},{"type":"Feature","properties":{"kind":"center","id":47,"lat":46.25,"lon":118.0,"mslp":1008.6,"hvtl":-124.2,"hvtu":-194.4,"hb":51.8,"idx":-2.7,"cls":4,"psfc":903.1,"terrain":true,"radius_km":200,"name":"asym cold"},"geometry":{"type":"Point","coordinates":[118.0,46.25]}},{"type":"Feature","properties":{"kind":"center","id":48,"lat":14.25,"lon":40.5,"mslp":1009.1,"hvtl":118.9,"hvtu":-77.4,"hb":24.0,"idx":1.0,"cls":3,"psfc":1017.1,"terrain":false,"radius_km":200,"name":"asym shallow warm"},"geometry":{"type":"Point","coordinates":[40.5,14.25]}},{"type":"Feature","properties":{"kind":"center","id":49,"lat":-24.5,"lon":-64.75,"mslp":1011.2,"hvtl":-101.4,"hvtu":-263.0,"hb":43.1,"idx":-2.5,"cls":4,"psfc":924.9,"terrain":false,"radius_km":200,"name":"asym cold"},"geometry":{"type":"Point","coordinates":[-64.75,-24.5]}},{"type":"Feature","properties":{"kind":"center","id":50,"lat":38.0,"lon":30.0,"mslp":1011.5,"hvtl":16.7,"hvtu":-192.4,"hb":32.6,"idx":-0.6,"cls":3,"psfc":900.2,"terrain":true,"radius_km":200,"name":"asym shallow warm"},"geometry":{"type":"Point","coordinates":[30.0,38.0]}},{"type":"Feature","properties":{"kind":"center","id":51,"lat":38.25,"lon":29.5,"mslp":1011.7,"hvtl":79.6,"hvtu":-173.7,"hb":27.2,"idx":0.4,"cls":3,"psfc":907.8,"terrain":true,"radius_km":200,"name":"asym shallow warm"},"geometry":{"type":"Point","coordinates":[29.5,38.25]}},{"type":"Feature","properties":{"kind":"center","id":52,"lat":24.75,"lon":95.0,"mslp":1013.1,"hvtl":-16.2,"hvtu":-141.5,"hb":10.9,"idx":-1.2,"cls":4,"psfc":994.2,"terrain":false,"radius_km":200,"name":"asym cold","track":"T108"},"geometry":{"type":"Point","coordinates":[95.0,24.75]}},{"type":"Feature","properties":{"kind":"center","id":53,"lat":26.5,"lon":92.0,"mslp":1013.2,"hvtl":-16.0,"hvtu":-178.6,"hb":6.0,"idx":-1.3,"cls":5,"psfc":1005.7,"terrain":false,"radius_km":200,"name":"sym cold","track":"T110"},"geometry":{"type":"Point","coordinates":[92.0,26.5]}},{"type":"Feature","properties":{"kind":"center","id":54,"lat":34.25,"lon":-6.75,"mslp":1014.3,"hvtl":86.8,"hvtu":-87.2,"hb":-5.6,"idx":0.7,"cls":1,"psfc":1013.4,"terrain":false,"radius_km":200,"name":"sym shallow warm"},"geometry":{"type":"Point","coordinates":[-6.75,34.25]}},{"type":"Feature","properties":{"kind":"center","id":55,"lat":31.5,"lon":61.75,"mslp":1015.6,"hvtl":-35.5,"hvtu":-128.2,"hb":36.2,"idx":-1.5,"cls":4,"psfc":959.5,"terrain":false,"radius_km":200,"name":"asym cold"},"geometry":{"type":"Point","coordinates":[61.75,31.5]}},{"type":"Feature","properties":{"kind":"center","id":56,"lat":56.0,"lon":19.25,"mslp":1017.5,"hvtl":-146.7,"hvtu":-104.9,"hb":18.3,"idx":-2.6,"cls":4,"psfc":1017.5,"terrain":false,"radius_km":200,"name":"asym cold","track":"T103"},"geometry":{"type":"Point","coordinates":[19.25,56.0]}}]}