{"type":"FeatureCollection","features":[{"type":"Feature","properties":{"kind":"blob","cls":1,"id":1},"geometry":{"type":"Polygon","coordinates":[[[147.25,-62.88],[148.88,-61.75],[148.88,-60.5],[147.75,-59.38],[144.5,-57.62],[141.25,-57.38],[139.5,-57.88],[138.75,-58.88],[142.75,-59.38],[144.38,-60.0],[144.25,-60.38],[142.75,-60.38],[139.5,-59.62],[138.38,-59.75],[138.88,-60.75],[140.25,-61.88],[142.5,-62.88],[147.25,-62.88]]]}},{"type":"Feature","properties":{"kind":"blob","cls":0,"id":2},"geometry":{"type":"Polygon","coordinates":[[[148.25,22.12],[149.75,22.12],[150.62,23.0],[150.62,24.5],[149.0,25.62],[147.75,25.38],[147.12,24.75],[148.25,22.12]]]}},{"type":"Feature","properties":{"kind":"blob","cls":1,"id":3},"geometry":{"type":"Polygon","coordinates":[[[41.5,-66.88],[43.75,-66.38],[44.88,-65.5],[44.88,-64.25],[42.25,-64.62],[42.25,-64.12],[43.62,-63.5],[41.5,-62.88],[39.5,-62.88],[37.25,-63.38],[36.12,-64.25],[36.12,-65.25],[37.0,-66.12],[41.5,-66.88]]]}},{"type":"Feature","properties":{"kind":"blob","cls":0,"id":4},"geometry":{"type":"Polygon","coordinates":[[[-103.75,15.88],[-102.88,17.0],[-102.88,18.0],[-103.38,18.75],[-104.5,19.38],[-105.62,19.0],[-105.88,17.5],[-106.38,17.0],[-105.75,15.88],[-103.75,15.88]]]}},{"type":"Feature","properties":{"kind":"blob","cls":4,"id":5},"geometry":{"type":"Polygon","coordinates":[[[-32.25,-68.62],[-30.0,-68.12],[-26.5,-66.62],[-25.12,-65.0],[-26.0,-63.88],[-27.25,-63.38],[-31.0,-63.12],[-33.25,-63.62],[-37.0,-65.62],[-37.88,-66.5],[-37.88,-67.0],[-37.0,-67.88],[-32.25,-68.62]]]}},{"type":"Feature","properties":{"kind":"blob","cls":5,"id":6},"geometry":{"type":"MultiPolygon","coordinates":[[[[47.0,-67.62],[51.0,-67.38],[51.38,-67.0],[51.0,-66.38],[55.38,-66.0],[53.75,-65.12],[50.0,-64.88],[47.25,-65.62],[46.38,-66.5],[47.0,-67.62]]],[[[55.5,-66.12],[55.38,-66.25],[55.5,-66.38],[55.5,-66.12]]]]}},{"type":"Feature","properties":{"kind":"blob","cls":4,"id":7},"geometry":{"type":"Polygon","coordinates":[[[-118.75,-64.38],[-116.75,-63.88],[-115.62,-63.0],[-114.88,-61.5],[-115.75,-60.38],[-118.0,-59.62],[-123.25,-59.88],[-123.62,-63.5],[-122.5,-64.12],[-118.75,-64.38]]]}},{"type":"Feature","properties":{"kind":"blob","cls":3,"id":8},"geometry":{"type":"Polygon","coordinates":[[[128.25,-61.12],[130.25,-60.62],[131.0,-60.38],[132.12,-59.0],[126.0,-58.88],[123.62,-59.25],[124.75,-60.62],[128.25,-61.12]]]}},{"type":"Feature","properties":{"kind":"blob","cls":1,"id":9},"geometry":{"type":"Polygon","coordinates":[[[124.75,-57.62],[131.62,-57.75],[129.5,-56.88],[127.0,-56.88],[124.75,-57.62]]]}},{"type":"Feature","properties":{"kind":"blob","cls":4,"id":10},"geometry":{"type":"Polygon","coordinates":[[[-148.0,-62.12],[-143.75,-62.12],[-141.38,-60.75],[-140.88,-59.25],[-142.0,-58.12],[-143.75,-57.62],[-145.75,-57.62],[-147.5,-58.12],[-150.62,-60.0],[-150.62,-61.0],[-150.0,-61.62],[-148.0,-62.12]]]}},{"type":"Feature","properties":{"kind":"blob","cls":4,"id":11},"geometry":{"type":"Polygon","coordinates":[[[19.62,-70.25],[19.75,-70.62],[28.75,-70.38],[31.5,-70.12],[32.5,-69.88],[32.62,-69.5],[31.25,-68.62],[29.25,-68.38],[25.5,-69.62],[19.62,-70.25]]]}},{"type":"Feature","properties":{"kind":"blob","cls":4,"id":12},"geometry":{"type":"Polygon","coordinates":[[[-99.25,-72.62],[-97.25,-71.88],[-96.62,-71.0],[-97.25,-70.12],[-100.5,-68.62],[-104.0,-67.88],[-108.75,-68.12],[-110.25,-68.62],[-111.38,-70.0],[-110.5,-71.12],[-109.0,-71.88],[-106.5,-72.62],[-99.25,-72.62]]]}},{"type":"Feature","properties":{"kind":"blob","cls":4,"id":13},"geometry":{"type":"Polygon","coordinates":[[[-4.38,-71.25],[-4.25,-71.62],[-1.75,-71.62],[3.75,-70.88],[13.75,-70.88],[13.88,-70.25],[13.0,-69.38],[11.0,-68.62],[5.25,-68.38],[5.5,-68.88],[6.88,-69.5],[5.5,-70.12],[-1.5,-70.12],[-4.38,-71.25]]]}},{"type":"Feature","properties":{"kind":"blob","cls":1,"id":14},"geometry":{"type":"Polygon","coordinates":[[[179.75,58.12],[180.0,61.38],[179.25,61.62],[178.12,60.75],[177.88,59.5],[179.75,58.12]]]}},{"type":"Feature","properties":{"kind":"blob","cls":1,"id":14},"geometry":{"type":"Polygon","coordinates":[[[-179.75,61.38],[-180.0,58.12],[-179.25,57.88],[-175.5,58.12],[-173.75,59.12],[-173.38,59.75],[-173.62,61.0],[-175.25,61.88],[-178.0,62.12],[-179.0,61.12],[-179.75,61.38]]]}},{"type":"Feature","properties":{"kind":"blob","cls":5,"id":15},"geometry":{"type":"Polygon","coordinates":[[[-38.0,-80.38],[-35.75,-79.62],[-31.0,-78.88],[-35.38,-78.5],[-33.0,-77.38],[-24.62,-76.0],[-28.25,-75.88],[-31.25,-76.38],[-40.25,-76.62],[-43.5,-77.38],[-44.62,-78.5],[-42.75,-79.62],[-38.0,-80.38]]]}},{"type":"Feature","properties":{"kind":"blob","cls":4,"id":16},"geometry":{"type":"Polygon","coordinates":[[[-177.5,-83.12],[-173.62,-83.0],[-173.75,-82.88],[-177.5,-83.12]]]}},{"type":"Feature","properties":{"kind":"blob","cls":1,"id":17},"geometry":{"type":"Polygon","coordinates":[[[-30.12,-78.5],[-30.0,-78.62],[-29.88,-78.5],[-30.12,-78.5]]]}},{"type":"Feature","properties":{"kind":"blob","cls":4,"id":18},"geometry":{"type":"Polygon","coordinates":[[[105.25,-65.62],[107.25,-65.12],[108.62,-64.0],[108.62,-63.5],[107.25,-62.12],[104.0,-61.38],[100.5,-61.62],[98.62,-62.75],[98.62,-63.75],[99.25,-64.38],[102.0,-65.38],[105.25,-65.62]]]}},{"type":"Feature","properties":{"kind":"blob","cls":4,"id":19},"geometry":{"type":"Polygon","coordinates":[[[167.5,-78.62],[171.25,-78.12],[175.0,-76.38],[175.38,-75.75],[174.0,-74.62],[171.5,-74.12],[172.12,-72.75],[171.0,-71.88],[170.25,-71.88],[170.0,-72.62],[169.12,-72.5],[169.62,-72.75],[169.25,-73.12],[166.75,-73.12],[166.5,-73.62],[165.0,-73.62],[164.62,-74.0],[164.88,-74.25],[164.38,-74.5],[164.12,-75.75],[162.38,-77.0],[164.0,-78.38],[167.5,-78.62]],[[166.62,-77.5],[169.12,-77.5],[169.0,-77.62],[166.62,-77.5]],[[169.75,-73.62],[169.62,-73.5],[169.75,-73.38],[169.75,-73.62]]]}},{"type":"Feature","properties":{"kind":"blob","cls":4,"id":20},"geometry":{"type":"Polygon","coordinates":[[[133.0,-49.62],[134.25,-49.12],[135.12,-48.25],[135.12,-47.25],[134.25,-46.38],[131.5,-45.38],[129.25,-45.88],[128.38,-46.75],[128.38,-48.0],[129.25,-48.88],[133.0,-49.62]]]}},{"type":"Feature","properties":{"kind":"blob","cls":3,"id":21},"geometry":{"type":"Polygon","coordinates":[[[10.25,-50.12],[11.5,-49.62],[12.38,-48.75],[12.38,-47.5],[11.25,-46.38],[10.0,-45.88],[7.75,-46.38],[6.88,-47.25],[6.88,-48.75],[7.75,-49.62],[10.25,-50.12]]]}},{"type":"Feature","properties":{"kind":"blob","cls":4,"id":22},"geometry":{"type":"Polygon","coordinates":[[[51.25,64.38],[56.5,65.12],[58.25,65.88],[59.38,67.0],[59.38,68.0],[58.0,68.88],[55.75,69.38],[49.75,69.12],[47.0,68.12],[45.12,66.75],[45.12,65.75],[45.5,65.38],[47.25,64.62],[51.25,64.38]]]}},{"type":"Feature","properties":{"kind":"blob","cls":4,"id":23},"geometry":{"type":"Polygon","coordinates":[[[-38.25,52.12],[-36.25,52.88],[-35.62,53.75],[-36.12,55.25],[-36.75,55.88],[-38.75,56.62],[-41.0,56.38],[-42.5,55.62],[-43.12,54.75],[-42.88,53.75],[-42.0,52.88],[-38.25,52.12]]]}},{"type":"Feature","properties":{"kind":"blob","cls":3,"id":24},"geometry":{"type":"Polygon","coordinates":[[[-48.25,56.62],[-46.25,57.38],[-45.38,58.25],[-45.38,59.5],[-46.25,60.38],[-48.75,61.12],[-49.88,61.0],[-50.0,59.62],[-50.75,59.62],[-51.75,60.62],[-52.5,60.38],[-53.38,59.5],[-53.38,58.25],[-51.25,56.88],[-48.25,56.62]]]}},{"type":"Feature","properties":{"kind":"blob","cls":4,"id":25},"geometry":{"type":"Polygon","coordinates":[[[-79.25,-79.38],[-78.25,-79.62],[-76.38,-78.5],[-77.5,-77.62],[-79.0,-77.38],[-79.25,-79.38]]]}},{"type":"Feature","properties":{"kind":"blob","cls":4,"id":26},"geometry":{"type":"Polygon","coordinates":[[[-64.0,-76.88],[-59.75,-76.12],[-58.62,-75.25],[-59.12,-74.25],[-57.0,-73.38],[-56.38,-72.25],[-58.0,-71.12],[-62.25,-70.62],[-61.62,-71.25],[-62.88,-72.0],[-61.38,-73.0],[-62.12,-73.25],[-61.88,-73.5],[-62.5,-74.38],[-63.5,-74.38],[-63.75,-74.88],[-67.0,-75.88],[-70.88,-76.25],[-64.0,-76.88]]]}},{"type":"Feature","properties":{"kind":"blob","cls":4,"id":27},"geometry":{"type":"Polygon","coordinates":[[[-72.62,-75.5],[-72.5,-75.62],[-72.38,-75.5],[-72.62,-75.5]]]}},{"type":"Feature","properties":{"kind":"blob","cls":3,"id":28},"geometry":{"type":"Polygon","coordinates":[[[59.0,74.12],[64.0,75.12],[66.25,75.12],[70.25,76.12],[71.12,77.0],[71.12,77.5],[70.0,78.38],[65.75,79.38],[53.5,79.88],[51.38,79.5],[53.38,78.0],[53.62,77.25],[52.5,75.88],[50.75,75.38],[48.25,75.38],[47.0,75.88],[44.75,78.62],[43.38,77.5],[44.75,76.12],[47.25,75.12],[59.0,74.12]],[[59.38,75.5],[60.12,75.5],[60.0,75.38],[59.38,75.5]],[[61.5,75.62],[61.38,75.75],[61.5,75.88],[61.5,75.62]]]}},{"type":"Feature","properties":{"kind":"blob","cls":3,"id":29},"geometry":{"type":"Polygon","coordinates":[[[-118.5,24.12],[-116.88,25.25],[-116.62,26.5],[-117.75,28.12],[-119.5,28.38],[-121.12,27.25],[-121.12,25.25],[-120.25,24.38],[-118.5,24.12]]]}},{"type":"Feature","properties":{"kind":"blob","cls":4,"id":30},"geometry":{"type":"Polygon","coordinates":[[[162.38,-71.5],[162.5,-71.62],[162.62,-71.5],[162.38,-71.5]]]}},{"type":"Feature","properties":{"kind":"blob","cls":4,"id":31},"geometry":{"type":"Polygon","coordinates":[[[-68.0,-72.88],[-66.75,-73.12],[-66.12,-72.0],[-67.0,-71.38],[-68.12,-72.25],[-68.0,-72.88]]]}},{"type":"Feature","properties":{"kind":"blob","cls":4,"id":32},"geometry":{"type":"Polygon","coordinates":[[[-25.0,47.88],[-22.0,48.88],[-21.12,50.0],[-21.38,51.25],[-22.0,51.88],[-23.5,52.38],[-25.75,52.38],[-28.25,51.38],[-29.12,50.25],[-29.12,49.5],[-27.75,48.12],[-25.0,47.88]]]}},{"type":"Feature","properties":{"kind":"blob","cls":3,"id":33},"geometry":{"type":"Polygon","coordinates":[[[-49.88,63.25],[-49.75,63.12],[-49.62,63.25],[-49.88,63.25]]]}},{"type":"Feature","properties":{"kind":"blob","cls":3,"id":34},"geometry":{"type":"Polygon","coordinates":[[[-85.5,-47.88],[-84.25,-47.38],[-83.38,-46.25],[-83.62,-45.0],[-85.5,-43.88],[-87.25,-43.88],[-88.5,-44.38],[-89.38,-45.5],[-89.38,-46.25],[-88.5,-47.38],[-85.5,-47.88]]]}},{"type":"Feature","properties":{"kind":"blob","cls":4,"id":35},"geometry":{"type":"Polygon","coordinates":[[[13.75,57.12],[15.5,57.62],[16.62,59.25],[15.5,60.62],[13.75,61.12],[10.5,60.62],[9.38,59.5],[9.38,58.5],[10.25,57.62],[13.75,57.12]]]}},{"type":"Feature","properties":{"kind":"blob","cls":3,"id":36},"geometry":{"type":"MultiPolygon","coordinates":[[[[-49.75,63.88],[-49.38,64.25],[-50.12,65.0],[-50.25,65.88],[-52.25,65.62],[-53.0,66.38],[-53.62,65.75],[-53.38,64.75],[-52.75,64.12],[-49.75,63.88]]],[[[-52.88,66.5],[-49.62,66.5],[-50.25,67.38],[-52.88,66.5]]]]}},{"type":"Feature","properties":{"kind":"blob","cls":1,"id":37},"geometry":{"type":"Polygon","coordinates":[[[4.25,60.62],[6.25,61.12],[7.0,62.12],[7.88,62.5],[7.88,63.25],[6.0,64.38],[2.5,64.62],[0.5,64.12],[-0.62,63.25],[-0.62,62.25],[0.0,61.62],[1.5,60.88],[4.25,60.62]]]}},{"type":"Feature","properties":{"kind":"blob","cls":4,"id":38},"geometry":{"type":"Polygon","coordinates":[[[24.75,57.12],[26.38,58.25],[26.38,59.5],[25.5,60.38],[23.75,60.88],[20.25,60.38],[18.88,59.25],[18.88,58.25],[20.5,57.12],[24.75,57.12]]]}},{"type":"Feature","properties":{"kind":"blob","cls":4,"id":39},"geometry":{"type":"Polygon","coordinates":[[[92.75,82.88],[106.0,83.62],[111.0,84.38],[137.5,84.38],[154.25,84.88],[164.75,85.62],[168.75,86.38],[169.12,86.75],[168.0,87.38],[165.25,87.88],[153.0,88.62],[110.75,88.88],[94.0,88.38],[87.5,87.88],[83.25,86.88],[67.25,86.38],[62.25,85.62],[61.38,85.0],[62.25,84.38],[66.0,83.62],[71.5,83.12],[92.75,82.88]]]}},{"type":"Feature","properties":{"kind":"blob","cls":4,"id":40},"geometry":{"type":"Polygon","coordinates":[[[-136.25,68.38],[-132.5,68.88],[-130.5,69.62],[-129.88,70.75],[-131.0,71.88],[-133.0,72.62],[-138.25,72.88],[-141.75,72.12],[-143.38,70.75],[-143.38,70.25],[-142.25,69.38],[-140.75,69.38],[-140.75,68.88],[-140.0,68.62],[-136.25,68.38]]]}},{"type":"Feature","properties":{"kind":"blob","cls":3,"id":41},"geometry":{"type":"Polygon","coordinates":[[[145.75,29.62],[147.38,30.5],[147.62,32.25],[147.0,33.12],[145.0,33.62],[143.38,32.75],[143.12,31.0],[143.75,30.12],[145.75,29.62]]]}},{"type":"Feature","properties":{"kind":"blob","cls":3,"id":42},"geometry":{"type":"Polygon","coordinates":[[[-110.0,78.38],[-104.75,78.88],[-101.0,80.12],[-100.62,81.25],[-102.5,82.38],[-106.25,83.12],[-116.5,83.88],[-130.75,83.38],[-134.25,82.88],[-137.38,81.75],[-137.25,81.12],[-136.25,80.62],[-132.25,79.88],[-122.25,79.12],[-120.25,78.62],[-110.0,78.38]]]}},{"type":"Feature","properties":{"kind":"blob","cls":4,"id":43},"geometry":{"type":"Polygon","coordinates":[[[-26.0,64.62],[-22.5,65.38],[-20.62,66.75],[-20.62,67.5],[-21.5,68.38],[-22.75,68.88],[-26.0,69.12],[-27.75,68.62],[-30.5,68.62],[-32.38,67.25],[-32.38,66.5],[-31.5,65.62],[-26.0,64.62]]]}},{"type":"Feature","properties":{"kind":"blob","cls":5,"id":44},"geometry":{"type":"Polygon","coordinates":[[[59.75,28.12],[60.12,28.5],[59.5,30.62],[58.12,29.75],[58.38,29.0],[59.75,28.12]]]}},{"type":"Feature","properties":{"kind":"blob","cls":4,"id":45},"geometry":{"type":"Polygon","coordinates":[[[-4.75,75.62],[-2.25,76.12],[-1.25,76.62],[-0.62,77.5],[-1.5,78.38],[-2.75,78.88],[-8.0,79.62],[-16.5,79.38],[-19.0,78.88],[-20.38,78.0],[-20.0,77.12],[-18.5,76.38],[-15.0,75.62],[-4.75,75.62]]]}},{"type":"Feature","properties":{"kind":"blob","cls":0,"id":46},"geometry":{"type":"Polygon","coordinates":[[[37.75,0.62],[38.38,1.75],[38.38,2.5],[37.62,3.5],[37.62,4.5],[36.5,5.12],[35.75,6.12],[34.75,5.62],[35.38,6.5],[35.0,6.62],[34.38,6.25],[33.88,4.75],[34.75,3.12],[35.0,3.38],[35.5,2.88],[36.38,3.0],[36.38,2.5],[37.38,1.75],[37.75,0.62]]]}},{"type":"Feature","properties":{"kind":"blob","cls":4,"id":47},"geometry":{"type":"Polygon","coordinates":[[[-86.75,31.38],[-85.12,32.25],[-84.88,34.0],[-85.5,34.88],[-87.5,35.38],[-89.38,34.25],[-89.38,32.25],[-86.75,31.38]]]}},{"type":"Feature","properties":{"kind":"blob","cls":4,"id":48},"geometry":{"type":"Polygon","coordinates":[[[-64.5,-17.38],[-64.38,-17.0],[-65.25,-15.88],[-66.5,-15.62],[-66.62,-16.0],[-64.5,-17.38]]]}},{"type":"Feature","properties":{"kind":"blob","cls":4,"id":49},"geometry":{"type":"Polygon","coordinates":[[[-58.5,73.38],[-56.12,73.75],[-59.0,75.12],[-60.0,76.38],[-66.88,76.75],[-65.0,77.12],[-64.75,77.62],[-68.75,77.38],[-70.5,76.62],[-71.12,75.75],[-70.75,75.12],[-67.5,73.88],[-58.5,73.38]],[[-68.12,77.0],[-67.38,77.0],[-67.5,76.88],[-68.12,77.0]]]}},{"type":"Feature","properties":{"kind":"blob","cls":0,"id":50},"geometry":{"type":"Polygon","coordinates":[[[99.75,60.62],[104.75,61.12],[106.62,62.25],[106.62,63.25],[104.5,64.62],[102.5,65.12],[102.12,65.0],[102.88,64.25],[102.88,63.75],[102.5,63.38],[101.0,63.38],[97.5,64.88],[96.25,64.38],[95.12,63.25],[94.88,62.25],[96.0,61.12],[99.75,60.62]]]}},{"type":"Feature","properties":{"kind":"blob","cls":1,"id":51},"geometry":{"type":"Polygon","coordinates":[[[39.5,15.12],[39.75,14.88],[41.38,15.5],[40.5,15.88],[39.5,15.12]]]}},{"type":"Feature","properties":{"kind":"blob","cls":5,"id":52},"geometry":{"type":"Polygon","coordinates":[[[7.25,41.38],[8.88,42.25],[9.12,43.75],[8.5,44.62],[7.5,44.88],[7.38,44.5],[7.88,44.0],[6.75,43.62],[5.5,44.62],[4.62,44.25],[4.62,42.25],[7.25,41.38]]]}},{"type":"Feature","properties":{"kind":"blob","cls":1,"id":53},"geometry":{"type":"Polygon","coordinates":[[[59.12,28.0],[57.75,28.88],[57.38,28.25],[59.12,28.0]]]}},{"type":"Feature","properties":{"kind":"blob","cls":4,"id":54},"geometry":{"type":"Polygon","coordinates":[[[61.12,30.0],[60.75,30.62],[60.62,30.25],[61.12,30.0]]]}},{"type":"Feature","properties":{"kind":"blob","cls":5,"id":55},"geometry":{"type":"Polygon","coordinates":[[[62.88,29.75],[63.0,29.62],[63.12,29.75],[62.88,29.75]]]}},{"type":"Feature","properties":{"kind":"blob","cls":4,"id":56},"geometry":{"type":"MultiPolygon","coordinates":[[[[111.75,51.12],[111.62,51.0],[112.0,50.88],[111.75,51.12]]],[[[113.0,50.12],[114.25,50.38],[116.0,51.62],[116.88,52.5],[116.88,53.5],[116.5,53.88],[116.0,53.38],[116.38,54.0],[116.0,54.12],[114.5,52.12],[113.0,52.12],[112.12,51.25],[113.5,51.12],[113.0,50.12]],[[116.38,53.0],[116.25,52.88],[116.12,53.0],[116.38,53.0]]]]}},{"type":"Feature","properties":{"kind":"blob","cls":4,"id":57},"geometry":{"type":"Polygon","coordinates":[[[146.75,57.12],[148.62,58.5],[148.62,59.5],[147.5,60.62],[145.75,61.12],[144.25,60.62],[143.75,61.12],[142.0,60.62],[140.88,59.25],[141.12,58.25],[142.75,57.12],[146.75,57.12]],[[144.5,60.12],[144.38,60.25],[144.5,60.38],[144.5,60.12]]]}},{"type":"Feature","properties":{"kind":"blob","cls":4,"id":58},"geometry":{"type":"Polygon","coordinates":[[[-49.75,-39.12],[-46.5,-39.38],[-44.88,-38.25],[-44.88,-36.75],[-48.75,-34.62],[-51.0,-34.38],[-52.62,-35.5],[-52.62,-37.25],[-51.25,-38.62],[-49.75,-39.12]]]}},{"type":"Feature","properties":{"kind":"blob","cls":3,"id":59},"geometry":{"type":"MultiPolygon","coordinates":[[[[55.75,35.38],[55.62,35.25],[55.75,35.12],[55.75,35.38]]],[[[55.5,35.62],[55.38,35.5],[55.5,35.38],[55.5,35.62]]]]}},{"type":"Feature","properties":{"kind":"blob","cls":4,"id":60},"geometry":{"type":"Polygon","coordinates":[[[112.62,53.25],[112.75,53.12],[112.88,53.25],[112.62,53.25]]]}},{"type":"Feature","properties":{"kind":"blob","cls":4,"id":61},"geometry":{"type":"Polygon","coordinates":[[[113.75,53.88],[115.25,53.88],[115.62,54.5],[114.0,54.38],[113.75,53.88]]]}},{"type":"Feature","properties":{"kind":"blob","cls":4,"id":62},"geometry":{"type":"Polygon","coordinates":[[[95.25,25.38],[95.62,25.5],[95.5,25.62],[95.25,25.38]]]}},{"type":"Feature","properties":{"kind":"blob","cls":4,"id":63},"geometry":{"type":"Polygon","coordinates":[[[-71.5,-31.62],[-70.88,-31.75],[-71.0,-29.62],[-71.62,-30.5],[-71.5,-31.62]]]}},{"type":"Feature","properties":{"kind":"blob","cls":4,"id":64},"geometry":{"type":"Polygon","coordinates":[[[93.25,25.62],[94.0,25.62],[94.38,26.25],[92.75,26.88],[92.62,26.25],[93.25,25.62]]]}},{"type":"Feature","properties":{"kind":"blob","cls":4,"id":65},"geometry":{"type":"Polygon","coordinates":[[[109.75,51.62],[110.25,51.38],[111.62,52.5],[109.75,52.38],[109.75,51.62]]]}},{"type":"Feature","properties":{"kind":"blob","cls":4,"id":66},"geometry":{"type":"Polygon","coordinates":[[[-71.12,-32.25],[-71.0,-32.38],[-70.88,-32.25],[-71.12,-32.25]]]}},{"type":"Feature","properties":{"kind":"blob","cls":4,"id":67},"geometry":{"type":"Polygon","coordinates":[[[111.12,51.5],[111.25,51.38],[111.38,51.5],[111.12,51.5]]]}},{"type":"Feature","properties":{"kind":"blob","cls":4,"id":68},"geometry":{"type":"Polygon","coordinates":[[[110.62,51.25],[110.75,51.12],[110.88,51.25],[110.62,51.25]]]}},{"type":"Feature","properties":{"kind":"blob","cls":4,"id":69},"geometry":{"type":"Polygon","coordinates":[[[-67.0,-27.88],[-66.5,-28.12],[-66.12,-27.75],[-66.5,-27.62],[-67.0,-27.88]]]}},{"type":"Feature","properties":{"kind":"blob","cls":5,"id":70},"geometry":{"type":"Polygon","coordinates":[[[-139.75,61.88],[-137.62,62.75],[-141.0,63.12],[-142.38,62.75],[-142.0,62.38],[-139.75,61.88]]]}},{"type":"Feature","properties":{"kind":"blob","cls":4,"id":71},"geometry":{"type":"Polygon","coordinates":[[[-64.25,-22.88],[-63.38,-22.0],[-63.38,-21.0],[-64.0,-20.62],[-63.88,-21.75],[-64.25,-22.88]]]}},{"type":"Feature","properties":{"kind":"blob","cls":4,"id":72},"geometry":{"type":"Polygon","coordinates":[[[89.25,42.38],[89.62,43.0],[87.88,43.0],[88.0,42.62],[89.25,42.38]]]}},{"type":"Feature","properties":{"kind":"blob","cls":3,"id":73},"geometry":{"type":"Polygon","coordinates":[[[-68.75,-32.62],[-68.0,-32.38],[-67.38,-31.5],[-68.12,-31.5],[-67.62,-31.0],[-68.25,-29.88],[-68.62,-30.5],[-68.75,-32.62]]]}},{"type":"Feature","properties":{"kind":"blob","cls":5,"id":74},"geometry":{"type":"Polygon","coordinates":[[[-137.38,62.5],[-137.25,62.38],[-137.12,62.5],[-137.38,62.5]]]}},{"type":"Feature","properties":{"kind":"blob","cls":4,"id":75},"geometry":{"type":"Polygon","coordinates":[[[-137.5,60.62],[-137.12,60.75],[-137.25,60.88],[-137.5,60.62]]]}},{"type":"Feature","properties":{"kind":"blob","cls":4,"id":76},"geometry":{"type":"Polygon","coordinates":[[[-67.62,-30.5],[-67.5,-30.62],[-67.38,-30.5],[-67.62,-30.5]]]}},{"type":"Feature","properties":{"kind":"blob","cls":4,"id":77},"geometry":{"type":"Polygon","coordinates":[[[53.25,36.12],[53.62,36.5],[52.0,36.88],[51.88,36.5],[53.25,36.12]]]}},{"type":"Feature","properties":{"kind":"blob","cls":4,"id":78},"geometry":{"type":"Polygon","coordinates":[[[87.12,42.0],[87.25,41.88],[87.38,42.0],[87.12,42.0]]]}},{"type":"Feature","properties":{"kind":"blob","cls":4,"id":79},"geometry":{"type":"Polygon","coordinates":[[[88.38,42.0],[88.5,41.88],[88.62,42.0],[88.38,42.0]]]}},{"type":"Feature","properties":{"kind":"blob","cls":4,"id":80},"geometry":{"type":"Polygon","coordinates":[[[-137.38,60.0],[-137.25,59.88],[-137.12,60.0],[-137.38,60.0]]]}},{"type":"Feature","properties":{"kind":"blob","cls":3,"id":81},"geometry":{"type":"Polygon","coordinates":[[[-65.88,-27.25],[-65.75,-27.38],[-65.62,-27.25],[-65.88,-27.25]]]}},{"type":"Feature","properties":{"kind":"blob","cls":5,"id":82},"geometry":{"type":"MultiPolygon","coordinates":[[[[-143.62,61.25],[-142.38,61.25],[-142.5,61.38],[-143.62,61.25]]],[[[-143.75,61.62],[-143.88,61.5],[-143.75,61.38],[-143.75,61.62]]]]}},{"type":"Feature","properties":{"kind":"blob","cls":4,"id":83},"geometry":{"type":"Polygon","coordinates":[[[-139.0,59.38],[-137.88,59.75],[-143.38,60.25],[-142.25,59.62],[-139.0,59.38]]]}},{"type":"Feature","properties":{"kind":"blob","cls":4,"id":84},"geometry":{"type":"Polygon","coordinates":[[[87.38,44.0],[87.5,43.62],[88.12,44.25],[88.0,44.38],[87.38,44.0]]]}},{"type":"Feature","properties":{"kind":"center","id":1,"lat":-60.5,"lon":143.75,"mslp":947.5,"hvtl":125.9,"hvtu":-54.0,"hb":5.3,"idx":1.2,"cls":1,"psfc":947.5,"terrain":false,"radius_km":200,"name":"sym shallow warm","track":"T03"},"geometry":{"type":"Point","coordinates":[143.75,-60.5]}},{"type":"Feature","properties":{"kind":"center","id":2,"lat":23.75,"lon":148.75,"mslp":951.9,"hvtl":106.9,"hvtu":372.9,"hb":-0.1,"idx":2.6,"cls":0,"psfc":951.9,"terrain":false,"radius_km":200,"name":"sym deep warm","track":"T09"},"geometry":{"type":"Point","coordinates":[148.75,23.75]}},{"type":"Feature","properties":{"kind":"center","id":3,"lat":-64.75,"lon":40.5,"mslp":955.6,"hvtl":41.6,"hvtu":-124.1,"hb":-4.8,"idx":-0.1,"cls":1,"psfc":955.6,"terrain":false,"radius_km":200,"name":"sym shallow warm"},"geometry":{"type":"Point","coordinates":[40.5,-64.75]}},{"type":"Feature","properties":{"kind":"center","id":4,"lat":17.5,"lon":-104.75,"mslp":956.5,"hvtl":135.2,"hvtu":251.9,"hb":-10.5,"idx":2.7,"cls":0,"psfc":956.5,"terrain":false,"radius_km":200,"name":"sym deep warm"},"geometry":{"type":"Point","coordinates":[-104.75,17.5]}},{"type":"Feature","properties":{"kind":"center","id":5,"lat":-65.5,"lon":-30.75,"mslp":962.5,"hvtl":-55.9,"hvtu":-302.8,"hb":46.1,"idx":-2.0,"cls":4,"psfc":962.5,"terrain":false,"radius_km":200,"name":"asym cold","track":"T19"},"geometry":{"type":"Point","coordinates":[-30.75,-65.5]}},{"type":"Feature","properties":{"kind":"center","id":6,"lat":-66.75,"lon":51.0,"mslp":962.6,"hvtl":-114.9,"hvtu":-249.8,"hb":-23.7,"idx":-2.6,"cls":5,"psfc":906.8,"terrain":false,"radius_km":200,"name":"sym cold","track":"T27"},"geometry":{"type":"Point","coordinates":[51.0,-66.75]}},{"type":"Feature","properties":{"kind":"center","id":7,"lat":-62.0,"lon":-120.5,"mslp":962.7,"hvtl":-68.8,"hvtu":-55.7,"hb":54.9,"idx":-1.7,"cls":4,"psfc":962.7,"terrain":false,"radius_km":200,"name":"asym cold","track":"T12"},"geometry":{"type":"Point","coordinates":[-120.5,-62.0]}},{"type":"Feature","properties":{"kind":"center","id":8,"lat":-59.0,"lon":132.0,"mslp":965.9,"hvtl":141.3,"hvtu":-78.6,"hb":13.5,"idx":1.1,"cls":3,"psfc":965.9,"terrain":false,"radius_km":200,"name":"asym shallow warm"},"geometry":{"type":"Point","coordinates":[132.0,-59.0]}},{"type":"Feature","properties":{"kind":"center","id":9,"lat":-57.75,"lon":131.5,"mslp":967.0,"hvtl":112.8,"hvtu":-72.1,"hb":-25.4,"idx":1.0,"cls":1,"psfc":967.0,"terrain":false,"radius_km":200,"name":"sym shallow warm"},"geometry":{"type":"Point","coordinates":[131.5,-57.75]}},{"type":"Feature","properties":{"kind":"center","id":10,"lat":-60.5,"lon":-146.0,"mslp":967.2,"hvtl":-141.2,"hvtu":-444.9,"hb":37.8,"idx":-2.8,"cls":4,"psfc":967.2,"terrain":false,"radius_km":200,"name":"asym cold","track":"T26"},"geometry":{"type":"Point","coordinates":[-146.0,-60.5]}},{"type":"Feature","properties":{"kind":"center","id":11,"lat":-70.0,"lon":26.25,"mslp":970.6,"hvtl":-61.2,"hvtu":-88.3,"hb":21.7,"idx":-1.8,"cls":4,"psfc":969.2,"terrain":false,"radius_km":200,"name":"asym cold"},"geometry":{"type":"Point","coordinates":[26.25,-70.0]}},{"type":"Feature","properties":{"kind":"center","id":12,"lat":-70.25,"lon":-104.5,"mslp":972.4,"hvtl":-215.1,"hvtu":-126.3,"hb":73.1,"idx":-2.8,"cls":4,"psfc":972.4,"terrain":false,"radius_km":200,"name":"asym cold","track":"T40"},"geometry":{"type":"Point","coordinates":[-104.5,-70.25]}},{"type":"Feature","properties":{"kind":"center","id":13,"lat":-70.75,"lon":6.5,"mslp":974.4,"hvtl":-169.1,"hvtu":-32.9,"hb":16.4,"idx":-2.2,"cls":4,"psfc":944.4,"terrain":false,"radius_km":200,"name":"asym cold"},"geometry":{"type":"Point","coordinates":[6.5,-70.75]}},{"type":"Feature","properties":{"kind":"center","id":14,"lat":60.0,"lon":-178.0,"mslp":976.7,"hvtl":20.4,"hvtu":-85.2,"hb":6.6,"idx":-0.3,"cls":1,"psfc":976.7,"terrain":false,"radius_km":200,"name":"sym shallow warm","track":"T48"},"geometry":{"type":"Point","coordinates":[-178.0,60.0]}},{"type":"Feature","properties":{"kind":"center","id":15,"lat":-77.75,"lon":-34.25,"mslp":979.8,"hvtl":-20.5,"hvtu":-21.2,"hb":-1.1,"idx":-0.6,"cls":5,"psfc":917.8,"terrain":false,"radius_km":200,"name":"sym cold"},"geometry":{"type":"Point","coordinates":[-34.25,-77.75]}},{"type":"Feature","properties":{"kind":"center","id":16,"lat":-83.0,"lon":-173.75,"mslp":980.0,"hvtl":-141.1,"hvtu":-64.7,"hb":13.2,"idx":-2.3,"cls":4,"psfc":968.6,"terrain":false,"radius_km":200,"name":"asym cold","track":"T54"},"geometry":{"type":"Point","coordinates":[-173.75,-83.0]}},{"type":"Feature","properties":{"kind":"center","id":17,"lat":-78.5,"lon":-30.0,"mslp":980.3,"hvtl":29.0,"hvtu":-48.3,"hb":-7.5,"idx":0.1,"cls":1,"psfc":900.0,"terrain":false,"radius_km":200,"name":"sym shallow warm","track":"T56"},"geometry":{"type":"Point","coordinates":[-30.0,-78.5]}},{"type":"Feature","properties":{"kind":"center","id":18,"lat":-63.5,"lon":104.75,"mslp":981.8,"hvtl":-128.2,"hvtu":-261.6,"hb":34.5,"idx":-2.7,"cls":4,"psfc":981.8,"terrain":false,"radius_km":200,"name":"asym cold"},"geometry":{"type":"Point","coordinates":[104.75,-63.5]}},{"type":"Feature","properties":{"kind":"center","id":19,"lat":-75.75,"lon":166.25,"mslp":982.9,"hvtl":-317.3,"hvtu":-143.7,"hb":31.1,"idx":-2.9,"cls":4,"psfc":982.9,"terrain":false,"radius_km":200,"name":"asym cold","track":"T15"},"geometry":{"type":"Point","coordinates":[166.25,-75.75]}},{"type":"Feature","properties":{"kind":"center","id":20,"lat":-47.5,"lon":131.25,"mslp":983.0,"hvtl":-255.3,"hvtu":-400.1,"hb":64.8,"idx":-3.0,"cls":4,"psfc":983.0,"terrain":false,"radius_km":200,"name":"asym cold"},"geometry":{"type":"Point","coordinates":[131.25,-47.5]}},{"type":"Feature","properties":{"kind":"center","id":21,"lat":-48.0,"lon":9.5,"mslp":984.0,"hvtl":49.8,"hvtu":-395.6,"hb":48.8,"idx":-0.1,"cls":3,"psfc":984.0,"terrain":false,"radius_km":200,"name":"asym shallow warm","track":"T46"},"geometry":{"type":"Point","coordinates":[9.5,-48.0]}},{"type":"Feature","properties":{"kind":"center","id":22,"lat":67.0,"lon":52.25,"mslp":985.4,"hvtl":-111.2,"hvtu":-200.2,"hb":54.1,"idx":-2.6,"cls":4,"psfc":982.7,"terrain":false,"radius_km":200,"name":"asym cold","track":"T57"},"geometry":{"type":"Point","coordinates":[52.25,67.0]}},{"type":"Feature","properties":{"kind":"center","id":23,"lat":54.25,"lon":-39.5,"mslp":985.6,"hvtl":-160.5,"hvtu":-326.1,"hb":55.3,"idx":-2.8,"cls":4,"psfc":985.6,"terrain":false,"radius_km":200,"name":"asym cold","track":"T14"},"geometry":{"type":"Point","coordinates":[-39.5,54.25]}},{"type":"Feature","properties":{"kind":"center","id":24,"lat":58.75,"lon":-49.5,"mslp":986.3,"hvtl":224.2,"hvtu":-195.9,"hb":21.3,"idx":1.0,"cls":3,"psfc":986.3,"terrain":false,"radius_km":200,"name":"asym shallow warm"},"geometry":{"type":"Point","coordinates":[-49.5,58.75]}},{"type":"Feature","properties":{"kind":"center","id":25,"lat":-77.5,"lon":-78.25,"mslp":987.6,"hvtl":-242.6,"hvtu":-146.0,"hb":41.5,"idx":-2.9,"cls":4,"psfc":914.2,"terrain":false,"radius_km":200,"name":"asym cold"},"geometry":{"type":"Point","coordinates":[-78.25,-77.5]}},{"type":"Feature","properties":{"kind":"center","id":26,"lat":-72.75,"lon":-61.5,"mslp":989.4,"hvtl":-220.3,"hvtu":-212.7,"hb":62.0,"idx":-2.9,"cls":4,"psfc":907.2,"terrain":false,"radius_km":200,"name":"asym cold"},"geometry":{"type":"Point","coordinates":[-61.5,-72.75]}},{"type":"Feature","properties":{"kind":"center","id":27,"lat":-75.5,"lon":-72.5,"mslp":990.2,"hvtl":-257.4,"hvtu":-160.7,"hb":69.3,"idx":-2.9,"cls":4,"psfc":902.0,"terrain":false,"radius_km":200,"name":"asym cold"},"geometry":{"type":"Point","coordinates":[-72.5,-75.5]}},{"type":"Feature","properties":{"kind":"center","id":28,"lat":77.25,"lon":54.75,"mslp":991.2,"hvtl":158.8,"hvtu":-81.8,"hb":41.3,"idx":1.2,"cls":3,"psfc":991.2,"terrain":false,"radius_km":200,"name":"asym shallow warm","track":"T74"},"geometry":{"type":"Point","coordinates":[54.75,77.25]}},{"type":"Feature","properties":{"kind":"center","id":29,"lat":26.25,"lon":-119.0,"mslp":991.6,"hvtl":16.4,"hvtu":-91.8,"hb":42.7,"idx":-0.4,"cls":3,"psfc":991.6,"terrain":false,"radius_km":200,"name":"asym shallow warm"},"geometry":{"type":"Point","coordinates":[-119.0,26.25]}},{"type":"Feature","properties":{"kind":"center","id":30,"lat":-71.5,"lon":162.5,"mslp":991.7,"hvtl":-265.6,"hvtu":-362.0,"hb":73.3,"idx":-3.0,"cls":4,"psfc":922.5,"terrain":false,"radius_km":200,"name":"asym cold"},"geometry":{"type":"Point","coordinates":[162.5,-71.5]}},{"type":"Feature","properties":{"kind":"center","id":31,"lat":-73.0,"lon":-66.75,"mslp":993.0,"hvtl":-228.0,"hvtu":-217.8,"hb":64.9,"idx":-2.9,"cls":4,"psfc":908.7,"terrain":false,"radius_km":200,"name":"asym cold"},"geometry":{"type":"Point","coordinates":[-66.75,-73.0]}},{"type":"Feature","properties":{"kind":"center","id":32,"lat":50.0,"lon":-25.5,"mslp":994.3,"hvtl":-75.7,"hvtu":-261.5,"hb":53.7,"idx":-2.3,"cls":4,"psfc":994.3,"terrain":false,"radius_km":200,"name":"asym cold","track":"T17"},"geometry":{"type":"Point","coordinates":[-25.5,50.0]}},{"type":"Feature","properties":{"kind":"center","id":33,"lat":63.25,"lon":-49.75,"mslp":994.9,"hvtl":197.1,"hvtu":-143.7,"hb":42.4,"idx":1.0,"cls":3,"psfc":906.5,"terrain":false,"radius_km":200,"name":"asym shallow warm"},"geometry":{"type":"Point","coordinates":[-49.75,63.25]}},{"type":"Feature","properties":{"kind":"center","id":34,"lat":-45.75,"lon":-86.25,"mslp":994.9,"hvtl":85.1,"hvtu":-93.7,"hb":26.6,"idx":0.6,"cls":3,"psfc":994.9,"terrain":false,"radius_km":200,"name":"asym shallow warm","track":"T79"},"geometry":{"type":"Point","coordinates":[-86.25,-45.75]}},{"type":"Feature","properties":{"kind":"center","id":35,"lat":59.0,"lon":13.0,"mslp":995.2,"hvtl":-24.3,"hvtu":-191.0,"hb":29.6,"idx":-1.4,"cls":4,"psfc":989.1,"terrain":false,"radius_km":200,"name":"asym cold","track":"T80"},"geometry":{"type":"Point","coordinates":[13.0,59.0]}},{"type":"Feature","properties":{"kind":"center","id":36,"lat":64.0,"lon":-50.5,"mslp":995.3,"hvtl":212.5,"hvtu":-120.3,"hb":46.0,"idx":1.1,"cls":3,"psfc":900.7,"terrain":true,"radius_km":200,"name":"asym shallow warm"},"geometry":{"type":"Point","coordinates":[-50.5,64.0]}},{"type":"Feature","properties":{"kind":"center","id":37,"lat":62.75,"lon":3.5,"mslp":996.0,"hvtl":133.4,"hvtu":-141.3,"hb":-16.0,"idx":0.9,"cls":1,"psfc":995.9,"terrain":false,"radius_km":200,"name":"sym shallow warm","track":"T82"},"geometry":{"type":"Point","coordinates":[3.5,62.75]}},{"type":"Feature","properties":{"kind":"center","id":38,"lat":58.75,"lon":22.5,"mslp":996.5,"hvtl":-171.3,"hvtu":-279.9,"hb":57.3,"idx":-2.9,"cls":4,"psfc":995.2,"terrain":false,"radius_km":200,"name":"asym cold"},"geometry":{"type":"Point","coordinates":[22.5,58.75]}},{"type":"Feature","properties":{"kind":"center","id":39,"lat":86.75,"lon":127.5,"mslp":997.7,"hvtl":-105.4,"hvtu":-216.5,"hb":58.1,"idx":-2.5,"cls":4,"psfc":997.7,"terrain":false,"radius_km":200,"name":"asym cold","track":"T72"},"geometry":{"type":"Point","coordinates":[127.5,86.75]}},{"type":"Feature","properties":{"kind":"center","id":40,"lat":70.75,"lon":-136.5,"mslp":997.8,"hvtl":-147.9,"hvtu":-188.8,"hb":43.5,"idx":-2.8,"cls":4,"psfc":997.8,"terrain":false,"radius_km":200,"name":"asym cold","track":"T68"},"geometry":{"type":"Point","coordinates":[-136.5,70.75]}},{"type":"Feature","properties":{"kind":"center","id":41,"lat":31.75,"lon":145.5,"mslp":1001.8,"hvtl":148.8,"hvtu":-128.8,"hb":25.3,"idx":0.9,"cls":3,"psfc":1001.8,"terrain":false,"radius_km":200,"name":"asym shallow warm","track":"T91"},"geometry":{"type":"Point","coordinates":[145.5,31.75]}},{"type":"Feature","properties":{"kind":"center","id":42,"lat":81.5,"lon":-117.25,"mslp":1001.9,"hvtl":0.6,"hvtu":-246.5,"hb":35.2,"idx":-1.0,"cls":3,"psfc":1001.9,"terrain":false,"radius_km":200,"name":"asym shallow warm"},"geometry":{"type":"Point","coordinates":[-117.25,81.5]}},{"type":"Feature","properties":{"kind":"center","id":43,"lat":67.0,"lon":-26.5,"mslp":1002.5,"hvtl":-62.4,"hvtu":-241.5,"hb":19.0,"idx":-2.1,"cls":4,"psfc":1002.5,"terrain":false,"radius_km":200,"name":"asym cold"},"geometry":{"type":"Point","coordinates":[-26.5,67.0]}},{"type":"Feature","properties":{"kind":"center","id":44,"lat":29.75,"lon":58.75,"mslp":1006.9,"hvtl":-30.7,"hvtu":-148.1,"hb":9.3,"idx":-1.5,"cls":5,"psfc":971.5,"terrain":false,"radius_km":200,"name":"sym cold"},"geometry":{"type":"Point","coordinates":[58.75,29.75]}},{"type":"Feature","properties":{"kind":"center","id":45,"lat":77.5,"lon":-10.25,"mslp":1007.7,"hvtl":-325.2,"hvtu":-165.9,"hb":60.4,"idx":-2.9,"cls":4,"psfc":1007.7,"terrain":false,"radius_km":200,"name":"asym cold","track":"T59"},"geometry":{"type":"Point","coordinates":[-10.25,77.5]}},{"type":"Feature","properties":{"kind":"center","id":46,"lat":5.0,"lon":34.5,"mslp":1007.8,"hvtl":38.0,"hvtu":25.5,"hb":5.9,"idx":1.0,"cls":0,"psfc":953.2,"terrain":false,"radius_km":200,"name":"sym deep warm"},"geometry":{"type":"Point","coordinates":[34.5,5.0]}},{"type":"Feature","properties":{"kind":"center","id":47,"lat":33.25,"lon":-87.25,"mslp":1007.8,"hvtl":-111.3,"hvtu":-107.3,"hb":50.4,"idx":-2.4,"cls":4,"psfc":989.5,"terrain":false,"radius_km":200,"name":"asym cold","track":"T100"},"geometry":{"type":"Point","coordinates":[-87.25,33.25]}},{"type":"Feature","properties":{"kind":"center","id":48,"lat":-15.75,"lon":-66.25,"mslp":1007.9,"hvtl":-73.6,"hvtu":-102.9,"hb":42.8,"idx":-2.0,"cls":4,"psfc":973.7,"terrain":false,"radius_km":200,"name":"asym cold"},"geometry":{"type":"Point","coordinates":[-66.25,-15.75]}},{"type":"Feature","properties":{"kind":"center","id":49,"lat":76.0,"lon":-62.25,"mslp":1008.3,"hvtl":-45.1,"hvtu":-103.3,"hb":33.3,"idx":-1.6,"cls":4,"psfc":1008.2,"terrain":false,"radius_km":200,"name":"asym cold"},"geometry":{"type":"Point","coordinates":[-62.25,76.0]}},{"type":"Feature","properties":{"kind":"center","id":50,"lat":63.0,"lon":101.25,"mslp":1008.7,"hvtl":18.3,"hvtu":21.0,"hb":-16.5,"idx":0.6,"cls":0,"psfc":957.2,"terrain":false,"radius_km":200,"name":"sym deep warm"},"geometry":{"type":"Point","coordinates":[101.25,63.0]}},{"type":"Feature","properties":{"kind":"center","id":51,"lat":15.5,"lon":39.75,"mslp":1008.9,"hvtl":60.5,"hvtu":-68.7,"hb":-19.8,"idx":0.5,"cls":1,"psfc":1008.2,"terrain":false,"radius_km":200,"name":"sym shallow warm","track":"T95"},"geometry":{"type":"Point","coordinates":[39.75,15.5]}},{"type":"Feature","properties":{"kind":"center","id":52,"lat":43.25,"lon":6.75,"mslp":1009.2,"hvtl":-11.1,"hvtu":-219.4,"hb":7.7,"idx":-1.2,"cls":5,"psfc":1007.7,"terrain":false,"radius_km":200,"name":"sym cold"},"geometry":{"type":"Point","coordinates":[6.75,43.25]}},{"type":"Feature","properties":{"kind":"center","id":53,"lat":28.0,"lon":58.25,"mslp":1009.4,"hvtl":42.7,"hvtu":-141.7,"hb":-10.1,"idx":-0.1,"cls":1,"psfc":952.2,"terrain":false,"radius_km":200,"name":"sym shallow warm"},"geometry":{"type":"Point","coordinates":[58.25,28.0]}},{"type":"Feature","properties":{"kind":"center","id":54,"lat":30.25,"lon":61.0,"mslp":1010.1,"hvtl":-25.1,"hvtu":-133.1,"hb":14.0,"idx":-1.4,"cls":4,"psfc":954.9,"terrain":false,"radius_km":200,"name":"asym cold","track":"T112"},"geometry":{"type":"Point","coordinates":[61.0,30.25]}},{"type":"Feature","properties":{"kind":"center","id":55,"lat":29.75,"lon":63.0,"mslp":1010.6,"hvtl":-35.2,"hvtu":-123.6,"hb":5.6,"idx":-1.5,"cls":5,"psfc":918.0,"terrain":true,"radius_km":200,"name":"sym cold"},"geometry":{"type":"Point","coordinates":[63.0,29.75]}},{"type":"Feature","properties":{"kind":"center","id":56,"lat":51.25,"lon":113.25,"mslp":1011.0,"hvtl":-141.5,"hvtu":-326.5,"hb":80.2,"idx":-2.8,"cls":4,"psfc":905.6,"terrain":true,"radius_km":200,"name":"asym cold"},"geometry":{"type":"Point","coordinates":[113.25,51.25]}},{"type":"Feature","properties":{"kind":"center","id":57,"lat":58.75,"lon":148.5,"mslp":1011.1,"hvtl":-96.2,"hvtu":-142.4,"hb":32.7,"idx":-2.4,"cls":4,"psfc":1011.1,"terrain":false,"radius_km":200,"name":"asym cold"},"geometry":{"type":"Point","coordinates":[148.5,58.75]}},{"type":"Feature","properties":{"kind":"center","id":58,"lat":-35.75,"lon":-49.5,"mslp":1011.8,"hvtl":-48.9,"hvtu":-260.6,"hb":48.6,"idx":-1.9,"cls":4,"psfc":1011.8,"terrain":false,"radius_km":200,"name":"asym cold","track":"T93"},"geometry":{"type":"Point","coordinates":[-49.5,-35.75]}},{"type":"Feature","properties":{"kind":"center","id":59,"lat":35.25,"lon":55.75,"mslp":1012.3,"hvtl":57.7,"hvtu":-272.9,"hb":114.8,"idx":0.0,"cls":3,"psfc":932.5,"terrain":false,"radius_km":200,"name":"asym shallow warm"},"geometry":{"type":"Point","coordinates":[55.75,35.25]}},{"type":"Feature","properties":{"kind":"center","id":60,"lat":53.25,"lon":112.75,"mslp":1012.3,"hvtl":-64.5,"hvtu":-257.9,"hb":72.8,"idx":-2.1,"cls":4,"psfc":900.0,"terrain":true,"radius_km":200,"name":"asym cold"},"geometry":{"type":"Point","coordinates":[112.75,53.25]}},{"type":"Feature","properties":{"kind":"center","id":61,"lat":53.75,"lon":114.0,"mslp":1012.5,"hvtl":-111.6,"hvtu":-239.4,"hb":70.8,"idx":-2.6,"cls":4,"psfc":903.3,"terrain":true,"radius_km":200,"name":"asym cold"},"geometry":{"type":"Point","coordinates":[114.0,53.75]}},{"type":"Feature","properties":{"kind":"center","id":62,"lat":25.5,"lon":95.5,"mslp":1013.0,"hvtl":-3.7,"hvtu":-188.2,"hb":18.0,"idx":-1.0,"cls":4,"psfc":989.2,"terrain":false,"radius_km":200,"name":"asym cold"},"geometry":{"type":"Point","coordinates":[95.5,25.5]}},{"type":"Feature","properties":{"kind":"center","id":63,"lat":-31.0,"lon":-71.25,"mslp":1013.1,"hvtl":-101.7,"hvtu":-110.2,"hb":34.6,"idx":-2.3,"cls":4,"psfc":929.0,"terrain":false,"radius_km":200,"name":"asym cold"},"geometry":{"type":"Point","coordinates":[-71.25,-31.0]}},{"type":"Feature","properties":{"kind":"center","id":64,"lat":26.5,"lon":92.75,"mslp":1013.2,"hvtl":-42.4,"hvtu":-173.4,"hb":13.0,"idx":-1.7,"cls":4,"psfc":1005.1,"terrain":false,"radius_km":200,"name":"asym cold"},"geometry":{"type":"Point","coordinates":[92.75,26.5]}},{"type":"Feature","properties":{"kind":"center","id":65,"lat":52.5,"lon":111.5,"mslp":1013.4,"hvtl":-17.6,"hvtu":-280.0,"hb":69.2,"idx":-1.3,"cls":4,"psfc":900.0,"terrain":true,"radius_km":200,"name":"asym cold"},"geometry":{"type":"Point","coordinates":[111.5,52.5]}},{"type":"Feature","properties":{"kind":"center","id":66,"lat":-32.25,"lon":-71.0,"mslp":1014.1,"hvtl":-110.8,"hvtu":-102.3,"hb":20.6,"idx":-2.4,"cls":4,"psfc":911.0,"terrain":true,"radius_km":200,"name":"asym cold"},"geometry":{"type":"Point","coordinates":[-71.0,-32.25]}},{"type":"Feature","properties":{"kind":"center","id":67,"lat":51.5,"lon":111.25,"mslp":1014.4,"hvtl":-65.0,"hvtu":-314.3,"hb":77.7,"idx":-2.1,"cls":4,"psfc":903.3,"terrain":true,"radius_km":200,"name":"asym cold"},"geometry":{"type":"Point","coordinates":[111.25,51.5]}},{"type":"Feature","properties":{"kind":"center","id":68,"lat":51.25,"lon":110.75,"mslp":1015.2,"hvtl":-69.5,"hvtu":-321.8,"hb":78.8,"idx":-2.2,"cls":4,"psfc":900.7,"terrain":true,"radius_km":200,"name":"asym cold"},"geometry":{"type":"Point","coordinates":[110.75,51.25]}},{"type":"Feature","properties":{"kind":"center","id":69,"lat":-27.75,"lon":-66.5,"mslp":1015.2,"hvtl":-2.9,"hvtu":-85.5,"hb":21.5,"idx":-0.8,"cls":4,"psfc":921.3,"terrain":true,"radius_km":200,"name":"asym cold"},"geometry":{"type":"Point","coordinates":[-66.5,-27.75]}},{"type":"Feature","properties":{"kind":"center","id":70,"lat":62.5,"lon":-142.0,"mslp":1016.8,"hvtl":-31.2,"hvtu":-281.9,"hb":1.9,"idx":-1.6,"cls":5,"psfc":912.3,"terrain":true,"radius_km":200,"name":"sym cold"},"geometry":{"type":"Point","coordinates":[-142.0,62.5]}},{"type":"Feature","properties":{"kind":"center","id":71,"lat":-21.25,"lon":-64.0,"mslp":1017.3,"hvtl":-132.3,"hvtu":-120.3,"hb":41.0,"idx":-2.6,"cls":4,"psfc":921.8,"terrain":true,"radius_km":200,"name":"asym cold"},"geometry":{"type":"Point","coordinates":[-64.0,-21.25]}},{"type":"Feature","properties":{"kind":"center","id":72,"lat":42.75,"lon":89.5,"mslp":1017.9,"hvtl":-87.2,"hvtu":-328.5,"hb":89.9,"idx":-2.4,"cls":4,"psfc":1029.7,"terrain":false,"radius_km":200,"name":"asym cold"},"geometry":{"type":"Point","coordinates":[89.5,42.75]}},{"type":"Feature","properties":{"kind":"center","id":73,"lat":-31.5,"lon":-67.5,"mslp":1019.3,"hvtl":2.6,"hvtu":-63.3,"hb":17.2,"idx":-0.5,"cls":3,"psfc":947.7,"terrain":false,"radius_km":200,"name":"asym shallow warm"},"geometry":{"type":"Point","coordinates":[-67.5,-31.5]}},{"type":"Feature","properties":{"kind":"center","id":74,"lat":62.5,"lon":-137.25,"mslp":1019.4,"hvtl":-15.3,"hvtu":-217.7,"hb":4.5,"idx":-1.3,"cls":5,"psfc":912.6,"terrain":true,"radius_km":200,"name":"sym cold"},"geometry":{"type":"Point","coordinates":[-137.25,62.5]}},{"type":"Feature","properties":{"kind":"center","id":75,"lat":60.75,"lon":-137.25,"mslp":1019.5,"hvtl":-74.0,"hvtu":-239.6,"hb":20.1,"idx":-2.2,"cls":4,"psfc":903.6,"terrain":true,"radius_km":200,"name":"asym cold"},"geometry":{"type":"Point","coordinates":[-137.25,60.75]}},{"type":"Feature","properties":{"kind":"center","id":76,"lat":-30.5,"lon":-67.5,"mslp":1019.9,"hvtl":-4.6,"hvtu":-62.1,"hb":18.3,"idx":-0.6,"cls":4,"psfc":906.0,"terrain":true,"radius_km":200,"name":"asym cold"},"geometry":{"type":"Point","coordinates":[-67.5,-30.5]}},{"type":"Feature","properties":{"kind":"center","id":77,"lat":36.75,"lon":52.75,"mslp":1020.0,"hvtl":-21.2,"hvtu":-277.6,"hb":113.4,"idx":-1.4,"cls":4,"psfc":1022.8,"terrain":false,"radius_km":200,"name":"asym cold"},"geometry":{"type":"Point","coordinates":[52.75,36.75]}},{"type":"Feature","properties":{"kind":"center","id":78,"lat":42.0,"lon":87.25,"mslp":1020.1,"hvtl":-12.7,"hvtu":-196.5,"hb":90.7,"idx":-1.2,"cls":4,"psfc":900.8,"terrain":true,"radius_km":200,"name":"asym cold"},"geometry":{"type":"Point","coordinates":[87.25,42.0]}},{"type":"Feature","properties":{"kind":"center","id":79,"lat":42.0,"lon":88.5,"mslp":1020.5,"hvtl":-48.8,"hvtu":-255.3,"hb":86.8,"idx":-1.9,"cls":4,"psfc":913.6,"terrain":true,"radius_km":200,"name":"asym cold"},"geometry":{"type":"Point","coordinates":[88.5,42.0]}},{"type":"Feature","properties":{"kind":"center","id":80,"lat":60.0,"lon":-137.25,"mslp":1020.8,"hvtl":-88.5,"hvtu":-240.1,"hb":24.6,"idx":-2.4,"cls":4,"psfc":900.4,"terrain":true,"radius_km":200,"name":"asym cold"},"geometry":{"type":"Point","coordinates":[-137.25,60.0]}},{"type":"Feature","properties":{"kind":"center","id":81,"lat":-27.25,"lon":-65.75,"mslp":1021.4,"hvtl":6.8,"hvtu":-83.5,"hb":22.5,"idx":-0.5,"cls":3,"psfc":933.6,"terrain":false,"radius_km":200,"name":"asym shallow warm"},"geometry":{"type":"Point","coordinates":[-65.75,-27.25]}},{"type":"Feature","properties":{"kind":"center","id":82,"lat":61.5,"lon":-143.75,"mslp":1021.6,"hvtl":-79.7,"hvtu":-302.6,"hb":8.6,"idx":-2.3,"cls":5,"psfc":912.9,"terrain":true,"radius_km":200,"name":"sym cold"},"geometry":{"type":"Point","coordinates":[-143.75,61.5]}},{"type":"Feature","properties":{"kind":"center","id":83,"lat":59.75,"lon":-142.25,"mslp":1022.6,"hvtl":-80.7,"hvtu":-302.5,"hb":25.0,"idx":-2.3,"cls":4,"psfc":1022.6,"terrain":false,"radius_km":200,"name":"asym cold"},"geometry":{"type":"Point","coordinates":[-142.25,59.75]}},{"type":"Feature","properties":{"kind":"center","id":84,"lat":44.0,"lon":88.0,"mslp":1025.4,"hvtl":-58.8,"hvtu":-313.4,"hb":89.8,"idx":-2.1,"cls":4,"psfc":900.2,"terrain":true,"radius_km":200,"name":"asym cold"},"geometry":{"type":"Point","coordinates":[88.0,44.0]}}]}