{"type":"FeatureCollection","features":[{"type":"Feature","properties":{"kind":"blob","cls":3,"id":1},"geometry":{"type":"Polygon","coordinates":[[[48.5,-61.38],[53.0,-61.38],[54.25,-60.88],[55.38,-59.75],[55.38,-59.25],[54.0,-57.88],[51.25,-56.88],[48.5,-56.88],[46.0,-57.62],[44.88,-58.75],[44.88,-59.75],[46.25,-60.88],[48.5,-61.38]]]}},{"type":"Feature","properties":{"kind":"blob","cls":1,"id":2},"geometry":{"type":"Polygon","coordinates":[[[-169.25,-66.62],[-168.5,-65.62],[-166.0,-66.12],[-164.88,-65.25],[-164.88,-64.25],[-167.0,-62.88],[-168.5,-62.62],[-172.75,-62.88],[-174.62,-64.0],[-174.62,-65.0],[-174.0,-65.62],[-172.5,-66.38],[-169.25,-66.62]]]}},{"type":"Feature","properties":{"kind":"blob","cls":1,"id":3},"geometry":{"type":"Polygon","coordinates":[[[-95.25,-67.38],[-94.0,-66.88],[-93.12,-66.0],[-93.12,-65.25],[-94.5,-63.88],[-97.25,-63.12],[-101.5,-63.38],[-102.75,-63.88],[-103.62,-64.75],[-103.88,-65.25],[-102.75,-66.62],[-101.0,-67.38],[-95.25,-67.38]]]}},{"type":"Feature","properties":{"kind":"blob","cls":4,"id":4},"geometry":{"type":"Polygon","coordinates":[[[114.5,-57.12],[116.25,-56.62],[117.38,-55.5],[117.12,-54.0],[114.75,-52.88],[112.5,-52.88],[110.5,-53.62],[109.88,-54.5],[109.88,-55.5],[111.25,-56.62],[114.5,-57.12]]]}},{"type":"Feature","properties":{"kind":"blob","cls":4,"id":5},"geometry":{"type":"Polygon","coordinates":[[[111.0,-66.62],[111.25,-66.12],[112.25,-66.12],[112.62,-65.25],[111.75,-64.38],[110.5,-63.88],[106.25,-63.62],[104.62,-64.0],[106.5,-64.62],[106.88,-65.25],[106.5,-65.62],[104.75,-65.38],[103.5,-64.62],[102.62,-65.25],[102.75,-66.12],[111.0,-66.62]]]}},{"type":"Feature","properties":{"kind":"blob","cls":4,"id":6},"geometry":{"type":"Polygon","coordinates":[[[29.75,-56.62],[31.75,-55.88],[32.38,-55.0],[32.12,-53.75],[29.75,-52.62],[28.25,-52.62],[26.25,-53.38],[25.62,-54.25],[25.88,-55.25],[27.5,-56.38],[29.75,-56.62]]]}},{"type":"Feature","properties":{"kind":"blob","cls":3,"id":7},"geometry":{"type":"Polygon","coordinates":[[[10.25,-62.12],[13.75,-61.12],[16.12,-59.0],[16.12,-58.0],[15.25,-57.12],[13.25,-56.38],[10.75,-56.62],[8.5,-57.62],[6.0,-59.12],[5.62,-59.75],[5.62,-60.5],[6.25,-61.38],[10.25,-62.12]]]}},{"type":"Feature","properties":{"kind":"blob","cls":3,"id":8},"geometry":{"type":"Polygon","coordinates":[[[106.0,-53.88],[108.0,-53.12],[108.88,-52.25],[108.88,-51.25],[107.75,-50.12],[106.25,-49.62],[104.5,-49.62],[103.0,-50.12],[102.12,-51.0],[102.12,-52.5],[103.0,-53.38],[106.0,-53.88]]]}},{"type":"Feature","properties":{"kind":"blob","cls":1,"id":9},"geometry":{"type":"Polygon","coordinates":[[[1.0,69.62],[3.75,70.12],[5.62,71.25],[5.62,72.25],[4.75,72.88],[2.0,73.62],[-2.5,73.88],[-6.0,73.12],[-7.38,72.25],[-7.38,71.25],[-6.5,70.62],[-4.5,69.88],[1.0,69.62]]]}},{"type":"Feature","properties":{"kind":"blob","cls":1,"id":10},"geometry":{"type":"Polygon","coordinates":[[[-157.5,47.62],[-155.75,48.38],[-155.12,49.5],[-155.38,50.5],[-157.5,51.62],[-159.75,51.38],[-160.5,50.88],[-161.38,49.5],[-161.12,48.75],[-160.0,47.88],[-157.5,47.62]],[[-157.38,50.25],[-157.0,50.62],[-156.12,50.5],[-156.5,49.88],[-157.38,50.25]]]}},{"type":"Feature","properties":{"kind":"blob","cls":1,"id":11},"geometry":{"type":"Polygon","coordinates":[[[-115.75,-64.38],[-113.75,-63.88],[-112.88,-63.25],[-112.62,-62.25],[-113.75,-61.12],[-115.75,-60.62],[-118.5,-60.88],[-120.12,-61.75],[-120.38,-62.75],[-120.0,-63.38],[-118.5,-64.12],[-115.75,-64.38]]]}},{"type":"Feature","properties":{"kind":"blob","cls":5,"id":12},"geometry":{"type":"Polygon","coordinates":[[[-161.25,-82.88],[-150.0,-82.88],[-140.75,-81.88],[-138.5,-81.38],[-138.38,-81.0],[-140.0,-80.12],[-144.0,-79.88],[-157.5,-80.12],[-162.0,-80.88],[-163.38,-81.75],[-163.25,-82.38],[-161.25,-82.88]],[[-149.12,-81.75],[-148.75,-81.38],[-146.12,-81.75],[-146.25,-81.88],[-149.12,-81.75]]]}},{"type":"Feature","properties":{"kind":"blob","cls":1,"id":13},"geometry":{"type":"Polygon","coordinates":[[[98.25,-60.88],[99.0,-60.62],[100.12,-59.25],[99.0,-57.88],[97.25,-57.38],[95.25,-57.38],[93.5,-57.88],[92.38,-59.25],[92.62,-59.75],[93.5,-60.62],[98.25,-60.88]]]}},{"type":"Feature","properties":{"kind":"blob","cls":0,"id":14},"geometry":{"type":"Polygon","coordinates":[[[150.75,54.62],[152.12,55.75],[152.38,56.5],[150.75,58.12],[146.75,58.12],[145.12,56.5],[146.25,54.88],[150.75,54.62]],[[148.0,56.12],[147.12,56.75],[147.5,57.38],[149.12,57.0],[148.75,56.12],[148.0,56.12]]]}},{"type":"Feature","properties":{"kind":"blob","cls":4,"id":15},"geometry":{"type":"Polygon","coordinates":[[[-163.5,-55.12],[-160.25,-55.12],[-159.12,-54.5],[-158.62,-53.5],[-159.25,-52.38],[-161.25,-51.38],[-165.0,-51.38],[-166.38,-52.5],[-166.38,-53.5],[-165.25,-54.62],[-163.5,-55.12]]]}},{"type":"Feature","properties":{"kind":"blob","cls":4,"id":16},"geometry":{"type":"Polygon","coordinates":[[[-52.0,48.88],[-50.5,49.38],[-49.62,50.5],[-50.12,51.75],[-47.5,52.12],[-45.75,52.88],[-45.12,53.75],[-45.38,55.0],[-47.0,56.12],[-50.25,56.88],[-52.5,56.88],[-54.5,56.12],[-55.62,54.75],[-55.62,54.25],[-54.75,53.12],[-54.5,54.12],[-53.62,53.5],[-53.12,52.75],[-53.12,51.75],[-53.75,51.62],[-54.5,52.88],[-55.0,52.88],[-56.38,51.75],[-56.38,50.75],[-55.5,49.62],[-52.0,48.88]]]}},{"type":"Feature","properties":{"kind":"blob","cls":6,"id":17},"geometry":{"type":"Polygon","coordinates":[[[-37.5,-76.38],[-32.75,-75.62],[-30.5,-74.62],[-30.12,-73.5],[-31.25,-72.62],[-34.0,-71.88],[-41.0,-71.62],[-46.0,-72.62],[-47.5,-73.38],[-47.88,-74.0],[-47.25,-75.12],[-46.0,-75.62],[-37.5,-76.38]]]}},{"type":"Feature","properties":{"kind":"blob","cls":5,"id":18},"geometry":{"type":"Polygon","coordinates":[[[-122.0,83.12],[-108.25,84.12],[-104.25,84.88],[-103.12,85.5],[-105.25,86.38],[-113.5,87.12],[-147.0,87.38],[-163.75,86.38],[-168.0,85.62],[-168.88,85.0],[-168.0,84.12],[-165.5,83.62],[-160.0,83.12],[-122.0,83.12]]]}},{"type":"Feature","properties":{"kind":"blob","cls":4,"id":19},"geometry":{"type":"Polygon","coordinates":[[[10.75,-48.12],[12.62,-47.0],[12.88,-45.75],[12.0,-44.62],[9.5,-44.12],[7.62,-45.25],[7.62,-46.75],[8.5,-47.62],[10.75,-48.12]]]}},{"type":"Feature","properties":{"kind":"blob","cls":4,"id":20},"geometry":{"type":"Polygon","coordinates":[[[33.75,78.62],[39.25,79.12],[44.0,80.38],[44.38,81.25],[42.5,82.12],[39.25,82.62],[25.5,82.88],[18.5,82.12],[15.88,81.0],[16.0,80.38],[17.75,79.62],[22.5,78.88],[33.75,78.62]]]}},{"type":"Feature","properties":{"kind":"blob","cls":4,"id":21},"geometry":{"type":"Polygon","coordinates":[[[138.5,78.62],[142.25,79.38],[143.62,80.25],[143.62,80.75],[142.25,81.62],[139.0,82.38],[127.0,83.38],[110.75,83.38],[103.5,82.62],[101.38,81.75],[101.38,81.25],[102.25,80.62],[107.25,79.38],[117.25,78.62],[138.5,78.62]]]}},{"type":"Feature","properties":{"kind":"blob","cls":4,"id":22},"geometry":{"type":"Polygon","coordinates":[[[-117.75,-54.38],[-114.5,-54.38],[-113.12,-53.25],[-113.12,-52.25],[-114.0,-51.38],[-115.75,-50.62],[-119.25,-50.62],[-120.62,-51.75],[-120.62,-52.75],[-119.5,-53.88],[-117.75,-54.38]]]}},{"type":"Feature","properties":{"kind":"blob","cls":4,"id":23},"geometry":{"type":"Polygon","coordinates":[[[-169.75,-48.12],[-167.88,-47.0],[-167.62,-45.75],[-168.5,-44.62],[-171.0,-44.12],[-172.88,-45.25],[-172.88,-46.75],[-172.0,-47.62],[-169.75,-48.12]]]}},{"type":"Feature","properties":{"kind":"blob","cls":4,"id":24},"geometry":{"type":"Polygon","coordinates":[[[166.0,-63.38],[169.75,-62.62],[172.38,-61.0],[172.38,-60.0],[170.75,-58.88],[169.5,-58.62],[167.75,-58.62],[164.5,-59.38],[162.25,-60.38],[161.38,-61.5],[162.25,-62.62],[166.0,-63.38]]]}},{"type":"Feature","properties":{"kind":"blob","cls":4,"id":25},"geometry":{"type":"Polygon","coordinates":[[[69.25,-68.88],[76.0,-69.12],[76.62,-68.75],[74.75,-68.12],[72.5,-68.12],[69.25,-68.88]]]}},{"type":"Feature","properties":{"kind":"blob","cls":0,"id":26},"geometry":{"type":"MultiPolygon","coordinates":[[[[-98.75,9.38],[-97.75,9.12],[-96.38,10.0],[-96.12,11.5],[-96.5,12.12],[-98.25,10.88],[-99.38,11.5],[-99.25,12.38],[-99.62,12.0],[-99.88,10.5],[-98.75,9.38]]],[[[-99.0,12.62],[-99.12,12.5],[-99.0,12.38],[-99.0,12.62]]]]}},{"type":"Feature","properties":{"kind":"blob","cls":3,"id":27},"geometry":{"type":"Polygon","coordinates":[[[-59.25,67.12],[-56.5,67.62],[-54.12,69.0],[-54.12,70.0],[-54.75,70.88],[-56.75,71.62],[-62.0,71.88],[-66.0,70.88],[-67.12,69.75],[-67.12,69.0],[-66.5,68.38],[-64.0,67.38],[-59.25,67.12]]]}},{"type":"Feature","properties":{"kind":"blob","cls":4,"id":28},"geometry":{"type":"Polygon","coordinates":[[[-26.5,63.88],[-23.5,64.62],[-20.88,66.5],[-20.88,67.5],[-21.75,68.38],[-23.0,68.88],[-26.0,69.12],[-27.5,68.62],[-30.25,68.62],[-33.5,67.38],[-34.12,66.5],[-33.25,65.12],[-32.25,64.62],[-26.5,63.88]]]}},{"type":"Feature","properties":{"kind":"blob","cls":4,"id":29},"geometry":{"type":"Polygon","coordinates":[[[-76.25,64.12],[-71.75,64.12],[-70.5,64.62],[-69.62,65.5],[-69.62,66.0],[-72.75,68.38],[-74.0,68.88],[-74.88,68.75],[-75.25,67.62],[-77.25,66.88],[-78.75,66.88],[-79.62,67.5],[-78.75,68.88],[-80.5,68.38],[-81.38,67.5],[-81.38,67.0],[-79.75,65.88],[-78.75,64.62],[-76.25,64.12]]]}},{"type":"Feature","properties":{"kind":"blob","cls":4,"id":30},"geometry":{"type":"Polygon","coordinates":[[[177.0,44.12],[178.25,44.62],[179.12,45.75],[178.88,47.0],[177.0,48.12],[175.5,48.12],[174.25,47.62],[173.62,47.0],[173.38,46.0],[174.5,44.62],[177.0,44.12]]]}},{"type":"Feature","properties":{"kind":"blob","cls":4,"id":31},"geometry":{"type":"MultiPolygon","coordinates":[[[[162.75,52.88],[165.25,53.88],[165.88,54.5],[165.88,56.0],[163.75,57.88],[161.5,58.12],[160.75,57.88],[160.25,57.12],[159.75,57.62],[158.62,56.5],[158.75,56.12],[159.5,56.88],[159.88,56.75],[158.38,55.25],[158.38,54.5],[159.25,53.62],[162.75,52.88]],[[161.0,54.88],[160.38,55.0],[160.62,55.5],[160.25,56.12],[160.88,56.0],[161.0,54.88]]],[[[160.25,57.88],[160.12,57.75],[160.25,57.62],[160.25,57.88]]]]}},{"type":"Feature","properties":{"kind":"blob","cls":2,"id":32},"geometry":{"type":"Polygon","coordinates":[[[-168.25,-13.62],[-167.38,-12.5],[-167.62,-11.0],[-169.0,-10.12],[-170.5,-10.38],[-171.38,-11.5],[-171.38,-12.75],[-169.5,-12.12],[-168.25,-13.62]]]}},{"type":"Feature","properties":{"kind":"blob","cls":0,"id":33},"geometry":{"type":"Polygon","coordinates":[[[152.25,9.88],[153.12,11.0],[152.88,12.5],[151.5,13.38],[150.0,13.12],[149.12,12.0],[149.38,10.5],[149.75,10.12],[152.25,9.88]]]}},{"type":"Feature","properties":{"kind":"blob","cls":0,"id":34},"geometry":{"type":"Polygon","coordinates":[[[-73.25,-11.88],[-72.5,-11.62],[-71.62,-10.5],[-72.0,-8.38],[-74.12,-10.5],[-73.25,-11.88]]]}},{"type":"Feature","properties":{"kind":"blob","cls":1,"id":35},"geometry":{"type":"Polygon","coordinates":[[[-67.75,-14.38],[-66.88,-13.25],[-67.12,-11.5],[-68.5,-10.62],[-70.5,-10.88],[-71.38,-12.0],[-71.38,-13.0],[-67.75,-14.38]]]}},{"type":"Feature","properties":{"kind":"blob","cls":3,"id":36},"geometry":{"type":"Polygon","coordinates":[[[-89.0,51.38],[-86.25,52.38],[-85.12,53.75],[-85.38,55.0],[-86.0,55.62],[-88.0,56.38],[-90.0,56.38],[-92.5,55.38],[-93.38,54.25],[-93.38,53.25],[-92.25,51.88],[-89.0,51.38]]]}},{"type":"Feature","properties":{"kind":"blob","cls":5,"id":37},"geometry":{"type":"Polygon","coordinates":[[[-100.0,-37.12],[-98.38,-36.25],[-98.12,-34.75],[-98.75,-33.88],[-100.75,-33.38],[-102.38,-34.25],[-102.38,-36.25],[-100.0,-37.12]]]}},{"type":"Feature","properties":{"kind":"blob","cls":3,"id":38},"geometry":{"type":"Polygon","coordinates":[[[35.5,40.62],[37.62,41.75],[37.62,43.75],[36.5,44.88],[35.25,45.38],[32.75,44.88],[32.12,44.25],[31.88,43.25],[32.12,41.5],[32.5,41.12],[33.12,41.25],[32.62,43.25],[33.75,43.38],[35.38,42.25],[35.5,40.62]]]}},{"type":"Feature","properties":{"kind":"blob","cls":3,"id":39},"geometry":{"type":"Polygon","coordinates":[[[-74.12,-11.75],[-74.0,-11.88],[-73.88,-11.75],[-74.12,-11.75]]]}},{"type":"Feature","properties":{"kind":"blob","cls":4,"id":40},"geometry":{"type":"Polygon","coordinates":[[[-94.5,-41.88],[-93.38,-40.75],[-93.38,-39.5],[-95.25,-37.88],[-97.5,-37.62],[-99.38,-39.0],[-99.62,-40.0],[-98.5,-41.38],[-94.5,-41.88]]]}},{"type":"Feature","properties":{"kind":"blob","cls":3,"id":41},"geometry":{"type":"Polygon","coordinates":[[[-74.38,-11.25],[-74.25,-11.38],[-74.12,-11.25],[-74.38,-11.25]]]}},{"type":"Feature","properties":{"kind":"blob","cls":1,"id":42},"geometry":{"type":"Polygon","coordinates":[[[-101.88,27.75],[-101.75,27.62],[-101.62,27.75],[-101.88,27.75]]]}},{"type":"Feature","properties":{"kind":"blob","cls":2,"id":43},"geometry":{"type":"MultiPolygon","coordinates":[[[[128.0,62.38],[132.25,62.12],[133.75,62.38],[135.38,63.5],[135.0,63.88],[131.0,64.12],[130.75,64.62],[128.75,64.38],[127.88,64.75],[128.12,65.25],[127.75,65.62],[126.0,65.12],[125.12,64.25],[125.12,63.75],[126.0,62.88],[128.0,62.38]]],[[[135.25,64.12],[135.12,64.0],[135.5,63.88],[135.25,64.12]]]]}},{"type":"Feature","properties":{"kind":"blob","cls":1,"id":44},"geometry":{"type":"Polygon","coordinates":[[[-121.5,37.12],[-120.12,38.0],[-121.62,40.0],[-121.88,41.0],[-123.25,40.88],[-123.12,41.75],[-123.75,41.88],[-124.62,41.0],[-124.62,39.0],[-123.25,37.38],[-121.5,37.12]],[[-122.62,39.5],[-123.12,39.75],[-123.25,40.62],[-122.88,40.5],[-122.62,39.5]]]}},{"type":"Feature","properties":{"kind":"blob","cls":3,"id":45},"geometry":{"type":"Polygon","coordinates":[[[-65.75,-33.62],[-64.12,-32.75],[-64.12,-30.75],[-66.25,-29.88],[-67.62,-30.5],[-67.38,-31.25],[-68.0,-31.62],[-68.12,-31.25],[-67.62,-31.0],[-68.25,-30.12],[-68.62,-30.5],[-68.88,-33.0],[-67.75,-32.88],[-65.75,-33.62]],[[-66.38,-32.75],[-65.75,-32.38],[-65.62,-33.0],[-66.38,-32.75]],[[-64.88,-32.75],[-65.12,-31.25],[-64.5,-30.88],[-64.62,-32.5],[-64.88,-32.75]],[[-66.62,-31.0],[-66.5,-30.62],[-66.38,-30.75],[-66.62,-31.0]]]}},{"type":"Feature","properties":{"kind":"blob","cls":4,"id":46},"geometry":{"type":"MultiPolygon","coordinates":[[[[61.25,33.38],[61.12,33.25],[61.25,33.12],[61.25,33.38]]],[[[61.5,33.62],[61.38,33.5],[61.5,33.38],[61.5,33.62]]]]}},{"type":"Feature","properties":{"kind":"blob","cls":4,"id":47},"geometry":{"type":"Polygon","coordinates":[[[-64.0,-21.38],[-63.62,-21.25],[-64.0,-20.62],[-64.0,-21.38]]]}},{"type":"Feature","properties":{"kind":"blob","cls":3,"id":48},"geometry":{"type":"Polygon","coordinates":[[[133.75,64.88],[134.38,65.25],[132.25,65.88],[130.38,65.75],[130.88,65.5],[130.75,65.12],[133.75,64.88]]]}},{"type":"Feature","properties":{"kind":"blob","cls":4,"id":49},"geometry":{"type":"Polygon","coordinates":[[[82.75,44.38],[83.12,45.0],[82.25,46.38],[81.0,46.88],[78.75,46.38],[77.88,45.25],[77.88,44.75],[78.25,44.62],[79.25,45.38],[81.75,45.88],[82.38,45.25],[81.62,45.0],[82.75,44.38]]]}},{"type":"Feature","properties":{"kind":"blob","cls":4,"id":50},"geometry":{"type":"Polygon","coordinates":[[[-71.25,-32.62],[-70.62,-32.75],[-71.12,-32.0],[-71.0,-30.12],[-71.62,-31.0],[-71.25,-32.62]]]}},{"type":"Feature","properties":{"kind":"blob","cls":3,"id":51},"geometry":{"type":"MultiPolygon","coordinates":[[[[-122.62,41.75],[-122.5,41.62],[-122.38,42.0],[-122.62,41.75]]],[[[-122.75,42.38],[-122.88,42.25],[-122.75,42.12],[-122.75,42.38]]]]}},{"type":"Feature","properties":{"kind":"center","id":1,"lat":-59.25,"lon":50.0,"mslp":952.8,"hvtl":54.9,"hvtu":-167.2,"hb":51.4,"idx":0.1,"cls":3,"psfc":952.8,"terrain":false,"radius_km":200,"name":"asym shallow warm","track":"T05"},"geometry":{"type":"Point","coordinates":[50.0,-59.25]}},{"type":"Feature","properties":{"kind":"center","id":2,"lat":-64.5,"lon":-169.75,"mslp":955.8,"hvtl":158.5,"hvtu":-83.2,"hb":-26.3,"idx":1.2,"cls":1,"psfc":955.8,"terrain":false,"radius_km":200,"name":"sym shallow warm","track":"T18"},"geometry":{"type":"Point","coordinates":[-169.75,-64.5]}},{"type":"Feature","properties":{"kind":"center","id":3,"lat":-65.25,"lon":-98.5,"mslp":956.7,"hvtl":32.4,"hvtu":-85.1,"hb":6.0,"idx":-0.1,"cls":1,"psfc":956.7,"terrain":false,"radius_km":200,"name":"sym shallow warm","track":"T16"},"geometry":{"type":"Point","coordinates":[-98.5,-65.25]}},{"type":"Feature","properties":{"kind":"center","id":4,"lat":-54.75,"lon":113.25,"mslp":958.6,"hvtl":-5.5,"hvtu":-201.8,"hb":38.6,"idx":-1.1,"cls":4,"psfc":958.6,"terrain":false,"radius_km":200,"name":"asym cold","track":"T20"},"geometry":{"type":"Point","coordinates":[113.25,-54.75]}},{"type":"Feature","properties":{"kind":"center","id":5,"lat":-65.5,"lon":107.5,"mslp":958.7,"hvtl":-119.3,"hvtu":-48.2,"hb":37.9,"idx":-2.1,"cls":4,"psfc":958.7,"terrain":false,"radius_km":200,"name":"asym cold","track":"T07"},"geometry":{"type":"Point","coordinates":[107.5,-65.5]}},{"type":"Feature","properties":{"kind":"center","id":6,"lat":-54.5,"lon":29.0,"mslp":959.5,"hvtl":-25.1,"hvtu":-359.9,"hb":39.5,"idx":-1.5,"cls":4,"psfc":959.5,"terrain":false,"radius_km":200,"name":"asym cold","track":"T21"},"geometry":{"type":"Point","coordinates":[29.0,-54.5]}},{"type":"Feature","properties":{"kind":"center","id":7,"lat":-59.0,"lon":11.75,"mslp":962.9,"hvtl":0.1,"hvtu":-138.4,"hb":12.2,"idx":-0.9,"cls":3,"psfc":962.9,"terrain":false,"radius_km":200,"name":"asym shallow warm","track":"T23"},"geometry":{"type":"Point","coordinates":[11.75,-59.0]}},{"type":"Feature","properties":{"kind":"center","id":8,"lat":-51.75,"lon":105.5,"mslp":965.6,"hvtl":53.3,"hvtu":-86.3,"hb":11.7,"idx":0.3,"cls":3,"psfc":965.6,"terrain":false,"radius_km":200,"name":"asym shallow warm","track":"T13"},"geometry":{"type":"Point","coordinates":[105.5,-51.75]}},{"type":"Feature","properties":{"kind":"center","id":9,"lat":71.75,"lon":-1.0,"mslp":966.5,"hvtl":58.5,"hvtu":-14.1,"hb":9.0,"idx":0.9,"cls":1,"psfc":966.5,"terrain":false,"radius_km":200,"name":"sym shallow warm","track":"T02"},"geometry":{"type":"Point","coordinates":[-1.0,71.75]}},{"type":"Feature","properties":{"kind":"center","id":10,"lat":49.5,"lon":-158.25,"mslp":967.6,"hvtl":114.5,"hvtu":-54.5,"hb":8.4,"idx":1.1,"cls":1,"psfc":967.6,"terrain":false,"radius_km":200,"name":"sym shallow warm","track":"T34"},"geometry":{"type":"Point","coordinates":[-158.25,49.5]}},{"type":"Feature","properties":{"kind":"center","id":11,"lat":-62.75,"lon":-116.0,"mslp":967.6,"hvtl":72.9,"hvtu":-141.7,"hb":-4.1,"idx":0.4,"cls":1,"psfc":967.6,"terrain":false,"radius_km":200,"name":"sym shallow warm"},"geometry":{"type":"Point","coordinates":[-116.0,-62.75]}},{"type":"Feature","properties":{"kind":"center","id":12,"lat":-82.0,"lon":-148.25,"mslp":969.1,"hvtl":-98.9,"hvtu":-59.5,"hb":0.1,"idx":-2.0,"cls":5,"psfc":919.5,"terrain":false,"radius_km":200,"name":"sym cold","track":"T36"},"geometry":{"type":"Point","coordinates":[-148.25,-82.0]}},{"type":"Feature","properties":{"kind":"center","id":13,"lat":-59.25,"lon":96.25,"mslp":971.1,"hvtl":56.1,"hvtu":-91.6,"hb":-35.6,"idx":0.3,"cls":1,"psfc":971.1,"terrain":false,"radius_km":200,"name":"sym shallow warm"},"geometry":{"type":"Point","coordinates":[96.25,-59.25]}},{"type":"Feature","properties":{"kind":"center","id":14,"lat":56.25,"lon":149.0,"mslp":972.1,"hvtl":113.0,"hvtu":74.6,"hb":0.0,"idx":2.3,"cls":0,"psfc":972.1,"terrain":false,"radius_km":200,"name":"sym deep warm","track":"T30"},"geometry":{"type":"Point","coordinates":[149.0,56.25]}},{"type":"Feature","properties":{"kind":"center","id":15,"lat":-53.25,"lon":-163.0,"mslp":973.6,"hvtl":-464.0,"hvtu":-375.8,"hb":110.9,"idx":-3.0,"cls":4,"psfc":973.6,"terrain":false,"radius_km":200,"name":"asym cold","track":"T01"},"geometry":{"type":"Point","coordinates":[-163.0,-53.25]}},{"type":"Feature","properties":{"kind":"center","id":16,"lat":54.25,"lon":-50.0,"mslp":975.7,"hvtl":-129.3,"hvtu":-82.4,"hb":63.3,"idx":-2.4,"cls":4,"psfc":975.7,"terrain":false,"radius_km":200,"name":"asym cold","track":"T44"},"geometry":{"type":"Point","coordinates":[-50.0,54.25]}},{"type":"Feature","properties":{"kind":"center","id":17,"lat":-74.0,"lon":-39.75,"mslp":976.1,"hvtl":-27.1,"hvtu":0.7,"hb":38.4,"idx":-0.5,"cls":6,"psfc":976.1,"terrain":false,"radius_km":200,"name":"shallow cold","track":"T43"},"geometry":{"type":"Point","coordinates":[-39.75,-74.0]}},{"type":"Feature","properties":{"kind":"center","id":18,"lat":85.0,"lon":-141.25,"mslp":981.5,"hvtl":-53.4,"hvtu":-74.9,"hb":2.8,"idx":-1.6,"cls":5,"psfc":981.5,"terrain":false,"radius_km":200,"name":"sym cold","track":"T59"},"geometry":{"type":"Point","coordinates":[-141.25,85.0]}},{"type":"Feature","properties":{"kind":"center","id":19,"lat":-46.0,"lon":10.25,"mslp":982.5,"hvtl":-130.0,"hvtu":-422.0,"hb":59.1,"idx":-2.7,"cls":4,"psfc":982.5,"terrain":false,"radius_km":200,"name":"asym cold","track":"T31"},"geometry":{"type":"Point","coordinates":[10.25,-46.0]}},{"type":"Feature","properties":{"kind":"center","id":20,"lat":80.75,"lon":28.75,"mslp":982.9,"hvtl":-174.2,"hvtu":-189.9,"hb":87.7,"idx":-2.8,"cls":4,"psfc":982.9,"terrain":false,"radius_km":200,"name":"asym cold","track":"T45"},"geometry":{"type":"Point","coordinates":[28.75,80.75]}},{"type":"Feature","properties":{"kind":"center","id":21,"lat":81.25,"lon":121.75,"mslp":984.8,"hvtl":-67.4,"hvtu":-143.7,"hb":36.4,"idx":-2.1,"cls":4,"psfc":984.8,"terrain":false,"radius_km":200,"name":"asym cold","track":"T58"},"geometry":{"type":"Point","coordinates":[121.75,81.25]}},{"type":"Feature","properties":{"kind":"center","id":22,"lat":-52.5,"lon":-117.0,"mslp":985.4,"hvtl":-331.9,"hvtu":-282.5,"hb":77.1,"idx":-3.0,"cls":4,"psfc":985.4,"terrain":false,"radius_km":200,"name":"asym cold"},"geometry":{"type":"Point","coordinates":[-117.0,-52.5]}},{"type":"Feature","properties":{"kind":"center","id":23,"lat":-47.5,"lon":-168.5,"mslp":986.7,"hvtl":-175.6,"hvtu":-237.8,"hb":82.8,"idx":-2.9,"cls":4,"psfc":986.7,"terrain":false,"radius_km":200,"name":"asym cold"},"geometry":{"type":"Point","coordinates":[-168.5,-47.5]}},{"type":"Feature","properties":{"kind":"center","id":24,"lat":-61.0,"lon":167.25,"mslp":986.9,"hvtl":-551.4,"hvtu":-234.9,"hb":129.7,"idx":-3.0,"cls":4,"psfc":986.8,"terrain":false,"radius_km":200,"name":"asym cold"},"geometry":{"type":"Point","coordinates":[167.25,-61.0]}},{"type":"Feature","properties":{"kind":"center","id":25,"lat":-68.75,"lon":76.5,"mslp":987.5,"hvtl":-97.4,"hvtu":-144.8,"hb":50.8,"idx":-2.4,"cls":4,"psfc":987.5,"terrain":false,"radius_km":200,"name":"asym cold"},"geometry":{"type":"Point","coordinates":[76.5,-68.75]}},{"type":"Feature","properties":{"kind":"center","id":26,"lat":11.0,"lon":-98.0,"mslp":991.6,"hvtl":89.2,"hvtu":80.0,"hb":-1.4,"idx":2.1,"cls":0,"psfc":991.6,"terrain":false,"radius_km":200,"name":"sym deep warm","track":"T24"},"geometry":{"type":"Point","coordinates":[-98.0,11.0]}},{"type":"Feature","properties":{"kind":"center","id":27,"lat":69.75,"lon":-60.25,"mslp":995.5,"hvtl":8.0,"hvtu":-193.6,"hb":17.1,"idx":-0.8,"cls":3,"psfc":995.5,"terrain":false,"radius_km":200,"name":"asym shallow warm","track":"T73"},"geometry":{"type":"Point","coordinates":[-60.25,69.75]}},{"type":"Feature","properties":{"kind":"center","id":28,"lat":66.75,"lon":-28.0,"mslp":995.8,"hvtl":-221.0,"hvtu":-282.1,"hb":53.1,"idx":-2.9,"cls":4,"psfc":995.8,"terrain":false,"radius_km":200,"name":"asym cold","track":"T51"},"geometry":{"type":"Point","coordinates":[-28.0,66.75]}},{"type":"Feature","properties":{"kind":"center","id":29,"lat":65.75,"lon":-74.25,"mslp":996.3,"hvtl":-259.6,"hvtu":-57.7,"hb":24.4,"idx":-2.5,"cls":4,"psfc":996.3,"terrain":false,"radius_km":200,"name":"asym cold","track":"T71"},"geometry":{"type":"Point","coordinates":[-74.25,65.75]}},{"type":"Feature","properties":{"kind":"center","id":30,"lat":46.25,"lon":176.25,"mslp":996.9,"hvtl":-86.5,"hvtu":-162.3,"hb":77.6,"idx":-2.3,"cls":4,"psfc":996.9,"terrain":false,"radius_km":200,"name":"asym cold","track":"T09"},"geometry":{"type":"Point","coordinates":[176.25,46.25]}},{"type":"Feature","properties":{"kind":"center","id":31,"lat":55.75,"lon":162.0,"mslp":998.7,"hvtl":-71.2,"hvtu":-248.0,"hb":24.2,"idx":-2.2,"cls":4,"psfc":994.5,"terrain":false,"radius_km":200,"name":"asym cold","track":"T75"},"geometry":{"type":"Point","coordinates":[162.0,55.75]}},{"type":"Feature","properties":{"kind":"center","id":32,"lat":-12.0,"lon":-169.5,"mslp":999.8,"hvtl":115.7,"hvtu":27.6,"hb":11.8,"idx":1.9,"cls":2,"psfc":999.8,"terrain":false,"radius_km":200,"name":"asym deep warm","track":"T88"},"geometry":{"type":"Point","coordinates":[-169.5,-12.0]}},{"type":"Feature","properties":{"kind":"center","id":33,"lat":11.5,"lon":151.0,"mslp":1000.2,"hvtl":16.4,"hvtu":47.5,"hb":9.0,"idx":0.8,"cls":0,"psfc":1000.2,"terrain":false,"radius_km":200,"name":"sym deep warm","track":"T50"},"geometry":{"type":"Point","coordinates":[151.0,11.5]}},{"type":"Feature","properties":{"kind":"center","id":34,"lat":-10.0,"lon":-73.75,"mslp":1003.7,"hvtl":92.5,"hvtu":15.3,"hb":2.8,"idx":1.6,"cls":0,"psfc":973.2,"terrain":false,"radius_km":200,"name":"sym deep warm"},"geometry":{"type":"Point","coordinates":[-73.75,-10.0]}},{"type":"Feature","properties":{"kind":"center","id":35,"lat":-11.5,"lon":-68.0,"mslp":1003.7,"hvtl":5.0,"hvtu":-16.2,"hb":6.2,"idx":-0.1,"cls":1,"psfc":979.4,"terrain":false,"radius_km":200,"name":"sym shallow warm"},"geometry":{"type":"Point","coordinates":[-68.0,-11.5]}},{"type":"Feature","properties":{"kind":"center","id":36,"lat":54.0,"lon":-89.5,"mslp":1004.8,"hvtl":10.9,"hvtu":-374.4,"hb":92.9,"idx":-0.8,"cls":3,"psfc":981.0,"terrain":false,"radius_km":200,"name":"asym shallow warm","track":"T84"},"geometry":{"type":"Point","coordinates":[-89.5,54.0]}},{"type":"Feature","properties":{"kind":"center","id":37,"lat":-35.25,"lon":-100.5,"mslp":1004.9,"hvtl":-58.4,"hvtu":-107.9,"hb":2.5,"idx":-1.8,"cls":5,"psfc":1004.9,"terrain":false,"radius_km":200,"name":"sym cold","track":"T90"},"geometry":{"type":"Point","coordinates":[-100.5,-35.25]}},{"type":"Feature","properties":{"kind":"center","id":38,"lat":43.0,"lon":34.75,"mslp":1006.5,"hvtl":49.5,"hvtu":-116.0,"hb":15.5,"idx":0.1,"cls":3,"psfc":1006.5,"terrain":false,"radius_km":200,"name":"asym shallow warm","track":"T98"},"geometry":{"type":"Point","coordinates":[34.75,43.0]}},{"type":"Feature","properties":{"kind":"center","id":39,"lat":-11.75,"lon":-74.0,"mslp":1007.2,"hvtl":122.1,"hvtu":-18.9,"hb":29.1,"idx":1.5,"cls":3,"psfc":933.6,"terrain":false,"radius_km":200,"name":"asym shallow warm"},"geometry":{"type":"Point","coordinates":[-74.0,-11.75]}},{"type":"Feature","properties":{"kind":"center","id":40,"lat":-37.75,"lon":-96.75,"mslp":1007.2,"hvtl":-80.4,"hvtu":-62.1,"hb":28.7,"idx":-1.9,"cls":4,"psfc":1007.2,"terrain":false,"radius_km":200,"name":"asym cold","track":"T102"},"geometry":{"type":"Point","coordinates":[-96.75,-37.75]}},{"type":"Feature","properties":{"kind":"center","id":41,"lat":-11.25,"lon":-74.25,"mslp":1008.8,"hvtl":102.1,"hvtu":-9.0,"hb":26.3,"idx":1.5,"cls":3,"psfc":902.2,"terrain":true,"radius_km":200,"name":"asym shallow warm"},"geometry":{"type":"Point","coordinates":[-74.25,-11.25]}},{"type":"Feature","properties":{"kind":"center","id":42,"lat":27.75,"lon":-101.75,"mslp":1010.7,"hvtl":109.4,"hvtu":-93.7,"hb":-24.6,"idx":0.9,"cls":1,"psfc":906.6,"terrain":true,"radius_km":200,"name":"sym shallow warm"},"geometry":{"type":"Point","coordinates":[-101.75,27.75]}},{"type":"Feature","properties":{"kind":"center","id":43,"lat":63.75,"lon":134.5,"mslp":1011.5,"hvtl":12.8,"hvtu":34.8,"hb":28.6,"idx":0.6,"cls":2,"psfc":908.7,"terrain":true,"radius_km":200,"name":"asym deep warm"},"geometry":{"type":"Point","coordinates":[134.5,63.75]}},{"type":"Feature","properties":{"kind":"center","id":44,"lat":39.75,"lon":-122.0,"mslp":1014.4,"hvtl":63.2,"hvtu":-57.3,"hb":2.7,"idx":0.6,"cls":1,"psfc":1009.3,"terrain":false,"radius_km":200,"name":"sym shallow warm"},"geometry":{"type":"Point","coordinates":[-122.0,39.75]}},{"type":"Feature","properties":{"kind":"center","id":45,"lat":-31.75,"lon":-66.0,"mslp":1015.1,"hvtl":62.1,"hvtu":-189.6,"hb":30.8,"idx":0.1,"cls":3,"psfc":978.0,"terrain":false,"radius_km":200,"name":"asym shallow warm"},"geometry":{"type":"Point","coordinates":[-66.0,-31.75]}},{"type":"Feature","properties":{"kind":"center","id":46,"lat":33.25,"lon":61.25,"mslp":1015.2,"hvtl":-26.7,"hvtu":-88.4,"hb":46.0,"idx":-1.2,"cls":4,"psfc":915.2,"terrain":true,"radius_km":200,"name":"asym cold"},"geometry":{"type":"Point","coordinates":[61.25,33.25]}},{"type":"Feature","properties":{"kind":"center","id":47,"lat":-21.0,"lon":-64.0,"mslp":1016.1,"hvtl":-6.4,"hvtu":-282.8,"hb":36.5,"idx":-1.1,"cls":4,"psfc":924.1,"terrain":true,"radius_km":200,"name":"asym cold"},"geometry":{"type":"Point","coordinates":[-64.0,-21.0]}},{"type":"Feature","properties":{"kind":"center","id":48,"lat":65.75,"lon":130.5,"mslp":1016.4,"hvtl":1.8,"hvtu":-118.5,"hb":10.2,"idx":-0.8,"cls":3,"psfc":900.1,"terrain":true,"radius_km":200,"name":"asym shallow warm"},"geometry":{"type":"Point","coordinates":[130.5,65.75]}},{"type":"Feature","properties":{"kind":"center","id":49,"lat":45.0,"lon":81.75,"mslp":1016.7,"hvtl":-18.1,"hvtu":-269.5,"hb":104.9,"idx":-1.3,"cls":4,"psfc":918.9,"terrain":true,"radius_km":200,"name":"asym cold"},"geometry":{"type":"Point","coordinates":[81.75,45.0]}},{"type":"Feature","properties":{"kind":"center","id":50,"lat":-31.0,"lon":-71.0,"mslp":1016.8,"hvtl":-30.9,"hvtu":-250.0,"hb":21.8,"idx":-1.6,"cls":4,"psfc":906.3,"terrain":true,"radius_km":200,"name":"asym cold"},"geometry":{"type":"Point","coordinates":[-71.0,-31.0]}},{"type":"Feature","properties":{"kind":"center","id":51,"lat":41.75,"lon":-122.5,"mslp":1018.8,"hvtl":163.6,"hvtu":-84.6,"hb":36.3,"idx":1.2,"cls":3,"psfc":918.8,"terrain":true,"radius_km":200,"name":"asym shallow warm"},"geometry":{"type":"Point","coordinates":[-122.5,41.75]}}]}