{"type":"FeatureCollection","features":[{"type":"Feature","properties":{"kind":"blob","cls":1,"id":1},"geometry":{"type":"Polygon","coordinates":[[[-160.5,-67.62],[-157.25,-66.38],[-156.5,-66.38],[-155.75,-67.12],[-153.88,-65.25],[-155.5,-63.62],[-160.0,-63.12],[-163.5,-64.12],[-164.88,-65.25],[-164.88,-66.0],[-164.0,-66.88],[-160.5,-67.62]]]}},{"type":"Feature","properties":{"kind":"blob","cls":3,"id":2},"geometry":{"type":"Polygon","coordinates":[[[171.0,54.88],[172.75,55.38],[173.88,56.75],[173.62,58.0],[172.5,58.88],[170.5,59.62],[168.0,59.62],[166.0,58.88],[165.12,57.75],[165.38,56.75],[167.75,55.12],[171.0,54.88]]]}},{"type":"Feature","properties":{"kind":"blob","cls":4,"id":3},"geometry":{"type":"Polygon","coordinates":[[[119.5,-66.88],[126.88,-66.5],[126.25,-65.62],[124.5,-64.88],[120.25,-64.62],[118.25,-65.12],[116.38,-66.5],[119.5,-66.88]]]}},{"type":"Feature","properties":{"kind":"blob","cls":4,"id":4},"geometry":{"type":"Polygon","coordinates":[[[22.25,-58.88],[25.75,-58.88],[27.12,-58.0],[27.38,-56.75],[26.0,-55.12],[24.5,-54.38],[20.5,-54.38],[19.12,-55.5],[18.88,-56.5],[20.5,-58.38],[22.25,-58.88]]]}},{"type":"Feature","properties":{"kind":"blob","cls":6,"id":5},"geometry":{"type":"Polygon","coordinates":[[[3.88,-62.5],[3.62,-60.5],[4.0,-60.12],[4.5,-60.12],[6.5,-62.38],[7.5,-62.12],[10.0,-60.88],[10.62,-60.0],[10.62,-59.25],[9.5,-58.12],[6.25,-57.12],[3.75,-57.12],[2.0,-57.62],[0.75,-58.88],[-0.75,-59.38],[-1.38,-60.0],[-1.38,-61.0],[0.25,-62.12],[3.88,-62.5]]]}},{"type":"Feature","properties":{"kind":"blob","cls":0,"id":6},"geometry":{"type":"Polygon","coordinates":[[[150.75,53.62],[152.5,54.12],[153.38,55.0],[153.38,56.25],[152.5,57.12],[150.75,57.62],[147.75,57.12],[146.88,56.25],[146.88,55.0],[147.75,54.12],[150.75,53.62]]]}},{"type":"Feature","properties":{"kind":"blob","cls":4,"id":7},"geometry":{"type":"Polygon","coordinates":[[[96.0,-66.12],[106.25,-66.38],[106.38,-66.0],[104.75,-65.12],[101.0,-64.88],[96.0,-66.12]]]}},{"type":"Feature","properties":{"kind":"blob","cls":3,"id":8},"geometry":{"type":"Polygon","coordinates":[[[-101.5,-72.12],[-99.5,-71.38],[-98.88,-70.25],[-99.5,-69.62],[-101.5,-68.88],[-106.5,-68.62],[-109.25,-69.12],[-110.88,-70.25],[-110.25,-71.38],[-109.25,-71.88],[-101.5,-72.12]]]}},{"type":"Feature","properties":{"kind":"blob","cls":4,"id":9},"geometry":{"type":"Polygon","coordinates":[[[70.25,-66.88],[71.5,-66.38],[72.38,-65.25],[71.0,-63.88],[66.25,-62.38],[61.0,-62.88],[59.12,-64.0],[59.12,-65.0],[59.5,-65.38],[61.75,-66.62],[70.25,-66.88]]]}},{"type":"Feature","properties":{"kind":"blob","cls":4,"id":10},"geometry":{"type":"Polygon","coordinates":[[[51.0,-67.38],[51.38,-67.0],[51.25,-66.38],[52.25,-66.12],[55.25,-66.12],[55.88,-66.5],[56.0,-67.12],[58.25,-67.38],[59.75,-67.38],[60.12,-66.5],[59.25,-65.62],[58.0,-65.12],[54.25,-64.88],[51.5,-65.62],[50.62,-66.5],[51.0,-67.38]]]}},{"type":"Feature","properties":{"kind":"blob","cls":4,"id":11},"geometry":{"type":"Polygon","coordinates":[[[100.5,-57.38],[102.25,-56.88],[104.12,-55.5],[104.38,-54.5],[103.75,-53.62],[101.75,-52.88],[97.75,-53.38],[96.0,-54.12],[95.12,-55.0],[95.12,-56.0],[96.0,-56.88],[100.5,-57.38]]]}},{"type":"Feature","properties":{"kind":"blob","cls":3,"id":12},"geometry":{"type":"Polygon","coordinates":[[[-111.75,-60.88],[-110.0,-60.38],[-108.88,-59.25],[-108.88,-58.25],[-110.75,-56.88],[-112.62,-56.5],[-111.88,-55.75],[-111.88,-54.5],[-113.5,-53.38],[-116.0,-53.12],[-118.0,-53.88],[-118.88,-54.75],[-118.88,-55.75],[-118.0,-56.62],[-115.25,-57.12],[-116.38,-58.25],[-116.38,-59.25],[-115.0,-60.38],[-111.75,-60.88]]]}},{"type":"Feature","properties":{"kind":"blob","cls":4,"id":13},"geometry":{"type":"Polygon","coordinates":[[[-86.25,-69.12],[-84.5,-68.38],[-83.88,-67.0],[-85.75,-65.62],[-88.0,-65.12],[-93.25,-65.38],[-94.5,-65.88],[-95.38,-66.75],[-95.38,-67.5],[-94.5,-68.38],[-92.75,-69.12],[-86.25,-69.12]]]}},{"type":"Feature","properties":{"kind":"blob","cls":4,"id":14},"geometry":{"type":"Polygon","coordinates":[[[125.5,-58.12],[127.12,-56.5],[125.0,-54.38],[121.5,-54.38],[120.12,-55.5],[120.12,-56.75],[121.25,-57.88],[125.5,-58.12]]]}},{"type":"Feature","properties":{"kind":"blob","cls":4,"id":15},"geometry":{"type":"Polygon","coordinates":[[[-20.75,-74.62],[-19.25,-74.88],[-14.38,-73.75],[-15.5,-73.38],[-11.75,-73.38],[-9.75,-72.12],[-7.75,-72.12],[-5.0,-71.38],[-1.62,-71.5],[-3.25,-70.62],[-6.0,-70.12],[-14.75,-69.88],[-18.25,-70.38],[-20.75,-71.12],[-21.88,-72.0],[-22.38,-73.75],[-20.75,-74.62]]]}},{"type":"Feature","properties":{"kind":"blob","cls":1,"id":16},"geometry":{"type":"Polygon","coordinates":[[[55.0,69.88],[57.75,70.38],[59.38,71.25],[59.38,72.25],[58.25,73.12],[54.0,74.12],[49.0,73.88],[46.38,72.75],[46.62,72.0],[46.12,71.75],[46.75,71.12],[49.5,70.12],[55.0,69.88]]]}},{"type":"Feature","properties":{"kind":"blob","cls":6,"id":17},"geometry":{"type":"Polygon","coordinates":[[[-37.0,-80.12],[-31.0,-78.88],[-35.25,-78.62],[-35.38,-78.25],[-29.62,-76.75],[-32.0,-76.38],[-39.5,-76.62],[-42.75,-77.38],[-43.62,-78.25],[-42.5,-79.38],[-37.0,-80.12]]]}},{"type":"Feature","properties":{"kind":"blob","cls":5,"id":18},"geometry":{"type":"Polygon","coordinates":[[[-147.5,-82.62],[-146.0,-82.62],[-141.5,-82.12],[-138.5,-81.62],[-137.62,-81.0],[-138.0,-80.62],[-161.25,-80.62],[-170.25,-81.38],[-174.38,-82.25],[-150.75,-80.88],[-147.75,-81.38],[-147.38,-81.75],[-147.5,-82.62]]]}},{"type":"Feature","properties":{"kind":"blob","cls":3,"id":19},"geometry":{"type":"Polygon","coordinates":[[[179.88,-81.5],[180.0,-79.12],[176.25,-78.38],[168.0,-78.12],[161.88,-79.0],[165.25,-80.88],[172.5,-82.38],[175.75,-82.38],[179.88,-81.5]]]}},{"type":"Feature","properties":{"kind":"blob","cls":3,"id":19},"geometry":{"type":"Polygon","coordinates":[[[-179.88,-79.25],[-179.75,-81.38],[-178.62,-80.5],[-178.62,-80.0],[-179.88,-79.25]]]}},{"type":"Feature","properties":{"kind":"blob","cls":4,"id":20},"geometry":{"type":"Polygon","coordinates":[[[118.0,-51.12],[119.75,-50.38],[120.62,-49.0],[120.38,-47.5],[117.25,-46.38],[116.0,-46.38],[114.0,-47.38],[113.62,-48.0],[113.88,-50.0],[115.0,-50.88],[118.0,-51.12]]]}},{"type":"Feature","properties":{"kind":"blob","cls":4,"id":21},"geometry":{"type":"Polygon","coordinates":[[[-61.75,-81.12],[-46.5,-81.38],[-43.12,-81.0],[-46.0,-80.62],[-54.75,-80.62],[-61.75,-81.12]]]}},{"type":"Feature","properties":{"kind":"blob","cls":3,"id":22},"geometry":{"type":"Polygon","coordinates":[[[-38.5,58.38],[-36.25,59.12],[-35.62,60.0],[-35.5,61.12],[-31.5,62.12],[-30.88,62.75],[-30.88,63.75],[-32.0,64.62],[-34.0,65.12],[-37.5,64.88],[-40.0,64.12],[-40.62,63.5],[-40.38,62.25],[-42.5,61.62],[-43.38,60.5],[-42.75,59.12],[-38.5,58.38]]]}},{"type":"Feature","properties":{"kind":"blob","cls":5,"id":23},"geometry":{"type":"Polygon","coordinates":[[[-44.75,-65.62],[-43.75,-65.12],[-42.38,-63.5],[-43.25,-62.38],[-46.25,-61.38],[-50.25,-61.38],[-52.75,-62.12],[-53.38,-62.75],[-53.62,-64.0],[-51.5,-65.62],[-44.75,-65.62]]]}},{"type":"Feature","properties":{"kind":"blob","cls":0,"id":24},"geometry":{"type":"Polygon","coordinates":[[[-123.0,20.12],[-122.0,20.12],[-121.12,21.0],[-121.12,22.5],[-122.25,23.62],[-123.75,23.88],[-125.38,22.75],[-125.38,21.25],[-124.75,20.62],[-123.5,21.12],[-122.88,20.5],[-123.0,20.12]]]}},{"type":"Feature","properties":{"kind":"blob","cls":4,"id":25},"geometry":{"type":"Polygon","coordinates":[[[-75.5,51.88],[-73.5,52.62],[-72.88,53.5],[-73.12,55.25],[-74.5,56.12],[-76.5,56.62],[-80.25,55.88],[-80.5,55.38],[-78.25,54.88],[-77.62,54.25],[-78.75,53.88],[-81.38,54.0],[-80.25,52.62],[-75.5,51.88]]]}},{"type":"Feature","properties":{"kind":"blob","cls":0,"id":26},"geometry":{"type":"Polygon","coordinates":[[[158.5,28.12],[159.62,29.5],[159.62,30.5],[158.5,31.88],[156.25,31.88],[154.88,30.25],[155.12,29.25],[156.25,28.12],[158.5,28.12]]]}},{"type":"Feature","properties":{"kind":"blob","cls":1,"id":27},"geometry":{"type":"Polygon","coordinates":[[[-61.25,-23.62],[-60.38,-22.75],[-60.62,-18.75],[-62.0,-16.88],[-63.12,-16.5],[-63.62,-14.5],[-65.5,-11.88],[-67.75,-11.88],[-68.62,-13.0],[-67.88,-15.25],[-63.38,-18.25],[-63.88,-19.0],[-63.12,-19.75],[-63.38,-20.75],[-64.12,-21.0],[-63.62,-21.75],[-64.38,-22.75],[-63.5,-23.62],[-61.25,-23.62]]]}},{"type":"Feature","properties":{"kind":"blob","cls":3,"id":28},"geometry":{"type":"Polygon","coordinates":[[[-161.25,31.38],[-159.62,32.25],[-159.38,33.75],[-160.0,34.62],[-162.0,35.12],[-163.62,34.25],[-163.62,32.25],[-161.25,31.38]]]}},{"type":"Feature","properties":{"kind":"blob","cls":0,"id":29},"geometry":{"type":"Polygon","coordinates":[[[148.5,14.12],[150.0,14.12],[150.88,15.25],[150.62,16.75],[149.25,17.62],[148.0,17.38],[147.12,16.25],[147.38,14.75],[148.5,14.12]]]}},{"type":"Feature","properties":{"kind":"blob","cls":4,"id":30},"geometry":{"type":"Polygon","coordinates":[[[138.25,71.62],[143.5,71.62],[145.75,72.38],[146.38,73.5],[145.25,74.38],[143.5,74.88],[138.5,75.12],[134.75,74.38],[133.62,73.5],[133.62,73.0],[134.75,72.12],[138.25,71.62]]]}},{"type":"Feature","properties":{"kind":"blob","cls":6,"id":31},"geometry":{"type":"Polygon","coordinates":[[[-88.5,55.38],[-87.12,56.25],[-91.5,58.88],[-93.5,58.38],[-94.12,57.5],[-93.88,56.5],[-92.0,55.38],[-88.5,55.38]]]}},{"type":"Feature","properties":{"kind":"blob","cls":0,"id":32},"geometry":{"type":"Polygon","coordinates":[[[171.75,11.62],[173.25,11.62],[174.12,12.75],[172.62,14.0],[173.38,14.75],[172.5,15.12],[171.25,14.88],[170.38,13.75],[170.62,12.25],[171.75,11.62]]]}},{"type":"Feature","properties":{"kind":"blob","cls":3,"id":33},"geometry":{"type":"Polygon","coordinates":[[[-71.5,-12.62],[-71.12,-12.25],[-71.0,-11.12],[-73.88,-11.0],[-73.0,-12.38],[-72.5,-11.88],[-71.5,-12.62]]]}},{"type":"Feature","properties":{"kind":"blob","cls":5,"id":34},"geometry":{"type":"MultiPolygon","coordinates":[[[[-116.5,32.62],[-116.62,32.5],[-116.5,32.38],[-116.5,32.62]]],[[[-113.25,30.88],[-111.38,32.0],[-113.0,33.62],[-116.0,35.38],[-116.62,34.5],[-115.88,34.0],[-116.62,34.0],[-116.38,33.5],[-116.88,33.0],[-116.5,33.12],[-115.62,31.5],[-113.25,30.88]]]]}},{"type":"Feature","properties":{"kind":"blob","cls":4,"id":35},"geometry":{"type":"Polygon","coordinates":[[[-57.75,72.38],[-54.62,73.0],[-58.25,74.62],[-60.0,76.38],[-66.88,76.75],[-65.0,77.12],[-64.75,77.62],[-70.75,77.38],[-72.75,76.88],[-74.12,75.75],[-73.75,75.12],[-70.5,73.88],[-63.75,72.62],[-57.75,72.38]],[[-68.12,77.0],[-67.38,77.0],[-67.5,76.88],[-68.12,77.0]]]}},{"type":"Feature","properties":{"kind":"blob","cls":5,"id":36},"geometry":{"type":"Polygon","coordinates":[[[-101.5,75.88],[-97.0,77.12],[-95.62,78.5],[-96.25,79.12],[-107.0,78.88],[-107.62,79.25],[-107.5,79.62],[-103.38,80.5],[-110.5,80.62],[-116.0,79.88],[-118.38,78.5],[-117.75,77.38],[-116.0,76.62],[-112.5,75.88],[-101.5,75.88]]]}},{"type":"Feature","properties":{"kind":"blob","cls":4,"id":37},"geometry":{"type":"Polygon","coordinates":[[[162.0,-39.12],[164.0,-39.38],[165.88,-38.0],[165.88,-36.5],[165.12,-36.0],[165.0,-35.38],[164.0,-34.88],[162.5,-34.88],[160.62,-36.25],[160.62,-38.25],[162.0,-39.12]]]}},{"type":"Feature","properties":{"kind":"blob","cls":4,"id":38},"geometry":{"type":"Polygon","coordinates":[[[168.25,-38.62],[169.75,-38.88],[171.62,-37.5],[171.62,-35.75],[171.0,-35.12],[170.0,-34.62],[168.75,-34.62],[166.88,-36.0],[166.88,-37.75],[168.25,-38.62]]]}},{"type":"Feature","properties":{"kind":"blob","cls":3,"id":39},"geometry":{"type":"Polygon","coordinates":[[[-74.0,-12.38],[-74.0,-11.62],[-74.12,-11.75],[-74.0,-12.38]]]}},{"type":"Feature","properties":{"kind":"blob","cls":4,"id":40},"geometry":{"type":"Polygon","coordinates":[[[73.75,29.12],[75.0,29.62],[75.88,30.5],[76.12,31.75],[75.25,32.38],[72.25,32.38],[70.25,31.88],[70.12,30.0],[73.75,29.12]]]}},{"type":"Feature","properties":{"kind":"blob","cls":3,"id":41},"geometry":{"type":"Polygon","coordinates":[[[-74.5,-11.38],[-74.12,-11.25],[-74.25,-11.12],[-74.5,-11.38]]]}},{"type":"Feature","properties":{"kind":"blob","cls":4,"id":42},"geometry":{"type":"MultiPolygon","coordinates":[[[[112.25,49.62],[112.12,49.5],[112.5,49.38],[112.25,49.62]]],[[[112.5,47.88],[113.5,48.12],[115.38,50.5],[115.12,51.75],[114.5,52.38],[114.0,52.12],[114.0,52.62],[113.5,52.62],[112.75,51.62],[111.62,51.0],[112.75,51.38],[113.38,51.0],[112.62,49.75],[113.62,50.0],[112.62,49.25],[113.38,49.0],[112.5,47.88]]]]}},{"type":"Feature","properties":{"kind":"blob","cls":3,"id":43},"geometry":{"type":"Polygon","coordinates":[[[111.12,51.5],[111.25,51.38],[111.38,51.5],[111.12,51.5]]]}},{"type":"Feature","properties":{"kind":"blob","cls":3,"id":44},"geometry":{"type":"Polygon","coordinates":[[[110.62,51.25],[110.75,51.12],[110.88,51.25],[110.62,51.25]]]}},{"type":"Feature","properties":{"kind":"blob","cls":3,"id":45},"geometry":{"type":"MultiPolygon","coordinates":[[[[109.5,51.38],[109.38,51.25],[109.75,51.12],[109.5,51.38]]],[[[108.62,52.0],[109.0,51.38],[109.75,51.62],[110.25,51.38],[111.62,52.5],[109.0,52.38],[108.62,52.0]]],[[[111.88,52.75],[111.75,52.88],[111.62,52.75],[111.88,52.75]]]]}},{"type":"Feature","properties":{"kind":"blob","cls":3,"id":46},"geometry":{"type":"Polygon","coordinates":[[[111.88,51.75],[112.0,51.62],[112.12,51.75],[111.88,51.75]]]}},{"type":"Feature","properties":{"kind":"blob","cls":4,"id":47},"geometry":{"type":"Polygon","coordinates":[[[-149.75,43.38],[-148.0,44.12],[-146.38,45.5],[-146.38,47.0],[-148.25,48.12],[-150.0,48.12],[-151.25,47.62],[-152.88,46.25],[-153.12,45.0],[-152.25,43.88],[-149.75,43.38]]]}},{"type":"Feature","properties":{"kind":"blob","cls":4,"id":48},"geometry":{"type":"Polygon","coordinates":[[[46.75,30.88],[48.0,31.38],[48.62,32.75],[47.75,33.38],[47.25,32.88],[46.75,33.12],[45.5,34.38],[44.62,33.75],[44.38,32.25],[45.0,31.38],[46.75,30.88]]]}},{"type":"Feature","properties":{"kind":"center","id":1,"lat":-65.5,"lon":-159.5,"mslp":951.6,"hvtl":29.8,"hvtu":-42.3,"hb":-1.7,"idx":0.2,"cls":1,"psfc":951.6,"terrain":false,"radius_km":200,"name":"sym shallow warm","track":"T15"},"geometry":{"type":"Point","coordinates":[-159.5,-65.5]}},{"type":"Feature","properties":{"kind":"center","id":2,"lat":57.25,"lon":169.25,"mslp":954.0,"hvtl":124.5,"hvtu":-330.9,"hb":60.9,"idx":0.7,"cls":3,"psfc":954.0,"terrain":false,"radius_km":200,"name":"asym shallow warm","track":"T07"},"geometry":{"type":"Point","coordinates":[169.25,57.25]}},{"type":"Feature","properties":{"kind":"center","id":3,"lat":-66.5,"lon":121.75,"mslp":955.0,"hvtl":-19.6,"hvtu":-42.0,"hb":12.4,"idx":-0.8,"cls":4,"psfc":954.3,"terrain":false,"radius_km":200,"name":"asym cold","track":"T01"},"geometry":{"type":"Point","coordinates":[121.75,-66.5]}},{"type":"Feature","properties":{"kind":"center","id":4,"lat":-56.5,"lon":23.0,"mslp":960.1,"hvtl":-140.1,"hvtu":-263.5,"hb":94.1,"idx":-2.8,"cls":4,"psfc":960.1,"terrain":false,"radius_km":200,"name":"asym cold","track":"T16"},"geometry":{"type":"Point","coordinates":[23.0,-56.5]}},{"type":"Feature","properties":{"kind":"center","id":5,"lat":-59.25,"lon":4.75,"mslp":961.7,"hvtl":-76.4,"hvtu":15.9,"hb":-9.5,"idx":-1.1,"cls":6,"psfc":961.7,"terrain":false,"radius_km":200,"name":"shallow cold","track":"T23"},"geometry":{"type":"Point","coordinates":[4.75,-59.25]}},{"type":"Feature","properties":{"kind":"center","id":6,"lat":55.75,"lon":150.25,"mslp":962.5,"hvtl":121.5,"hvtu":115.8,"hb":-15.9,"idx":2.5,"cls":0,"psfc":962.5,"terrain":false,"radius_km":200,"name":"sym deep warm","track":"T26"},"geometry":{"type":"Point","coordinates":[150.25,55.75]}},{"type":"Feature","properties":{"kind":"center","id":7,"lat":-66.0,"lon":103.25,"mslp":963.2,"hvtl":-145.9,"hvtu":-68.5,"hb":15.4,"idx":-2.4,"cls":4,"psfc":919.0,"terrain":false,"radius_km":200,"name":"asym cold","track":"T24"},"geometry":{"type":"Point","coordinates":[103.25,-66.0]}},{"type":"Feature","properties":{"kind":"center","id":8,"lat":-70.5,"lon":-105.0,"mslp":964.1,"hvtl":29.1,"hvtu":-16.6,"hb":27.5,"idx":0.4,"cls":3,"psfc":964.1,"terrain":false,"radius_km":200,"name":"asym shallow warm","track":"T18"},"geometry":{"type":"Point","coordinates":[-105.0,-70.5]}},{"type":"Feature","properties":{"kind":"center","id":9,"lat":-65.5,"lon":69.0,"mslp":966.6,"hvtl":-426.0,"hvtu":-126.4,"hb":78.0,"idx":-2.9,"cls":4,"psfc":966.6,"terrain":false,"radius_km":200,"name":"asym cold","track":"T37"},"geometry":{"type":"Point","coordinates":[69.0,-65.5]}},{"type":"Feature","properties":{"kind":"center","id":10,"lat":-67.0,"lon":60.0,"mslp":969.4,"hvtl":-370.1,"hvtu":-154.8,"hb":83.2,"idx":-2.9,"cls":4,"psfc":969.5,"terrain":false,"radius_km":200,"name":"asym cold","track":"T30"},"geometry":{"type":"Point","coordinates":[60.0,-67.0]}},{"type":"Feature","properties":{"kind":"center","id":11,"lat":-55.25,"lon":99.75,"mslp":969.8,"hvtl":-314.6,"hvtu":-488.8,"hb":54.4,"idx":-3.0,"cls":4,"psfc":969.8,"terrain":false,"radius_km":200,"name":"asym cold","track":"T31"},"geometry":{"type":"Point","coordinates":[99.75,-55.25]}},{"type":"Feature","properties":{"kind":"center","id":12,"lat":-58.75,"lon":-112.5,"mslp":972.3,"hvtl":27.3,"hvtu":-206.7,"hb":21.1,"idx":-0.4,"cls":3,"psfc":972.2,"terrain":false,"radius_km":200,"name":"asym shallow warm","track":"T33"},"geometry":{"type":"Point","coordinates":[-112.5,-58.75]}},{"type":"Feature","properties":{"kind":"center","id":13,"lat":-67.25,"lon":-90.0,"mslp":972.8,"hvtl":-225.7,"hvtu":-242.3,"hb":42.1,"idx":-2.9,"cls":4,"psfc":972.8,"terrain":false,"radius_km":200,"name":"asym cold","track":"T43"},"geometry":{"type":"Point","coordinates":[-90.0,-67.25]}},{"type":"Feature","properties":{"kind":"center","id":14,"lat":-56.25,"lon":123.5,"mslp":975.1,"hvtl":-290.5,"hvtu":-186.3,"hb":61.4,"idx":-2.9,"cls":4,"psfc":975.1,"terrain":false,"radius_km":200,"name":"asym cold","track":"T38"},"geometry":{"type":"Point","coordinates":[123.5,-56.25]}},{"type":"Feature","properties":{"kind":"center","id":15,"lat":-73.5,"lon":-16.0,"mslp":977.0,"hvtl":-235.0,"hvtu":-107.2,"hb":29.4,"idx":-2.8,"cls":4,"psfc":931.8,"terrain":false,"radius_km":200,"name":"asym cold","track":"T50"},"geometry":{"type":"Point","coordinates":[-16.0,-73.5]}},{"type":"Feature","properties":{"kind":"center","id":16,"lat":72.0,"lon":52.5,"mslp":977.2,"hvtl":91.6,"hvtu":-32.3,"hb":3.7,"idx":1.1,"cls":1,"psfc":961.5,"terrain":false,"radius_km":200,"name":"sym shallow warm","track":"T41"},"geometry":{"type":"Point","coordinates":[52.5,72.0]}},{"type":"Feature","properties":{"kind":"center","id":17,"lat":-78.5,"lon":-35.5,"mslp":977.6,"hvtl":-338.2,"hvtu":3.7,"hb":30.2,"idx":-2.0,"cls":6,"psfc":907.3,"terrain":false,"radius_km":200,"name":"shallow cold","track":"T51"},"geometry":{"type":"Point","coordinates":[-35.5,-78.5]}},{"type":"Feature","properties":{"kind":"center","id":18,"lat":-82.5,"lon":-146.0,"mslp":977.6,"hvtl":-64.8,"hvtu":-21.8,"hb":5.7,"idx":-1.4,"cls":5,"psfc":951.6,"terrain":false,"radius_km":200,"name":"sym cold","track":"T54"},"geometry":{"type":"Point","coordinates":[-146.0,-82.5]}},{"type":"Feature","properties":{"kind":"center","id":19,"lat":-81.0,"lon":176.0,"mslp":979.5,"hvtl":20.3,"hvtu":-138.7,"hb":13.6,"idx":-0.5,"cls":3,"psfc":972.5,"terrain":false,"radius_km":200,"name":"asym shallow warm","track":"T05"},"geometry":{"type":"Point","coordinates":[176.0,-81.0]}},{"type":"Feature","properties":{"kind":"center","id":20,"lat":-49.0,"lon":117.0,"mslp":979.9,"hvtl":-155.1,"hvtu":-377.8,"hb":17.4,"idx":-2.8,"cls":4,"psfc":979.9,"terrain":false,"radius_km":200,"name":"asym cold","track":"T22"},"geometry":{"type":"Point","coordinates":[117.0,-49.0]}},{"type":"Feature","properties":{"kind":"center","id":21,"lat":-80.75,"lon":-46.75,"mslp":983.3,"hvtl":-239.7,"hvtu":-4.8,"hb":21.9,"idx":-2.0,"cls":4,"psfc":968.4,"terrain":false,"radius_km":200,"name":"asym cold","track":"T58"},"geometry":{"type":"Point","coordinates":[-46.75,-80.75]}},{"type":"Feature","properties":{"kind":"center","id":22,"lat":60.25,"lon":-39.5,"mslp":984.4,"hvtl":8.9,"hvtu":-197.0,"hb":16.0,"idx":-0.8,"cls":3,"psfc":984.4,"terrain":false,"radius_km":200,"name":"asym shallow warm","track":"T62"},"geometry":{"type":"Point","coordinates":[-39.5,60.25]}},{"type":"Feature","properties":{"kind":"center","id":23,"lat":-63.75,"lon":-48.0,"mslp":984.8,"hvtl":-36.8,"hvtu":-29.8,"hb":6.4,"idx":-1.0,"cls":5,"psfc":984.8,"terrain":false,"radius_km":200,"name":"sym cold"},"geometry":{"type":"Point","coordinates":[-48.0,-63.75]}},{"type":"Feature","properties":{"kind":"center","id":24,"lat":22.0,"lon":-123.25,"mslp":986.0,"hvtl":42.4,"hvtu":147.4,"hb":2.8,"idx":1.7,"cls":0,"psfc":986.0,"terrain":false,"radius_km":200,"name":"sym deep warm","track":"T48"},"geometry":{"type":"Point","coordinates":[-123.25,22.0]}},{"type":"Feature","properties":{"kind":"center","id":25,"lat":53.75,"lon":-77.0,"mslp":997.4,"hvtl":-43.4,"hvtu":-11.4,"hb":11.7,"idx":-0.9,"cls":4,"psfc":975.9,"terrain":false,"radius_km":200,"name":"asym cold","track":"T88"},"geometry":{"type":"Point","coordinates":[-77.0,53.75]}},{"type":"Feature","properties":{"kind":"center","id":26,"lat":30.0,"lon":157.25,"mslp":1000.4,"hvtl":96.4,"hvtu":17.3,"hb":2.7,"idx":1.7,"cls":0,"psfc":1000.4,"terrain":false,"radius_km":200,"name":"sym deep warm","track":"T40"},"geometry":{"type":"Point","coordinates":[157.25,30.0]}},{"type":"Feature","properties":{"kind":"center","id":27,"lat":-18.75,"lon":-63.0,"mslp":1000.5,"hvtl":3.9,"hvtu":-100.8,"hb":5.4,"idx":-0.7,"cls":1,"psfc":956.5,"terrain":false,"radius_km":200,"name":"sym shallow warm","track":"T87"},"geometry":{"type":"Point","coordinates":[-63.0,-18.75]}},{"type":"Feature","properties":{"kind":"center","id":28,"lat":33.25,"lon":-161.75,"mslp":1000.8,"hvtl":19.2,"hvtu":-272.4,"hb":51.4,"idx":-0.6,"cls":3,"psfc":1000.9,"terrain":false,"radius_km":200,"name":"asym shallow warm","track":"T81"},"geometry":{"type":"Point","coordinates":[-161.75,33.25]}},{"type":"Feature","properties":{"kind":"center","id":29,"lat":15.0,"lon":148.5,"mslp":1002.0,"hvtl":32.0,"hvtu":16.1,"hb":1.1,"idx":0.8,"cls":0,"psfc":1002.0,"terrain":false,"radius_km":200,"name":"sym deep warm","track":"T08"},"geometry":{"type":"Point","coordinates":[148.5,15.0]}},{"type":"Feature","properties":{"kind":"center","id":30,"lat":73.25,"lon":139.75,"mslp":1002.4,"hvtl":-59.9,"hvtu":-144.5,"hb":35.9,"idx":-2.0,"cls":4,"psfc":1002.4,"terrain":false,"radius_km":200,"name":"asym cold"},"geometry":{"type":"Point","coordinates":[139.75,73.25]}},{"type":"Feature","properties":{"kind":"center","id":31,"lat":57.25,"lon":-90.25,"mslp":1003.0,"hvtl":-37.5,"hvtu":8.4,"hb":11.0,"idx":-0.6,"cls":6,"psfc":1002.9,"terrain":false,"radius_km":200,"name":"shallow cold","track":"T89"},"geometry":{"type":"Point","coordinates":[-90.25,57.25]}},{"type":"Feature","properties":{"kind":"center","id":32,"lat":13.25,"lon":172.25,"mslp":1003.0,"hvtl":2.6,"hvtu":45.4,"hb":-2.5,"idx":0.5,"cls":0,"psfc":1003.0,"terrain":false,"radius_km":200,"name":"sym deep warm"},"geometry":{"type":"Point","coordinates":[172.25,13.25]}},{"type":"Feature","properties":{"kind":"center","id":33,"lat":-11.25,"lon":-73.0,"mslp":1005.2,"hvtl":83.7,"hvtu":-11.2,"hb":21.4,"idx":1.3,"cls":3,"psfc":965.6,"terrain":false,"radius_km":200,"name":"asym shallow warm"},"geometry":{"type":"Point","coordinates":[-73.0,-11.25]}},{"type":"Feature","properties":{"kind":"center","id":34,"lat":32.0,"lon":-115.0,"mslp":1006.0,"hvtl":-12.6,"hvtu":-199.4,"hb":-13.1,"idx":-1.2,"cls":5,"psfc":1005.4,"terrain":false,"radius_km":200,"name":"sym cold","track":"T95"},"geometry":{"type":"Point","coordinates":[-115.0,32.0]}},{"type":"Feature","properties":{"kind":"center","id":35,"lat":75.0,"lon":-61.75,"mslp":1006.3,"hvtl":-97.6,"hvtu":-107.1,"hb":10.6,"idx":-2.3,"cls":4,"psfc":1006.3,"terrain":false,"radius_km":200,"name":"asym cold","track":"T115"},"geometry":{"type":"Point","coordinates":[-61.75,75.0]}},{"type":"Feature","properties":{"kind":"center","id":36,"lat":77.75,"lon":-107.0,"mslp":1007.2,"hvtl":-89.0,"hvtu":-37.1,"hb":4.8,"idx":-1.8,"cls":5,"psfc":1007.2,"terrain":false,"radius_km":200,"name":"sym cold","track":"T116"},"geometry":{"type":"Point","coordinates":[-107.0,77.75]}},{"type":"Feature","properties":{"kind":"center","id":37,"lat":-37.25,"lon":163.25,"mslp":1009.0,"hvtl":-60.3,"hvtu":-22.3,"hb":16.5,"idx":-1.3,"cls":4,"psfc":1009.0,"terrain":false,"radius_km":200,"name":"asym cold","track":"T107"},"geometry":{"type":"Point","coordinates":[163.25,-37.25]}},{"type":"Feature","properties":{"kind":"center","id":38,"lat":-36.75,"lon":169.25,"mslp":1009.1,"hvtl":-89.6,"hvtu":-16.2,"hb":42.5,"idx":-1.6,"cls":4,"psfc":1009.1,"terrain":false,"radius_km":200,"name":"asym cold"},"geometry":{"type":"Point","coordinates":[169.25,-36.75]}},{"type":"Feature","properties":{"kind":"center","id":39,"lat":-12.0,"lon":-74.0,"mslp":1009.4,"hvtl":95.4,"hvtu":-27.1,"hb":56.4,"idx":1.2,"cls":3,"psfc":932.7,"terrain":false,"radius_km":200,"name":"asym shallow warm"},"geometry":{"type":"Point","coordinates":[-74.0,-12.0]}},{"type":"Feature","properties":{"kind":"center","id":40,"lat":31.5,"lon":73.0,"mslp":1010.1,"hvtl":-97.9,"hvtu":-128.2,"hb":14.3,"idx":-2.4,"cls":4,"psfc":989.4,"terrain":false,"radius_km":200,"name":"asym cold","track":"T108"},"geometry":{"type":"Point","coordinates":[73.0,31.5]}},{"type":"Feature","properties":{"kind":"center","id":41,"lat":-11.25,"lon":-74.25,"mslp":1010.3,"hvtl":74.0,"hvtu":-7.5,"hb":44.5,"idx":1.2,"cls":3,"psfc":903.1,"terrain":true,"radius_km":200,"name":"asym shallow warm"},"geometry":{"type":"Point","coordinates":[-74.25,-11.25]}},{"type":"Feature","properties":{"kind":"center","id":42,"lat":51.0,"lon":111.75,"mslp":1011.0,"hvtl":-18.2,"hvtu":-296.1,"hb":54.0,"idx":-1.4,"cls":4,"psfc":905.6,"terrain":true,"radius_km":200,"name":"asym cold"},"geometry":{"type":"Point","coordinates":[111.75,51.0]}},{"type":"Feature","properties":{"kind":"center","id":43,"lat":51.5,"lon":111.25,"mslp":1011.7,"hvtl":19.7,"hvtu":-272.6,"hb":54.3,"idx":-0.6,"cls":3,"psfc":903.6,"terrain":true,"radius_km":200,"name":"asym shallow warm"},"geometry":{"type":"Point","coordinates":[111.25,51.5]}},{"type":"Feature","properties":{"kind":"center","id":44,"lat":51.25,"lon":110.75,"mslp":1011.9,"hvtl":4.3,"hvtu":-290.8,"hb":57.5,"idx":-0.9,"cls":3,"psfc":900.6,"terrain":true,"radius_km":200,"name":"asym shallow warm"},"geometry":{"type":"Point","coordinates":[110.75,51.25]}},{"type":"Feature","properties":{"kind":"center","id":45,"lat":51.5,"lon":110.25,"mslp":1013.5,"hvtl":11.3,"hvtu":-278.2,"hb":58.4,"idx":-0.8,"cls":3,"psfc":903.7,"terrain":true,"radius_km":200,"name":"asym shallow warm"},"geometry":{"type":"Point","coordinates":[110.25,51.5]}},{"type":"Feature","properties":{"kind":"center","id":46,"lat":51.75,"lon":112.0,"mslp":1013.6,"hvtl":14.5,"hvtu":-256.7,"hb":50.2,"idx":-0.7,"cls":3,"psfc":900.3,"terrain":true,"radius_km":200,"name":"asym shallow warm"},"geometry":{"type":"Point","coordinates":[112.0,51.75]}},{"type":"Feature","properties":{"kind":"center","id":47,"lat":45.25,"lon":-150.25,"mslp":1015.0,"hvtl":-210.4,"hvtu":-298.5,"hb":78.1,"idx":-2.9,"cls":4,"psfc":1015.0,"terrain":false,"radius_km":200,"name":"asym cold","track":"T68"},"geometry":{"type":"Point","coordinates":[-150.25,45.25]}},{"type":"Feature","properties":{"kind":"center","id":48,"lat":32.25,"lon":48.5,"mslp":1015.3,"hvtl":-31.2,"hvtu":-89.0,"hb":31.2,"idx":-1.3,"cls":4,"psfc":1004.9,"terrain":false,"radius_km":200,"name":"asym cold","track":"T122"},"geometry":{"type":"Point","coordinates":[48.5,32.25]}}]}