{"type":"FeatureCollection","features":[{"type":"Feature","properties":{"kind":"blob","cls":2,"id":1},"geometry":{"type":"Polygon","coordinates":[[[-19.75,65.12],[-19.0,66.12],[-18.0,66.12],[-18.0,65.62],[-17.25,65.38],[-16.75,65.88],[-15.0,65.62],[-13.88,66.75],[-13.88,67.5],[-14.75,68.38],[-16.0,68.88],[-21.5,68.88],[-22.75,68.38],[-23.62,67.5],[-23.62,66.5],[-22.75,65.62],[-19.75,65.12]],[[-20.12,66.75],[-20.12,67.25],[-19.25,67.62],[-18.12,67.0],[-18.75,66.62],[-20.12,66.75]]]}},{"type":"Feature","properties":{"kind":"blob","cls":3,"id":2},"geometry":{"type":"Polygon","coordinates":[[[109.75,-62.12],[114.0,-62.12],[115.62,-61.0],[115.88,-59.75],[114.5,-58.38],[112.75,-57.88],[110.0,-57.88],[108.25,-58.38],[107.12,-59.25],[106.88,-60.5],[107.75,-61.62],[109.75,-62.12]]]}},{"type":"Feature","properties":{"kind":"blob","cls":6,"id":3},"geometry":{"type":"Polygon","coordinates":[[[-112.25,-74.38],[-102.5,-74.38],[-95.75,-73.62],[-95.62,-73.0],[-96.75,-72.12],[-98.5,-71.62],[-107.0,-71.38],[-112.0,-72.38],[-113.12,-73.25],[-113.12,-73.75],[-112.25,-74.38]],[[-98.88,-72.25],[-98.12,-72.25],[-98.25,-72.38],[-98.88,-72.25]]]}},{"type":"Feature","properties":{"kind":"blob","cls":1,"id":4},"geometry":{"type":"Polygon","coordinates":[[[96.0,-54.88],[96.5,-54.38],[98.5,-54.38],[99.38,-53.5],[99.38,-52.0],[98.5,-51.12],[97.0,-50.62],[94.0,-51.12],[93.12,-52.0],[93.12,-53.25],[94.0,-54.12],[96.0,-54.88]]]}},{"type":"Feature","properties":{"kind":"blob","cls":3,"id":5},"geometry":{"type":"Polygon","coordinates":[[[-114.5,-64.12],[-112.5,-63.62],[-111.0,-62.12],[-109.25,-62.12],[-107.0,-61.38],[-106.38,-60.5],[-106.38,-59.75],[-107.75,-58.38],[-111.0,-57.88],[-112.75,-58.38],[-114.25,-59.88],[-118.25,-60.12],[-120.62,-61.75],[-120.62,-62.5],[-119.5,-63.62],[-114.5,-64.12]]]}},{"type":"Feature","properties":{"kind":"blob","cls":3,"id":6},"geometry":{"type":"Polygon","coordinates":[[[14.5,-65.62],[16.38,-64.25],[16.38,-63.5],[13.5,-61.38],[13.0,-61.88],[11.5,-61.62],[9.75,-60.38],[6.25,-60.62],[4.62,-61.5],[4.38,-62.5],[5.5,-63.88],[10.0,-65.62],[14.5,-65.62]]]}},{"type":"Feature","properties":{"kind":"blob","cls":4,"id":7},"geometry":{"type":"Polygon","coordinates":[[[179.75,-64.88],[180.0,-61.12],[175.5,-60.62],[173.5,-61.12],[172.38,-62.25],[172.62,-63.25],[174.25,-64.38],[177.0,-65.12],[179.75,-64.88]]]}},{"type":"Feature","properties":{"kind":"blob","cls":4,"id":7},"geometry":{"type":"Polygon","coordinates":[[[-179.88,-61.25],[-180.0,-64.88],[-179.25,-64.88],[-177.38,-63.75],[-177.38,-62.5],[-178.5,-61.62],[-179.88,-61.25]]]}},{"type":"Feature","properties":{"kind":"blob","cls":4,"id":8},"geometry":{"type":"Polygon","coordinates":[[[-90.0,-66.62],[-87.75,-66.12],[-86.12,-65.0],[-86.12,-64.0],[-88.75,-62.38],[-90.25,-62.12],[-93.25,-62.38],[-95.12,-63.5],[-95.38,-65.0],[-95.0,-65.38],[-93.0,-66.38],[-90.0,-66.62]]]}},{"type":"Feature","properties":{"kind":"blob","cls":3,"id":9},"geometry":{"type":"Polygon","coordinates":[[[148.25,50.38],[149.75,50.88],[150.62,51.75],[150.62,53.0],[149.75,53.88],[148.25,54.38],[146.5,54.38],[145.0,53.88],[144.12,53.0],[144.12,51.75],[145.0,50.88],[148.25,50.38]]]}},{"type":"Feature","properties":{"kind":"blob","cls":4,"id":10},"geometry":{"type":"Polygon","coordinates":[[[27.75,-54.12],[31.0,-54.12],[32.38,-53.0],[32.38,-52.0],[31.25,-50.88],[29.25,-49.88],[26.0,-49.88],[24.62,-51.0],[24.62,-52.5],[25.5,-53.38],[27.75,-54.12]]]}},{"type":"Feature","properties":{"kind":"blob","cls":4,"id":11},"geometry":{"type":"Polygon","coordinates":[[[101.75,-45.62],[103.0,-45.12],[103.62,-44.5],[103.62,-43.0],[103.0,-42.38],[101.0,-41.62],[98.75,-42.12],[98.12,-42.75],[98.12,-44.5],[98.75,-45.12],[101.75,-45.62]]]}},{"type":"Feature","properties":{"kind":"blob","cls":3,"id":12},"geometry":{"type":"Polygon","coordinates":[[[-158.25,45.88],[-157.0,46.38],[-156.12,47.25],[-156.12,48.5],[-157.0,49.38],[-158.25,49.88],[-160.5,49.38],[-160.12,48.25],[-160.75,48.12],[-161.25,48.62],[-161.38,47.25],[-160.5,46.38],[-158.25,45.88]]]}},{"type":"Feature","properties":{"kind":"blob","cls":3,"id":13},"geometry":{"type":"Polygon","coordinates":[[[29.25,80.38],[34.75,81.38],[36.12,82.25],[35.5,82.88],[34.0,83.38],[31.25,83.88],[17.75,84.38],[9.5,83.62],[7.0,82.88],[6.38,82.25],[7.25,81.38],[10.25,80.62],[29.25,80.38]]]}},{"type":"Feature","properties":{"kind":"blob","cls":4,"id":14},"geometry":{"type":"Polygon","coordinates":[[[-17.75,-74.62],[-14.12,-73.75],[-15.5,-73.38],[-11.5,-73.38],[-9.75,-72.12],[-7.75,-72.12],[-4.75,-71.38],[-3.25,-71.88],[-1.5,-71.62],[-1.38,-71.0],[-2.75,-69.62],[-4.75,-68.88],[-8.0,-68.38],[-12.5,-68.62],[-15.5,-69.62],[-16.75,-71.12],[-18.75,-71.38],[-20.5,-72.12],[-21.38,-73.0],[-21.38,-73.5],[-20.75,-74.12],[-17.75,-74.62]]]}},{"type":"Feature","properties":{"kind":"blob","cls":4,"id":15},"geometry":{"type":"Polygon","coordinates":[[[95.0,81.88],[100.75,82.62],[102.38,83.5],[100.75,84.38],[97.75,84.88],[82.5,85.38],[73.0,84.62],[71.0,84.12],[70.12,83.5],[71.75,82.62],[74.75,82.12],[95.0,81.88]]]}},{"type":"Feature","properties":{"kind":"blob","cls":4,"id":16},"geometry":{"type":"Polygon","coordinates":[[[179.75,82.62],[180.0,87.62],[169.75,87.38],[159.75,86.62],[155.0,85.88],[153.12,84.75],[155.0,83.88],[158.75,83.38],[171.5,82.62],[179.75,82.62]]]}},{"type":"Feature","properties":{"kind":"blob","cls":4,"id":16},"geometry":{"type":"Polygon","coordinates":[[[-179.75,87.62],[-180.0,82.62],[-139.25,83.38],[-129.25,84.12],[-126.5,84.62],[-124.62,85.5],[-125.75,86.12],[-128.5,86.62],[-138.25,87.38],[-156.5,87.88],[-179.75,87.62]]]}},{"type":"Feature","properties":{"kind":"blob","cls":4,"id":17},"geometry":{"type":"Polygon","coordinates":[[[8.25,-46.88],[9.5,-46.38],[10.38,-45.25],[10.12,-44.25],[9.0,-43.12],[7.75,-42.62],[5.25,-43.12],[4.38,-44.5],[4.62,-45.25],[5.5,-46.38],[8.25,-46.88]]]}},{"type":"Feature","properties":{"kind":"blob","cls":3,"id":18},"geometry":{"type":"Polygon","coordinates":[[[166.75,42.12],[168.0,42.62],[168.88,43.5],[168.88,45.0],[167.0,46.12],[164.5,45.62],[163.62,44.25],[163.88,43.25],[164.5,42.62],[166.75,42.12]]]}},{"type":"Feature","properties":{"kind":"blob","cls":3,"id":19},"geometry":{"type":"Polygon","coordinates":[[[-68.5,66.12],[-66.62,67.0],[-67.62,67.5],[-67.12,67.75],[-67.75,68.12],[-66.25,67.62],[-65.88,68.0],[-66.5,68.88],[-68.25,69.88],[-71.25,70.38],[-73.0,70.38],[-73.0,69.88],[-74.0,69.88],[-74.5,70.38],[-76.75,70.12],[-78.25,69.62],[-79.12,68.75],[-79.12,68.25],[-78.0,67.12],[-75.25,66.12],[-68.5,66.12]],[[-69.5,69.12],[-70.12,69.75],[-68.62,69.5],[-69.5,69.12]]]}},{"type":"Feature","properties":{"kind":"blob","cls":4,"id":20},"geometry":{"type":"Polygon","coordinates":[[[-57.75,48.62],[-56.12,49.75],[-55.88,50.75],[-56.75,51.88],[-58.25,52.38],[-61.5,52.12],[-63.12,51.0],[-63.38,50.0],[-62.5,48.88],[-57.75,48.62]]]}},{"type":"Feature","properties":{"kind":"blob","cls":4,"id":21},"geometry":{"type":"Polygon","coordinates":[[[62.75,-67.88],[65.0,-67.38],[66.12,-66.75],[66.38,-65.75],[66.0,-65.12],[64.25,-64.38],[59.5,-64.12],[57.25,-64.62],[55.88,-65.75],[56.12,-66.75],[57.25,-67.38],[62.75,-67.88]]]}},{"type":"Feature","properties":{"kind":"blob","cls":1,"id":22},"geometry":{"type":"Polygon","coordinates":[[[-95.5,67.88],[-90.5,67.88],[-89.0,68.38],[-88.12,69.25],[-88.12,69.75],[-89.0,70.62],[-90.5,71.12],[-95.25,71.38],[-98.5,70.62],[-99.38,69.75],[-99.38,69.25],[-98.5,68.38],[-95.5,67.88]]]}},{"type":"Feature","properties":{"kind":"blob","cls":4,"id":23},"geometry":{"type":"Polygon","coordinates":[[[179.88,-46.0],[179.88,-44.75],[179.0,-43.88],[177.75,-43.38],[175.5,-43.88],[174.38,-45.25],[174.62,-46.25],[175.25,-46.88],[176.5,-47.38],[178.75,-47.12],[179.88,-46.0]]]}},{"type":"Feature","properties":{"kind":"blob","cls":4,"id":24},"geometry":{"type":"Polygon","coordinates":[[[173.75,-44.12],[175.25,-43.38],[175.62,-42.75],[175.38,-41.0],[173.75,-40.12],[172.75,-40.12],[171.25,-40.88],[170.62,-41.75],[170.62,-42.75],[171.0,-43.12],[173.0,-41.62],[173.62,-42.0],[171.62,-43.5],[171.75,-43.88],[173.75,-44.12]],[[172.38,-41.5],[172.5,-40.88],[172.62,-41.0],[172.38,-41.5]]]}},{"type":"Feature","properties":{"kind":"blob","cls":5,"id":25},"geometry":{"type":"Polygon","coordinates":[[[-105.25,-40.62],[-103.62,-39.5],[-103.38,-38.25],[-104.75,-36.62],[-106.75,-36.38],[-108.38,-37.5],[-108.38,-39.25],[-107.25,-40.38],[-105.25,-40.62]]]}},{"type":"Feature","properties":{"kind":"blob","cls":1,"id":26},"geometry":{"type":"Polygon","coordinates":[[[166.75,-41.62],[168.38,-40.5],[168.62,-39.25],[167.5,-37.88],[165.25,-37.62],[163.62,-38.75],[163.62,-40.5],[164.5,-41.38],[166.75,-41.62]]]}},{"type":"Feature","properties":{"kind":"blob","cls":4,"id":27},"geometry":{"type":"MultiPolygon","coordinates":[[[[-80.0,-78.88],[-80.12,-79.0],[-80.0,-79.12],[-80.0,-78.88]]],[[[-79.62,-78.75],[-79.75,-78.62],[-79.88,-78.75],[-79.62,-78.75]]],[[[-79.38,-78.5],[-79.5,-78.38],[-79.62,-78.5],[-79.38,-78.5]]]]}},{"type":"Feature","properties":{"kind":"blob","cls":5,"id":28},"geometry":{"type":"Polygon","coordinates":[[[-65.5,-16.38],[-64.12,-15.5],[-64.12,-13.25],[-66.25,-11.38],[-69.0,-11.38],[-69.88,-12.5],[-69.88,-13.5],[-68.5,-13.88],[-67.5,-15.62],[-65.5,-16.38]]]}},{"type":"Feature","properties":{"kind":"blob","cls":6,"id":29},"geometry":{"type":"Polygon","coordinates":[[[155.75,10.38],[157.25,10.38],[158.12,11.5],[157.88,13.0],[156.5,13.88],[155.25,13.62],[154.38,12.5],[154.62,11.0],[155.75,10.38]]]}},{"type":"Feature","properties":{"kind":"blob","cls":0,"id":30},"geometry":{"type":"Polygon","coordinates":[[[-167.75,-15.62],[-166.88,-14.5],[-167.12,-13.0],[-168.5,-12.12],[-169.75,-12.38],[-170.38,-13.0],[-170.62,-14.5],[-169.75,-15.62],[-167.75,-15.62]]]}},{"type":"Feature","properties":{"kind":"blob","cls":1,"id":31},"geometry":{"type":"Polygon","coordinates":[[[-73.0,-12.38],[-72.5,-11.88],[-71.75,-11.88],[-71.12,-11.25],[-71.0,-9.62],[-74.12,-10.75],[-73.0,-12.38]]]}},{"type":"Feature","properties":{"kind":"blob","cls":4,"id":32},"geometry":{"type":"Polygon","coordinates":[[[-109.5,54.12],[-107.5,54.62],[-105.62,56.5],[-107.5,58.38],[-112.25,58.38],[-114.12,56.75],[-114.12,55.75],[-112.75,54.62],[-109.5,54.12]]]}},{"type":"Feature","properties":{"kind":"blob","cls":4,"id":33},"geometry":{"type":"MultiPolygon","coordinates":[[[[28.0,-35.38],[30.0,-35.38],[31.12,-34.25],[30.62,-32.0],[29.5,-31.12],[28.0,-31.62],[27.25,-32.62],[26.12,-32.75],[26.38,-34.5],[28.0,-35.38]]],[[[27.25,-31.88],[27.12,-32.0],[27.25,-32.12],[27.25,-31.88]]]]}},{"type":"Feature","properties":{"kind":"blob","cls":4,"id":34},"geometry":{"type":"Polygon","coordinates":[[[67.0,26.88],[68.5,26.88],[69.62,28.25],[69.38,29.25],[68.0,30.12],[67.38,29.75],[67.0,26.88]]]}},{"type":"Feature","properties":{"kind":"blob","cls":3,"id":35},"geometry":{"type":"Polygon","coordinates":[[[-74.12,-12.0],[-74.0,-12.12],[-73.88,-11.75],[-74.12,-12.0]]]}},{"type":"Feature","properties":{"kind":"blob","cls":4,"id":36},"geometry":{"type":"Polygon","coordinates":[[[72.75,28.88],[74.12,29.5],[74.62,30.25],[74.62,31.5],[74.0,32.38],[72.25,32.38],[70.12,31.5],[69.88,29.75],[72.75,28.88]]]}},{"type":"Feature","properties":{"kind":"blob","cls":4,"id":37},"geometry":{"type":"Polygon","coordinates":[[[28.25,34.62],[29.75,34.38],[30.75,34.88],[31.38,35.5],[31.38,37.0],[30.75,37.62],[30.0,36.38],[29.5,36.38],[28.88,37.0],[28.88,37.5],[29.38,37.75],[29.0,38.12],[27.5,37.62],[26.88,37.0],[26.88,35.5],[28.25,34.62]],[[28.5,37.12],[28.38,37.25],[28.5,37.38],[28.5,37.12]]]}},{"type":"Feature","properties":{"kind":"blob","cls":1,"id":38},"geometry":{"type":"Polygon","coordinates":[[[-74.5,-11.38],[-74.12,-11.25],[-74.25,-11.12],[-74.5,-11.38]]]}},{"type":"Feature","properties":{"kind":"blob","cls":4,"id":39},"geometry":{"type":"Polygon","coordinates":[[[-111.0,48.62],[-110.25,48.38],[-109.12,49.25],[-110.5,49.38],[-110.62,49.75],[-109.0,49.88],[-109.12,50.75],[-111.0,52.12],[-114.25,52.12],[-113.12,50.5],[-113.38,50.0],[-111.75,49.12],[-110.75,49.12],[-110.62,48.75],[-111.0,48.62]]]}},{"type":"Feature","properties":{"kind":"blob","cls":4,"id":40},"geometry":{"type":"MultiPolygon","coordinates":[[[[-101.5,36.88],[-101.62,36.75],[-101.5,36.62],[-101.5,36.88]]],[[[-101.62,37.25],[-101.25,36.88],[-100.88,37.5],[-101.25,38.62],[-101.38,37.75],[-101.62,37.25]]]]}},{"type":"Feature","properties":{"kind":"blob","cls":3,"id":41},"geometry":{"type":"Polygon","coordinates":[[[122.0,65.12],[125.25,65.88],[127.12,67.25],[127.12,68.25],[124.5,69.62],[120.5,69.88],[118.25,69.38],[115.62,68.0],[115.38,66.75],[116.25,65.88],[122.0,65.12]]]}},{"type":"Feature","properties":{"kind":"blob","cls":4,"id":42},"geometry":{"type":"Polygon","coordinates":[[[38.25,40.88],[40.75,40.88],[42.25,41.88],[43.88,42.0],[39.0,44.12],[37.5,43.38],[37.12,42.75],[37.38,41.25],[38.25,40.88]]]}},{"type":"Feature","properties":{"kind":"blob","cls":4,"id":43},"geometry":{"type":"Polygon","coordinates":[[[-64.38,-22.5],[-64.25,-22.88],[-63.38,-22.0],[-63.38,-21.0],[-64.0,-20.62],[-64.12,-21.25],[-63.62,-21.75],[-64.38,-22.5]]]}},{"type":"Feature","properties":{"kind":"blob","cls":1,"id":44},"geometry":{"type":"Polygon","coordinates":[[[94.0,25.62],[94.38,26.25],[93.0,26.88],[92.88,26.25],[94.0,25.62]]]}},{"type":"Feature","properties":{"kind":"blob","cls":4,"id":45},"geometry":{"type":"Polygon","coordinates":[[[65.5,28.12],[65.5,28.88],[65.38,28.75],[65.5,28.12]]]}},{"type":"Feature","properties":{"kind":"blob","cls":5,"id":46},"geometry":{"type":"MultiPolygon","coordinates":[[[[95.0,25.38],[94.88,25.25],[95.0,25.12],[95.0,25.38]]],[[[95.25,25.62],[95.12,25.5],[95.5,25.38],[95.25,25.62]]]]}},{"type":"Feature","properties":{"kind":"blob","cls":4,"id":47},"geometry":{"type":"MultiPolygon","coordinates":[[[[-64.75,-26.38],[-64.38,-26.0],[-64.5,-24.62],[-65.12,-25.75],[-64.75,-26.38]]],[[[-64.88,-25.0],[-65.0,-24.88],[-65.12,-25.0],[-64.88,-25.0]]],[[[-64.88,-24.25],[-64.75,-24.62],[-64.62,-24.5],[-64.88,-24.25]]]]}},{"type":"Feature","properties":{"kind":"blob","cls":4,"id":48},"geometry":{"type":"Polygon","coordinates":[[[61.38,31.25],[61.5,31.12],[61.62,31.25],[61.38,31.25]]]}},{"type":"Feature","properties":{"kind":"blob","cls":4,"id":49},"geometry":{"type":"Polygon","coordinates":[[[-68.75,-33.38],[-68.0,-33.12],[-67.38,-32.25],[-67.5,-31.38],[-68.12,-31.5],[-67.62,-31.0],[-68.25,-30.12],[-68.62,-30.5],[-68.75,-33.38]]]}},{"type":"Feature","properties":{"kind":"blob","cls":4,"id":50},"geometry":{"type":"Polygon","coordinates":[[[61.75,32.12],[62.12,32.75],[61.5,33.38],[61.12,32.5],[61.75,32.12]]]}},{"type":"Feature","properties":{"kind":"blob","cls":1,"id":51},"geometry":{"type":"MultiPolygon","coordinates":[[[[-123.25,38.88],[-121.75,38.62],[-120.88,39.25],[-121.62,40.0],[-122.0,41.12],[-123.38,41.0],[-123.12,41.75],[-123.75,42.12],[-124.62,41.25],[-124.62,40.0],[-123.25,38.88]],[[-122.75,39.38],[-123.62,40.5],[-123.0,40.62],[-122.75,39.38]]],[[[-123.62,42.25],[-122.75,42.12],[-122.38,42.5],[-122.75,42.62],[-123.62,42.25]]]]}},{"type":"Feature","properties":{"kind":"blob","cls":4,"id":52},"geometry":{"type":"Polygon","coordinates":[[[65.62,29.25],[65.75,29.12],[65.88,29.25],[65.62,29.25]]]}},{"type":"Feature","properties":{"kind":"blob","cls":1,"id":53},"geometry":{"type":"Polygon","coordinates":[[[-6.25,32.62],[-5.62,33.0],[-5.75,33.38],[-4.38,34.0],[-4.38,35.0],[-5.0,35.88],[-6.75,36.38],[-8.38,35.5],[-8.38,33.5],[-6.25,32.62]]]}},{"type":"Feature","properties":{"kind":"blob","cls":4,"id":54},"geometry":{"type":"Polygon","coordinates":[[[-65.25,-26.88],[-65.25,-26.12],[-65.38,-26.25],[-65.25,-26.88]]]}},{"type":"Feature","properties":{"kind":"blob","cls":4,"id":55},"geometry":{"type":"Polygon","coordinates":[[[-71.25,-32.88],[-70.62,-33.0],[-71.12,-32.0],[-71.0,-30.12],[-71.62,-31.0],[-71.25,-32.88]]]}},{"type":"Feature","properties":{"kind":"blob","cls":3,"id":56},"geometry":{"type":"Polygon","coordinates":[[[-122.62,41.75],[-122.5,41.62],[-122.38,41.75],[-122.62,41.75]]]}},{"type":"Feature","properties":{"kind":"center","id":1,"lat":66.75,"lon":-18.5,"mslp":944.5,"hvtl":316.6,"hvtu":23.5,"hb":24.6,"idx":2.2,"cls":2,"psfc":944.5,"terrain":false,"radius_km":200,"name":"asym deep warm","track":"T02"},"geometry":{"type":"Point","coordinates":[-18.5,66.75]}},{"type":"Feature","properties":{"kind":"center","id":2,"lat":-60.0,"lon":111.5,"mslp":950.6,"hvtl":44.8,"hvtu":-206.5,"hb":48.6,"idx":-0.1,"cls":3,"psfc":950.6,"terrain":false,"radius_km":200,"name":"asym shallow warm","track":"T07"},"geometry":{"type":"Point","coordinates":[111.5,-60.0]}},{"type":"Feature","properties":{"kind":"center","id":3,"lat":-73.25,"lon":-104.25,"mslp":952.3,"hvtl":-7.4,"hvtu":38.8,"hb":14.6,"idx":0.2,"cls":6,"psfc":951.8,"terrain":false,"radius_km":200,"name":"shallow cold","track":"T11"},"geometry":{"type":"Point","coordinates":[-104.25,-73.25]}},{"type":"Feature","properties":{"kind":"center","id":4,"lat":-52.75,"lon":96.25,"mslp":956.8,"hvtl":9.6,"hvtu":-44.3,"hb":6.4,"idx":-0.2,"cls":1,"psfc":956.8,"terrain":false,"radius_km":200,"name":"sym shallow warm","track":"T13"},"geometry":{"type":"Point","coordinates":[96.25,-52.75]}},{"type":"Feature","properties":{"kind":"center","id":5,"lat":-62.0,"lon":-116.0,"mslp":957.6,"hvtl":16.5,"hvtu":-100.3,"hb":17.1,"idx":-0.4,"cls":3,"psfc":957.6,"terrain":false,"radius_km":200,"name":"asym shallow warm","track":"T16"},"geometry":{"type":"Point","coordinates":[-116.0,-62.0]}},{"type":"Feature","properties":{"kind":"center","id":6,"lat":-63.0,"lon":10.25,"mslp":961.3,"hvtl":35.0,"hvtu":-110.7,"hb":14.2,"idx":-0.1,"cls":3,"psfc":961.3,"terrain":false,"radius_km":200,"name":"asym shallow warm","track":"T23"},"geometry":{"type":"Point","coordinates":[10.25,-63.0]}},{"type":"Feature","properties":{"kind":"center","id":7,"lat":-62.75,"lon":176.75,"mslp":968.8,"hvtl":-208.4,"hvtu":-168.5,"hb":53.5,"idx":-2.9,"cls":4,"psfc":968.8,"terrain":false,"radius_km":200,"name":"asym cold","track":"T18"},"geometry":{"type":"Point","coordinates":[176.75,-62.75]}},{"type":"Feature","properties":{"kind":"center","id":8,"lat":-64.25,"lon":-91.0,"mslp":972.1,"hvtl":-129.6,"hvtu":-112.1,"hb":28.6,"idx":-2.5,"cls":4,"psfc":972.1,"terrain":false,"radius_km":200,"name":"asym cold","track":"T39"},"geometry":{"type":"Point","coordinates":[-91.0,-64.25]}},{"type":"Feature","properties":{"kind":"center","id":9,"lat":52.5,"lon":147.25,"mslp":972.7,"hvtl":85.7,"hvtu":-248.0,"hb":44.5,"idx":0.4,"cls":3,"psfc":972.7,"terrain":false,"radius_km":200,"name":"asym shallow warm","track":"T30"},"geometry":{"type":"Point","coordinates":[147.25,52.5]}},{"type":"Feature","properties":{"kind":"center","id":10,"lat":-52.25,"lon":28.5,"mslp":973.9,"hvtl":-317.3,"hvtu":-395.6,"hb":101.3,"idx":-3.0,"cls":4,"psfc":973.9,"terrain":false,"radius_km":200,"name":"asym cold","track":"T05"},"geometry":{"type":"Point","coordinates":[28.5,-52.25]}},{"type":"Feature","properties":{"kind":"center","id":11,"lat":-43.75,"lon":100.75,"mslp":974.0,"hvtl":-326.3,"hvtu":-267.7,"hb":55.9,"idx":-3.0,"cls":4,"psfc":974.0,"terrain":false,"radius_km":200,"name":"asym cold","track":"T20"},"geometry":{"type":"Point","coordinates":[100.75,-43.75]}},{"type":"Feature","properties":{"kind":"center","id":12,"lat":48.0,"lon":-158.75,"mslp":974.1,"hvtl":172.6,"hvtu":-56.1,"hb":31.6,"idx":1.4,"cls":3,"psfc":974.1,"terrain":false,"radius_km":200,"name":"asym shallow warm","track":"T34"},"geometry":{"type":"Point","coordinates":[-158.75,48.0]}},{"type":"Feature","properties":{"kind":"center","id":13,"lat":82.0,"lon":20.75,"mslp":980.3,"hvtl":7.8,"hvtu":-192.5,"hb":58.2,"idx":-0.8,"cls":3,"psfc":980.3,"terrain":false,"radius_km":200,"name":"asym shallow warm","track":"T32"},"geometry":{"type":"Point","coordinates":[20.75,82.0]}},{"type":"Feature","properties":{"kind":"center","id":14,"lat":-70.5,"lon":-9.0,"mslp":982.6,"hvtl":-163.1,"hvtu":-217.5,"hb":17.7,"idx":-2.8,"cls":4,"psfc":981.9,"terrain":false,"radius_km":200,"name":"asym cold","track":"T61"},"geometry":{"type":"Point","coordinates":[-9.0,-70.5]}},{"type":"Feature","properties":{"kind":"center","id":15,"lat":83.75,"lon":73.5,"mslp":984.8,"hvtl":-278.2,"hvtu":-225.8,"hb":88.8,"idx":-3.0,"cls":4,"psfc":984.8,"terrain":false,"radius_km":200,"name":"asym cold","track":"T58"},"geometry":{"type":"Point","coordinates":[73.5,83.75]}},{"type":"Feature","properties":{"kind":"center","id":16,"lat":85.25,"lon":-168.5,"mslp":985.6,"hvtl":-92.2,"hvtu":-124.2,"hb":33.5,"idx":-2.3,"cls":4,"psfc":985.6,"terrain":false,"radius_km":200,"name":"asym cold","track":"T59"},"geometry":{"type":"Point","coordinates":[-168.5,85.25]}},{"type":"Feature","properties":{"kind":"center","id":17,"lat":-44.75,"lon":7.25,"mslp":986.0,"hvtl":-381.9,"hvtu":-543.1,"hb":75.3,"idx":-3.0,"cls":4,"psfc":986.0,"terrain":false,"radius_km":200,"name":"asym cold"},"geometry":{"type":"Point","coordinates":[7.25,-44.75]}},{"type":"Feature","properties":{"kind":"center","id":18,"lat":44.25,"lon":166.25,"mslp":988.6,"hvtl":50.0,"hvtu":-27.5,"hb":56.4,"idx":0.7,"cls":3,"psfc":988.6,"terrain":false,"radius_km":200,"name":"asym shallow warm","track":"T09"},"geometry":{"type":"Point","coordinates":[166.25,44.25]}},{"type":"Feature","properties":{"kind":"center","id":19,"lat":68.0,"lon":-71.0,"mslp":989.5,"hvtl":72.4,"hvtu":-132.8,"hb":23.6,"idx":0.4,"cls":3,"psfc":949.5,"terrain":false,"radius_km":200,"name":"asym shallow warm","track":"T70"},"geometry":{"type":"Point","coordinates":[-71.0,68.0]}},{"type":"Feature","properties":{"kind":"center","id":20,"lat":50.5,"lon":-59.5,"mslp":989.6,"hvtl":-177.5,"hvtu":-63.1,"hb":85.1,"idx":-2.4,"cls":4,"psfc":988.1,"terrain":false,"radius_km":200,"name":"asym cold","track":"T44"},"geometry":{"type":"Point","coordinates":[-59.5,50.5]}},{"type":"Feature","properties":{"kind":"center","id":21,"lat":-65.25,"lon":63.0,"mslp":990.8,"hvtl":-93.0,"hvtu":-54.9,"hb":27.7,"idx":-2.0,"cls":4,"psfc":990.8,"terrain":false,"radius_km":200,"name":"asym cold"},"geometry":{"type":"Point","coordinates":[63.0,-65.25]}},{"type":"Feature","properties":{"kind":"center","id":22,"lat":69.5,"lon":-93.75,"mslp":994.1,"hvtl":3.8,"hvtu":-48.7,"hb":4.6,"idx":-0.4,"cls":1,"psfc":988.3,"terrain":false,"radius_km":200,"name":"sym shallow warm","track":"T71"},"geometry":{"type":"Point","coordinates":[-93.75,69.5]}},{"type":"Feature","properties":{"kind":"center","id":23,"lat":-45.5,"lon":177.25,"mslp":995.4,"hvtl":-38.9,"hvtu":-254.5,"hb":61.0,"idx":-1.7,"cls":4,"psfc":995.4,"terrain":false,"radius_km":200,"name":"asym cold","track":"T01"},"geometry":{"type":"Point","coordinates":[177.25,-45.5]}},{"type":"Feature","properties":{"kind":"center","id":24,"lat":-42.5,"lon":172.75,"mslp":1000.0,"hvtl":-25.0,"hvtu":-283.4,"hb":58.9,"idx":-1.5,"cls":4,"psfc":904.9,"terrain":true,"radius_km":200,"name":"asym cold"},"geometry":{"type":"Point","coordinates":[172.75,-42.5]}},{"type":"Feature","properties":{"kind":"center","id":25,"lat":-38.5,"lon":-106.0,"mslp":1000.3,"hvtl":-7.1,"hvtu":-13.4,"hb":-9.2,"idx":-0.3,"cls":5,"psfc":1000.3,"terrain":false,"radius_km":200,"name":"sym cold","track":"T90"},"geometry":{"type":"Point","coordinates":[-106.0,-38.5]}},{"type":"Feature","properties":{"kind":"center","id":26,"lat":-39.5,"lon":166.0,"mslp":1001.0,"hvtl":24.1,"hvtu":-159.0,"hb":6.9,"idx":-0.4,"cls":1,"psfc":1001.0,"terrain":false,"radius_km":200,"name":"sym shallow warm","track":"T55"},"geometry":{"type":"Point","coordinates":[166.0,-39.5]}},{"type":"Feature","properties":{"kind":"center","id":27,"lat":-78.5,"lon":-79.5,"mslp":1001.6,"hvtl":-319.5,"hvtu":-195.3,"hb":77.1,"idx":-3.0,"cls":4,"psfc":934.3,"terrain":false,"radius_km":200,"name":"asym cold","track":"T49"},"geometry":{"type":"Point","coordinates":[-79.5,-78.5]}},{"type":"Feature","properties":{"kind":"center","id":28,"lat":-14.25,"lon":-67.0,"mslp":1001.9,"hvtl":-106.5,"hvtu":-80.3,"hb":5.4,"idx":-2.2,"cls":5,"psfc":982.5,"terrain":false,"radius_km":200,"name":"sym cold","track":"T92"},"geometry":{"type":"Point","coordinates":[-67.0,-14.25]}},{"type":"Feature","properties":{"kind":"center","id":29,"lat":12.0,"lon":156.25,"mslp":1002.6,"hvtl":-22.9,"hvtu":19.5,"hb":11.2,"idx":-0.3,"cls":6,"psfc":1002.6,"terrain":false,"radius_km":200,"name":"shallow cold","track":"T50"},"geometry":{"type":"Point","coordinates":[156.25,12.0]}},{"type":"Feature","properties":{"kind":"center","id":30,"lat":-14.0,"lon":-168.75,"mslp":1002.7,"hvtl":67.4,"hvtu":29.3,"hb":-4.3,"idx":1.5,"cls":0,"psfc":1002.7,"terrain":false,"radius_km":200,"name":"sym deep warm","track":"T88"},"geometry":{"type":"Point","coordinates":[-168.75,-14.0]}},{"type":"Feature","properties":{"kind":"center","id":31,"lat":-10.0,"lon":-71.0,"mslp":1004.1,"hvtl":11.0,"hvtu":-36.0,"hb":-10.0,"idx":-0.1,"cls":1,"psfc":971.7,"terrain":false,"radius_km":200,"name":"sym shallow warm"},"geometry":{"type":"Point","coordinates":[-71.0,-10.0]}},{"type":"Feature","properties":{"kind":"center","id":32,"lat":56.5,"lon":-109.75,"mslp":1005.4,"hvtl":-104.8,"hvtu":-320.3,"hb":78.7,"idx":-2.6,"cls":4,"psfc":948.7,"terrain":false,"radius_km":200,"name":"asym cold","track":"T84"},"geometry":{"type":"Point","coordinates":[-109.75,56.5]}},{"type":"Feature","properties":{"kind":"center","id":33,"lat":-33.0,"lon":28.5,"mslp":1006.8,"hvtl":-199.4,"hvtu":-73.2,"hb":33.2,"idx":-2.6,"cls":4,"psfc":1006.8,"terrain":false,"radius_km":200,"name":"asym cold"},"geometry":{"type":"Point","coordinates":[28.5,-33.0]}},{"type":"Feature","properties":{"kind":"center","id":34,"lat":28.5,"lon":68.75,"mslp":1007.0,"hvtl":-67.8,"hvtu":-172.3,"hb":23.8,"idx":-2.1,"cls":4,"psfc":997.3,"terrain":false,"radius_km":200,"name":"asym cold","track":"T104"},"geometry":{"type":"Point","coordinates":[68.75,28.5]}},{"type":"Feature","properties":{"kind":"center","id":35,"lat":-12.0,"lon":-74.0,"mslp":1007.2,"hvtl":176.4,"hvtu":-43.0,"hb":21.6,"idx":1.5,"cls":3,"psfc":931.0,"terrain":false,"radius_km":200,"name":"asym shallow warm","track":"T97"},"geometry":{"type":"Point","coordinates":[-74.0,-12.0]}},{"type":"Feature","properties":{"kind":"center","id":36,"lat":29.75,"lon":71.75,"mslp":1007.4,"hvtl":-98.7,"hvtu":-221.5,"hb":31.0,"idx":-2.5,"cls":4,"psfc":993.6,"terrain":false,"radius_km":200,"name":"asym cold","track":"T94"},"geometry":{"type":"Point","coordinates":[71.75,29.75]}},{"type":"Feature","properties":{"kind":"center","id":37,"lat":36.25,"lon":31.0,"mslp":1007.6,"hvtl":-121.1,"hvtu":-232.6,"hb":25.3,"idx":-2.7,"cls":4,"psfc":1007.6,"terrain":false,"radius_km":200,"name":"asym cold"},"geometry":{"type":"Point","coordinates":[31.0,36.25]}},{"type":"Feature","properties":{"kind":"center","id":38,"lat":-11.25,"lon":-74.25,"mslp":1007.9,"hvtl":140.3,"hvtu":-30.6,"hb":8.3,"idx":1.5,"cls":1,"psfc":901.9,"terrain":true,"radius_km":200,"name":"sym shallow warm"},"geometry":{"type":"Point","coordinates":[-74.25,-11.25]}},{"type":"Feature","properties":{"kind":"center","id":39,"lat":51.0,"lon":-110.25,"mslp":1008.1,"hvtl":-132.0,"hvtu":-274.2,"hb":42.9,"idx":-2.7,"cls":4,"psfc":929.9,"terrain":false,"radius_km":200,"name":"asym cold"},"geometry":{"type":"Point","coordinates":[-110.25,51.0]}},{"type":"Feature","properties":{"kind":"center","id":40,"lat":37.25,"lon":-101.5,"mslp":1008.5,"hvtl":-135.3,"hvtu":-324.1,"hb":21.4,"idx":-2.7,"cls":4,"psfc":900.7,"terrain":true,"radius_km":200,"name":"asym cold"},"geometry":{"type":"Point","coordinates":[-101.5,37.25]}},{"type":"Feature","properties":{"kind":"center","id":41,"lat":67.5,"lon":121.5,"mslp":1008.9,"hvtl":18.0,"hvtu":-104.5,"hb":17.0,"idx":-0.4,"cls":3,"psfc":975.7,"terrain":false,"radius_km":200,"name":"asym shallow warm"},"geometry":{"type":"Point","coordinates":[121.5,67.5]}},{"type":"Feature","properties":{"kind":"center","id":42,"lat":41.75,"lon":40.75,"mslp":1009.4,"hvtl":-159.4,"hvtu":-105.2,"hb":22.8,"idx":-2.6,"cls":4,"psfc":1009.4,"terrain":false,"radius_km":200,"name":"asym cold","track":"T98"},"geometry":{"type":"Point","coordinates":[40.75,41.75]}},{"type":"Feature","properties":{"kind":"center","id":43,"lat":-21.0,"lon":-64.0,"mslp":1012.0,"hvtl":-6.4,"hvtu":-252.7,"hb":53.2,"idx":-1.1,"cls":4,"psfc":920.8,"terrain":true,"radius_km":200,"name":"asym cold"},"geometry":{"type":"Point","coordinates":[-64.0,-21.0]}},{"type":"Feature","properties":{"kind":"center","id":44,"lat":26.5,"lon":93.0,"mslp":1013.5,"hvtl":9.1,"hvtu":-183.7,"hb":8.3,"idx":-0.8,"cls":1,"psfc":992.7,"terrain":false,"radius_km":200,"name":"sym shallow warm","track":"T110"},"geometry":{"type":"Point","coordinates":[93.0,26.5]}},{"type":"Feature","properties":{"kind":"center","id":45,"lat":28.5,"lon":65.5,"mslp":1013.7,"hvtl":-33.4,"hvtu":-149.2,"hb":26.3,"idx":-1.5,"cls":4,"psfc":932.5,"terrain":false,"radius_km":200,"name":"asym cold"},"geometry":{"type":"Point","coordinates":[65.5,28.5]}},{"type":"Feature","properties":{"kind":"center","id":46,"lat":25.5,"lon":95.5,"mslp":1013.8,"hvtl":-12.4,"hvtu":-149.0,"hb":9.9,"idx":-1.2,"cls":5,"psfc":989.9,"terrain":false,"radius_km":200,"name":"sym cold","track":"T108"},"geometry":{"type":"Point","coordinates":[95.5,25.5]}},{"type":"Feature","properties":{"kind":"center","id":47,"lat":-24.25,"lon":-64.75,"mslp":1014.0,"hvtl":-58.7,"hvtu":-294.9,"hb":44.5,"idx":-2.1,"cls":4,"psfc":949.0,"terrain":false,"radius_km":200,"name":"asym cold"},"geometry":{"type":"Point","coordinates":[-64.75,-24.25]}},{"type":"Feature","properties":{"kind":"center","id":48,"lat":31.25,"lon":61.5,"mslp":1014.8,"hvtl":-64.8,"hvtu":-110.7,"hb":34.5,"idx":-1.9,"cls":4,"psfc":959.8,"terrain":false,"radius_km":200,"name":"asym cold"},"geometry":{"type":"Point","coordinates":[61.5,31.25]}},{"type":"Feature","properties":{"kind":"center","id":49,"lat":-31.0,"lon":-68.25,"mslp":1015.1,"hvtl":-28.1,"hvtu":-258.1,"hb":14.3,"idx":-1.5,"cls":4,"psfc":933.9,"terrain":false,"radius_km":200,"name":"asym cold"},"geometry":{"type":"Point","coordinates":[-68.25,-31.0]}},{"type":"Feature","properties":{"kind":"center","id":50,"lat":32.25,"lon":61.75,"mslp":1015.2,"hvtl":-70.9,"hvtu":-104.8,"hb":42.7,"idx":-2.0,"cls":4,"psfc":944.6,"terrain":false,"radius_km":200,"name":"asym cold"},"geometry":{"type":"Point","coordinates":[61.75,32.25]}},{"type":"Feature","properties":{"kind":"center","id":51,"lat":40.5,"lon":-122.25,"mslp":1015.3,"hvtl":5.2,"hvtu":-110.8,"hb":9.9,"idx":-0.7,"cls":1,"psfc":996.8,"terrain":false,"radius_km":200,"name":"sym shallow warm"},"geometry":{"type":"Point","coordinates":[-122.25,40.5]}},{"type":"Feature","properties":{"kind":"center","id":52,"lat":29.25,"lon":65.75,"mslp":1015.3,"hvtl":-39.9,"hvtu":-161.6,"hb":24.5,"idx":-1.7,"cls":4,"psfc":904.4,"terrain":true,"radius_km":200,"name":"asym cold"},"geometry":{"type":"Point","coordinates":[65.75,29.25]}},{"type":"Feature","properties":{"kind":"center","id":53,"lat":34.5,"lon":-6.5,"mslp":1015.3,"hvtl":67.1,"hvtu":-49.2,"hb":-10.2,"idx":0.7,"cls":1,"psfc":1014.7,"terrain":false,"radius_km":200,"name":"sym shallow warm"},"geometry":{"type":"Point","coordinates":[-6.5,34.5]}},{"type":"Feature","properties":{"kind":"center","id":54,"lat":-26.25,"lon":-65.25,"mslp":1016.9,"hvtl":-83.6,"hvtu":-302.3,"hb":40.6,"idx":-2.4,"cls":4,"psfc":920.4,"terrain":true,"radius_km":200,"name":"asym cold"},"geometry":{"type":"Point","coordinates":[-65.25,-26.25]}},{"type":"Feature","properties":{"kind":"center","id":55,"lat":-31.0,"lon":-71.0,"mslp":1017.2,"hvtl":-27.8,"hvtu":-242.7,"hb":12.7,"idx":-1.5,"cls":4,"psfc":906.3,"terrain":true,"radius_km":200,"name":"asym cold"},"geometry":{"type":"Point","coordinates":[-71.0,-31.0]}},{"type":"Feature","properties":{"kind":"center","id":56,"lat":41.75,"lon":-122.5,"mslp":1018.5,"hvtl":3.8,"hvtu":-80.2,"hb":20.7,"idx":-0.6,"cls":3,"psfc":918.0,"terrain":true,"radius_km":200,"name":"asym shallow warm"},"geometry":{"type":"Point","coordinates":[-122.5,41.75]}}]}