{"type":"FeatureCollection","features":[{"type":"Feature","properties":{"kind":"blob","cls":3,"id":1},"geometry":{"type":"Polygon","coordinates":[[[-24.75,59.62],[-21.25,59.62],[-19.38,61.0],[-19.12,62.0],[-20.0,62.88],[-22.25,63.62],[-26.0,63.38],[-27.88,62.0],[-27.88,61.5],[-26.75,60.12],[-24.75,59.62]]]}},{"type":"Feature","properties":{"kind":"blob","cls":1,"id":2},"geometry":{"type":"Polygon","coordinates":[[[91.5,-54.62],[94.75,-54.12],[95.62,-53.25],[95.62,-52.0],[94.75,-51.12],[93.25,-50.62],[92.0,-50.62],[90.0,-51.38],[89.12,-52.25],[89.12,-53.25],[90.0,-54.12],[91.5,-54.62]]]}},{"type":"Feature","properties":{"kind":"blob","cls":1,"id":3},"geometry":{"type":"Polygon","coordinates":[[[-142.5,-68.38],[-140.25,-67.88],[-138.5,-67.12],[-137.88,-65.75],[-139.25,-64.62],[-142.25,-64.12],[-142.38,-63.5],[-143.5,-62.38],[-144.75,-61.88],[-148.25,-61.62],[-150.75,-62.38],[-151.88,-63.5],[-151.88,-64.0],[-149.88,-65.5],[-150.12,-66.75],[-148.75,-67.62],[-142.5,-68.38]],[[-142.5,-67.88],[-143.88,-67.25],[-143.88,-66.75],[-142.75,-65.88],[-139.25,-65.62],[-138.38,-66.0],[-138.75,-66.88],[-139.75,-67.38],[-142.5,-67.88]]]}},{"type":"Feature","properties":{"kind":"blob","cls":3,"id":4},"geometry":{"type":"Polygon","coordinates":[[[-96.5,-71.88],[-93.75,-71.38],[-92.38,-70.5],[-91.62,-69.0],[-94.5,-67.38],[-99.75,-66.88],[-103.0,-67.62],[-104.88,-69.0],[-104.88,-69.75],[-104.0,-70.62],[-101.25,-71.62],[-96.5,-71.88]]]}},{"type":"Feature","properties":{"kind":"blob","cls":4,"id":5},"geometry":{"type":"Polygon","coordinates":[[[109.25,-58.12],[111.0,-57.62],[111.88,-56.75],[111.88,-55.25],[111.0,-54.38],[108.75,-53.62],[106.0,-54.12],[104.88,-55.25],[104.88,-56.5],[106.0,-57.62],[109.25,-58.12]]]}},{"type":"Feature","properties":{"kind":"blob","cls":3,"id":6},"geometry":{"type":"Polygon","coordinates":[[[17.25,-65.62],[20.25,-64.62],[21.12,-63.5],[19.75,-62.12],[14.75,-60.88],[9.25,-60.88],[7.25,-61.38],[6.12,-62.25],[6.12,-63.25],[7.0,-64.12],[10.0,-65.38],[17.25,-65.62]]]}},{"type":"Feature","properties":{"kind":"blob","cls":4,"id":7},"geometry":{"type":"Polygon","coordinates":[[[-154.5,-79.88],[-149.12,-79.0],[-149.75,-78.62],[-152.25,-78.62],[-153.75,-77.88],[-156.88,-77.75],[-156.25,-77.38],[-149.5,-78.12],[-147.75,-77.88],[-147.62,-77.5],[-149.0,-76.62],[-151.5,-76.12],[-159.25,-75.88],[-163.5,-76.38],[-165.88,-77.5],[-165.5,-78.38],[-164.5,-78.88],[-161.25,-79.62],[-154.5,-79.88]]]}},{"type":"Feature","properties":{"kind":"blob","cls":3,"id":8},"geometry":{"type":"Polygon","coordinates":[[[8.25,78.88],[14.5,79.38],[19.25,80.12],[21.75,81.12],[21.88,81.75],[19.75,82.62],[16.25,83.12],[2.5,83.38],[-6.0,82.38],[-7.5,81.88],[-8.12,81.25],[-7.5,80.38],[-6.0,79.88],[-1.5,79.12],[8.25,78.88]]]}},{"type":"Feature","properties":{"kind":"blob","cls":4,"id":9},"geometry":{"type":"Polygon","coordinates":[[[169.75,-70.38],[173.25,-69.62],[175.62,-68.25],[175.62,-67.25],[173.5,-66.12],[168.0,-65.88],[163.25,-67.12],[162.12,-68.25],[162.12,-68.75],[163.0,-69.62],[169.75,-70.38]]]}},{"type":"Feature","properties":{"kind":"blob","cls":4,"id":10},"geometry":{"type":"Polygon","coordinates":[[[164.75,-63.62],[166.25,-62.88],[167.38,-61.5],[166.5,-60.38],[164.25,-59.62],[158.0,-59.62],[156.75,-59.88],[155.12,-61.0],[154.88,-61.5],[155.75,-62.62],[157.25,-63.38],[164.75,-63.62]]]}},{"type":"Feature","properties":{"kind":"blob","cls":4,"id":11},"geometry":{"type":"Polygon","coordinates":[[[18.25,-48.38],[19.5,-47.88],[20.38,-47.0],[20.38,-46.0],[19.25,-44.88],[17.5,-44.12],[16.0,-44.12],[14.75,-44.62],[14.12,-45.25],[13.88,-46.25],[15.25,-47.88],[18.25,-48.38]]]}},{"type":"Feature","properties":{"kind":"blob","cls":4,"id":12},"geometry":{"type":"Polygon","coordinates":[[[71.5,-52.12],[75.25,-50.88],[76.62,-49.5],[76.38,-48.0],[74.5,-47.12],[72.75,-47.12],[68.5,-48.62],[67.62,-49.75],[67.62,-50.5],[68.5,-51.62],[71.5,-52.12]]]}},{"type":"Feature","properties":{"kind":"blob","cls":4,"id":13},"geometry":{"type":"Polygon","coordinates":[[[90.25,-44.62],[92.5,-43.38],[92.88,-42.75],[92.62,-41.25],[91.0,-40.38],[89.0,-40.38],[87.25,-41.12],[86.62,-42.0],[86.62,-43.0],[87.25,-43.88],[90.25,-44.62]]]}},{"type":"Feature","properties":{"kind":"blob","cls":4,"id":14},"geometry":{"type":"Polygon","coordinates":[[[113.0,-49.88],[114.25,-49.38],[115.12,-48.5],[115.12,-47.0],[114.25,-46.12],[113.0,-45.62],[110.5,-46.12],[109.62,-47.0],[109.62,-48.5],[110.5,-49.38],[113.0,-49.88]]]}},{"type":"Feature","properties":{"kind":"blob","cls":3,"id":15},"geometry":{"type":"Polygon","coordinates":[[[162.25,40.62],[163.88,41.5],[164.12,43.25],[163.5,44.12],[161.0,44.62],[159.38,43.75],[159.12,42.0],[159.75,41.12],[162.25,40.62]]]}},{"type":"Feature","properties":{"kind":"blob","cls":4,"id":16},"geometry":{"type":"Polygon","coordinates":[[[179.75,83.62],[180.0,87.62],[179.0,87.88],[148.75,87.62],[136.75,86.62],[134.75,86.12],[134.12,85.5],[135.25,84.88],[137.75,84.62],[138.12,84.25],[135.0,83.38],[134.88,82.5],[135.5,82.12],[139.0,81.38],[146.0,80.88],[159.5,81.12],[166.25,82.12],[168.75,83.38],[179.75,83.62]]]}},{"type":"Feature","properties":{"kind":"blob","cls":4,"id":16},"geometry":{"type":"Polygon","coordinates":[[[-179.75,87.62],[-180.0,83.62],[-165.5,84.38],[-159.88,85.5],[-160.0,86.12],[-160.75,86.38],[-165.5,87.12],[-179.75,87.62]]]}},{"type":"Feature","properties":{"kind":"blob","cls":3,"id":17},"geometry":{"type":"Polygon","coordinates":[[[-72.25,64.88],[-70.0,65.38],[-67.62,67.25],[-67.62,68.75],[-68.5,69.62],[-69.0,69.12],[-69.75,69.12],[-70.12,69.75],[-69.5,70.12],[-71.0,70.12],[-73.5,70.88],[-76.75,70.88],[-78.5,70.62],[-80.75,69.62],[-82.12,68.0],[-81.25,66.62],[-80.0,65.88],[-72.25,64.88]],[[-74.62,70.25],[-73.25,70.38],[-72.88,70.0],[-73.0,69.88],[-74.62,70.25]]]}},{"type":"Feature","properties":{"kind":"blob","cls":4,"id":18},"geometry":{"type":"Polygon","coordinates":[[[-159.5,43.88],[-157.75,44.62],[-156.88,45.75],[-157.12,46.75],[-158.25,47.88],[-159.5,48.38],[-162.0,47.88],[-162.88,47.0],[-163.12,46.0],[-162.0,44.38],[-159.5,43.88]]]}},{"type":"Feature","properties":{"kind":"blob","cls":4,"id":19},"geometry":{"type":"Polygon","coordinates":[[[145.5,47.38],[147.25,48.12],[148.38,49.5],[148.12,50.5],[147.25,51.38],[145.75,51.88],[143.75,51.62],[142.5,50.88],[141.88,50.0],[142.12,48.75],[143.5,47.62],[145.5,47.38]]]}},{"type":"Feature","properties":{"kind":"blob","cls":4,"id":20},"geometry":{"type":"Polygon","coordinates":[[[-57.0,72.62],[-54.88,73.0],[-58.75,74.62],[-61.0,76.38],[-66.25,76.38],[-67.25,76.88],[-68.88,77.0],[-65.25,77.12],[-65.0,77.62],[-74.0,77.62],[-76.0,77.12],[-77.38,76.25],[-77.0,75.38],[-75.25,74.62],[-72.0,74.38],[-69.0,73.38],[-57.0,72.62]]]}},{"type":"Feature","properties":{"kind":"blob","cls":3,"id":21},"geometry":{"type":"Polygon","coordinates":[[[-69.12,69.75],[-69.0,69.62],[-68.88,69.75],[-69.12,69.75]]]}},{"type":"Feature","properties":{"kind":"blob","cls":4,"id":22},"geometry":{"type":"Polygon","coordinates":[[[-52.62,71.25],[-52.5,71.12],[-52.38,71.25],[-52.62,71.25]]]}},{"type":"Feature","properties":{"kind":"blob","cls":4,"id":23},"geometry":{"type":"Polygon","coordinates":[[[-64.25,45.62],[-62.62,47.0],[-62.62,48.0],[-63.75,49.12],[-65.0,49.62],[-68.0,49.12],[-69.38,48.0],[-69.38,46.75],[-68.5,45.88],[-64.25,45.62]]]}},{"type":"Feature","properties":{"kind":"blob","cls":4,"id":24},"geometry":{"type":"Polygon","coordinates":[[[-106.0,68.12],[-99.5,68.12],[-98.0,68.62],[-97.12,69.5],[-97.12,70.0],[-97.75,70.88],[-98.75,71.38],[-102.25,72.12],[-106.5,71.88],[-108.5,71.38],[-109.88,70.5],[-110.12,70.0],[-109.0,68.62],[-106.0,68.12]]]}},{"type":"Feature","properties":{"kind":"blob","cls":4,"id":25},"geometry":{"type":"Polygon","coordinates":[[[147.5,55.12],[149.25,55.62],[150.62,57.0],[150.38,58.5],[149.5,59.38],[147.5,60.12],[144.25,59.88],[142.25,59.12],[141.62,58.5],[141.62,56.75],[142.75,55.62],[147.5,55.12]]]}},{"type":"Feature","properties":{"kind":"blob","cls":4,"id":26},"geometry":{"type":"Polygon","coordinates":[[[172.0,-42.38],[173.25,-41.62],[173.75,-42.12],[174.88,-41.0],[174.88,-39.5],[173.5,-38.12],[171.0,-38.12],[169.38,-39.5],[169.38,-40.75],[170.75,-42.12],[172.0,-42.38]],[[172.38,-41.5],[172.5,-40.88],[172.62,-41.0],[172.38,-41.5]]]}},{"type":"Feature","properties":{"kind":"blob","cls":6,"id":27},"geometry":{"type":"Polygon","coordinates":[[[158.5,10.12],[161.25,9.88],[161.88,10.75],[161.62,12.25],[160.25,13.12],[159.0,12.88],[158.12,11.75],[158.5,10.12]]]}},{"type":"Feature","properties":{"kind":"blob","cls":1,"id":28},"geometry":{"type":"MultiPolygon","coordinates":[[[[163.88,-43.5],[164.0,-43.62],[164.12,-43.25],[163.88,-43.5]]],[[[160.5,-45.62],[162.25,-45.88],[163.62,-45.25],[163.12,-43.25],[163.88,-43.0],[163.62,-42.5],[164.88,-41.25],[164.88,-40.0],[163.5,-38.62],[161.5,-38.38],[159.62,-39.75],[159.62,-41.25],[160.62,-42.25],[159.12,-43.25],[159.12,-44.75],[160.5,-45.62]]]]}},{"type":"Feature","properties":{"kind":"blob","cls":5,"id":29},"geometry":{"type":"Polygon","coordinates":[[[69.0,25.12],[70.12,26.25],[70.38,28.5],[69.5,29.62],[67.75,30.12],[67.38,29.75],[66.88,27.0],[65.38,26.75],[66.5,25.12],[69.0,25.12]]]}},{"type":"Feature","properties":{"kind":"blob","cls":5,"id":30},"geometry":{"type":"MultiPolygon","coordinates":[[[[-65.25,-17.12],[-64.12,-15.75],[-64.38,-13.25],[-65.25,-12.38],[-67.0,-11.62],[-69.0,-11.88],[-69.62,-12.5],[-69.88,-13.5],[-68.5,-13.88],[-67.88,-15.25],[-65.25,-17.12]]],[[[-70.5,-13.38],[-69.62,-12.25],[-69.88,-10.75],[-71.25,-9.88],[-72.75,-10.12],[-73.62,-11.25],[-73.38,-12.0],[-72.75,-12.38],[-72.25,-11.88],[-70.5,-13.38]]]]}},{"type":"Feature","properties":{"kind":"blob","cls":0,"id":31},"geometry":{"type":"Polygon","coordinates":[[[-172.38,-10.5],[-172.25,-10.88],[-169.62,-10.0],[-171.0,-9.62],[-172.38,-10.5]]]}},{"type":"Feature","properties":{"kind":"blob","cls":0,"id":32},"geometry":{"type":"Polygon","coordinates":[[[-170.25,-13.62],[-169.5,-13.38],[-168.88,-12.75],[-168.62,-11.25],[-169.0,-10.88],[-169.62,-11.75],[-170.25,-13.62]]]}},{"type":"Feature","properties":{"kind":"blob","cls":4,"id":33},"geometry":{"type":"MultiPolygon","coordinates":[[[[116.5,44.62],[116.75,45.38],[118.0,44.88],[118.88,45.75],[116.5,45.62],[116.5,44.62]]],[[[116.25,45.62],[117.0,46.38],[118.5,46.12],[119.12,47.0],[117.75,48.12],[115.5,48.38],[114.88,47.75],[116.25,45.62]]]]}},{"type":"Feature","properties":{"kind":"blob","cls":4,"id":34},"geometry":{"type":"Polygon","coordinates":[[[-80.25,-79.38],[-79.5,-79.12],[-78.62,-78.25],[-79.5,-77.38],[-80.25,-79.38]]]}},{"type":"Feature","properties":{"kind":"blob","cls":4,"id":35},"geometry":{"type":"Polygon","coordinates":[[[74.0,29.12],[76.0,29.88],[76.62,30.75],[76.62,31.5],[75.25,32.38],[71.75,32.12],[71.38,30.5],[72.0,29.62],[74.0,29.12]]]}},{"type":"Feature","properties":{"kind":"blob","cls":4,"id":36},"geometry":{"type":"Polygon","coordinates":[[[-127.62,53.0],[-128.38,53.75],[-128.12,54.5],[-128.5,54.88],[-129.62,54.5],[-129.5,55.38],[-129.0,54.88],[-128.5,55.62],[-128.0,55.12],[-127.62,55.25],[-129.0,56.38],[-129.75,55.62],[-130.75,56.38],[-131.75,55.88],[-132.38,55.0],[-131.75,53.62],[-127.62,53.0]]]}},{"type":"Feature","properties":{"kind":"blob","cls":5,"id":37},"geometry":{"type":"Polygon","coordinates":[[[93.75,25.62],[94.38,26.25],[92.5,26.88],[92.38,26.5],[93.75,25.62]]]}},{"type":"Feature","properties":{"kind":"blob","cls":5,"id":38},"geometry":{"type":"Polygon","coordinates":[[[96.62,24.5],[95.25,25.62],[94.88,25.0],[96.62,24.5]]]}},{"type":"Feature","properties":{"kind":"blob","cls":4,"id":39},"geometry":{"type":"Polygon","coordinates":[[[17.25,55.88],[20.25,56.38],[22.75,57.62],[23.38,58.25],[23.38,59.25],[22.0,60.88],[20.25,61.38],[17.5,61.38],[15.75,60.88],[12.62,58.5],[12.62,57.5],[13.25,56.62],[17.25,55.88]]]}},{"type":"Feature","properties":{"kind":"blob","cls":4,"id":40},"geometry":{"type":"Polygon","coordinates":[[[-64.38,-22.5],[-64.25,-22.88],[-63.38,-22.0],[-63.38,-21.0],[-64.0,-20.62],[-64.12,-21.25],[-63.62,-21.75],[-64.38,-22.5]]]}},{"type":"Feature","properties":{"kind":"blob","cls":4,"id":41},"geometry":{"type":"Polygon","coordinates":[[[-127.12,52.75],[-127.0,52.62],[-126.88,52.75],[-127.12,52.75]]]}},{"type":"Feature","properties":{"kind":"blob","cls":1,"id":42},"geometry":{"type":"Polygon","coordinates":[[[-7.25,32.62],[-5.75,32.62],[-5.88,33.25],[-4.62,34.0],[-4.62,34.75],[-5.25,35.62],[-7.0,36.12],[-8.62,35.25],[-8.62,33.25],[-7.25,32.62]]]}},{"type":"Feature","properties":{"kind":"center","id":1,"lat":61.5,"lon":-23.5,"mslp":952.1,"hvtl":113.9,"hvtu":-183.3,"hb":18.7,"idx":0.7,"cls":3,"psfc":952.1,"terrain":false,"radius_km":200,"name":"asym shallow warm","track":"T10"},"geometry":{"type":"Point","coordinates":[-23.5,61.5]}},{"type":"Feature","properties":{"kind":"center","id":2,"lat":-52.75,"lon":92.5,"mslp":954.0,"hvtl":48.0,"hvtu":-111.5,"hb":-8.2,"idx":0.1,"cls":1,"psfc":954.0,"terrain":false,"radius_km":200,"name":"sym shallow warm","track":"T13"},"geometry":{"type":"Point","coordinates":[92.5,-52.75]}},{"type":"Feature","properties":{"kind":"center","id":3,"lat":-65.75,"lon":-142.0,"mslp":955.8,"hvtl":4.7,"hvtu":-19.4,"hb":2.1,"idx":-0.1,"cls":1,"psfc":955.8,"terrain":false,"radius_km":200,"name":"sym shallow warm","track":"T04"},"geometry":{"type":"Point","coordinates":[-142.0,-65.75]}},{"type":"Feature","properties":{"kind":"center","id":4,"lat":-69.5,"lon":-98.25,"mslp":956.4,"hvtl":18.9,"hvtu":-207.7,"hb":18.4,"idx":-0.6,"cls":3,"psfc":956.4,"terrain":false,"radius_km":200,"name":"asym shallow warm","track":"T11"},"geometry":{"type":"Point","coordinates":[-98.25,-69.5]}},{"type":"Feature","properties":{"kind":"center","id":5,"lat":-56.0,"lon":108.25,"mslp":960.1,"hvtl":-87.6,"hvtu":-330.2,"hb":83.8,"idx":-2.4,"cls":4,"psfc":960.1,"terrain":false,"radius_km":200,"name":"asym cold","track":"T07"},"geometry":{"type":"Point","coordinates":[108.25,-56.0]}},{"type":"Feature","properties":{"kind":"center","id":6,"lat":-63.25,"lon":14.0,"mslp":962.3,"hvtl":4.4,"hvtu":-148.4,"hb":20.9,"idx":-0.8,"cls":3,"psfc":962.3,"terrain":false,"radius_km":200,"name":"asym shallow warm","track":"T23"},"geometry":{"type":"Point","coordinates":[14.0,-63.25]}},{"type":"Feature","properties":{"kind":"center","id":7,"lat":-77.75,"lon":-157.0,"mslp":967.1,"hvtl":-77.6,"hvtu":-147.7,"hb":26.9,"idx":-2.2,"cls":4,"psfc":901.8,"terrain":false,"radius_km":200,"name":"asym cold","track":"T28"},"geometry":{"type":"Point","coordinates":[-157.0,-77.75]}},{"type":"Feature","properties":{"kind":"center","id":8,"lat":81.25,"lon":5.0,"mslp":971.4,"hvtl":132.9,"hvtu":-326.4,"hb":92.6,"idx":0.7,"cls":3,"psfc":971.4,"terrain":false,"radius_km":200,"name":"asym shallow warm","track":"T32"},"geometry":{"type":"Point","coordinates":[5.0,81.25]}},{"type":"Feature","properties":{"kind":"center","id":9,"lat":-67.75,"lon":170.75,"mslp":978.9,"hvtl":-292.9,"hvtu":-97.5,"hb":82.4,"idx":-2.7,"cls":4,"psfc":978.9,"terrain":false,"radius_km":200,"name":"asym cold","track":"T47"},"geometry":{"type":"Point","coordinates":[170.75,-67.75]}},{"type":"Feature","properties":{"kind":"center","id":10,"lat":-61.75,"lon":161.5,"mslp":981.1,"hvtl":-298.4,"hvtu":-205.0,"hb":59.4,"idx":-3.0,"cls":4,"psfc":981.1,"terrain":false,"radius_km":200,"name":"asym cold","track":"T18"},"geometry":{"type":"Point","coordinates":[161.5,-61.75]}},{"type":"Feature","properties":{"kind":"center","id":11,"lat":-46.25,"lon":16.75,"mslp":981.1,"hvtl":-344.0,"hvtu":-386.9,"hb":85.5,"idx":-3.0,"cls":4,"psfc":981.1,"terrain":false,"radius_km":200,"name":"asym cold","track":"T05"},"geometry":{"type":"Point","coordinates":[16.75,-46.25]}},{"type":"Feature","properties":{"kind":"center","id":12,"lat":-49.75,"lon":72.25,"mslp":981.5,"hvtl":-157.9,"hvtu":-198.8,"hb":47.8,"idx":-2.8,"cls":4,"psfc":981.5,"terrain":false,"radius_km":200,"name":"asym cold","track":"T29"},"geometry":{"type":"Point","coordinates":[72.25,-49.75]}},{"type":"Feature","properties":{"kind":"center","id":13,"lat":-42.25,"lon":90.0,"mslp":981.6,"hvtl":-402.8,"hvtu":-358.2,"hb":71.2,"idx":-3.0,"cls":4,"psfc":981.6,"terrain":false,"radius_km":200,"name":"asym cold","track":"T20"},"geometry":{"type":"Point","coordinates":[90.0,-42.25]}},{"type":"Feature","properties":{"kind":"center","id":14,"lat":-48.5,"lon":112.5,"mslp":981.9,"hvtl":-200.0,"hvtu":-270.0,"hb":61.2,"idx":-2.9,"cls":4,"psfc":981.9,"terrain":false,"radius_km":200,"name":"asym cold","track":"T62"},"geometry":{"type":"Point","coordinates":[112.5,-48.5]}},{"type":"Feature","properties":{"kind":"center","id":15,"lat":42.75,"lon":161.5,"mslp":983.0,"hvtl":143.9,"hvtu":-21.9,"hb":57.0,"idx":1.6,"cls":3,"psfc":983.0,"terrain":false,"radius_km":200,"name":"asym shallow warm","track":"T09"},"geometry":{"type":"Point","coordinates":[161.5,42.75]}},{"type":"Feature","properties":{"kind":"center","id":16,"lat":84.0,"lon":157.0,"mslp":987.0,"hvtl":-147.4,"hvtu":-165.9,"hb":20.0,"idx":-2.7,"cls":4,"psfc":987.0,"terrain":false,"radius_km":200,"name":"asym cold","track":"T59"},"geometry":{"type":"Point","coordinates":[157.0,84.0]}},{"type":"Feature","properties":{"kind":"center","id":17,"lat":68.5,"lon":-75.5,"mslp":987.2,"hvtl":101.4,"hvtu":-155.8,"hb":35.1,"idx":0.6,"cls":3,"psfc":987.0,"terrain":false,"radius_km":200,"name":"asym shallow warm","track":"T70"},"geometry":{"type":"Point","coordinates":[-75.5,68.5]}},{"type":"Feature","properties":{"kind":"center","id":18,"lat":46.0,"lon":-159.5,"mslp":988.9,"hvtl":-83.4,"hvtu":-279.4,"hb":47.7,"idx":-2.4,"cls":4,"psfc":988.9,"terrain":false,"radius_km":200,"name":"asym cold","track":"T34"},"geometry":{"type":"Point","coordinates":[-159.5,46.0]}},{"type":"Feature","properties":{"kind":"center","id":19,"lat":49.5,"lon":144.75,"mslp":990.6,"hvtl":-156.7,"hvtu":-427.5,"hb":105.6,"idx":-2.8,"cls":4,"psfc":990.6,"terrain":false,"radius_km":200,"name":"asym cold","track":"T30"},"geometry":{"type":"Point","coordinates":[144.75,49.5]}},{"type":"Feature","properties":{"kind":"center","id":20,"lat":74.75,"lon":-59.25,"mslp":992.3,"hvtl":-92.4,"hvtu":-125.7,"hb":39.2,"idx":-2.3,"cls":4,"psfc":992.3,"terrain":false,"radius_km":200,"name":"asym cold","track":"T73"},"geometry":{"type":"Point","coordinates":[-59.25,74.75]}},{"type":"Feature","properties":{"kind":"center","id":21,"lat":69.75,"lon":-69.0,"mslp":993.1,"hvtl":18.1,"hvtu":-163.6,"hb":37.0,"idx":-0.6,"cls":3,"psfc":906.5,"terrain":false,"radius_km":200,"name":"asym shallow warm"},"geometry":{"type":"Point","coordinates":[-69.0,69.75]}},{"type":"Feature","properties":{"kind":"center","id":22,"lat":71.25,"lon":-52.5,"mslp":993.8,"hvtl":-157.1,"hvtu":-97.8,"hb":29.9,"idx":-2.6,"cls":4,"psfc":902.4,"terrain":true,"radius_km":200,"name":"asym cold"},"geometry":{"type":"Point","coordinates":[-52.5,71.25]}},{"type":"Feature","properties":{"kind":"center","id":23,"lat":47.5,"lon":-66.25,"mslp":997.6,"hvtl":-321.3,"hvtu":-97.6,"hb":86.7,"idx":-2.7,"cls":4,"psfc":952.5,"terrain":false,"radius_km":200,"name":"asym cold","track":"T44"},"geometry":{"type":"Point","coordinates":[-66.25,47.5]}},{"type":"Feature","properties":{"kind":"center","id":24,"lat":70.0,"lon":-103.5,"mslp":999.1,"hvtl":-325.5,"hvtu":-49.6,"hb":69.8,"idx":-2.5,"cls":4,"psfc":992.8,"terrain":false,"radius_km":200,"name":"asym cold","track":"T71"},"geometry":{"type":"Point","coordinates":[-103.5,70.0]}},{"type":"Feature","properties":{"kind":"center","id":25,"lat":57.75,"lon":146.25,"mslp":1001.6,"hvtl":-14.5,"hvtu":-328.2,"hb":63.6,"idx":-1.3,"cls":4,"psfc":1001.6,"terrain":false,"radius_km":200,"name":"asym cold","track":"T87"},"geometry":{"type":"Point","coordinates":[146.25,57.75]}},{"type":"Feature","properties":{"kind":"center","id":26,"lat":-40.0,"lon":172.0,"mslp":1001.7,"hvtl":-194.1,"hvtu":-247.8,"hb":45.0,"idx":-2.9,"cls":4,"psfc":1001.7,"terrain":false,"radius_km":200,"name":"asym cold"},"geometry":{"type":"Point","coordinates":[172.0,-40.0]}},{"type":"Feature","properties":{"kind":"center","id":27,"lat":11.25,"lon":160.0,"mslp":1002.7,"hvtl":-38.7,"hvtu":21.6,"hb":7.0,"idx":-0.5,"cls":6,"psfc":1002.7,"terrain":false,"radius_km":200,"name":"shallow cold","track":"T50"},"geometry":{"type":"Point","coordinates":[160.0,11.25]}},{"type":"Feature","properties":{"kind":"center","id":28,"lat":-40.5,"lon":162.0,"mslp":1003.2,"hvtl":48.9,"hvtu":-113.8,"hb":5.2,"idx":0.1,"cls":1,"psfc":1003.2,"terrain":false,"radius_km":200,"name":"sym shallow warm","track":"T55"},"geometry":{"type":"Point","coordinates":[162.0,-40.5]}},{"type":"Feature","properties":{"kind":"center","id":29,"lat":27.25,"lon":67.75,"mslp":1005.9,"hvtl":-38.7,"hvtu":-158.8,"hb":3.3,"idx":-1.7,"cls":5,"psfc":1001.1,"terrain":false,"radius_km":200,"name":"sym cold","track":"T104"},"geometry":{"type":"Point","coordinates":[67.75,27.25]}},{"type":"Feature","properties":{"kind":"center","id":30,"lat":-14.5,"lon":-66.25,"mslp":1006.1,"hvtl":-96.3,"hvtu":-56.2,"hb":8.8,"idx":-2.0,"cls":5,"psfc":986.4,"terrain":false,"radius_km":200,"name":"sym cold","track":"T92"},"geometry":{"type":"Point","coordinates":[-66.25,-14.5]}},{"type":"Feature","properties":{"kind":"center","id":31,"lat":-10.25,"lon":-170.25,"mslp":1006.4,"hvtl":8.8,"hvtu":32.4,"hb":8.0,"idx":0.5,"cls":0,"psfc":1006.4,"terrain":false,"radius_km":200,"name":"sym deep warm"},"geometry":{"type":"Point","coordinates":[-170.25,-10.25]}},{"type":"Feature","properties":{"kind":"center","id":32,"lat":-11.75,"lon":-169.5,"mslp":1007.0,"hvtl":42.4,"hvtu":30.6,"hb":-0.3,"idx":1.1,"cls":0,"psfc":1007.0,"terrain":false,"radius_km":200,"name":"sym deep warm","track":"T88"},"geometry":{"type":"Point","coordinates":[-169.5,-11.75]}},{"type":"Feature","properties":{"kind":"center","id":33,"lat":46.25,"lon":116.25,"mslp":1007.1,"hvtl":-175.3,"hvtu":-155.3,"hb":46.8,"idx":-2.8,"cls":4,"psfc":907.4,"terrain":true,"radius_km":200,"name":"asym cold"},"geometry":{"type":"Point","coordinates":[116.25,46.25]}},{"type":"Feature","properties":{"kind":"center","id":34,"lat":-78.25,"lon":-79.0,"mslp":1007.3,"hvtl":-91.1,"hvtu":-244.4,"hb":109.9,"idx":-2.4,"cls":4,"psfc":974.6,"terrain":false,"radius_km":200,"name":"asym cold","track":"T49"},"geometry":{"type":"Point","coordinates":[-79.0,-78.25]}},{"type":"Feature","properties":{"kind":"center","id":35,"lat":29.75,"lon":72.0,"mslp":1008.4,"hvtl":-55.2,"hvtu":-189.5,"hb":31.4,"idx":-2.0,"cls":4,"psfc":994.1,"terrain":false,"radius_km":200,"name":"asym cold","track":"T94"},"geometry":{"type":"Point","coordinates":[72.0,29.75]}},{"type":"Feature","properties":{"kind":"center","id":36,"lat":54.5,"lon":-128.25,"mslp":1009.2,"hvtl":-192.5,"hvtu":-372.5,"hb":51.7,"idx":-2.9,"cls":4,"psfc":909.8,"terrain":true,"radius_km":200,"name":"asym cold"},"geometry":{"type":"Point","coordinates":[-128.25,54.5]}},{"type":"Feature","properties":{"kind":"center","id":37,"lat":26.5,"lon":92.5,"mslp":1010.4,"hvtl":-33.6,"hvtu":-154.9,"hb":0.9,"idx":-1.6,"cls":5,"psfc":1003.2,"terrain":false,"radius_km":200,"name":"sym cold","track":"T110"},"geometry":{"type":"Point","coordinates":[92.5,26.5]}},{"type":"Feature","properties":{"kind":"center","id":38,"lat":25.5,"lon":95.5,"mslp":1010.9,"hvtl":-49.6,"hvtu":-153.0,"hb":2.1,"idx":-1.8,"cls":5,"psfc":987.3,"terrain":false,"radius_km":200,"name":"sym cold","track":"T108"},"geometry":{"type":"Point","coordinates":[95.5,25.5]}},{"type":"Feature","properties":{"kind":"center","id":39,"lat":59.25,"lon":19.0,"mslp":1011.7,"hvtl":-37.3,"hvtu":-72.9,"hb":21.0,"idx":-1.3,"cls":4,"psfc":1011.7,"terrain":false,"radius_km":200,"name":"asym cold","track":"T103"},"geometry":{"type":"Point","coordinates":[19.0,59.25]}},{"type":"Feature","properties":{"kind":"center","id":40,"lat":-21.25,"lon":-63.75,"mslp":1012.4,"hvtl":-101.6,"hvtu":-183.6,"hb":55.6,"idx":-2.5,"cls":4,"psfc":927.8,"terrain":false,"radius_km":200,"name":"asym cold"},"geometry":{"type":"Point","coordinates":[-63.75,-21.25]}},{"type":"Feature","properties":{"kind":"center","id":41,"lat":52.75,"lon":-127.0,"mslp":1013.4,"hvtl":-229.1,"hvtu":-404.4,"hb":61.1,"idx":-3.0,"cls":4,"psfc":904.0,"terrain":true,"radius_km":200,"name":"asym cold"},"geometry":{"type":"Point","coordinates":[-127.0,52.75]}},{"type":"Feature","properties":{"kind":"center","id":42,"lat":33.75,"lon":-7.0,"mslp":1016.3,"hvtl":29.9,"hvtu":-106.7,"hb":2.3,"idx":-0.2,"cls":1,"psfc":995.6,"terrain":false,"radius_km":200,"name":"sym shallow warm"},"geometry":{"type":"Point","coordinates":[-7.0,33.75]}}]}