{"type":"FeatureCollection","features":[{"type":"Feature","properties":{"kind":"blob","cls":4,"id":1},"geometry":{"type":"Polygon","coordinates":[[[-124.75,-64.88],[-122.25,-64.12],[-121.62,-63.5],[-122.12,-60.5],[-123.75,-59.38],[-125.0,-59.12],[-126.75,-59.12],[-129.0,-59.88],[-130.12,-61.5],[-130.12,-63.25],[-128.75,-64.38],[-124.75,-64.88]]]}},{"type":"Feature","properties":{"kind":"blob","cls":4,"id":2},"geometry":{"type":"Polygon","coordinates":[[[-128.25,-71.62],[-126.25,-70.88],[-125.62,-69.5],[-126.5,-68.62],[-128.5,-67.88],[-133.0,-67.62],[-137.0,-68.62],[-138.0,-69.12],[-138.62,-70.0],[-138.0,-70.88],[-137.0,-71.38],[-128.25,-71.62]]]}},{"type":"Feature","properties":{"kind":"blob","cls":3,"id":3},"geometry":{"type":"Polygon","coordinates":[[[-5.5,-59.12],[-2.25,-59.12],[-1.25,-58.62],[-0.62,-57.75],[-0.62,-56.75],[-2.88,-55.0],[-2.38,-54.25],[-2.62,-53.0],[-4.5,-51.38],[-7.5,-50.38],[-9.75,-50.38],[-11.25,-50.88],[-12.38,-52.0],[-12.38,-53.0],[-10.5,-55.12],[-8.12,-56.25],[-8.38,-56.75],[-7.25,-58.62],[-5.5,-59.12]]]}},{"type":"Feature","properties":{"kind":"blob","cls":4,"id":4},"geometry":{"type":"Polygon","coordinates":[[[-154.75,-63.12],[-153.75,-62.62],[-152.88,-61.5],[-153.75,-60.38],[-156.0,-59.62],[-158.5,-59.62],[-160.75,-60.38],[-161.62,-61.5],[-161.38,-62.0],[-159.75,-63.12],[-154.75,-63.12]]]}},{"type":"Feature","properties":{"kind":"blob","cls":4,"id":5},"geometry":{"type":"Polygon","coordinates":[[[179.75,-82.88],[180.0,-79.88],[171.5,-80.12],[166.62,-81.0],[173.0,-82.38],[179.75,-82.88]]]}},{"type":"Feature","properties":{"kind":"blob","cls":4,"id":5},"geometry":{"type":"Polygon","coordinates":[[[-179.75,-79.88],[-180.0,-82.88],[-163.25,-83.12],[-162.88,-82.5],[-164.75,-81.38],[-167.75,-80.62],[-179.75,-79.88]]]}},{"type":"Feature","properties":{"kind":"blob","cls":0,"id":6},"geometry":{"type":"Polygon","coordinates":[[[148.0,20.12],[148.88,21.0],[148.88,22.75],[147.25,23.88],[146.0,23.62],[145.12,22.75],[145.12,21.0],[146.0,20.12],[148.0,20.12]],[[146.0,21.62],[145.38,22.0],[145.75,22.62],[146.38,22.25],[146.0,21.62]]]}},{"type":"Feature","properties":{"kind":"blob","cls":4,"id":7},"geometry":{"type":"Polygon","coordinates":[[[109.0,-65.88],[110.62,-65.0],[110.88,-63.75],[107.75,-63.88],[102.0,-63.12],[101.38,-63.75],[101.75,-65.12],[103.25,-65.88],[109.0,-65.88]]]}},{"type":"Feature","properties":{"kind":"blob","cls":4,"id":8},"geometry":{"type":"Polygon","coordinates":[[[132.0,-64.62],[134.0,-64.12],[135.12,-63.25],[135.12,-62.25],[133.5,-60.62],[131.25,-59.88],[128.25,-60.12],[126.12,-61.75],[127.0,-63.38],[129.0,-64.38],[132.0,-64.62]]]}},{"type":"Feature","properties":{"kind":"blob","cls":1,"id":9},"geometry":{"type":"Polygon","coordinates":[[[106.75,-62.38],[107.62,-62.25],[107.5,-62.12],[106.75,-62.38]]]}},{"type":"Feature","properties":{"kind":"blob","cls":1,"id":10},"geometry":{"type":"Polygon","coordinates":[[[108.5,-62.62],[109.12,-62.5],[109.0,-62.38],[108.5,-62.62]]]}},{"type":"Feature","properties":{"kind":"blob","cls":1,"id":11},"geometry":{"type":"Polygon","coordinates":[[[109.38,-62.75],[109.5,-62.88],[109.62,-62.75],[109.38,-62.75]]]}},{"type":"Feature","properties":{"kind":"blob","cls":4,"id":12},"geometry":{"type":"Polygon","coordinates":[[[102.0,-54.38],[103.75,-53.88],[105.62,-52.5],[105.62,-51.0],[104.75,-50.12],[103.25,-49.62],[101.25,-49.62],[98.25,-50.62],[96.62,-52.0],[96.62,-53.0],[97.5,-53.88],[102.0,-54.38]]]}},{"type":"Feature","properties":{"kind":"blob","cls":4,"id":13},"geometry":{"type":"Polygon","coordinates":[[[-18.25,-71.62],[-18.38,-70.75],[-18.0,-70.38],[-17.0,-69.88],[-15.5,-69.88],[-15.12,-70.5],[-15.88,-71.25],[-14.75,-71.38],[-13.25,-70.88],[-12.38,-70.0],[-12.38,-69.25],[-14.25,-67.88],[-16.75,-67.38],[-21.25,-67.62],[-23.62,-69.0],[-23.62,-70.0],[-22.75,-70.88],[-18.25,-71.62]]]}},{"type":"Feature","properties":{"kind":"blob","cls":6,"id":14},"geometry":{"type":"Polygon","coordinates":[[[170.25,-73.62],[173.0,-73.12],[174.62,-72.25],[174.62,-71.25],[173.0,-70.38],[170.25,-69.88],[165.0,-70.38],[170.62,-71.75],[169.88,-72.25],[170.38,-72.5],[169.5,-73.12],[168.5,-72.88],[166.88,-73.25],[170.25,-73.62]]]}},{"type":"Feature","properties":{"kind":"blob","cls":1,"id":15},"geometry":{"type":"Polygon","coordinates":[[[179.75,51.38],[180.0,55.38],[177.0,54.62],[176.38,53.5],[176.88,52.5],[178.25,51.62],[179.75,51.38]]]}},{"type":"Feature","properties":{"kind":"blob","cls":1,"id":15},"geometry":{"type":"Polygon","coordinates":[[[-179.75,55.38],[-180.0,51.38],[-178.25,51.88],[-177.12,53.25],[-177.75,54.62],[-179.75,55.38]]]}},{"type":"Feature","properties":{"kind":"blob","cls":0,"id":16},"geometry":{"type":"Polygon","coordinates":[[[-172.75,21.38],[-171.88,22.25],[-171.88,24.0],[-172.75,24.88],[-174.75,24.88],[-175.88,23.75],[-175.88,22.25],[-175.0,21.38],[-172.75,21.38]]]}},{"type":"Feature","properties":{"kind":"blob","cls":4,"id":17},"geometry":{"type":"Polygon","coordinates":[[[164.0,-70.88],[164.5,-71.12],[164.62,-70.75],[164.25,-70.62],[164.0,-70.88]]]}},{"type":"Feature","properties":{"kind":"blob","cls":4,"id":18},"geometry":{"type":"Polygon","coordinates":[[[51.0,-64.62],[52.25,-64.12],[53.25,-62.88],[55.25,-63.62],[58.25,-63.38],[60.12,-62.0],[60.12,-61.5],[59.25,-60.38],[57.0,-59.62],[53.5,-59.88],[52.0,-60.88],[50.25,-60.38],[47.0,-60.62],[45.12,-61.75],[44.88,-63.5],[46.0,-64.38],[51.0,-64.62]]]}},{"type":"Feature","properties":{"kind":"blob","cls":5,"id":19},"geometry":{"type":"Polygon","coordinates":[[[67.0,-68.12],[67.38,-67.0],[66.0,-65.62],[62.5,-64.62],[56.0,-64.38],[54.0,-64.88],[52.62,-65.75],[52.75,-66.12],[55.25,-66.12],[55.88,-66.5],[56.0,-67.12],[62.25,-67.88],[67.0,-68.12]]]}},{"type":"Feature","properties":{"kind":"blob","cls":4,"id":20},"geometry":{"type":"Polygon","coordinates":[[[-20.25,63.62],[-16.62,64.0],[-18.25,64.12],[-18.5,64.62],[-20.62,64.75],[-19.25,64.88],[-18.75,65.88],[-17.5,65.12],[-15.25,64.88],[-15.88,64.25],[-15.25,64.12],[-11.5,65.38],[-10.88,66.5],[-11.5,67.38],[-13.5,68.38],[-21.75,68.38],[-23.5,67.12],[-25.5,66.88],[-26.62,65.75],[-26.62,65.25],[-25.75,64.38],[-20.25,63.62]]]}},{"type":"Feature","properties":{"kind":"blob","cls":6,"id":21},"geometry":{"type":"Polygon","coordinates":[[[118.5,70.88],[120.25,71.38],[120.25,72.12],[121.75,72.12],[122.12,72.75],[121.5,73.62],[119.25,74.38],[113.75,74.62],[110.0,73.88],[108.88,72.75],[109.75,71.62],[110.75,71.12],[118.5,70.88]]]}},{"type":"Feature","properties":{"kind":"blob","cls":5,"id":22},"geometry":{"type":"Polygon","coordinates":[[[14.88,-70.5],[15.0,-70.88],[18.5,-70.88],[29.75,-70.38],[33.75,-69.88],[34.62,-69.25],[33.75,-68.38],[32.25,-67.88],[25.5,-67.62],[17.0,-68.88],[15.5,-69.62],[14.88,-70.5]]]}},{"type":"Feature","properties":{"kind":"blob","cls":0,"id":23},"geometry":{"type":"Polygon","coordinates":[[[-113.0,18.12],[-111.5,18.12],[-110.62,19.25],[-110.88,21.0],[-112.25,21.88],[-113.5,21.62],[-114.38,20.5],[-114.25,19.12],[-113.25,20.38],[-112.25,20.38],[-111.88,20.0],[-112.5,18.88],[-114.12,18.75],[-113.0,18.12]]]}},{"type":"Feature","properties":{"kind":"blob","cls":4,"id":24},"geometry":{"type":"Polygon","coordinates":[[[-103.0,-51.38],[-101.25,-50.62],[-100.38,-49.25],[-100.88,-48.0],[-103.0,-46.88],[-104.25,-46.88],[-106.0,-47.62],[-106.88,-49.25],[-106.62,-50.25],[-105.5,-51.12],[-103.0,-51.38]]]}},{"type":"Feature","properties":{"kind":"blob","cls":4,"id":25},"geometry":{"type":"Polygon","coordinates":[[[-51.75,-81.62],[-46.62,-81.25],[-49.25,-80.38],[-52.75,-79.88],[-63.5,-79.62],[-60.0,-78.88],[-58.62,-78.0],[-59.0,-77.12],[-60.0,-76.62],[-63.25,-75.88],[-66.75,-75.62],[-69.5,-76.12],[-72.5,-76.12],[-73.0,-75.62],[-79.0,-75.38],[-81.0,-75.62],[-81.62,-76.25],[-78.5,-76.62],[-77.88,-77.25],[-80.12,-77.5],[-79.62,-78.0],[-79.88,-78.75],[-79.0,-79.12],[-68.62,-80.0],[-73.75,-80.88],[-67.0,-81.38],[-51.75,-81.62]],[[-66.62,-79.75],[-64.88,-79.75],[-65.0,-79.88],[-66.62,-79.75]]]}},{"type":"Feature","properties":{"kind":"blob","cls":3,"id":26},"geometry":{"type":"Polygon","coordinates":[[[-59.5,65.12],[-55.0,65.12],[-53.75,65.62],[-52.62,66.75],[-52.62,67.25],[-53.5,68.12],[-55.25,68.88],[-59.0,69.12],[-61.25,68.62],[-63.12,67.25],[-63.12,66.75],[-62.0,65.62],[-59.5,65.12]]]}},{"type":"Feature","properties":{"kind":"blob","cls":4,"id":27},"geometry":{"type":"Polygon","coordinates":[[[-149.25,53.62],[-147.62,54.75],[-147.38,56.5],[-148.5,57.88],[-150.75,58.62],[-152.5,58.62],[-154.25,58.12],[-155.62,56.75],[-155.62,55.5],[-154.25,54.12],[-149.25,53.62]]]}},{"type":"Feature","properties":{"kind":"blob","cls":3,"id":28},"geometry":{"type":"Polygon","coordinates":[[[-41.75,58.38],[-38.25,59.38],[-37.38,60.25],[-37.38,61.5],[-38.88,62.5],[-36.25,62.88],[-34.75,63.62],[-33.88,65.0],[-34.12,65.5],[-35.0,66.38],[-35.75,66.38],[-41.75,63.88],[-42.5,62.88],[-43.12,62.75],[-42.88,62.0],[-44.0,60.38],[-44.75,60.62],[-45.25,61.38],[-46.25,61.38],[-46.62,60.5],[-46.38,59.5],[-45.5,58.88],[-41.75,58.38]]]}},{"type":"Feature","properties":{"kind":"blob","cls":5,"id":29},"geometry":{"type":"Polygon","coordinates":[[[-66.5,72.62],[-68.12,73.75],[-68.38,74.5],[-68.38,76.0],[-67.62,76.75],[-75.0,76.62],[-77.0,76.12],[-78.62,75.0],[-78.25,74.12],[-77.25,73.62],[-74.5,72.88],[-66.5,72.62]]]}},{"type":"Feature","properties":{"kind":"blob","cls":4,"id":30},"geometry":{"type":"Polygon","coordinates":[[[-52.12,71.0],[-53.0,71.88],[-54.0,71.88],[-53.88,72.5],[-54.25,72.88],[-57.0,74.12],[-58.0,74.38],[-58.88,73.75],[-58.0,71.88],[-55.75,71.12],[-52.12,71.0]]]}},{"type":"Feature","properties":{"kind":"blob","cls":4,"id":31},"geometry":{"type":"Polygon","coordinates":[[[-66.0,73.12],[-64.5,72.88],[-62.5,73.38],[-60.88,74.5],[-60.88,75.0],[-62.75,76.12],[-65.0,73.62],[-66.0,73.12]]]}},{"type":"Feature","properties":{"kind":"blob","cls":4,"id":32},"geometry":{"type":"Polygon","coordinates":[[[11.25,70.62],[17.5,70.62],[19.75,71.38],[20.38,72.5],[19.25,73.38],[17.5,73.88],[11.5,74.12],[8.0,73.38],[6.88,72.5],[6.88,72.0],[8.0,71.12],[11.25,70.62]]]}},{"type":"Feature","properties":{"kind":"blob","cls":4,"id":33},"geometry":{"type":"Polygon","coordinates":[[[147.0,74.12],[150.75,74.62],[152.5,75.38],[152.88,76.25],[151.25,77.38],[144.75,78.38],[137.25,77.88],[135.12,76.75],[135.5,75.88],[137.0,75.12],[141.25,74.38],[147.0,74.12]]]}},{"type":"Feature","properties":{"kind":"blob","cls":4,"id":34},"geometry":{"type":"Polygon","coordinates":[[[147.0,56.38],[149.0,57.12],[149.62,57.75],[149.38,59.5],[148.25,60.62],[146.5,60.62],[146.0,61.12],[144.75,60.88],[144.5,60.12],[143.75,60.88],[142.5,60.88],[140.88,59.75],[140.88,58.5],[141.75,57.62],[147.0,56.38]]]}},{"type":"Feature","properties":{"kind":"blob","cls":1,"id":35},"geometry":{"type":"Polygon","coordinates":[[[-60.75,-50.62],[-59.0,-49.88],[-58.38,-49.0],[-58.38,-47.75],[-59.25,-46.88],[-60.5,-46.38],[-62.0,-46.38],[-63.25,-46.88],[-64.38,-47.75],[-64.62,-49.25],[-64.25,-49.88],[-60.75,-50.62]]]}},{"type":"Feature","properties":{"kind":"blob","cls":1,"id":36},"geometry":{"type":"Polygon","coordinates":[[[-61.0,-25.38],[-59.75,-24.88],[-58.88,-24.0],[-58.88,-22.5],[-60.38,-21.25],[-60.38,-19.0],[-62.25,-17.12],[-63.5,-16.88],[-64.38,-17.25],[-63.38,-18.25],[-63.88,-19.0],[-63.12,-19.75],[-63.38,-20.75],[-64.12,-21.0],[-63.62,-21.75],[-64.38,-23.0],[-62.25,-25.12],[-61.0,-25.38]]]}},{"type":"Feature","properties":{"kind":"blob","cls":1,"id":37},"geometry":{"type":"Polygon","coordinates":[[[-62.75,79.38],[-60.0,80.12],[-58.0,80.12],[-57.62,80.5],[-59.75,80.88],[-59.5,81.38],[-48.88,81.25],[-50.75,82.12],[-54.0,82.62],[-62.75,82.88],[-69.75,82.12],[-71.62,81.25],[-69.25,81.12],[-69.25,80.62],[-70.62,80.25],[-69.75,79.88],[-62.75,79.38]]]}},{"type":"Feature","properties":{"kind":"blob","cls":3,"id":38},"geometry":{"type":"Polygon","coordinates":[[[-67.25,-30.12],[-65.5,-30.12],[-64.62,-29.25],[-64.38,-27.75],[-65.25,-26.62],[-65.88,-27.25],[-65.38,-28.75],[-65.75,-28.38],[-66.38,-28.75],[-66.12,-28.0],[-66.5,-27.62],[-66.88,-28.0],[-66.62,-29.0],[-67.38,-29.75],[-67.25,-30.12]]]}},{"type":"Feature","properties":{"kind":"blob","cls":4,"id":39},"geometry":{"type":"Polygon","coordinates":[[[-51.75,-32.62],[-50.38,-32.0],[-49.88,-31.25],[-49.88,-30.25],[-50.5,-29.38],[-52.5,-28.88],[-53.88,-29.5],[-54.38,-30.25],[-54.38,-31.25],[-53.75,-32.12],[-51.75,-32.62]]]}},{"type":"Feature","properties":{"kind":"blob","cls":3,"id":40},"geometry":{"type":"Polygon","coordinates":[[[-68.38,-30.0],[-68.25,-30.12],[-68.12,-30.0],[-68.38,-30.0]]]}},{"type":"Feature","properties":{"kind":"blob","cls":4,"id":41},"geometry":{"type":"Polygon","coordinates":[[[-97.25,-36.12],[-96.12,-35.0],[-96.38,-33.0],[-98.0,-32.12],[-99.75,-32.62],[-100.62,-33.75],[-100.38,-35.25],[-99.75,-35.88],[-97.25,-36.12]]]}},{"type":"Feature","properties":{"kind":"blob","cls":4,"id":42},"geometry":{"type":"Polygon","coordinates":[[[60.5,55.38],[62.5,56.12],[63.62,57.5],[63.38,58.5],[61.0,59.62],[59.25,59.62],[56.5,58.62],[55.88,57.75],[56.12,56.5],[57.5,55.62],[60.5,55.38]]]}},{"type":"Feature","properties":{"kind":"blob","cls":4,"id":43},"geometry":{"type":"Polygon","coordinates":[[[71.25,49.62],[72.75,50.12],[73.62,51.0],[73.62,52.0],[72.5,53.12],[71.0,53.62],[68.5,53.12],[67.62,52.25],[67.62,51.0],[68.5,50.12],[71.25,49.62]]]}},{"type":"Feature","properties":{"kind":"blob","cls":1,"id":44},"geometry":{"type":"Polygon","coordinates":[[[-69.75,-13.62],[-69.38,-13.25],[-69.12,-11.75],[-70.25,-10.38],[-74.38,-10.0],[-73.0,-12.38],[-72.25,-11.88],[-71.25,-13.12],[-69.75,-13.62]]]}},{"type":"Feature","properties":{"kind":"blob","cls":1,"id":45},"geometry":{"type":"Polygon","coordinates":[[[-74.0,-12.38],[-74.0,-11.62],[-74.12,-11.75],[-74.0,-12.38]]]}},{"type":"Feature","properties":{"kind":"blob","cls":4,"id":46},"geometry":{"type":"MultiPolygon","coordinates":[[[[66.75,25.38],[68.75,25.38],[69.88,26.5],[70.25,27.88],[71.5,28.12],[73.12,29.5],[73.62,30.25],[73.62,31.5],[73.0,32.38],[70.5,31.88],[69.75,29.62],[68.5,29.88],[67.38,29.5],[66.88,27.0],[65.62,26.75],[65.62,26.25],[66.75,25.38]]],[[[68.75,30.12],[68.62,30.0],[68.75,29.88],[68.75,30.12]]]]}},{"type":"Feature","properties":{"kind":"blob","cls":4,"id":47},"geometry":{"type":"Polygon","coordinates":[[[-121.5,37.38],[-120.75,37.62],[-120.38,38.25],[-121.88,40.25],[-122.0,41.12],[-123.12,40.75],[-122.62,39.5],[-123.12,39.5],[-123.62,40.5],[-123.5,41.88],[-124.62,41.0],[-124.62,39.25],[-123.25,37.62],[-121.5,37.38]]]}},{"type":"Feature","properties":{"kind":"blob","cls":1,"id":48},"geometry":{"type":"Polygon","coordinates":[[[-75.12,-10.25],[-75.0,-10.62],[-74.62,-10.5],[-74.75,-10.12],[-75.12,-10.25]]]}},{"type":"Feature","properties":{"kind":"blob","cls":1,"id":49},"geometry":{"type":"Polygon","coordinates":[[[-74.5,-11.38],[-74.12,-11.25],[-74.25,-11.12],[-74.5,-11.38]]]}},{"type":"Feature","properties":{"kind":"blob","cls":6,"id":50},"geometry":{"type":"Polygon","coordinates":[[[-148.5,73.88],[-145.5,74.62],[-144.12,75.75],[-144.75,76.62],[-145.75,77.12],[-150.25,77.88],[-157.5,77.62],[-161.12,76.5],[-156.0,75.88],[-155.62,75.5],[-156.5,74.88],[-160.38,74.5],[-158.25,73.88],[-148.5,73.88]]]}},{"type":"Feature","properties":{"kind":"blob","cls":3,"id":51},"geometry":{"type":"Polygon","coordinates":[[[38.5,21.38],[39.88,22.25],[40.12,25.0],[39.75,24.88],[39.25,25.88],[38.5,26.12],[36.75,25.88],[35.88,25.0],[36.12,22.75],[37.25,21.62],[38.5,21.38]],[[39.0,24.38],[38.88,24.5],[39.0,24.62],[39.0,24.38]],[[39.5,23.62],[39.38,23.75],[39.5,23.88],[39.5,23.62]]]}},{"type":"Feature","properties":{"kind":"blob","cls":5,"id":52},"geometry":{"type":"Polygon","coordinates":[[[83.5,25.12],[86.0,25.12],[87.38,26.25],[87.38,27.0],[82.25,28.12],[81.5,28.88],[79.75,29.12],[78.25,30.12],[76.62,29.0],[76.62,27.5],[78.25,25.88],[80.75,25.12],[82.5,25.62],[83.5,25.12]]]}},{"type":"Feature","properties":{"kind":"blob","cls":1,"id":53},"geometry":{"type":"Polygon","coordinates":[[[59.5,28.12],[60.12,28.75],[59.62,30.5],[59.88,31.0],[59.5,31.38],[57.88,30.25],[58.38,29.0],[59.5,28.12]]]}},{"type":"Feature","properties":{"kind":"blob","cls":4,"id":54},"geometry":{"type":"Polygon","coordinates":[[[-122.62,41.75],[-122.5,41.62],[-122.38,41.75],[-122.62,41.75]]]}},{"type":"Feature","properties":{"kind":"blob","cls":1,"id":55},"geometry":{"type":"MultiPolygon","coordinates":[[[[62.5,30.12],[62.38,30.0],[62.75,29.88],[62.5,30.12]]],[[[60.75,30.12],[61.0,30.62],[61.75,30.12],[62.38,30.25],[60.5,31.38],[60.75,30.12]]]]}},{"type":"Feature","properties":{"kind":"blob","cls":4,"id":56},"geometry":{"type":"Polygon","coordinates":[[[-91.25,46.12],[-90.0,46.62],[-88.62,48.0],[-88.88,49.5],[-91.75,50.88],[-93.75,50.62],[-95.0,49.88],[-95.38,49.25],[-95.38,47.75],[-94.25,46.62],[-91.25,46.12]]]}},{"type":"Feature","properties":{"kind":"blob","cls":4,"id":57},"geometry":{"type":"Polygon","coordinates":[[[123.25,38.88],[124.38,40.0],[124.38,41.25],[123.25,42.38],[121.0,42.62],[119.12,41.25],[119.12,40.25],[120.5,38.88],[123.25,38.88]]]}},{"type":"Feature","properties":{"kind":"blob","cls":4,"id":58},"geometry":{"type":"Polygon","coordinates":[[[-122.88,42.25],[-122.75,42.12],[-122.62,42.25],[-122.88,42.25]]]}},{"type":"Feature","properties":{"kind":"blob","cls":4,"id":59},"geometry":{"type":"Polygon","coordinates":[[[70.75,42.88],[74.25,42.88],[74.62,43.25],[74.62,44.75],[72.75,45.88],[71.0,45.62],[69.88,44.75],[69.88,43.25],[70.75,42.88]]]}},{"type":"Feature","properties":{"kind":"blob","cls":4,"id":60},"geometry":{"type":"Polygon","coordinates":[[[61.25,32.88],[61.62,33.25],[61.25,33.38],[61.25,32.88]]]}},{"type":"Feature","properties":{"kind":"blob","cls":4,"id":61},"geometry":{"type":"Polygon","coordinates":[[[63.25,35.12],[64.25,35.88],[65.0,35.88],[67.25,37.38],[68.12,38.5],[66.5,37.62],[66.38,38.25],[67.12,39.0],[66.75,39.38],[64.75,39.38],[63.25,38.62],[62.38,37.25],[63.25,35.12]]]}},{"type":"Feature","properties":{"kind":"blob","cls":4,"id":62},"geometry":{"type":"MultiPolygon","coordinates":[[[[57.5,34.12],[58.12,35.25],[57.0,35.12],[56.62,35.75],[57.38,36.0],[56.25,36.88],[56.12,36.0],[55.12,35.25],[57.5,34.12]],[[57.38,34.75],[57.25,34.62],[57.12,34.75],[57.38,34.75]]],[[[56.75,37.12],[56.62,37.0],[56.75,36.88],[56.75,37.12]]]]}},{"type":"Feature","properties":{"kind":"blob","cls":1,"id":63},"geometry":{"type":"Polygon","coordinates":[[[58.88,28.0],[57.75,28.88],[57.38,28.25],[58.88,28.0]]]}},{"type":"Feature","properties":{"kind":"blob","cls":4,"id":64},"geometry":{"type":"MultiPolygon","coordinates":[[[[67.25,39.38],[67.75,39.88],[69.5,39.88],[70.88,40.75],[69.75,40.38],[69.62,41.75],[70.12,42.25],[69.75,42.62],[68.75,42.62],[68.0,42.38],[66.62,41.0],[67.25,39.38]]],[[[71.0,41.12],[70.88,41.0],[71.0,40.88],[71.0,41.12]]]]}},{"type":"Feature","properties":{"kind":"blob","cls":3,"id":65},"geometry":{"type":"Polygon","coordinates":[[[154.0,-39.88],[155.62,-38.75],[155.88,-37.75],[154.75,-36.38],[152.75,-36.12],[151.12,-37.25],[151.12,-38.75],[152.0,-39.62],[154.0,-39.88]]]}},{"type":"Feature","properties":{"kind":"blob","cls":3,"id":66},"geometry":{"type":"Polygon","coordinates":[[[152.25,-46.12],[154.12,-45.0],[154.12,-42.5],[153.5,-41.62],[152.25,-41.12],[150.25,-41.12],[148.62,-42.0],[148.38,-44.25],[149.75,-45.62],[152.25,-46.12]]]}},{"type":"Feature","properties":{"kind":"blob","cls":3,"id":67},"geometry":{"type":"MultiPolygon","coordinates":[[[[66.0,-30.38],[65.88,-30.5],[66.0,-30.62],[66.0,-30.38]]],[[[71.25,-32.88],[72.62,-32.25],[73.12,-31.5],[73.12,-30.5],[72.62,-29.75],[71.25,-29.12],[69.5,-29.62],[69.38,-28.25],[68.25,-27.12],[66.0,-27.12],[64.88,-28.5],[65.12,-29.75],[65.75,-30.38],[66.0,-29.62],[67.25,-29.62],[67.62,-30.25],[67.25,-30.62],[66.12,-30.75],[67.0,-31.12],[68.25,-30.88],[69.25,-29.88],[68.88,-31.5],[69.5,-32.38],[71.25,-32.88]]]]}},{"type":"Feature","properties":{"kind":"blob","cls":4,"id":68},"geometry":{"type":"MultiPolygon","coordinates":[[[[83.75,45.38],[83.62,45.25],[83.75,45.12],[83.75,45.38]]],[[[82.25,44.38],[83.25,44.62],[83.62,45.0],[82.38,45.75],[82.75,46.12],[84.0,46.12],[83.88,46.75],[80.25,47.62],[79.12,46.75],[78.88,45.75],[79.25,45.38],[81.75,45.88],[82.38,45.25],[81.38,45.0],[82.25,44.38]]],[[[81.0,47.88],[80.88,47.75],[81.25,47.62],[81.0,47.88]]]]}},{"type":"Feature","properties":{"kind":"blob","cls":4,"id":69},"geometry":{"type":"MultiPolygon","coordinates":[[[[54.0,36.88],[53.88,36.75],[54.25,36.62],[54.0,36.88]]],[[[54.38,37.0],[55.25,36.88],[55.62,37.25],[55.25,37.38],[54.38,37.0]]]]}},{"type":"Feature","properties":{"kind":"blob","cls":4,"id":70},"geometry":{"type":"Polygon","coordinates":[[[80.88,44.25],[81.0,44.12],[81.12,44.25],[80.88,44.25]]]}},{"type":"Feature","properties":{"kind":"blob","cls":4,"id":71},"geometry":{"type":"MultiPolygon","coordinates":[[[[53.25,36.38],[53.12,36.25],[53.25,36.12],[53.25,36.38]]],[[[53.5,36.62],[53.38,36.5],[53.5,36.38],[53.5,36.62]]]]}},{"type":"Feature","properties":{"kind":"blob","cls":4,"id":72},"geometry":{"type":"Polygon","coordinates":[[[82.62,47.5],[82.75,47.38],[82.88,47.5],[82.62,47.5]]]}},{"type":"Feature","properties":{"kind":"blob","cls":4,"id":73},"geometry":{"type":"Polygon","coordinates":[[[81.88,47.75],[82.0,47.62],[82.12,47.75],[81.88,47.75]]]}},{"type":"Feature","properties":{"kind":"center","id":1,"lat":-61.25,"lon":-126.0,"mslp":940.8,"hvtl":-42.1,"hvtu":-98.2,"hb":71.8,"idx":-1.5,"cls":4,"psfc":940.7,"terrain":false,"radius_km":200,"name":"asym cold","track":"T05"},"geometry":{"type":"Point","coordinates":[-126.0,-61.25]}},{"type":"Feature","properties":{"kind":"center","id":2,"lat":-69.75,"lon":-131.5,"mslp":947.5,"hvtl":-50.4,"hvtu":-84.4,"hb":47.8,"idx":-1.6,"cls":4,"psfc":947.5,"terrain":false,"radius_km":200,"name":"asym cold","track":"T09"},"geometry":{"type":"Point","coordinates":[-131.5,-69.75]}},{"type":"Feature","properties":{"kind":"center","id":3,"lat":-57.25,"lon":-4.5,"mslp":948.2,"hvtl":117.2,"hvtu":-45.3,"hb":85.0,"idx":1.2,"cls":3,"psfc":948.2,"terrain":false,"radius_km":200,"name":"asym shallow warm","track":"T04"},"geometry":{"type":"Point","coordinates":[-4.5,-57.25]}},{"type":"Feature","properties":{"kind":"center","id":4,"lat":-61.5,"lon":-157.25,"mslp":950.1,"hvtl":-27.8,"hvtu":-109.7,"hb":49.5,"idx":-1.3,"cls":4,"psfc":950.1,"terrain":false,"radius_km":200,"name":"asym cold","track":"T10"},"geometry":{"type":"Point","coordinates":[-157.25,-61.5]}},{"type":"Feature","properties":{"kind":"center","id":5,"lat":-82.5,"lon":-179.75,"mslp":951.6,"hvtl":-160.7,"hvtu":-38.2,"hb":48.2,"idx":-2.2,"cls":4,"psfc":943.9,"terrain":false,"radius_km":200,"name":"asym cold","track":"T13"},"geometry":{"type":"Point","coordinates":[-179.75,-82.5]}},{"type":"Feature","properties":{"kind":"center","id":6,"lat":21.75,"lon":147.0,"mslp":956.5,"hvtl":135.6,"hvtu":185.0,"hb":-0.1,"idx":2.7,"cls":0,"psfc":956.5,"terrain":false,"radius_km":200,"name":"sym deep warm","track":"T07"},"geometry":{"type":"Point","coordinates":[147.0,21.75]}},{"type":"Feature","properties":{"kind":"center","id":7,"lat":-64.25,"lon":106.0,"mslp":959.3,"hvtl":-19.1,"hvtu":-19.7,"hb":18.8,"idx":-0.6,"cls":4,"psfc":959.3,"terrain":false,"radius_km":200,"name":"asym cold","track":"T21"},"geometry":{"type":"Point","coordinates":[106.0,-64.25]}},{"type":"Feature","properties":{"kind":"center","id":8,"lat":-62.25,"lon":130.25,"mslp":962.6,"hvtl":-147.1,"hvtu":-340.2,"hb":58.6,"idx":-2.8,"cls":4,"psfc":962.6,"terrain":false,"radius_km":200,"name":"asym cold","track":"T27"},"geometry":{"type":"Point","coordinates":[130.25,-62.25]}},{"type":"Feature","properties":{"kind":"center","id":9,"lat":-62.25,"lon":106.75,"mslp":963.9,"hvtl":42.8,"hvtu":-251.7,"hb":-25.2,"idx":-0.2,"cls":1,"psfc":963.9,"terrain":false,"radius_km":200,"name":"sym shallow warm"},"geometry":{"type":"Point","coordinates":[106.75,-62.25]}},{"type":"Feature","properties":{"kind":"center","id":10,"lat":-62.5,"lon":108.5,"mslp":964.0,"hvtl":55.0,"hvtu":-209.1,"hb":-14.0,"idx":0.0,"cls":1,"psfc":964.0,"terrain":false,"radius_km":200,"name":"sym shallow warm"},"geometry":{"type":"Point","coordinates":[108.5,-62.5]}},{"type":"Feature","properties":{"kind":"center","id":11,"lat":-62.75,"lon":109.5,"mslp":964.0,"hvtl":60.9,"hvtu":-172.4,"hb":-7.4,"idx":0.1,"cls":1,"psfc":964.0,"terrain":false,"radius_km":200,"name":"sym shallow warm"},"geometry":{"type":"Point","coordinates":[109.5,-62.75]}},{"type":"Feature","properties":{"kind":"center","id":12,"lat":-51.75,"lon":101.5,"mslp":965.4,"hvtl":-224.8,"hvtu":-328.9,"hb":40.0,"idx":-3.0,"cls":4,"psfc":965.4,"terrain":false,"radius_km":200,"name":"asym cold"},"geometry":{"type":"Point","coordinates":[101.5,-51.75]}},{"type":"Feature","properties":{"kind":"center","id":13,"lat":-69.25,"lon":-18.25,"mslp":965.8,"hvtl":-151.6,"hvtu":-46.5,"hb":15.0,"idx":-2.2,"cls":4,"psfc":965.8,"terrain":false,"radius_km":200,"name":"asym cold"},"geometry":{"type":"Point","coordinates":[-18.25,-69.25]}},{"type":"Feature","properties":{"kind":"center","id":14,"lat":-71.75,"lon":171.0,"mslp":968.4,"hvtl":-101.6,"hvtu":1.9,"hb":19.0,"idx":-1.5,"cls":6,"psfc":952.1,"terrain":false,"radius_km":200,"name":"shallow cold","track":"T29"},"geometry":{"type":"Point","coordinates":[171.0,-71.75]}},{"type":"Feature","properties":{"kind":"center","id":15,"lat":53.5,"lon":179.75,"mslp":968.6,"hvtl":10.7,"hvtu":-212.6,"hb":-1.2,"idx":-0.8,"cls":1,"psfc":968.6,"terrain":false,"radius_km":200,"name":"sym shallow warm","track":"T35"},"geometry":{"type":"Point","coordinates":[179.75,53.5]}},{"type":"Feature","properties":{"kind":"center","id":16,"lat":23.25,"lon":-173.75,"mslp":972.5,"hvtl":89.2,"hvtu":271.1,"hb":-3.3,"idx":2.4,"cls":0,"psfc":972.5,"terrain":false,"radius_km":200,"name":"sym deep warm","track":"T40"},"geometry":{"type":"Point","coordinates":[-173.75,23.25]}},{"type":"Feature","properties":{"kind":"center","id":17,"lat":-70.75,"lon":164.5,"mslp":973.9,"hvtl":-246.2,"hvtu":-17.0,"hb":36.4,"idx":-2.1,"cls":4,"psfc":902.0,"terrain":false,"radius_km":200,"name":"asym cold"},"geometry":{"type":"Point","coordinates":[164.5,-70.75]}},{"type":"Feature","properties":{"kind":"center","id":18,"lat":-61.5,"lon":55.75,"mslp":977.4,"hvtl":-300.9,"hvtu":-73.2,"hb":42.5,"idx":-2.6,"cls":4,"psfc":977.4,"terrain":false,"radius_km":200,"name":"asym cold","track":"T49"},"geometry":{"type":"Point","coordinates":[55.75,-61.5]}},{"type":"Feature","properties":{"kind":"center","id":19,"lat":-67.5,"lon":67.25,"mslp":979.6,"hvtl":-54.9,"hvtu":-99.1,"hb":0.4,"idx":-1.8,"cls":5,"psfc":979.6,"terrain":false,"radius_km":200,"name":"sym cold"},"geometry":{"type":"Point","coordinates":[67.25,-67.5]}},{"type":"Feature","properties":{"kind":"center","id":20,"lat":66.5,"lon":-16.5,"mslp":979.9,"hvtl":-47.7,"hvtu":-168.8,"hb":32.2,"idx":-1.8,"cls":4,"psfc":977.9,"terrain":false,"radius_km":200,"name":"asym cold","track":"T41"},"geometry":{"type":"Point","coordinates":[-16.5,66.5]}},{"type":"Feature","properties":{"kind":"center","id":21,"lat":72.75,"lon":115.5,"mslp":980.6,"hvtl":-76.2,"hvtu":52.0,"hb":-10.4,"idx":-0.8,"cls":6,"psfc":977.1,"terrain":false,"radius_km":200,"name":"shallow cold","track":"T56"},"geometry":{"type":"Point","coordinates":[115.5,72.75]}},{"type":"Feature","properties":{"kind":"center","id":22,"lat":-70.25,"lon":19.5,"mslp":983.5,"hvtl":-0.4,"hvtu":-226.5,"hb":6.2,"idx":-1.0,"cls":5,"psfc":975.5,"terrain":false,"radius_km":200,"name":"sym cold"},"geometry":{"type":"Point","coordinates":[19.5,-70.25]}},{"type":"Feature","properties":{"kind":"center","id":23,"lat":20.25,"lon":-112.0,"mslp":986.8,"hvtl":46.2,"hvtu":223.1,"hb":6.6,"idx":1.8,"cls":0,"psfc":986.8,"terrain":false,"radius_km":200,"name":"sym deep warm","track":"T48"},"geometry":{"type":"Point","coordinates":[-112.0,20.25]}},{"type":"Feature","properties":{"kind":"center","id":24,"lat":-49.25,"lon":-103.75,"mslp":988.2,"hvtl":-50.7,"hvtu":-57.8,"hb":31.9,"idx":-1.5,"cls":4,"psfc":988.2,"terrain":false,"radius_km":200,"name":"asym cold","track":"T71"},"geometry":{"type":"Point","coordinates":[-103.75,-49.25]}},{"type":"Feature","properties":{"kind":"center","id":25,"lat":-77.75,"lon":-68.75,"mslp":988.5,"hvtl":-111.4,"hvtu":-151.9,"hb":43.9,"idx":-2.5,"cls":4,"psfc":978.7,"terrain":false,"radius_km":200,"name":"asym cold","track":"T25"},"geometry":{"type":"Point","coordinates":[-68.75,-77.75]}},{"type":"Feature","properties":{"kind":"center","id":26,"lat":67.0,"lon":-57.75,"mslp":989.9,"hvtl":38.7,"hvtu":-12.6,"hb":17.7,"idx":0.6,"cls":3,"psfc":989.9,"terrain":false,"radius_km":200,"name":"asym shallow warm","track":"T69"},"geometry":{"type":"Point","coordinates":[-57.75,67.0]}},{"type":"Feature","properties":{"kind":"center","id":27,"lat":56.5,"lon":-151.5,"mslp":992.2,"hvtl":-9.2,"hvtu":-163.8,"hb":25.3,"idx":-1.1,"cls":4,"psfc":992.2,"terrain":false,"radius_km":200,"name":"asym cold","track":"T74"},"geometry":{"type":"Point","coordinates":[-151.5,56.5]}},{"type":"Feature","properties":{"kind":"center","id":28,"lat":65.0,"lon":-38.5,"mslp":993.4,"hvtl":19.1,"hvtu":-184.0,"hb":11.3,"idx":-0.6,"cls":3,"psfc":993.4,"terrain":false,"radius_km":200,"name":"asym shallow warm","track":"T78"},"geometry":{"type":"Point","coordinates":[-38.5,65.0]}},{"type":"Feature","properties":{"kind":"center","id":29,"lat":74.75,"lon":-69.75,"mslp":995.3,"hvtl":-116.8,"hvtu":-65.4,"hb":0.8,"idx":-2.2,"cls":5,"psfc":995.3,"terrain":false,"radius_km":200,"name":"sym cold"},"geometry":{"type":"Point","coordinates":[-69.75,74.75]}},{"type":"Feature","properties":{"kind":"center","id":30,"lat":71.25,"lon":-55.5,"mslp":996.1,"hvtl":-181.2,"hvtu":-64.9,"hb":52.9,"idx":-2.5,"cls":4,"psfc":996.0,"terrain":false,"radius_km":200,"name":"asym cold","track":"T75"},"geometry":{"type":"Point","coordinates":[-55.5,71.25]}},{"type":"Feature","properties":{"kind":"center","id":31,"lat":73.5,"lon":-65.25,"mslp":996.2,"hvtl":-132.6,"hvtu":-44.8,"hb":34.2,"idx":-2.2,"cls":4,"psfc":996.2,"terrain":false,"radius_km":200,"name":"asym cold"},"geometry":{"type":"Point","coordinates":[-65.25,73.5]}},{"type":"Feature","properties":{"kind":"center","id":32,"lat":72.5,"lon":12.75,"mslp":996.4,"hvtl":-65.8,"hvtu":-145.6,"hb":33.9,"idx":-2.1,"cls":4,"psfc":996.4,"terrain":false,"radius_km":200,"name":"asym cold","track":"T61"},"geometry":{"type":"Point","coordinates":[12.75,72.5]}},{"type":"Feature","properties":{"kind":"center","id":33,"lat":75.5,"lon":145.5,"mslp":996.6,"hvtl":-50.9,"hvtu":-127.4,"hb":26.1,"idx":-1.8,"cls":4,"psfc":996.4,"terrain":false,"radius_km":200,"name":"asym cold","track":"T82"},"geometry":{"type":"Point","coordinates":[145.5,75.5]}},{"type":"Feature","properties":{"kind":"center","id":34,"lat":59.0,"lon":145.25,"mslp":997.1,"hvtl":-47.9,"hvtu":-171.7,"hb":18.4,"idx":-1.8,"cls":4,"psfc":997.1,"terrain":false,"radius_km":200,"name":"asym cold","track":"T79"},"geometry":{"type":"Point","coordinates":[145.25,59.0]}},{"type":"Feature","properties":{"kind":"center","id":35,"lat":-48.5,"lon":-61.75,"mslp":997.8,"hvtl":108.3,"hvtu":-98.2,"hb":-6.8,"idx":0.8,"cls":1,"psfc":997.8,"terrain":false,"radius_km":200,"name":"sym shallow warm","track":"T86"},"geometry":{"type":"Point","coordinates":[-61.75,-48.5]}},{"type":"Feature","properties":{"kind":"center","id":36,"lat":-19.75,"lon":-62.75,"mslp":998.0,"hvtl":88.4,"hvtu":-182.4,"hb":-7.8,"idx":0.5,"cls":1,"psfc":941.1,"terrain":false,"radius_km":200,"name":"sym shallow warm"},"geometry":{"type":"Point","coordinates":[-62.75,-19.75]}},{"type":"Feature","properties":{"kind":"center","id":37,"lat":81.0,"lon":-60.25,"mslp":1001.2,"hvtl":4.4,"hvtu":-34.5,"hb":3.5,"idx":-0.2,"cls":1,"psfc":916.4,"terrain":false,"radius_km":200,"name":"sym shallow warm"},"geometry":{"type":"Point","coordinates":[-60.25,81.0]}},{"type":"Feature","properties":{"kind":"center","id":38,"lat":-28.5,"lon":-66.5,"mslp":1003.3,"hvtl":73.6,"hvtu":-264.1,"hb":35.2,"idx":0.3,"cls":3,"psfc":921.6,"terrain":false,"radius_km":200,"name":"asym shallow warm","track":"T93"},"geometry":{"type":"Point","coordinates":[-66.5,-28.5]}},{"type":"Feature","properties":{"kind":"center","id":39,"lat":-30.25,"lon":-54.0,"mslp":1005.1,"hvtl":-113.5,"hvtu":-174.8,"hb":46.8,"idx":-2.6,"cls":4,"psfc":989.7,"terrain":false,"radius_km":200,"name":"asym cold","track":"T16"},"geometry":{"type":"Point","coordinates":[-54.0,-30.25]}},{"type":"Feature","properties":{"kind":"center","id":40,"lat":-30.0,"lon":-68.25,"mslp":1005.1,"hvtl":82.6,"hvtu":-261.7,"hb":22.2,"idx":0.4,"cls":3,"psfc":900.7,"terrain":true,"radius_km":200,"name":"asym shallow warm"},"geometry":{"type":"Point","coordinates":[-68.25,-30.0]}},{"type":"Feature","properties":{"kind":"center","id":41,"lat":-35.0,"lon":-98.75,"mslp":1005.1,"hvtl":-152.7,"hvtu":-345.8,"hb":34.0,"idx":-2.8,"cls":4,"psfc":1005.2,"terrain":false,"radius_km":200,"name":"asym cold","track":"T92"},"geometry":{"type":"Point","coordinates":[-98.75,-35.0]}},{"type":"Feature","properties":{"kind":"center","id":42,"lat":57.5,"lon":59.75,"mslp":1005.4,"hvtl":-101.8,"hvtu":-100.4,"hb":41.6,"idx":-2.3,"cls":4,"psfc":957.3,"terrain":false,"radius_km":200,"name":"asym cold"},"geometry":{"type":"Point","coordinates":[59.75,57.5]}},{"type":"Feature","properties":{"kind":"center","id":43,"lat":52.25,"lon":68.25,"mslp":1005.4,"hvtl":-470.2,"hvtu":-360.5,"hb":98.1,"idx":-3.0,"cls":4,"psfc":965.0,"terrain":false,"radius_km":200,"name":"asym cold","track":"T77"},"geometry":{"type":"Point","coordinates":[68.25,52.25]}},{"type":"Feature","properties":{"kind":"center","id":44,"lat":-12.5,"lon":-69.25,"mslp":1005.6,"hvtl":11.0,"hvtu":-138.9,"hb":-5.6,"idx":-0.7,"cls":1,"psfc":980.1,"terrain":false,"radius_km":200,"name":"sym shallow warm","track":"T87"},"geometry":{"type":"Point","coordinates":[-69.25,-12.5]}},{"type":"Feature","properties":{"kind":"center","id":45,"lat":-12.0,"lon":-74.0,"mslp":1006.2,"hvtl":48.5,"hvtu":-119.4,"hb":9.5,"idx":0.1,"cls":1,"psfc":930.3,"terrain":false,"radius_km":200,"name":"sym shallow warm"},"geometry":{"type":"Point","coordinates":[-74.0,-12.0]}},{"type":"Feature","properties":{"kind":"center","id":46,"lat":29.75,"lon":70.5,"mslp":1006.6,"hvtl":-17.9,"hvtu":-90.0,"hb":12.9,"idx":-1.1,"cls":4,"psfc":993.0,"terrain":false,"radius_km":200,"name":"asym cold","track":"T111"},"geometry":{"type":"Point","coordinates":[70.5,29.75]}},{"type":"Feature","properties":{"kind":"center","id":47,"lat":39.75,"lon":-122.0,"mslp":1007.0,"hvtl":-44.2,"hvtu":-95.0,"hb":37.9,"idx":-1.6,"cls":4,"psfc":1002.0,"terrain":false,"radius_km":200,"name":"asym cold"},"geometry":{"type":"Point","coordinates":[-122.0,39.75]}},{"type":"Feature","properties":{"kind":"center","id":48,"lat":-10.25,"lon":-75.0,"mslp":1008.0,"hvtl":42.5,"hvtu":-41.7,"hb":0.1,"idx":0.4,"cls":1,"psfc":966.9,"terrain":false,"radius_km":200,"name":"sym shallow warm"},"geometry":{"type":"Point","coordinates":[-75.0,-10.25]}},{"type":"Feature","properties":{"kind":"center","id":49,"lat":-11.25,"lon":-74.25,"mslp":1008.9,"hvtl":42.5,"hvtu":-83.0,"hb":3.7,"idx":0.1,"cls":1,"psfc":902.7,"terrain":true,"radius_km":200,"name":"sym shallow warm"},"geometry":{"type":"Point","coordinates":[-74.25,-11.25]}},{"type":"Feature","properties":{"kind":"center","id":50,"lat":75.75,"lon":-152.5,"mslp":1009.0,"hvtl":-94.9,"hvtu":7.1,"hb":1.6,"idx":-1.4,"cls":6,"psfc":1009.0,"terrain":false,"radius_km":200,"name":"shallow cold","track":"T117"},"geometry":{"type":"Point","coordinates":[-152.5,75.75]}},{"type":"Feature","properties":{"kind":"center","id":51,"lat":24.0,"lon":38.0,"mslp":1009.3,"hvtl":19.9,"hvtu":-98.0,"hb":17.8,"idx":-0.4,"cls":3,"psfc":1009.2,"terrain":false,"radius_km":200,"name":"asym shallow warm"},"geometry":{"type":"Point","coordinates":[38.0,24.0]}},{"type":"Feature","properties":{"kind":"center","id":52,"lat":28.75,"lon":77.25,"mslp":1009.6,"hvtl":-22.8,"hvtu":-131.4,"hb":3.3,"idx":-1.3,"cls":5,"psfc":985.0,"terrain":false,"radius_km":200,"name":"sym cold"},"geometry":{"type":"Point","coordinates":[77.25,28.75]}},{"type":"Feature","properties":{"kind":"center","id":53,"lat":30.0,"lon":58.25,"mslp":1009.6,"hvtl":91.6,"hvtu":-91.1,"hb":-8.9,"idx":0.7,"cls":1,"psfc":976.6,"terrain":false,"radius_km":200,"name":"sym shallow warm"},"geometry":{"type":"Point","coordinates":[58.25,30.0]}},{"type":"Feature","properties":{"kind":"center","id":54,"lat":41.75,"lon":-122.5,"mslp":1009.8,"hvtl":-47.0,"hvtu":-48.4,"hb":41.3,"idx":-1.3,"cls":4,"psfc":911.6,"terrain":true,"radius_km":200,"name":"asym cold"},"geometry":{"type":"Point","coordinates":[-122.5,41.75]}},{"type":"Feature","properties":{"kind":"center","id":55,"lat":31.0,"lon":61.25,"mslp":1010.8,"hvtl":6.8,"hvtu":-84.0,"hb":8.2,"idx":-0.5,"cls":1,"psfc":956.7,"terrain":false,"radius_km":200,"name":"sym shallow warm","track":"T126"},"geometry":{"type":"Point","coordinates":[61.25,31.0]}},{"type":"Feature","properties":{"kind":"center","id":56,"lat":48.5,"lon":-91.75,"mslp":1011.0,"hvtl":-250.0,"hvtu":-275.2,"hb":58.9,"idx":-3.0,"cls":4,"psfc":964.0,"terrain":false,"radius_km":200,"name":"asym cold","track":"T57"},"geometry":{"type":"Point","coordinates":[-91.75,48.5]}},{"type":"Feature","properties":{"kind":"center","id":57,"lat":40.75,"lon":121.5,"mslp":1011.7,"hvtl":-10.7,"hvtu":-329.5,"hb":51.7,"idx":-1.2,"cls":4,"psfc":1011.7,"terrain":false,"radius_km":200,"name":"asym cold","track":"T26"},"geometry":{"type":"Point","coordinates":[121.5,40.75]}},{"type":"Feature","properties":{"kind":"center","id":58,"lat":42.25,"lon":-122.75,"mslp":1011.7,"hvtl":-44.4,"hvtu":-32.8,"hb":42.3,"idx":-1.2,"cls":4,"psfc":912.9,"terrain":true,"radius_km":200,"name":"asym cold"},"geometry":{"type":"Point","coordinates":[-122.75,42.25]}},{"type":"Feature","properties":{"kind":"center","id":59,"lat":44.25,"lon":72.25,"mslp":1012.0,"hvtl":-376.7,"hvtu":-178.1,"hb":59.7,"idx":-2.9,"cls":4,"psfc":972.3,"terrain":false,"radius_km":200,"name":"asym cold"},"geometry":{"type":"Point","coordinates":[72.25,44.25]}},{"type":"Feature","properties":{"kind":"center","id":60,"lat":33.0,"lon":61.0,"mslp":1012.2,"hvtl":-32.3,"hvtu":-119.4,"hb":48.1,"idx":-1.5,"cls":4,"psfc":926.2,"terrain":false,"radius_km":200,"name":"asym cold","track":"T109"},"geometry":{"type":"Point","coordinates":[61.0,33.0]}},{"type":"Feature","properties":{"kind":"center","id":61,"lat":36.5,"lon":65.0,"mslp":1012.3,"hvtl":-153.3,"hvtu":-104.8,"hb":43.9,"idx":-2.6,"cls":4,"psfc":960.9,"terrain":false,"radius_km":200,"name":"asym cold","track":"T128"},"geometry":{"type":"Point","coordinates":[65.0,36.5]}},{"type":"Feature","properties":{"kind":"center","id":62,"lat":35.25,"lon":55.25,"mslp":1012.6,"hvtl":-179.6,"hvtu":-219.8,"hb":124.7,"idx":-2.9,"cls":4,"psfc":930.8,"terrain":false,"radius_km":200,"name":"asym cold"},"geometry":{"type":"Point","coordinates":[55.25,35.25]}},{"type":"Feature","properties":{"kind":"center","id":63,"lat":28.0,"lon":58.5,"mslp":1012.8,"hvtl":33.3,"hvtu":-65.8,"hb":-17.8,"idx":0.1,"cls":1,"psfc":949.6,"terrain":false,"radius_km":200,"name":"sym shallow warm"},"geometry":{"type":"Point","coordinates":[58.5,28.0]}},{"type":"Feature","properties":{"kind":"center","id":64,"lat":40.5,"lon":69.25,"mslp":1013.2,"hvtl":-323.4,"hvtu":-81.4,"hb":62.9,"idx":-2.7,"cls":4,"psfc":976.2,"terrain":false,"radius_km":200,"name":"asym cold"},"geometry":{"type":"Point","coordinates":[69.25,40.5]}},{"type":"Feature","properties":{"kind":"center","id":65,"lat":-39.25,"lon":151.75,"mslp":1015.3,"hvtl":8.7,"hvtu":-45.5,"hb":18.7,"idx":-0.3,"cls":3,"psfc":1015.3,"terrain":false,"radius_km":200,"name":"asym shallow warm"},"geometry":{"type":"Point","coordinates":[151.75,-39.25]}},{"type":"Feature","properties":{"kind":"center","id":66,"lat":-43.0,"lon":151.0,"mslp":1015.4,"hvtl":23.2,"hvtu":-88.6,"hb":25.8,"idx":-0.3,"cls":3,"psfc":1015.4,"terrain":false,"radius_km":200,"name":"asym shallow warm","track":"T127"},"geometry":{"type":"Point","coordinates":[151.0,-43.0]}},{"type":"Feature","properties":{"kind":"center","id":67,"lat":-29.0,"lon":67.25,"mslp":1015.6,"hvtl":58.8,"hvtu":-164.8,"hb":19.7,"idx":0.1,"cls":3,"psfc":1015.6,"terrain":false,"radius_km":200,"name":"asym shallow warm"},"geometry":{"type":"Point","coordinates":[67.25,-29.0]}},{"type":"Feature","properties":{"kind":"center","id":68,"lat":45.5,"lon":79.25,"mslp":1017.1,"hvtl":-67.8,"hvtu":-106.5,"hb":30.7,"idx":-2.0,"cls":4,"psfc":950.8,"terrain":false,"radius_km":200,"name":"asym cold"},"geometry":{"type":"Point","coordinates":[79.25,45.5]}},{"type":"Feature","properties":{"kind":"center","id":69,"lat":37.25,"lon":55.25,"mslp":1019.8,"hvtl":-295.0,"hvtu":-314.5,"hb":129.8,"idx":-3.0,"cls":4,"psfc":1007.3,"terrain":false,"radius_km":200,"name":"asym cold"},"geometry":{"type":"Point","coordinates":[55.25,37.25]}},{"type":"Feature","properties":{"kind":"center","id":70,"lat":44.25,"lon":81.0,"mslp":1020.3,"hvtl":-2.0,"hvtu":-80.6,"hb":32.1,"idx":-0.7,"cls":4,"psfc":901.0,"terrain":true,"radius_km":200,"name":"asym cold"},"geometry":{"type":"Point","coordinates":[81.0,44.25]}},{"type":"Feature","properties":{"kind":"center","id":71,"lat":36.5,"lon":53.5,"mslp":1021.1,"hvtl":-249.9,"hvtu":-293.0,"hb":151.0,"idx":-3.0,"cls":4,"psfc":928.4,"terrain":true,"radius_km":200,"name":"asym cold"},"geometry":{"type":"Point","coordinates":[53.5,36.5]}},{"type":"Feature","properties":{"kind":"center","id":72,"lat":47.5,"lon":82.75,"mslp":1021.5,"hvtl":-37.6,"hvtu":-65.4,"hb":23.4,"idx":-1.3,"cls":4,"psfc":900.2,"terrain":true,"radius_km":200,"name":"asym cold"},"geometry":{"type":"Point","coordinates":[82.75,47.5]}},{"type":"Feature","properties":{"kind":"center","id":73,"lat":47.75,"lon":82.0,"mslp":1021.6,"hvtl":-52.2,"hvtu":-64.4,"hb":26.7,"idx":-1.5,"cls":4,"psfc":904.7,"terrain":true,"radius_km":200,"name":"asym cold"},"geometry":{"type":"Point","coordinates":[82.0,47.75]}}]}