{"type":"FeatureCollection","features":[{"type":"Feature","properties":{"kind":"blob","cls":5,"id":1},"geometry":{"type":"Polygon","coordinates":[[[-142.75,-66.38],[-140.5,-65.88],[-138.88,-65.0],[-138.38,-64.25],[-139.12,-63.5],[-138.5,-63.12],[-137.0,-63.12],[-136.62,-63.5],[-136.75,-64.12],[-135.5,-64.38],[-132.75,-64.12],[-131.12,-63.25],[-130.88,-62.25],[-132.0,-61.12],[-135.5,-60.62],[-137.5,-61.12],[-138.38,-61.75],[-138.75,-62.62],[-139.75,-61.88],[-141.75,-61.38],[-145.0,-61.38],[-148.0,-62.38],[-149.12,-63.5],[-149.12,-64.25],[-148.5,-65.12],[-146.5,-66.12],[-142.75,-66.38]]]}},{"type":"Feature","properties":{"kind":"blob","cls":3,"id":2},"geometry":{"type":"Polygon","coordinates":[[[46.75,-66.62],[49.0,-66.12],[50.62,-65.0],[50.62,-64.0],[48.0,-62.38],[46.5,-62.12],[43.0,-62.38],[41.12,-63.5],[40.88,-64.5],[41.75,-65.62],[43.25,-66.38],[46.75,-66.62]]]}},{"type":"Feature","properties":{"kind":"blob","cls":1,"id":3},"geometry":{"type":"Polygon","coordinates":[[[171.5,57.88],[173.25,58.38],[173.62,58.75],[173.38,59.5],[174.12,60.25],[173.0,61.38],[172.0,61.38],[171.25,60.88],[171.25,61.38],[170.5,61.62],[169.75,61.12],[169.0,61.62],[167.5,61.38],[166.62,60.75],[166.38,59.5],[167.5,58.38],[171.5,57.88]]]}},{"type":"Feature","properties":{"kind":"blob","cls":3,"id":4},"geometry":{"type":"Polygon","coordinates":[[[124.75,-58.38],[127.0,-57.62],[128.38,-56.25],[128.38,-55.25],[127.5,-54.38],[125.75,-53.88],[123.0,-53.88],[121.25,-54.38],[120.12,-55.75],[122.25,-55.62],[122.38,-56.0],[120.88,-57.5],[122.0,-58.12],[124.75,-58.38]]]}},{"type":"Feature","properties":{"kind":"blob","cls":3,"id":5},"geometry":{"type":"Polygon","coordinates":[[[30.5,-61.88],[33.75,-61.12],[34.88,-60.0],[34.88,-59.5],[33.0,-58.12],[29.25,-57.62],[27.25,-57.62],[25.5,-58.12],[24.38,-59.25],[24.38,-59.75],[25.75,-61.12],[30.5,-61.88]]]}},{"type":"Feature","properties":{"kind":"blob","cls":4,"id":6},"geometry":{"type":"Polygon","coordinates":[[[143.25,-59.12],[146.5,-59.12],[148.12,-58.0],[148.38,-57.0],[147.75,-56.12],[145.75,-54.88],[141.5,-54.88],[140.12,-56.0],[139.88,-56.75],[141.0,-58.38],[143.25,-59.12]]]}},{"type":"Feature","properties":{"kind":"blob","cls":1,"id":7},"geometry":{"type":"Polygon","coordinates":[[[-113.75,-74.88],[-99.25,-74.38],[-98.75,-73.88],[-97.75,-73.88],[-97.62,-73.5],[-100.75,-72.12],[-107.25,-71.62],[-112.0,-72.62],[-113.38,-73.5],[-113.75,-74.88]]]}},{"type":"Feature","properties":{"kind":"blob","cls":3,"id":8},"geometry":{"type":"Polygon","coordinates":[[[135.75,-66.62],[138.0,-66.12],[139.12,-65.25],[139.12,-64.25],[136.5,-62.62],[135.0,-62.38],[131.0,-62.62],[128.88,-64.0],[128.88,-65.0],[130.25,-66.12],[135.75,-66.62]]]}},{"type":"Feature","properties":{"kind":"blob","cls":4,"id":9},"geometry":{"type":"Polygon","coordinates":[[[-46.5,-75.38],[-43.25,-74.88],[-41.38,-73.75],[-41.12,-72.75],[-41.75,-71.88],[-44.0,-71.12],[-50.0,-70.88],[-54.75,-71.88],[-56.38,-73.0],[-56.38,-73.75],[-55.25,-74.62],[-46.5,-75.38]]]}},{"type":"Feature","properties":{"kind":"blob","cls":4,"id":10},"geometry":{"type":"Polygon","coordinates":[[[-0.5,-71.12],[0.5,-71.38],[3.75,-70.88],[9.12,-70.75],[6.25,-70.12],[3.5,-70.12],[-0.5,-71.12]]]}},{"type":"Feature","properties":{"kind":"blob","cls":4,"id":11},"geometry":{"type":"Polygon","coordinates":[[[-88.75,-69.88],[-86.5,-69.38],[-84.88,-68.25],[-84.88,-67.0],[-87.25,-65.62],[-89.5,-65.12],[-94.0,-65.38],[-95.25,-65.88],[-96.12,-66.75],[-96.12,-68.0],[-95.75,-68.38],[-93.0,-69.62],[-88.75,-69.88]]]}},{"type":"Feature","properties":{"kind":"blob","cls":4,"id":12},"geometry":{"type":"Polygon","coordinates":[[[-33.5,-77.38],[-31.5,-77.38],[-29.5,-76.62],[-26.25,-76.12],[-22.25,-76.12],[-20.62,-75.25],[-28.5,-75.38],[-31.75,-76.12],[-33.5,-77.38]]]}},{"type":"Feature","properties":{"kind":"blob","cls":1,"id":13},"geometry":{"type":"Polygon","coordinates":[[[-5.0,65.38],[-3.75,65.88],[-2.88,66.75],[-2.88,67.25],[-3.75,68.12],[-5.0,68.62],[-9.25,68.88],[-11.5,68.38],[-12.75,69.12],[-15.0,69.62],[-19.0,69.38],[-21.62,68.0],[-21.62,67.0],[-21.25,66.62],[-19.5,65.88],[-17.25,65.62],[-18.12,66.25],[-18.0,66.62],[-16.0,66.88],[-14.25,66.38],[-13.75,65.88],[-12.5,66.38],[-10.75,65.38],[-5.0,65.38]]]}},{"type":"Feature","properties":{"kind":"blob","cls":4,"id":14},"geometry":{"type":"Polygon","coordinates":[[[-31.75,-78.88],[-31.12,-78.75],[-31.25,-78.62],[-31.75,-78.88]]]}},{"type":"Feature","properties":{"kind":"blob","cls":4,"id":15},"geometry":{"type":"Polygon","coordinates":[[[179.75,-82.88],[180.0,-80.12],[173.5,-80.62],[171.75,-81.12],[171.12,-81.75],[172.5,-82.38],[179.75,-82.88]]]}},{"type":"Feature","properties":{"kind":"blob","cls":4,"id":15},"geometry":{"type":"Polygon","coordinates":[[[-179.75,-80.12],[-180.0,-82.88],[-177.75,-83.12],[-152.25,-83.12],[-142.12,-82.0],[-145.5,-81.12],[-152.25,-80.62],[-159.75,-80.88],[-162.25,-80.38],[-170.0,-79.88],[-179.75,-80.12]]]}},{"type":"Feature","properties":{"kind":"blob","cls":4,"id":16},"geometry":{"type":"Polygon","coordinates":[[[-61.5,-81.12],[-47.0,-81.38],[-43.62,-81.0],[-44.75,-80.62],[-54.75,-80.62],[-61.5,-81.12]]]}},{"type":"Feature","properties":{"kind":"blob","cls":3,"id":17},"geometry":{"type":"Polygon","coordinates":[[[-96.25,-52.62],[-94.88,-51.5],[-94.62,-49.5],[-94.88,-48.75],[-96.0,-47.88],[-98.5,-47.62],[-99.5,-47.88],[-100.88,-49.0],[-100.88,-51.5],[-99.25,-52.62],[-96.25,-52.62]]]}},{"type":"Feature","properties":{"kind":"blob","cls":4,"id":18},"geometry":{"type":"Polygon","coordinates":[[[100.5,-65.62],[102.38,-64.25],[102.38,-63.75],[100.5,-62.38],[97.75,-61.88],[94.0,-62.12],[92.75,-62.62],[91.88,-63.5],[91.88,-64.0],[93.0,-65.12],[94.0,-65.62],[100.5,-65.62]]]}},{"type":"Feature","properties":{"kind":"blob","cls":4,"id":19},"geometry":{"type":"Polygon","coordinates":[[[162.62,-71.5],[162.25,-70.62],[164.5,-71.12],[164.75,-70.62],[166.0,-70.62],[170.5,-71.62],[172.12,-70.5],[172.38,-69.5],[171.5,-68.62],[167.25,-67.62],[160.0,-67.88],[158.5,-68.38],[157.62,-69.25],[159.5,-69.62],[162.62,-71.5]]]}},{"type":"Feature","properties":{"kind":"blob","cls":3,"id":20},"geometry":{"type":"Polygon","coordinates":[[[-130.5,50.88],[-129.0,51.38],[-128.12,52.25],[-128.12,53.5],[-128.75,54.12],[-129.25,53.88],[-129.25,54.38],[-130.75,55.12],[-133.75,54.62],[-134.88,53.25],[-134.62,52.25],[-133.75,51.38],[-130.5,50.88]]]}},{"type":"Feature","properties":{"kind":"blob","cls":0,"id":21},"geometry":{"type":"Polygon","coordinates":[[[161.75,12.62],[163.12,13.5],[163.38,15.0],[162.5,16.12],[161.0,16.38],[159.62,15.5],[159.38,14.0],[160.25,12.88],[161.75,12.62]],[[161.75,13.62],[160.88,14.0],[161.25,14.62],[162.5,14.62],[162.88,14.25],[162.5,13.88],[161.75,13.62]]]}},{"type":"Feature","properties":{"kind":"blob","cls":1,"id":22},"geometry":{"type":"Polygon","coordinates":[[[29.25,54.12],[30.62,55.25],[30.62,56.5],[29.75,57.38],[28.12,57.75],[31.5,58.38],[33.0,59.12],[33.88,60.0],[33.88,61.0],[33.0,61.88],[30.75,62.62],[26.25,62.12],[26.88,60.5],[26.75,59.38],[26.25,59.38],[25.38,60.25],[24.75,61.62],[23.38,60.75],[22.88,59.25],[24.0,58.12],[25.62,57.75],[24.12,56.5],[24.12,55.5],[25.25,54.38],[29.25,54.12]]]}},{"type":"Feature","properties":{"kind":"blob","cls":3,"id":23},"geometry":{"type":"Polygon","coordinates":[[[50.75,74.12],[57.25,75.12],[60.0,76.12],[60.62,76.75],[60.62,77.5],[59.25,78.38],[56.75,78.88],[49.25,79.12],[41.75,77.88],[40.12,76.75],[40.38,75.75],[41.5,75.12],[44.5,74.38],[50.75,74.12]]]}},{"type":"Feature","properties":{"kind":"blob","cls":0,"id":24},"geometry":{"type":"Polygon","coordinates":[[[-126.0,20.62],[-124.38,21.75],[-124.38,23.5],[-125.25,24.38],[-127.0,24.62],[-128.62,23.5],[-128.62,21.75],[-127.75,20.88],[-126.0,20.62]],[[-127.25,21.12],[-128.12,21.75],[-128.12,22.5],[-127.62,23.5],[-126.75,24.12],[-126.12,23.5],[-126.12,22.0],[-127.25,21.12]]]}},{"type":"Feature","properties":{"kind":"blob","cls":3,"id":25},"geometry":{"type":"Polygon","coordinates":[[[41.25,81.38],[47.5,82.38],[49.62,83.5],[48.0,84.38],[42.75,85.62],[24.75,86.88],[2.25,86.62],[-5.0,85.88],[-7.12,85.0],[-4.75,83.88],[3.0,82.88],[21.0,81.38],[41.25,81.38]]]}},{"type":"Feature","properties":{"kind":"blob","cls":5,"id":26},"geometry":{"type":"Polygon","coordinates":[[[-101.75,-41.38],[-100.38,-40.0],[-100.12,-39.0],[-101.25,-37.62],[-103.75,-36.62],[-105.0,-36.62],[-106.62,-37.75],[-106.88,-38.75],[-104.5,-41.38],[-101.75,-41.38]]]}},{"type":"Feature","properties":{"kind":"blob","cls":0,"id":27},"geometry":{"type":"Polygon","coordinates":[[[146.0,14.62],[147.12,16.0],[146.88,17.5],[145.25,18.62],[143.75,18.38],[142.62,17.25],[142.38,15.75],[145.25,15.62],[145.88,15.25],[146.0,14.62]]]}},{"type":"Feature","properties":{"kind":"blob","cls":3,"id":28},"geometry":{"type":"Polygon","coordinates":[[[-171.0,30.62],[-169.38,31.5],[-169.12,33.25],[-169.75,34.12],[-171.5,34.62],[-173.38,33.5],[-173.38,31.5],[-171.0,30.62]]]}},{"type":"Feature","properties":{"kind":"blob","cls":0,"id":29},"geometry":{"type":"Polygon","coordinates":[[[-95.0,17.12],[-93.5,17.12],[-92.62,18.25],[-92.88,19.75],[-94.25,20.62],[-95.25,20.38],[-96.38,19.25],[-96.12,17.75],[-95.0,17.12]]]}},{"type":"Feature","properties":{"kind":"blob","cls":4,"id":30},"geometry":{"type":"Polygon","coordinates":[[[-38.25,59.38],[-34.25,60.88],[-33.38,61.75],[-33.38,62.25],[-34.62,63.25],[-32.75,63.88],[-32.12,64.5],[-32.12,65.75],[-33.75,66.88],[-34.5,66.88],[-39.5,64.62],[-41.25,64.38],[-42.5,62.88],[-43.12,62.75],[-42.88,62.0],[-43.88,60.5],[-42.5,59.62],[-38.25,59.38]]]}},{"type":"Feature","properties":{"kind":"blob","cls":6,"id":31},"geometry":{"type":"Polygon","coordinates":[[[-103.25,11.38],[-101.75,11.38],[-100.88,12.5],[-100.88,13.5],[-103.75,13.12],[-104.5,13.62],[-104.38,12.0],[-103.25,11.38]]]}},{"type":"Feature","properties":{"kind":"blob","cls":1,"id":32},"geometry":{"type":"Polygon","coordinates":[[[69.0,25.12],[70.12,26.25],[70.38,28.25],[69.25,29.62],[67.5,29.88],[66.88,26.75],[65.38,26.75],[66.5,25.12],[69.0,25.12]]]}},{"type":"Feature","properties":{"kind":"blob","cls":3,"id":33},"geometry":{"type":"Polygon","coordinates":[[[-158.5,74.62],[-149.5,74.62],[-146.25,75.38],[-144.62,76.5],[-144.62,77.0],[-146.0,77.88],[-148.0,78.38],[-152.0,78.62],[-162.5,78.12],[-164.88,77.0],[-164.88,76.5],[-164.0,75.62],[-163.0,75.12],[-158.5,74.62]]]}},{"type":"Feature","properties":{"kind":"blob","cls":4,"id":34},"geometry":{"type":"Polygon","coordinates":[[[-5.5,75.38],[1.0,75.38],[4.25,76.12],[5.62,77.0],[5.62,77.5],[4.25,78.38],[1.75,78.88],[-5.5,79.12],[-10.5,78.38],[-11.88,77.5],[-11.5,76.62],[-10.0,75.88],[-5.5,75.38]]]}},{"type":"Feature","properties":{"kind":"blob","cls":3,"id":35},"geometry":{"type":"Polygon","coordinates":[[[161.0,32.62],[162.62,33.5],[162.88,35.25],[162.25,36.12],[160.25,36.62],[158.62,35.75],[158.38,34.0],[159.0,33.12],[161.0,32.62]]]}},{"type":"Feature","properties":{"kind":"blob","cls":4,"id":36},"geometry":{"type":"Polygon","coordinates":[[[73.25,28.38],[74.38,29.75],[74.38,31.0],[72.5,32.38],[71.25,32.12],[70.12,31.0],[70.38,29.25],[71.25,28.38],[73.25,28.38]]]}},{"type":"Feature","properties":{"kind":"blob","cls":1,"id":37},"geometry":{"type":"Polygon","coordinates":[[[-109.5,25.62],[-108.38,27.0],[-109.62,29.5],[-110.25,30.12],[-110.5,29.88],[-111.25,30.88],[-112.0,30.88],[-113.62,29.75],[-113.88,27.75],[-112.25,25.88],[-109.5,25.62]]]}},{"type":"Feature","properties":{"kind":"blob","cls":1,"id":38},"geometry":{"type":"Polygon","coordinates":[[[-71.5,56.62],[-71.38,57.0],[-73.0,58.12],[-74.25,58.38],[-76.25,58.38],[-78.12,57.75],[-76.0,56.88],[-71.5,56.62]]]}},{"type":"Feature","properties":{"kind":"blob","cls":6,"id":39},"geometry":{"type":"Polygon","coordinates":[[[166.5,-35.88],[168.0,-35.88],[169.12,-34.75],[168.88,-33.25],[167.0,-32.12],[165.25,-32.62],[164.62,-33.5],[164.88,-35.25],[165.5,-35.62],[165.75,-35.12],[166.5,-35.12],[166.5,-35.88]]]}},{"type":"Feature","properties":{"kind":"blob","cls":1,"id":40},"geometry":{"type":"Polygon","coordinates":[[[-75.0,53.62],[-72.88,54.5],[-75.75,54.88],[-80.5,56.38],[-80.62,55.0],[-79.75,54.12],[-75.0,53.62]]]}},{"type":"Feature","properties":{"kind":"blob","cls":0,"id":41},"geometry":{"type":"Polygon","coordinates":[[[145.12,14.5],[145.25,14.38],[145.38,14.5],[145.12,14.5]]]}},{"type":"Feature","properties":{"kind":"blob","cls":4,"id":42},"geometry":{"type":"Polygon","coordinates":[[[144.5,70.62],[146.75,71.38],[147.38,72.5],[145.25,73.88],[139.25,74.88],[132.0,74.62],[130.25,74.12],[129.12,73.25],[129.75,72.12],[132.5,71.12],[144.5,70.62]]]}},{"type":"Feature","properties":{"kind":"blob","cls":4,"id":43},"geometry":{"type":"Polygon","coordinates":[[[-65.75,74.38],[-62.75,75.38],[-62.38,76.25],[-62.75,76.62],[-66.88,76.75],[-64.88,77.25],[-65.75,77.62],[-72.5,77.88],[-76.25,77.38],[-78.38,76.25],[-78.0,75.38],[-76.25,74.62],[-65.75,74.38]],[[-68.12,77.0],[-67.38,77.0],[-67.5,76.88],[-68.12,77.0]]]}},{"type":"Feature","properties":{"kind":"blob","cls":4,"id":44},"geometry":{"type":"Polygon","coordinates":[[[96.0,23.62],[96.88,24.25],[95.25,25.62],[94.25,24.62],[93.62,24.75],[94.5,23.88],[96.0,23.62]]]}},{"type":"Feature","properties":{"kind":"blob","cls":4,"id":45},"geometry":{"type":"Polygon","coordinates":[[[-58.75,34.88],[-57.25,34.62],[-56.25,35.12],[-55.62,35.75],[-55.62,37.25],[-57.25,38.38],[-58.5,38.38],[-59.5,37.88],[-60.12,37.25],[-60.12,35.75],[-58.75,34.88]]]}},{"type":"Feature","properties":{"kind":"blob","cls":1,"id":46},"geometry":{"type":"Polygon","coordinates":[[[62.75,29.62],[63.12,29.75],[63.0,29.88],[62.75,29.62]]]}},{"type":"Feature","properties":{"kind":"blob","cls":3,"id":47},"geometry":{"type":"MultiPolygon","coordinates":[[[[62.0,30.12],[61.88,30.0],[62.0,29.88],[62.0,30.12]]],[[[61.5,30.38],[61.38,30.25],[61.75,30.12],[61.5,30.38]]],[[[61.38,30.5],[61.25,30.62],[61.12,30.5],[61.38,30.5]]]]}},{"type":"Feature","properties":{"kind":"blob","cls":4,"id":48},"geometry":{"type":"Polygon","coordinates":[[[93.75,25.62],[94.38,26.25],[93.75,26.38],[93.75,25.62]]]}},{"type":"Feature","properties":{"kind":"blob","cls":1,"id":49},"geometry":{"type":"Polygon","coordinates":[[[45.75,-17.88],[48.25,-17.88],[49.38,-16.75],[49.62,-15.25],[49.25,-14.88],[48.75,-15.12],[48.38,-14.5],[48.62,-14.25],[48.0,-13.88],[46.75,-14.12],[45.12,-16.0],[45.12,-17.0],[45.75,-17.88]],[[48.0,-16.88],[47.88,-16.75],[48.0,-16.62],[48.0,-16.88]],[[48.75,-16.88],[48.62,-16.75],[48.75,-16.62],[48.75,-16.88]]]}},{"type":"Feature","properties":{"kind":"blob","cls":3,"id":50},"geometry":{"type":"MultiPolygon","coordinates":[[[[61.25,33.38],[61.12,33.25],[61.25,33.12],[61.25,33.38]]],[[[61.5,33.62],[61.38,33.5],[61.5,33.38],[61.5,33.62]]]]}},{"type":"Feature","properties":{"kind":"blob","cls":1,"id":51},"geometry":{"type":"Polygon","coordinates":[[[46.25,-29.12],[47.38,-27.75],[46.38,-26.75],[46.12,-25.75],[45.25,-25.38],[44.0,-25.62],[42.88,-27.0],[43.12,-28.25],[44.0,-29.12],[46.25,-29.12]]]}},{"type":"Feature","properties":{"kind":"blob","cls":4,"id":52},"geometry":{"type":"MultiPolygon","coordinates":[[[[-66.75,-29.12],[-66.88,-29.25],[-66.75,-29.38],[-66.75,-29.12]]],[[[-66.38,-29.0],[-66.12,-28.0],[-66.5,-27.62],[-67.12,-28.0],[-66.38,-29.0]]]]}},{"type":"Feature","properties":{"kind":"blob","cls":4,"id":53},"geometry":{"type":"Polygon","coordinates":[[[-64.0,-21.38],[-63.62,-21.0],[-64.0,-20.62],[-64.0,-21.38]]]}},{"type":"Feature","properties":{"kind":"blob","cls":4,"id":54},"geometry":{"type":"Polygon","coordinates":[[[-67.38,-29.75],[-67.25,-29.88],[-67.12,-29.5],[-67.38,-29.75]]]}},{"type":"Feature","properties":{"kind":"blob","cls":4,"id":55},"geometry":{"type":"Polygon","coordinates":[[[-68.38,-30.0],[-68.25,-30.12],[-68.12,-30.0],[-68.38,-30.0]]]}},{"type":"Feature","properties":{"kind":"blob","cls":4,"id":56},"geometry":{"type":"Polygon","coordinates":[[[85.88,41.75],[86.0,41.62],[86.12,41.75],[85.88,41.75]]]}},{"type":"Feature","properties":{"kind":"blob","cls":4,"id":57},"geometry":{"type":"Polygon","coordinates":[[[86.5,41.88],[87.12,42.0],[87.0,42.12],[86.5,41.88]]]}},{"type":"Feature","properties":{"kind":"blob","cls":4,"id":58},"geometry":{"type":"Polygon","coordinates":[[[-37.5,42.62],[-36.25,43.12],[-35.38,44.5],[-35.62,45.25],[-37.5,46.38],[-39.75,45.88],[-40.62,44.5],[-40.38,43.75],[-39.75,43.12],[-37.5,42.62]]]}},{"type":"Feature","properties":{"kind":"center","id":1,"lat":-63.25,"lon":-136.0,"mslp":949.6,"hvtl":-23.3,"hvtu":-50.0,"hb":3.1,"idx":-0.9,"cls":5,"psfc":949.6,"terrain":false,"radius_km":200,"name":"sym cold","track":"T14"},"geometry":{"type":"Point","coordinates":[-136.0,-63.25]}},{"type":"Feature","properties":{"kind":"center","id":2,"lat":-64.25,"lon":45.5,"mslp":952.0,"hvtl":38.8,"hvtu":-166.6,"hb":45.1,"idx":-0.2,"cls":3,"psfc":952.1,"terrain":false,"radius_km":200,"name":"asym shallow warm","track":"T16"},"geometry":{"type":"Point","coordinates":[45.5,-64.25]}},{"type":"Feature","properties":{"kind":"center","id":3,"lat":59.75,"lon":170.5,"mslp":954.3,"hvtl":121.5,"hvtu":-67.6,"hb":-11.7,"idx":1.1,"cls":1,"psfc":954.3,"terrain":false,"radius_km":200,"name":"sym shallow warm","track":"T07"},"geometry":{"type":"Point","coordinates":[170.5,59.75]}},{"type":"Feature","properties":{"kind":"center","id":4,"lat":-56.0,"lon":124.25,"mslp":955.9,"hvtl":130.3,"hvtu":-50.2,"hb":57.1,"idx":1.3,"cls":3,"psfc":955.9,"terrain":false,"radius_km":200,"name":"asym shallow warm","track":"T22"},"geometry":{"type":"Point","coordinates":[124.25,-56.0]}},{"type":"Feature","properties":{"kind":"center","id":5,"lat":-59.75,"lon":28.75,"mslp":964.1,"hvtl":49.9,"hvtu":-48.7,"hb":11.7,"idx":0.5,"cls":3,"psfc":964.1,"terrain":false,"radius_km":200,"name":"asym shallow warm","track":"T23"},"geometry":{"type":"Point","coordinates":[28.75,-59.75]}},{"type":"Feature","properties":{"kind":"center","id":6,"lat":-57.0,"lon":144.0,"mslp":969.0,"hvtl":-179.5,"hvtu":-406.0,"hb":74.1,"idx":-2.9,"cls":4,"psfc":969.0,"terrain":false,"radius_km":200,"name":"asym cold","track":"T17"},"geometry":{"type":"Point","coordinates":[144.0,-57.0]}},{"type":"Feature","properties":{"kind":"center","id":7,"lat":-74.0,"lon":-104.75,"mslp":970.8,"hvtl":54.3,"hvtu":-173.8,"hb":-6.5,"idx":0.1,"cls":1,"psfc":970.8,"terrain":false,"radius_km":200,"name":"sym shallow warm","track":"T18"},"geometry":{"type":"Point","coordinates":[-104.75,-74.0]}},{"type":"Feature","properties":{"kind":"center","id":8,"lat":-64.75,"lon":134.25,"mslp":974.4,"hvtl":176.8,"hvtu":-235.2,"hb":39.4,"idx":0.9,"cls":3,"psfc":974.4,"terrain":false,"radius_km":200,"name":"asym shallow warm","track":"T38"},"geometry":{"type":"Point","coordinates":[134.25,-64.75]}},{"type":"Feature","properties":{"kind":"center","id":9,"lat":-73.0,"lon":-48.25,"mslp":975.2,"hvtl":-183.2,"hvtu":-48.6,"hb":43.4,"idx":-2.4,"cls":4,"psfc":975.2,"terrain":false,"radius_km":200,"name":"asym cold","track":"T45"},"geometry":{"type":"Point","coordinates":[-48.25,-73.0]}},{"type":"Feature","properties":{"kind":"center","id":10,"lat":-70.75,"lon":9.0,"mslp":975.7,"hvtl":-144.9,"hvtu":-105.7,"hb":20.4,"idx":-2.6,"cls":4,"psfc":924.4,"terrain":false,"radius_km":200,"name":"asym cold","track":"T46"},"geometry":{"type":"Point","coordinates":[9.0,-70.75]}},{"type":"Feature","properties":{"kind":"center","id":11,"lat":-68.0,"lon":-90.5,"mslp":975.9,"hvtl":-188.1,"hvtu":-276.3,"hb":41.0,"idx":-2.9,"cls":4,"psfc":975.9,"terrain":false,"radius_km":200,"name":"asym cold","track":"T33"},"geometry":{"type":"Point","coordinates":[-90.5,-68.0]}},{"type":"Feature","properties":{"kind":"center","id":12,"lat":-76.0,"lon":-22.25,"mslp":977.8,"hvtl":-329.2,"hvtu":-50.8,"hb":33.1,"idx":-2.5,"cls":4,"psfc":901.7,"terrain":false,"radius_km":200,"name":"asym cold","track":"T50"},"geometry":{"type":"Point","coordinates":[-22.25,-76.0]}},{"type":"Feature","properties":{"kind":"center","id":13,"lat":67.0,"lon":-7.75,"mslp":978.5,"hvtl":213.8,"hvtu":-106.9,"hb":-6.1,"idx":1.2,"cls":1,"psfc":978.5,"terrain":false,"radius_km":200,"name":"sym shallow warm","track":"T53"},"geometry":{"type":"Point","coordinates":[-7.75,67.0]}},{"type":"Feature","properties":{"kind":"center","id":14,"lat":-78.75,"lon":-31.75,"mslp":980.0,"hvtl":-315.6,"hvtu":-65.4,"hb":44.2,"idx":-2.6,"cls":4,"psfc":906.4,"terrain":false,"radius_km":200,"name":"asym cold","track":"T58"},"geometry":{"type":"Point","coordinates":[-31.75,-78.75]}},{"type":"Feature","properties":{"kind":"center","id":15,"lat":-81.75,"lon":-167.5,"mslp":981.5,"hvtl":-63.0,"hvtu":-137.1,"hb":13.0,"idx":-2.0,"cls":4,"psfc":973.6,"terrain":false,"radius_km":200,"name":"asym cold","track":"T54"},"geometry":{"type":"Point","coordinates":[-167.5,-81.75]}},{"type":"Feature","properties":{"kind":"center","id":16,"lat":-80.75,"lon":-51.5,"mslp":982.2,"hvtl":-257.6,"hvtu":-32.1,"hb":44.2,"idx":-2.3,"cls":4,"psfc":942.5,"terrain":false,"radius_km":200,"name":"asym cold","track":"T60"},"geometry":{"type":"Point","coordinates":[-51.5,-80.75]}},{"type":"Feature","properties":{"kind":"center","id":17,"lat":-49.75,"lon":-97.75,"mslp":982.4,"hvtl":19.5,"hvtu":-180.7,"hb":38.7,"idx":-0.6,"cls":3,"psfc":982.4,"terrain":false,"radius_km":200,"name":"asym shallow warm","track":"T39"},"geometry":{"type":"Point","coordinates":[-97.75,-49.75]}},{"type":"Feature","properties":{"kind":"center","id":18,"lat":-64.0,"lon":96.5,"mslp":983.3,"hvtl":-149.2,"hvtu":-256.0,"hb":36.2,"idx":-2.8,"cls":4,"psfc":983.3,"terrain":false,"radius_km":200,"name":"asym cold","track":"T37"},"geometry":{"type":"Point","coordinates":[96.5,-64.0]}},{"type":"Feature","properties":{"kind":"center","id":19,"lat":-69.75,"lon":164.75,"mslp":983.6,"hvtl":-231.2,"hvtu":-320.1,"hb":62.7,"idx":-3.0,"cls":4,"psfc":983.6,"terrain":false,"radius_km":200,"name":"asym cold","track":"T64"},"geometry":{"type":"Point","coordinates":[164.75,-69.75]}},{"type":"Feature","properties":{"kind":"center","id":20,"lat":53.0,"lon":-131.25,"mslp":985.8,"hvtl":96.7,"hvtu":-162.3,"hb":13.1,"idx":0.6,"cls":3,"psfc":985.8,"terrain":false,"radius_km":200,"name":"asym shallow warm","track":"T68"},"geometry":{"type":"Point","coordinates":[-131.25,53.0]}},{"type":"Feature","properties":{"kind":"center","id":21,"lat":14.75,"lon":161.25,"mslp":985.8,"hvtl":107.3,"hvtu":133.4,"hb":2.3,"idx":2.5,"cls":0,"psfc":985.8,"terrain":false,"radius_km":200,"name":"sym deep warm","track":"T02"},"geometry":{"type":"Point","coordinates":[161.25,14.75]}},{"type":"Feature","properties":{"kind":"center","id":22,"lat":56.0,"lon":27.25,"mslp":987.8,"hvtl":70.6,"hvtu":-92.8,"hb":-21.5,"idx":0.5,"cls":1,"psfc":968.3,"terrain":false,"radius_km":200,"name":"sym shallow warm","track":"T67"},"geometry":{"type":"Point","coordinates":[27.25,56.0]}},{"type":"Feature","properties":{"kind":"center","id":23,"lat":77.0,"lon":51.25,"mslp":990.1,"hvtl":0.8,"hvtu":-27.9,"hb":16.9,"idx":-0.3,"cls":3,"psfc":990.1,"terrain":false,"radius_km":200,"name":"asym shallow warm","track":"T41"},"geometry":{"type":"Point","coordinates":[51.25,77.0]}},{"type":"Feature","properties":{"kind":"center","id":24,"lat":22.75,"lon":-126.0,"mslp":992.4,"hvtl":73.5,"hvtu":114.8,"hb":-0.8,"idx":2.1,"cls":0,"psfc":992.4,"terrain":false,"radius_km":200,"name":"sym deep warm","track":"T48"},"geometry":{"type":"Point","coordinates":[-126.0,22.75]}},{"type":"Feature","properties":{"kind":"center","id":25,"lat":84.25,"lon":21.75,"mslp":992.4,"hvtl":2.1,"hvtu":-115.5,"hb":50.0,"idx":-0.8,"cls":3,"psfc":992.4,"terrain":false,"radius_km":200,"name":"asym shallow warm","track":"T73"},"geometry":{"type":"Point","coordinates":[21.75,84.25]}},{"type":"Feature","properties":{"kind":"center","id":26,"lat":-39.25,"lon":-101.75,"mslp":995.1,"hvtl":-80.3,"hvtu":-243.2,"hb":4.9,"idx":-2.3,"cls":5,"psfc":995.1,"terrain":false,"radius_km":200,"name":"sym cold"},"geometry":{"type":"Point","coordinates":[-101.75,-39.25]}},{"type":"Feature","properties":{"kind":"center","id":27,"lat":16.5,"lon":145.0,"mslp":995.9,"hvtl":37.9,"hvtu":78.2,"hb":0.6,"idx":1.4,"cls":0,"psfc":995.9,"terrain":false,"radius_km":200,"name":"sym deep warm","track":"T08"},"geometry":{"type":"Point","coordinates":[145.0,16.5]}},{"type":"Feature","properties":{"kind":"center","id":28,"lat":32.5,"lon":-171.25,"mslp":997.3,"hvtl":36.8,"hvtu":-211.0,"hb":10.5,"idx":-0.3,"cls":3,"psfc":997.3,"terrain":false,"radius_km":200,"name":"asym shallow warm","track":"T81"},"geometry":{"type":"Point","coordinates":[-171.25,32.5]}},{"type":"Feature","properties":{"kind":"center","id":29,"lat":18.75,"lon":-94.5,"mslp":999.7,"hvtl":61.2,"hvtu":41.5,"hb":2.2,"idx":1.5,"cls":0,"psfc":999.7,"terrain":false,"radius_km":200,"name":"sym deep warm","track":"T90"},"geometry":{"type":"Point","coordinates":[-94.5,18.75]}},{"type":"Feature","properties":{"kind":"center","id":30,"lat":65.25,"lon":-37.25,"mslp":1000.1,"hvtl":-27.2,"hvtu":-100.6,"hb":22.1,"idx":-1.3,"cls":4,"psfc":1000.1,"terrain":false,"radius_km":200,"name":"asym cold","track":"T62"},"geometry":{"type":"Point","coordinates":[-37.25,65.25]}},{"type":"Feature","properties":{"kind":"center","id":31,"lat":13.0,"lon":-102.75,"mslp":1000.9,"hvtl":-3.1,"hvtu":52.0,"hb":-10.8,"idx":0.4,"cls":6,"psfc":1000.9,"terrain":false,"radius_km":200,"name":"shallow cold"},"geometry":{"type":"Point","coordinates":[-102.75,13.0]}},{"type":"Feature","properties":{"kind":"center","id":32,"lat":27.5,"lon":67.75,"mslp":1001.1,"hvtl":2.7,"hvtu":-34.6,"hb":9.9,"idx":-0.3,"cls":1,"psfc":996.1,"terrain":false,"radius_km":200,"name":"sym shallow warm","track":"T100"},"geometry":{"type":"Point","coordinates":[67.75,27.5]}},{"type":"Feature","properties":{"kind":"center","id":33,"lat":76.75,"lon":-155.0,"mslp":1002.1,"hvtl":60.0,"hvtu":-304.5,"hb":66.0,"idx":0.1,"cls":3,"psfc":1002.1,"terrain":false,"radius_km":200,"name":"asym shallow warm","track":"T101"},"geometry":{"type":"Point","coordinates":[-155.0,76.75]}},{"type":"Feature","properties":{"kind":"center","id":34,"lat":77.25,"lon":-3.25,"mslp":1002.2,"hvtl":-103.0,"hvtu":-216.2,"hb":56.4,"idx":-2.5,"cls":4,"psfc":1002.2,"terrain":false,"radius_km":200,"name":"asym cold","track":"T104"},"geometry":{"type":"Point","coordinates":[-3.25,77.25]}},{"type":"Feature","properties":{"kind":"center","id":35,"lat":34.5,"lon":160.75,"mslp":1002.5,"hvtl":154.4,"hvtu":-119.7,"hb":46.6,"idx":1.0,"cls":3,"psfc":1002.5,"terrain":false,"radius_km":200,"name":"asym shallow warm","track":"T40"},"geometry":{"type":"Point","coordinates":[160.75,34.5]}},{"type":"Feature","properties":{"kind":"center","id":36,"lat":30.0,"lon":72.25,"mslp":1002.9,"hvtl":-49.4,"hvtu":-68.0,"hb":32.9,"idx":-1.5,"cls":4,"psfc":987.6,"terrain":false,"radius_km":200,"name":"asym cold","track":"T108"},"geometry":{"type":"Point","coordinates":[72.25,30.0]}},{"type":"Feature","properties":{"kind":"center","id":37,"lat":28.0,"lon":-111.5,"mslp":1003.9,"hvtl":28.6,"hvtu":-154.7,"hb":3.7,"idx":-0.4,"cls":1,"psfc":1003.9,"terrain":false,"radius_km":200,"name":"sym shallow warm","track":"T95"},"geometry":{"type":"Point","coordinates":[-111.5,28.0]}},{"type":"Feature","properties":{"kind":"center","id":38,"lat":56.75,"lon":-74.5,"mslp":1004.0,"hvtl":42.8,"hvtu":-60.6,"hb":-3.7,"idx":0.3,"cls":1,"psfc":970.1,"terrain":false,"radius_km":200,"name":"sym shallow warm","track":"T88"},"geometry":{"type":"Point","coordinates":[-74.5,56.75]}},{"type":"Feature","properties":{"kind":"center","id":39,"lat":-34.25,"lon":167.0,"mslp":1004.2,"hvtl":-18.0,"hvtu":1.5,"hb":16.7,"idx":-0.3,"cls":6,"psfc":1004.2,"terrain":false,"radius_km":200,"name":"shallow cold","track":"T107"},"geometry":{"type":"Point","coordinates":[167.0,-34.25]}},{"type":"Feature","properties":{"kind":"center","id":40,"lat":55.25,"lon":-77.0,"mslp":1004.3,"hvtl":28.4,"hvtu":-9.4,"hb":-8.8,"idx":0.5,"cls":1,"psfc":983.0,"terrain":false,"radius_km":200,"name":"sym shallow warm"},"geometry":{"type":"Point","coordinates":[-77.0,55.25]}},{"type":"Feature","properties":{"kind":"center","id":41,"lat":14.5,"lon":145.25,"mslp":1005.8,"hvtl":32.7,"hvtu":74.3,"hb":2.1,"idx":1.3,"cls":0,"psfc":1005.8,"terrain":false,"radius_km":200,"name":"sym deep warm"},"geometry":{"type":"Point","coordinates":[145.25,14.5]}},{"type":"Feature","properties":{"kind":"center","id":42,"lat":72.75,"lon":145.5,"mslp":1006.3,"hvtl":-56.1,"hvtu":-79.1,"hb":40.8,"idx":-1.7,"cls":4,"psfc":1006.3,"terrain":false,"radius_km":200,"name":"asym cold","track":"T110"},"geometry":{"type":"Point","coordinates":[145.5,72.75]}},{"type":"Feature","properties":{"kind":"center","id":43,"lat":76.0,"lon":-70.5,"mslp":1006.7,"hvtl":-211.2,"hvtu":-143.6,"hb":64.5,"idx":-2.8,"cls":4,"psfc":1006.7,"terrain":false,"radius_km":200,"name":"asym cold","track":"T115"},"geometry":{"type":"Point","coordinates":[-70.5,76.0]}},{"type":"Feature","properties":{"kind":"center","id":44,"lat":24.25,"lon":96.5,"mslp":1008.2,"hvtl":-11.6,"hvtu":-98.3,"hb":14.9,"idx":-1.0,"cls":4,"psfc":992.5,"terrain":false,"radius_km":200,"name":"asym cold","track":"T120"},"geometry":{"type":"Point","coordinates":[96.5,24.25]}},{"type":"Feature","properties":{"kind":"center","id":45,"lat":36.5,"lon":-57.75,"mslp":1008.4,"hvtl":-62.5,"hvtu":-226.2,"hb":46.2,"idx":-2.1,"cls":4,"psfc":1008.4,"terrain":false,"radius_km":200,"name":"asym cold","track":"T113"},"geometry":{"type":"Point","coordinates":[-57.75,36.5]}},{"type":"Feature","properties":{"kind":"center","id":46,"lat":29.75,"lon":62.75,"mslp":1009.4,"hvtl":47.9,"hvtu":-14.7,"hb":9.9,"idx":0.7,"cls":1,"psfc":934.0,"terrain":false,"radius_km":200,"name":"sym shallow warm","track":"T114"},"geometry":{"type":"Point","coordinates":[62.75,29.75]}},{"type":"Feature","properties":{"kind":"center","id":47,"lat":30.0,"lon":62.0,"mslp":1009.6,"hvtl":9.8,"hvtu":-7.3,"hb":16.2,"idx":0.1,"cls":3,"psfc":952.1,"terrain":false,"radius_km":200,"name":"asym shallow warm","track":"T122"},"geometry":{"type":"Point","coordinates":[62.0,30.0]}},{"type":"Feature","properties":{"kind":"center","id":48,"lat":26.25,"lon":94.0,"mslp":1009.7,"hvtl":-21.1,"hvtu":-92.6,"hb":10.3,"idx":-1.1,"cls":4,"psfc":988.9,"terrain":false,"radius_km":200,"name":"asym cold"},"geometry":{"type":"Point","coordinates":[94.0,26.25]}},{"type":"Feature","properties":{"kind":"center","id":49,"lat":-15.75,"lon":47.75,"mslp":1010.1,"hvtl":63.7,"hvtu":-142.5,"hb":-3.0,"idx":0.2,"cls":1,"psfc":1002.7,"terrain":false,"radius_km":200,"name":"sym shallow warm"},"geometry":{"type":"Point","coordinates":[47.75,-15.75]}},{"type":"Feature","properties":{"kind":"center","id":50,"lat":33.25,"lon":61.25,"mslp":1012.7,"hvtl":124.8,"hvtu":-66.6,"hb":72.8,"idx":1.1,"cls":3,"psfc":915.2,"terrain":true,"radius_km":200,"name":"asym shallow warm"},"geometry":{"type":"Point","coordinates":[61.25,33.25]}},{"type":"Feature","properties":{"kind":"center","id":51,"lat":-27.25,"lon":45.0,"mslp":1014.0,"hvtl":72.1,"hvtu":-144.8,"hb":-8.7,"idx":0.3,"cls":1,"psfc":1014.0,"terrain":false,"radius_km":200,"name":"sym shallow warm"},"geometry":{"type":"Point","coordinates":[45.0,-27.25]}},{"type":"Feature","properties":{"kind":"center","id":52,"lat":-28.25,"lon":-66.5,"mslp":1016.1,"hvtl":-131.9,"hvtu":-265.5,"hb":24.5,"idx":-2.7,"cls":4,"psfc":931.9,"terrain":false,"radius_km":200,"name":"asym cold","track":"T119"},"geometry":{"type":"Point","coordinates":[-66.5,-28.25]}},{"type":"Feature","properties":{"kind":"center","id":53,"lat":-21.25,"lon":-64.0,"mslp":1016.7,"hvtl":-27.1,"hvtu":-279.3,"hb":49.4,"idx":-1.5,"cls":4,"psfc":921.1,"terrain":true,"radius_km":200,"name":"asym cold"},"geometry":{"type":"Point","coordinates":[-64.0,-21.25]}},{"type":"Feature","properties":{"kind":"center","id":54,"lat":-29.5,"lon":-67.25,"mslp":1018.2,"hvtl":-122.2,"hvtu":-238.5,"hb":21.8,"idx":-2.7,"cls":4,"psfc":901.9,"terrain":true,"radius_km":200,"name":"asym cold"},"geometry":{"type":"Point","coordinates":[-67.25,-29.5]}},{"type":"Feature","properties":{"kind":"center","id":55,"lat":-30.0,"lon":-68.25,"mslp":1018.6,"hvtl":-123.6,"hvtu":-202.4,"hb":21.0,"idx":-2.7,"cls":4,"psfc":911.0,"terrain":true,"radius_km":200,"name":"asym cold"},"geometry":{"type":"Point","coordinates":[-68.25,-30.0]}},{"type":"Feature","properties":{"kind":"center","id":56,"lat":41.75,"lon":86.0,"mslp":1018.7,"hvtl":-11.6,"hvtu":-161.3,"hb":71.4,"idx":-1.2,"cls":4,"psfc":904.8,"terrain":true,"radius_km":200,"name":"asym cold"},"geometry":{"type":"Point","coordinates":[86.0,41.75]}},{"type":"Feature","properties":{"kind":"center","id":57,"lat":42.0,"lon":86.5,"mslp":1018.9,"hvtl":-47.4,"hvtu":-175.6,"hb":75.4,"idx":-1.8,"cls":4,"psfc":900.4,"terrain":true,"radius_km":200,"name":"asym cold"},"geometry":{"type":"Point","coordinates":[86.5,42.0]}},{"type":"Feature","properties":{"kind":"center","id":58,"lat":44.5,"lon":-38.0,"mslp":1020.1,"hvtl":-38.8,"hvtu":-114.7,"hb":18.7,"idx":-1.6,"cls":4,"psfc":1020.1,"terrain":false,"radius_km":200,"name":"asym cold","track":"T42"},"geometry":{"type":"Point","coordinates":[-38.0,44.5]}}]}