{"type":"FeatureCollection","features":[{"type":"Feature","properties":{"kind":"blob","cls":0,"id":1},"geometry":{"type":"Polygon","coordinates":[[[156.75,16.62],[158.25,16.62],[159.12,17.75],[158.88,19.25],[157.5,20.12],[156.25,19.88],[155.38,18.75],[155.62,17.25],[156.75,16.62]],[[155.88,17.5],[155.88,18.0],[156.75,18.12],[156.88,17.5],[155.88,17.5]]]}},{"type":"Feature","properties":{"kind":"blob","cls":0,"id":2},"geometry":{"type":"Polygon","coordinates":[[[136.75,17.38],[137.62,18.5],[137.38,20.0],[136.0,20.88],[134.75,20.62],[133.88,19.5],[134.12,18.0],[135.75,18.12],[136.75,17.38]]]}},{"type":"Feature","properties":{"kind":"blob","cls":3,"id":3},"geometry":{"type":"Polygon","coordinates":[[[112.5,-62.62],[115.25,-61.62],[115.88,-61.0],[115.88,-60.0],[114.25,-58.88],[111.75,-58.38],[105.25,-58.62],[101.75,-59.62],[101.12,-60.25],[101.12,-61.25],[102.75,-62.38],[112.5,-62.62]]]}},{"type":"Feature","properties":{"kind":"blob","cls":0,"id":4},"geometry":{"type":"Polygon","coordinates":[[[-114.75,-63.62],[-111.25,-63.62],[-109.38,-62.25],[-109.38,-61.5],[-111.25,-60.12],[-114.75,-59.88],[-117.0,-60.62],[-117.88,-61.5],[-117.88,-62.0],[-116.75,-63.12],[-114.75,-63.62]]]}},{"type":"Feature","properties":{"kind":"blob","cls":4,"id":5},"geometry":{"type":"Polygon","coordinates":[[[-140.5,-62.88],[-138.5,-62.38],[-136.38,-61.0],[-136.38,-60.0],[-137.25,-59.12],[-139.5,-58.38],[-142.0,-58.38],[-144.75,-59.12],[-146.38,-60.25],[-146.38,-61.5],[-144.75,-62.62],[-140.5,-62.88]]]}},{"type":"Feature","properties":{"kind":"blob","cls":1,"id":6},"geometry":{"type":"Polygon","coordinates":[[[96.5,-63.12],[97.5,-62.62],[98.38,-61.5],[97.25,-61.12],[87.88,-62.0],[89.25,-62.88],[96.5,-63.12]]]}},{"type":"Feature","properties":{"kind":"blob","cls":1,"id":7},"geometry":{"type":"Polygon","coordinates":[[[87.62,-60.75],[87.75,-61.12],[88.75,-61.12],[91.0,-60.62],[97.62,-60.25],[95.25,-59.38],[90.5,-59.38],[89.25,-59.62],[87.62,-60.75]]]}},{"type":"Feature","properties":{"kind":"blob","cls":3,"id":8},"geometry":{"type":"Polygon","coordinates":[[[-161.0,-69.38],[-154.0,-67.38],[-153.12,-66.75],[-153.12,-65.75],[-154.75,-64.38],[-158.5,-63.88],[-165.0,-65.38],[-166.88,-67.0],[-166.88,-67.5],[-166.0,-68.38],[-164.25,-69.12],[-161.0,-69.38]]]}},{"type":"Feature","properties":{"kind":"blob","cls":1,"id":9},"geometry":{"type":"Polygon","coordinates":[[[-11.25,-59.12],[-10.5,-58.12],[-9.0,-58.12],[-8.38,-56.75],[-9.75,-55.38],[-11.5,-54.62],[-16.25,-54.62],[-17.88,-56.0],[-18.12,-57.25],[-17.0,-58.38],[-11.25,-59.12]]]}},{"type":"Feature","properties":{"kind":"blob","cls":3,"id":10},"geometry":{"type":"Polygon","coordinates":[[[-40.75,57.62],[-39.0,58.12],[-37.88,59.25],[-37.88,59.75],[-39.0,60.88],[-42.5,61.38],[-43.88,60.5],[-43.75,60.12],[-44.75,60.38],[-45.38,59.75],[-45.38,59.25],[-44.5,58.38],[-40.75,57.62]]]}},{"type":"Feature","properties":{"kind":"blob","cls":4,"id":11},"geometry":{"type":"Polygon","coordinates":[[[-106.25,-53.38],[-104.75,-52.88],[-103.88,-52.0],[-103.88,-50.75],[-106.25,-48.88],[-108.75,-48.62],[-110.25,-49.12],[-111.12,-50.25],[-110.88,-51.25],[-109.25,-52.62],[-106.25,-53.38]]]}},{"type":"Feature","properties":{"kind":"blob","cls":1,"id":12},"geometry":{"type":"Polygon","coordinates":[[[-44.5,53.12],[-42.5,53.88],[-41.88,54.5],[-41.88,55.75],[-42.75,56.62],[-44.5,57.12],[-47.25,56.62],[-48.38,55.5],[-48.38,54.5],[-46.75,53.38],[-44.5,53.12]]]}},{"type":"Feature","properties":{"kind":"blob","cls":4,"id":13},"geometry":{"type":"Polygon","coordinates":[[[154.5,-63.12],[155.5,-62.62],[156.38,-61.5],[155.5,-60.38],[154.5,-59.88],[151.25,-59.88],[149.75,-58.38],[148.0,-57.88],[144.5,-58.38],[143.12,-59.75],[143.38,-61.0],[144.25,-61.62],[146.0,-62.12],[148.5,-61.88],[150.25,-63.12],[154.5,-63.12]]]}},{"type":"Feature","properties":{"kind":"blob","cls":4,"id":14},"geometry":{"type":"Polygon","coordinates":[[[179.75,-82.88],[180.0,-80.38],[175.5,-81.12],[173.62,-82.25],[174.5,-82.62],[179.75,-82.88]]]}},{"type":"Feature","properties":{"kind":"blob","cls":4,"id":14},"geometry":{"type":"Polygon","coordinates":[[[-179.75,-80.38],[-180.0,-82.88],[-178.25,-83.12],[-157.5,-83.38],[-144.88,-82.5],[-146.25,-81.62],[-152.0,-80.62],[-160.5,-80.12],[-179.75,-80.38]]]}},{"type":"Feature","properties":{"kind":"blob","cls":4,"id":15},"geometry":{"type":"Polygon","coordinates":[[[16.25,-59.38],[18.75,-59.62],[20.75,-58.88],[21.38,-58.0],[21.38,-56.75],[19.25,-54.88],[16.0,-54.62],[14.25,-55.12],[12.88,-56.75],[13.12,-57.5],[14.0,-58.62],[16.25,-59.38]]]}},{"type":"Feature","properties":{"kind":"blob","cls":1,"id":16},"geometry":{"type":"Polygon","coordinates":[[[64.75,-67.88],[65.12,-67.0],[63.0,-65.38],[60.0,-64.62],[56.25,-64.62],[54.25,-65.12],[52.88,-66.0],[55.75,-66.38],[56.0,-67.12],[64.75,-67.88]]]}},{"type":"Feature","properties":{"kind":"blob","cls":4,"id":17},"geometry":{"type":"Polygon","coordinates":[[[11.25,-55.62],[13.25,-54.88],[13.88,-54.0],[13.62,-53.0],[11.25,-51.88],[8.25,-52.62],[7.62,-53.5],[7.88,-54.5],[9.25,-55.38],[11.25,-55.62]]]}},{"type":"Feature","properties":{"kind":"blob","cls":4,"id":18},"geometry":{"type":"Polygon","coordinates":[[[161.25,-70.88],[162.25,-71.12],[162.5,-70.62],[166.0,-70.62],[167.62,-69.5],[167.62,-69.0],[166.75,-68.12],[165.0,-67.38],[158.0,-67.12],[155.5,-67.62],[154.5,-68.12],[153.88,-69.0],[159.5,-69.62],[161.25,-70.88]]]}},{"type":"Feature","properties":{"kind":"blob","cls":3,"id":19},"geometry":{"type":"Polygon","coordinates":[[[42.75,59.62],[43.75,60.12],[44.88,61.5],[44.5,62.12],[42.0,61.12],[40.0,61.38],[39.88,61.75],[41.0,62.62],[43.38,63.0],[41.5,63.62],[37.25,63.38],[35.38,62.0],[35.38,61.5],[36.5,60.38],[38.0,59.62],[42.75,59.62]]]}},{"type":"Feature","properties":{"kind":"blob","cls":4,"id":20},"geometry":{"type":"Polygon","coordinates":[[[152.75,-54.12],[154.25,-53.62],[155.12,-52.75],[155.12,-51.75],[152.75,-48.88],[151.25,-48.38],[149.0,-48.62],[147.88,-49.5],[147.62,-50.75],[149.75,-53.62],[152.75,-54.12]]]}},{"type":"Feature","properties":{"kind":"blob","cls":4,"id":21},"geometry":{"type":"Polygon","coordinates":[[[-102.75,45.62],[-102.0,45.38],[-100.75,45.88],[-98.62,47.75],[-98.38,49.25],[-99.0,50.38],[-100.75,51.12],[-102.75,51.12],[-104.88,50.0],[-105.38,46.75],[-104.75,46.38],[-104.25,46.88],[-103.0,46.62],[-102.75,45.62]]]}},{"type":"Feature","properties":{"kind":"blob","cls":4,"id":22},"geometry":{"type":"Polygon","coordinates":[[[30.25,-70.38],[34.0,-69.62],[36.25,-69.62],[36.88,-69.0],[36.88,-68.0],[36.0,-67.12],[33.0,-66.38],[28.5,-66.38],[24.5,-67.12],[23.12,-68.25],[23.12,-69.25],[24.5,-70.12],[30.25,-70.38]]]}},{"type":"Feature","properties":{"kind":"blob","cls":4,"id":23},"geometry":{"type":"Polygon","coordinates":[[[12.5,-45.38],[13.75,-44.88],[14.38,-44.25],[14.38,-42.75],[12.25,-40.62],[10.25,-40.38],[8.38,-41.5],[8.12,-43.0],[9.5,-44.62],[12.5,-45.38]]]}},{"type":"Feature","properties":{"kind":"blob","cls":4,"id":24},"geometry":{"type":"Polygon","coordinates":[[[-30.25,-78.62],[-29.12,-78.5],[-29.25,-78.38],[-30.25,-78.62]]]}},{"type":"Feature","properties":{"kind":"blob","cls":0,"id":25},"geometry":{"type":"Polygon","coordinates":[[[-104.25,13.88],[-102.75,13.88],[-101.88,15.0],[-102.12,16.5],[-103.5,17.38],[-104.75,17.12],[-105.62,16.0],[-105.62,15.25],[-104.38,14.5],[-104.25,13.88]]]}},{"type":"Feature","properties":{"kind":"blob","cls":4,"id":26},"geometry":{"type":"Polygon","coordinates":[[[41.0,-68.88],[43.25,-68.12],[49.5,-67.62],[50.75,-67.38],[50.88,-67.0],[49.75,-65.88],[48.5,-65.38],[44.25,-65.12],[42.0,-65.62],[40.25,-66.62],[39.88,-67.0],[39.88,-68.25],[41.0,-68.88]]]}},{"type":"Feature","properties":{"kind":"blob","cls":2,"id":27},"geometry":{"type":"Polygon","coordinates":[[[10.75,84.62],[20.5,85.38],[22.75,85.88],[23.38,86.5],[21.5,87.38],[15.0,88.12],[-5.75,88.88],[-40.75,88.62],[-53.0,87.88],[-56.38,87.0],[-53.0,86.12],[-42.75,85.38],[-26.25,84.62],[10.75,84.62]]]}},{"type":"Feature","properties":{"kind":"blob","cls":3,"id":28},"geometry":{"type":"Polygon","coordinates":[[[-44.25,-38.38],[-42.38,-37.0],[-42.38,-35.25],[-44.25,-33.88],[-46.25,-33.88],[-47.88,-35.0],[-47.88,-36.75],[-47.0,-37.62],[-44.25,-38.38]]]}},{"type":"Feature","properties":{"kind":"blob","cls":4,"id":29},"geometry":{"type":"Polygon","coordinates":[[[-79.25,-79.88],[-77.5,-79.38],[-76.38,-78.5],[-77.5,-77.62],[-79.5,-77.38],[-80.12,-79.25],[-79.25,-79.88]]]}},{"type":"Feature","properties":{"kind":"blob","cls":3,"id":30},"geometry":{"type":"Polygon","coordinates":[[[-131.5,71.62],[-129.25,72.38],[-128.62,73.5],[-130.0,74.62],[-134.75,75.62],[-142.75,75.38],[-145.0,74.62],[-145.88,73.75],[-145.88,73.25],[-144.75,72.38],[-142.0,71.62],[-131.5,71.62]]]}},{"type":"Feature","properties":{"kind":"blob","cls":3,"id":31},"geometry":{"type":"Polygon","coordinates":[[[-118.25,22.62],[-116.88,24.0],[-116.88,26.0],[-118.0,27.12],[-120.0,27.38],[-121.88,26.0],[-121.62,23.75],[-120.5,22.62],[-118.25,22.62]]]}},{"type":"Feature","properties":{"kind":"blob","cls":4,"id":32},"geometry":{"type":"Polygon","coordinates":[[[-114.62,34.5],[-116.5,35.62],[-116.88,35.25],[-116.5,34.88],[-114.62,34.5]]]}},{"type":"Feature","properties":{"kind":"blob","cls":5,"id":33},"geometry":{"type":"Polygon","coordinates":[[[6.5,61.62],[8.0,62.62],[10.25,62.62],[11.62,64.0],[11.62,65.0],[10.0,66.62],[7.25,68.12],[3.25,67.88],[0.5,66.88],[-0.38,66.0],[-0.38,65.5],[2.5,62.38],[6.5,61.62]]]}},{"type":"Feature","properties":{"kind":"blob","cls":4,"id":34},"geometry":{"type":"Polygon","coordinates":[[[-117.12,35.75],[-117.0,35.62],[-116.88,35.75],[-117.12,35.75]]]}},{"type":"Feature","properties":{"kind":"blob","cls":4,"id":35},"geometry":{"type":"Polygon","coordinates":[[[132.0,48.38],[133.5,48.88],[134.38,50.0],[133.88,50.25],[134.0,50.88],[133.38,51.0],[133.62,51.75],[132.5,52.12],[132.25,52.88],[131.25,53.12],[128.5,52.62],[127.62,51.75],[127.62,50.0],[128.5,48.88],[132.0,48.38]]]}},{"type":"Feature","properties":{"kind":"blob","cls":4,"id":36},"geometry":{"type":"MultiPolygon","coordinates":[[[[-73.25,-49.88],[-73.38,-50.0],[-73.25,-50.12],[-73.25,-49.88]]],[[[-68.5,-51.62],[-66.88,-50.0],[-67.38,-47.75],[-69.25,-46.12],[-71.0,-45.88],[-72.12,-46.25],[-71.0,-47.12],[-72.25,-47.12],[-72.75,-46.38],[-73.25,-47.62],[-73.75,-47.12],[-74.25,-47.38],[-75.75,-46.62],[-77.25,-46.62],[-79.0,-47.38],[-79.38,-48.0],[-79.12,-49.75],[-77.25,-50.62],[-76.0,-50.62],[-74.25,-49.88],[-73.62,-49.25],[-73.62,-48.5],[-73.0,-48.38],[-72.38,-49.25],[-73.12,-49.5],[-72.62,-50.0],[-73.12,-50.25],[-73.12,-50.75],[-72.5,-51.38],[-68.5,-51.62]],[[-72.0,-50.88],[-72.5,-50.88],[-72.62,-50.75],[-72.0,-50.38],[-72.0,-50.88]],[[-72.0,-49.12],[-72.62,-48.5],[-72.38,-48.25],[-72.88,-47.75],[-72.5,-47.38],[-71.38,-47.75],[-71.88,-48.25],[-71.38,-48.5],[-72.0,-49.12]]]]}},{"type":"Feature","properties":{"kind":"blob","cls":4,"id":37},"geometry":{"type":"Polygon","coordinates":[[[88.0,68.12],[90.75,68.62],[91.88,69.25],[91.62,69.75],[92.0,70.12],[93.25,69.88],[93.62,71.0],[92.75,71.88],[91.0,72.38],[84.0,72.62],[80.5,71.88],[79.12,70.75],[79.12,70.0],[80.0,69.12],[82.0,68.38],[88.0,68.12]]]}},{"type":"Feature","properties":{"kind":"blob","cls":3,"id":38},"geometry":{"type":"Polygon","coordinates":[[[-112.5,50.88],[-111.88,50.75],[-113.75,53.12],[-115.62,53.5],[-115.0,52.88],[-114.5,53.12],[-112.5,50.88]]]}},{"type":"Feature","properties":{"kind":"blob","cls":4,"id":39},"geometry":{"type":"MultiPolygon","coordinates":[[[[-64.25,-22.62],[-64.38,-22.75],[-64.25,-22.88],[-64.25,-22.62]]],[[[-64.12,-22.0],[-64.0,-22.62],[-63.38,-22.0],[-63.5,-20.88],[-64.12,-21.0],[-63.62,-21.75],[-64.12,-22.0]]]]}},{"type":"Feature","properties":{"kind":"blob","cls":4,"id":40},"geometry":{"type":"MultiPolygon","coordinates":[[[[-65.5,-27.12],[-64.88,-26.75],[-65.25,-26.12],[-65.38,-26.25],[-65.5,-27.12]]],[[[-64.75,-26.62],[-64.38,-26.25],[-64.5,-24.62],[-65.12,-25.75],[-64.75,-26.62]]],[[[-64.62,-24.5],[-64.75,-24.38],[-64.88,-24.5],[-64.62,-24.5]]]]}},{"type":"Feature","properties":{"kind":"blob","cls":3,"id":41},"geometry":{"type":"Polygon","coordinates":[[[41.5,11.12],[42.25,11.38],[42.88,12.0],[43.12,13.5],[41.75,15.62],[40.5,15.88],[40.88,15.0],[40.88,12.0],[41.5,11.12]]]}},{"type":"Feature","properties":{"kind":"blob","cls":0,"id":42},"geometry":{"type":"Polygon","coordinates":[[[37.75,0.38],[38.38,2.25],[38.12,3.25],[37.62,3.5],[37.62,4.25],[36.5,4.88],[34.75,4.38],[34.38,3.75],[35.5,3.12],[36.38,4.0],[36.62,2.5],[37.38,1.75],[37.75,0.38]]]}},{"type":"Feature","properties":{"kind":"blob","cls":4,"id":43},"geometry":{"type":"Polygon","coordinates":[[[51.5,27.88],[52.12,28.5],[52.12,29.25],[51.12,30.0],[51.25,30.38],[50.75,30.38],[49.88,31.25],[49.88,32.0],[49.5,32.12],[47.88,31.0],[47.62,29.75],[49.25,27.88],[51.5,27.88]]]}},{"type":"Feature","properties":{"kind":"blob","cls":3,"id":44},"geometry":{"type":"Polygon","coordinates":[[[59.75,28.12],[60.12,28.5],[59.75,31.12],[58.75,30.88],[58.12,30.0],[58.38,29.0],[59.75,28.12]]]}},{"type":"Feature","properties":{"kind":"blob","cls":5,"id":45},"geometry":{"type":"Polygon","coordinates":[[[96.0,23.62],[97.0,23.38],[97.38,24.0],[95.25,25.62],[95.12,24.5],[96.0,23.62]]]}},{"type":"Feature","properties":{"kind":"blob","cls":5,"id":46},"geometry":{"type":"Polygon","coordinates":[[[87.25,24.12],[89.0,24.62],[89.88,25.5],[90.12,26.5],[88.75,27.12],[87.0,26.88],[84.5,27.88],[83.0,27.88],[81.5,28.88],[80.5,28.88],[79.88,28.25],[79.62,27.0],[81.0,25.38],[82.75,24.62],[87.25,24.12]]]}},{"type":"Feature","properties":{"kind":"blob","cls":1,"id":47},"geometry":{"type":"Polygon","coordinates":[[[59.12,28.0],[57.75,28.88],[57.38,28.25],[59.12,28.0]]]}},{"type":"Feature","properties":{"kind":"blob","cls":3,"id":48},"geometry":{"type":"MultiPolygon","coordinates":[[[[61.5,30.88],[61.38,30.75],[61.5,30.62],[61.5,30.88]]],[[[61.25,31.12],[61.12,31.0],[61.25,30.88],[61.25,31.12]]]]}},{"type":"Feature","properties":{"kind":"blob","cls":3,"id":49},"geometry":{"type":"Polygon","coordinates":[[[162.75,29.88],[163.62,30.5],[163.62,32.5],[162.0,33.38],[159.75,32.88],[159.12,32.0],[159.38,30.5],[159.75,30.12],[162.75,29.88]]]}},{"type":"Feature","properties":{"kind":"blob","cls":3,"id":50},"geometry":{"type":"Polygon","coordinates":[[[61.12,30.0],[60.88,31.0],[60.5,31.12],[60.38,31.0],[61.12,30.0]]]}},{"type":"Feature","properties":{"kind":"blob","cls":5,"id":51},"geometry":{"type":"Polygon","coordinates":[[[97.38,23.25],[97.5,23.12],[97.62,23.25],[97.38,23.25]]]}},{"type":"Feature","properties":{"kind":"blob","cls":3,"id":52},"geometry":{"type":"MultiPolygon","coordinates":[[[[61.25,33.12],[61.12,33.0],[61.25,32.88],[61.25,33.12]]],[[[61.5,33.38],[61.38,33.25],[61.5,33.12],[61.5,33.38]]]]}},{"type":"Feature","properties":{"kind":"blob","cls":4,"id":53},"geometry":{"type":"Polygon","coordinates":[[[147.75,57.12],[149.38,58.25],[149.38,59.25],[148.0,60.38],[145.75,61.12],[144.5,61.12],[144.25,60.62],[144.0,61.12],[141.5,60.38],[140.62,59.5],[140.62,58.25],[142.25,57.12],[147.75,57.12]]]}},{"type":"Feature","properties":{"kind":"center","id":1,"lat":18.25,"lon":157.25,"mslp":932.7,"hvtl":121.7,"hvtu":264.6,"hb":2.0,"idx":2.7,"cls":0,"psfc":932.7,"terrain":false,"radius_km":200,"name":"sym deep warm","track":"T02"},"geometry":{"type":"Point","coordinates":[157.25,18.25]}},{"type":"Feature","properties":{"kind":"center","id":2,"lat":19.0,"lon":135.75,"mslp":940.8,"hvtl":101.7,"hvtu":277.6,"hb":-1.5,"idx":2.5,"cls":0,"psfc":940.8,"terrain":false,"radius_km":200,"name":"sym deep warm","track":"T08"},"geometry":{"type":"Point","coordinates":[135.75,19.0]}},{"type":"Feature","properties":{"kind":"center","id":3,"lat":-60.5,"lon":110.25,"mslp":950.1,"hvtl":112.2,"hvtu":-92.5,"hb":13.3,"idx":0.9,"cls":3,"psfc":950.1,"terrain":false,"radius_km":200,"name":"asym shallow warm"},"geometry":{"type":"Point","coordinates":[110.25,-60.5]}},{"type":"Feature","properties":{"kind":"center","id":4,"lat":-61.75,"lon":-113.5,"mslp":950.5,"hvtl":0.4,"hvtu":69.0,"hb":1.6,"idx":0.6,"cls":0,"psfc":950.5,"terrain":false,"radius_km":200,"name":"sym deep warm","track":"T11"},"geometry":{"type":"Point","coordinates":[-113.5,-61.75]}},{"type":"Feature","properties":{"kind":"center","id":5,"lat":-60.75,"lon":-141.5,"mslp":951.5,"hvtl":-39.6,"hvtu":-386.1,"hb":43.1,"idx":-1.8,"cls":4,"psfc":951.5,"terrain":false,"radius_km":200,"name":"asym cold"},"geometry":{"type":"Point","coordinates":[-141.5,-60.75]}},{"type":"Feature","properties":{"kind":"center","id":6,"lat":-61.25,"lon":97.5,"mslp":953.5,"hvtl":162.8,"hvtu":-68.8,"hb":3.6,"idx":1.3,"cls":1,"psfc":953.5,"terrain":false,"radius_km":200,"name":"sym shallow warm","track":"T20"},"geometry":{"type":"Point","coordinates":[97.5,-61.25]}},{"type":"Feature","properties":{"kind":"center","id":7,"lat":-60.5,"lon":93.5,"mslp":956.0,"hvtl":122.3,"hvtu":-16.7,"hb":-18.6,"idx":1.5,"cls":1,"psfc":956.0,"terrain":false,"radius_km":200,"name":"sym shallow warm"},"geometry":{"type":"Point","coordinates":[93.5,-60.5]}},{"type":"Feature","properties":{"kind":"center","id":8,"lat":-65.25,"lon":-153.5,"mslp":958.1,"hvtl":41.0,"hvtu":-76.6,"hb":21.4,"idx":0.1,"cls":3,"psfc":958.1,"terrain":false,"radius_km":200,"name":"asym shallow warm"},"geometry":{"type":"Point","coordinates":[-153.5,-65.25]}},{"type":"Feature","properties":{"kind":"center","id":9,"lat":-56.75,"lon":-13.5,"mslp":964.8,"hvtl":57.6,"hvtu":-111.2,"hb":9.9,"idx":0.2,"cls":1,"psfc":964.8,"terrain":false,"radius_km":200,"name":"sym shallow warm","track":"T32"},"geometry":{"type":"Point","coordinates":[-13.5,-56.75]}},{"type":"Feature","properties":{"kind":"center","id":10,"lat":59.5,"lon":-41.75,"mslp":971.5,"hvtl":234.2,"hvtu":-145.5,"hb":34.5,"idx":1.1,"cls":3,"psfc":971.5,"terrain":false,"radius_km":200,"name":"asym shallow warm","track":"T42"},"geometry":{"type":"Point","coordinates":[-41.75,59.5]}},{"type":"Feature","properties":{"kind":"center","id":11,"lat":-51.0,"lon":-107.25,"mslp":972.5,"hvtl":-205.2,"hvtu":-345.7,"hb":48.1,"idx":-2.9,"cls":4,"psfc":972.5,"terrain":false,"radius_km":200,"name":"asym cold"},"geometry":{"type":"Point","coordinates":[-107.25,-51.0]}},{"type":"Feature","properties":{"kind":"center","id":12,"lat":55.0,"lon":-45.25,"mslp":973.5,"hvtl":127.7,"hvtu":-57.7,"hb":4.3,"idx":1.2,"cls":1,"psfc":973.5,"terrain":false,"radius_km":200,"name":"sym shallow warm","track":"T47"},"geometry":{"type":"Point","coordinates":[-45.25,55.0]}},{"type":"Feature","properties":{"kind":"center","id":13,"lat":-60.0,"lon":147.0,"mslp":979.1,"hvtl":-88.0,"hvtu":-187.3,"hb":12.4,"idx":-2.4,"cls":4,"psfc":979.1,"terrain":false,"radius_km":200,"name":"asym cold","track":"T22"},"geometry":{"type":"Point","coordinates":[147.0,-60.0]}},{"type":"Feature","properties":{"kind":"center","id":14,"lat":-82.25,"lon":-166.75,"mslp":979.7,"hvtl":-24.2,"hvtu":-183.5,"hb":42.1,"idx":-1.4,"cls":4,"psfc":971.2,"terrain":false,"radius_km":200,"name":"asym cold"},"geometry":{"type":"Point","coordinates":[-166.75,-82.25]}},{"type":"Feature","properties":{"kind":"center","id":15,"lat":-57.0,"lon":17.0,"mslp":982.5,"hvtl":-97.2,"hvtu":-321.2,"hb":36.3,"idx":-2.5,"cls":4,"psfc":982.5,"terrain":false,"radius_km":200,"name":"asym cold","track":"T63"},"geometry":{"type":"Point","coordinates":[17.0,-57.0]}},{"type":"Feature","properties":{"kind":"center","id":16,"lat":-67.5,"lon":65.0,"mslp":982.6,"hvtl":76.0,"hvtu":-27.0,"hb":-1.1,"idx":1.0,"cls":1,"psfc":982.6,"terrain":false,"radius_km":200,"name":"sym shallow warm"},"geometry":{"type":"Point","coordinates":[65.0,-67.5]}},{"type":"Feature","properties":{"kind":"center","id":17,"lat":-54.0,"lon":10.75,"mslp":984.1,"hvtl":-166.5,"hvtu":-351.0,"hb":40.2,"idx":-2.9,"cls":4,"psfc":984.1,"terrain":false,"radius_km":200,"name":"asym cold"},"geometry":{"type":"Point","coordinates":[10.75,-54.0]}},{"type":"Feature","properties":{"kind":"center","id":18,"lat":-68.5,"lon":156.5,"mslp":984.8,"hvtl":-449.0,"hvtu":-39.5,"hb":82.6,"idx":-2.4,"cls":4,"psfc":984.8,"terrain":false,"radius_km":200,"name":"asym cold"},"geometry":{"type":"Point","coordinates":[156.5,-68.5]}},{"type":"Feature","properties":{"kind":"center","id":19,"lat":61.5,"lon":39.75,"mslp":988.8,"hvtl":79.2,"hvtu":-124.8,"hb":14.4,"idx":0.5,"cls":3,"psfc":972.4,"terrain":false,"radius_km":200,"name":"asym shallow warm","track":"T70"},"geometry":{"type":"Point","coordinates":[39.75,61.5]}},{"type":"Feature","properties":{"kind":"center","id":20,"lat":-52.25,"lon":151.75,"mslp":989.9,"hvtl":-250.0,"hvtu":-291.1,"hb":60.8,"idx":-3.0,"cls":4,"psfc":989.9,"terrain":false,"radius_km":200,"name":"asym cold"},"geometry":{"type":"Point","coordinates":[151.75,-52.25]}},{"type":"Feature","properties":{"kind":"center","id":21,"lat":48.75,"lon":-101.75,"mslp":989.9,"hvtl":-116.9,"hvtu":-91.1,"hb":84.4,"idx":-2.4,"cls":4,"psfc":930.2,"terrain":false,"radius_km":200,"name":"asym cold","track":"T68"},"geometry":{"type":"Point","coordinates":[-101.75,48.75]}},{"type":"Feature","properties":{"kind":"center","id":22,"lat":-69.0,"lon":30.75,"mslp":990.0,"hvtl":-224.9,"hvtu":-127.4,"hb":36.5,"idx":-2.8,"cls":4,"psfc":989.5,"terrain":false,"radius_km":200,"name":"asym cold","track":"T36"},"geometry":{"type":"Point","coordinates":[30.75,-69.0]}},{"type":"Feature","properties":{"kind":"center","id":23,"lat":-43.25,"lon":11.75,"mslp":990.2,"hvtl":-320.4,"hvtu":-354.0,"hb":79.1,"idx":-3.0,"cls":4,"psfc":990.2,"terrain":false,"radius_km":200,"name":"asym cold","track":"T76"},"geometry":{"type":"Point","coordinates":[11.75,-43.25]}},{"type":"Feature","properties":{"kind":"center","id":24,"lat":-78.5,"lon":-30.25,"mslp":990.8,"hvtl":-219.8,"hvtu":-107.4,"hb":65.1,"idx":-2.7,"cls":4,"psfc":907.2,"terrain":false,"radius_km":200,"name":"asym cold","track":"T60"},"geometry":{"type":"Point","coordinates":[-30.25,-78.5]}},{"type":"Feature","properties":{"kind":"center","id":25,"lat":15.5,"lon":-103.75,"mslp":991.8,"hvtl":105.4,"hvtu":65.0,"hb":7.7,"idx":2.1,"cls":0,"psfc":991.8,"terrain":false,"radius_km":200,"name":"sym deep warm","track":"T80"},"geometry":{"type":"Point","coordinates":[-103.75,15.5]}},{"type":"Feature","properties":{"kind":"center","id":26,"lat":-67.75,"lon":44.5,"mslp":992.2,"hvtl":-110.1,"hvtu":-80.5,"hb":27.7,"idx":-2.3,"cls":4,"psfc":991.2,"terrain":false,"radius_km":200,"name":"asym cold"},"geometry":{"type":"Point","coordinates":[44.5,-67.75]}},{"type":"Feature","properties":{"kind":"center","id":27,"lat":86.5,"lon":-11.0,"mslp":993.9,"hvtl":8.7,"hvtu":18.9,"hb":11.9,"idx":0.4,"cls":2,"psfc":993.9,"terrain":false,"radius_km":200,"name":"asym deep warm","track":"T41"},"geometry":{"type":"Point","coordinates":[-11.0,86.5]}},{"type":"Feature","properties":{"kind":"center","id":28,"lat":-36.0,"lon":-45.0,"mslp":995.5,"hvtl":60.0,"hvtu":-74.9,"hb":75.8,"idx":0.4,"cls":3,"psfc":995.5,"terrain":false,"radius_km":200,"name":"asym shallow warm","track":"T84"},"geometry":{"type":"Point","coordinates":[-45.0,-36.0]}},{"type":"Feature","properties":{"kind":"center","id":29,"lat":-77.5,"lon":-79.5,"mslp":998.9,"hvtl":-126.5,"hvtu":-156.7,"hb":64.0,"idx":-2.6,"cls":4,"psfc":913.4,"terrain":false,"radius_km":200,"name":"asym cold"},"geometry":{"type":"Point","coordinates":[-79.5,-77.5]}},{"type":"Feature","properties":{"kind":"center","id":30,"lat":73.25,"lon":-137.75,"mslp":999.5,"hvtl":85.1,"hvtu":-172.9,"hb":28.8,"idx":0.4,"cls":3,"psfc":999.5,"terrain":false,"radius_km":200,"name":"asym shallow warm","track":"T97"},"geometry":{"type":"Point","coordinates":[-137.75,73.25]}},{"type":"Feature","properties":{"kind":"center","id":31,"lat":25.0,"lon":-119.25,"mslp":999.6,"hvtl":60.1,"hvtu":-95.0,"hb":22.5,"idx":0.3,"cls":3,"psfc":999.6,"terrain":false,"radius_km":200,"name":"asym shallow warm","track":"T48"},"geometry":{"type":"Point","coordinates":[-119.25,25.0]}},{"type":"Feature","properties":{"kind":"center","id":32,"lat":34.5,"lon":-115.5,"mslp":1000.7,"hvtl":-115.0,"hvtu":-331.2,"hb":64.7,"idx":-2.6,"cls":4,"psfc":967.6,"terrain":false,"radius_km":200,"name":"asym cold","track":"T96"},"geometry":{"type":"Point","coordinates":[-115.5,34.5]}},{"type":"Feature","properties":{"kind":"center","id":33,"lat":64.0,"lon":6.25,"mslp":1001.2,"hvtl":-6.7,"hvtu":-95.7,"hb":-2.8,"idx":-0.9,"cls":5,"psfc":1001.2,"terrain":false,"radius_km":200,"name":"sym cold","track":"T66"},"geometry":{"type":"Point","coordinates":[6.25,64.0]}},{"type":"Feature","properties":{"kind":"center","id":34,"lat":35.75,"lon":-117.0,"mslp":1001.9,"hvtl":-57.1,"hvtu":-327.2,"hb":40.7,"idx":-2.0,"cls":4,"psfc":907.9,"terrain":true,"radius_km":200,"name":"asym cold"},"geometry":{"type":"Point","coordinates":[-117.0,35.75]}},{"type":"Feature","properties":{"kind":"center","id":35,"lat":50.25,"lon":131.0,"mslp":1003.6,"hvtl":-106.9,"hvtu":-279.2,"hb":51.9,"idx":-2.6,"cls":4,"psfc":960.1,"terrain":false,"radius_km":200,"name":"asym cold"},"geometry":{"type":"Point","coordinates":[131.0,50.25]}},{"type":"Feature","properties":{"kind":"center","id":36,"lat":-48.75,"lon":-70.75,"mslp":1003.7,"hvtl":-11.4,"hvtu":-147.2,"hb":42.0,"idx":-1.1,"cls":4,"psfc":938.9,"terrain":false,"radius_km":200,"name":"asym cold","track":"T94"},"geometry":{"type":"Point","coordinates":[-70.75,-48.75]}},{"type":"Feature","properties":{"kind":"center","id":37,"lat":70.25,"lon":85.25,"mslp":1004.2,"hvtl":-233.0,"hvtu":-134.5,"hb":40.4,"idx":-2.8,"cls":4,"psfc":994.0,"terrain":false,"radius_km":200,"name":"asym cold","track":"T103"},"geometry":{"type":"Point","coordinates":[85.25,70.25]}},{"type":"Feature","properties":{"kind":"center","id":38,"lat":51.0,"lon":-112.25,"mslp":1004.6,"hvtl":116.0,"hvtu":-300.7,"hb":58.2,"idx":0.6,"cls":3,"psfc":913.1,"terrain":true,"radius_km":200,"name":"asym shallow warm"},"geometry":{"type":"Point","coordinates":[-112.25,51.0]}},{"type":"Feature","properties":{"kind":"center","id":39,"lat":-22.75,"lon":-64.25,"mslp":1005.2,"hvtl":-142.5,"hvtu":-241.3,"hb":33.2,"idx":-2.8,"cls":4,"psfc":947.3,"terrain":false,"radius_km":200,"name":"asym cold"},"geometry":{"type":"Point","coordinates":[-64.25,-22.75]}},{"type":"Feature","properties":{"kind":"center","id":40,"lat":-24.5,"lon":-64.75,"mslp":1005.3,"hvtl":-110.9,"hvtu":-304.0,"hb":26.1,"idx":-2.6,"cls":4,"psfc":920.6,"terrain":false,"radius_km":200,"name":"asym cold"},"geometry":{"type":"Point","coordinates":[-64.75,-24.5]}},{"type":"Feature","properties":{"kind":"center","id":41,"lat":13.5,"lon":41.0,"mslp":1006.1,"hvtl":80.0,"hvtu":-14.1,"hb":18.9,"idx":1.2,"cls":3,"psfc":1009.6,"terrain":false,"radius_km":200,"name":"asym shallow warm"},"geometry":{"type":"Point","coordinates":[41.0,13.5]}},{"type":"Feature","properties":{"kind":"center","id":42,"lat":4.25,"lon":35.0,"mslp":1007.4,"hvtl":69.1,"hvtu":18.0,"hb":1.7,"idx":1.4,"cls":0,"psfc":951.4,"terrain":false,"radius_km":200,"name":"sym deep warm"},"geometry":{"type":"Point","coordinates":[35.0,4.25]}},{"type":"Feature","properties":{"kind":"center","id":43,"lat":30.0,"lon":50.0,"mslp":1008.1,"hvtl":-22.7,"hvtu":-95.3,"hb":10.4,"idx":-1.2,"cls":4,"psfc":1008.1,"terrain":false,"radius_km":200,"name":"asym cold"},"geometry":{"type":"Point","coordinates":[50.0,30.0]}},{"type":"Feature","properties":{"kind":"center","id":44,"lat":30.0,"lon":58.25,"mslp":1008.2,"hvtl":84.2,"hvtu":-68.6,"hb":18.3,"idx":0.8,"cls":3,"psfc":975.3,"terrain":false,"radius_km":200,"name":"asym shallow warm","track":"T112"},"geometry":{"type":"Point","coordinates":[58.25,30.0]}},{"type":"Feature","properties":{"kind":"center","id":45,"lat":24.0,"lon":96.5,"mslp":1010.2,"hvtl":-10.4,"hvtu":-129.3,"hb":2.0,"idx":-1.1,"cls":5,"psfc":994.5,"terrain":false,"radius_km":200,"name":"sym cold"},"geometry":{"type":"Point","coordinates":[96.5,24.0]}},{"type":"Feature","properties":{"kind":"center","id":46,"lat":25.5,"lon":81.0,"mslp":1010.6,"hvtl":-47.1,"hvtu":-114.0,"hb":3.9,"idx":-1.7,"cls":5,"psfc":998.4,"terrain":false,"radius_km":200,"name":"sym cold"},"geometry":{"type":"Point","coordinates":[81.0,25.5]}},{"type":"Feature","properties":{"kind":"center","id":47,"lat":28.0,"lon":58.25,"mslp":1010.8,"hvtl":11.1,"hvtu":-63.0,"hb":-4.9,"idx":-0.3,"cls":1,"psfc":953.5,"terrain":false,"radius_km":200,"name":"sym shallow warm"},"geometry":{"type":"Point","coordinates":[58.25,28.0]}},{"type":"Feature","properties":{"kind":"center","id":48,"lat":30.75,"lon":61.5,"mslp":1012.5,"hvtl":75.6,"hvtu":-57.5,"hb":31.1,"idx":0.8,"cls":3,"psfc":956.5,"terrain":false,"radius_km":200,"name":"asym shallow warm","track":"T114"},"geometry":{"type":"Point","coordinates":[61.5,30.75]}},{"type":"Feature","properties":{"kind":"center","id":49,"lat":31.5,"lon":161.5,"mslp":1012.7,"hvtl":182.4,"hvtu":-192.1,"hb":29.9,"idx":0.9,"cls":3,"psfc":1012.7,"terrain":false,"radius_km":200,"name":"asym shallow warm","track":"T40"},"geometry":{"type":"Point","coordinates":[161.5,31.5]}},{"type":"Feature","properties":{"kind":"center","id":50,"lat":30.25,"lon":61.0,"mslp":1012.9,"hvtl":66.2,"hvtu":-54.0,"hb":25.4,"idx":0.7,"cls":3,"psfc":957.3,"terrain":false,"radius_km":200,"name":"asym shallow warm","track":"T106"},"geometry":{"type":"Point","coordinates":[61.0,30.25]}},{"type":"Feature","properties":{"kind":"center","id":51,"lat":23.25,"lon":97.5,"mslp":1013.4,"hvtl":-11.7,"hvtu":-100.2,"hb":-8.9,"idx":-1.0,"cls":5,"psfc":919.7,"terrain":true,"radius_km":200,"name":"sym cold"},"geometry":{"type":"Point","coordinates":[97.5,23.25]}},{"type":"Feature","properties":{"kind":"center","id":52,"lat":33.25,"lon":61.5,"mslp":1015.9,"hvtl":130.1,"hvtu":-105.7,"hb":89.4,"idx":0.9,"cls":3,"psfc":904.5,"terrain":true,"radius_km":200,"name":"asym shallow warm"},"geometry":{"type":"Point","coordinates":[61.5,33.25]}},{"type":"Feature","properties":{"kind":"center","id":53,"lat":57.5,"lon":145.5,"mslp":1016.0,"hvtl":-190.4,"hvtu":-220.3,"hb":38.7,"idx":-2.9,"cls":4,"psfc":1016.0,"terrain":false,"radius_km":200,"name":"asym cold"},"geometry":{"type":"Point","coordinates":[145.5,57.5]}}]}