{"type":"FeatureCollection","features":[{"type":"Feature","properties":{"kind":"blob","cls":2,"id":1},"geometry":{"type":"Polygon","coordinates":[[[-12.0,65.62],[-9.75,66.12],[-8.38,67.0],[-8.38,68.25],[-11.5,69.62],[-15.0,69.88],[-14.88,69.25],[-15.5,68.62],[-17.0,68.62],[-17.5,69.38],[-19.12,68.25],[-19.12,67.25],[-18.5,66.62],[-16.75,65.88],[-12.0,65.62]]]}},{"type":"Feature","properties":{"kind":"blob","cls":3,"id":2},"geometry":{"type":"Polygon","coordinates":[[[116.75,-64.38],[118.62,-63.25],[118.88,-62.25],[117.5,-60.88],[114.75,-60.12],[110.25,-60.38],[108.12,-61.5],[108.12,-62.0],[108.62,-62.25],[107.88,-62.75],[108.25,-63.38],[110.25,-64.38],[116.75,-64.38]]]}},{"type":"Feature","properties":{"kind":"blob","cls":1,"id":3},"geometry":{"type":"Polygon","coordinates":[[[-113.5,-74.62],[-108.75,-74.62],[-102.25,-74.38],[-97.88,-73.75],[-101.5,-72.38],[-108.5,-72.12],[-112.5,-72.88],[-113.62,-73.5],[-113.5,-74.62]]]}},{"type":"Feature","properties":{"kind":"blob","cls":4,"id":4},"geometry":{"type":"Polygon","coordinates":[[[-114.0,-64.88],[-112.0,-64.38],[-110.75,-63.38],[-109.25,-63.88],[-107.0,-63.88],[-104.75,-63.38],[-102.88,-62.0],[-102.88,-60.75],[-104.75,-59.38],[-108.5,-59.12],[-109.75,-59.38],[-112.5,-60.88],[-117.75,-60.88],[-120.12,-62.25],[-120.12,-63.5],[-119.0,-64.38],[-114.0,-64.88]]]}},{"type":"Feature","properties":{"kind":"blob","cls":1,"id":5},"geometry":{"type":"Polygon","coordinates":[[[98.25,-54.88],[99.75,-54.38],[100.62,-53.5],[100.62,-52.5],[99.5,-51.38],[98.0,-50.88],[95.25,-51.38],[94.38,-52.25],[94.38,-53.5],[95.25,-54.38],[98.25,-54.88]]]}},{"type":"Feature","properties":{"kind":"blob","cls":3,"id":6},"geometry":{"type":"Polygon","coordinates":[[[10.5,-65.12],[12.5,-64.62],[13.62,-63.75],[13.62,-62.25],[11.75,-61.62],[10.88,-60.75],[11.12,-60.25],[10.25,-59.88],[7.25,-59.62],[5.0,-60.38],[4.12,-61.5],[4.62,-63.0],[6.0,-64.38],[10.5,-65.12]]]}},{"type":"Feature","properties":{"kind":"blob","cls":3,"id":7},"geometry":{"type":"Polygon","coordinates":[[[179.88,-66.0],[180.0,-62.12],[179.5,-62.12],[178.25,-62.62],[177.38,-63.5],[177.38,-64.5],[177.75,-65.12],[179.88,-66.0]]]}},{"type":"Feature","properties":{"kind":"blob","cls":3,"id":7},"geometry":{"type":"Polygon","coordinates":[[[-179.75,-62.12],[-180.0,-66.12],[-175.25,-66.12],[-173.38,-65.0],[-173.38,-64.0],[-175.25,-62.38],[-177.25,-61.88],[-179.75,-62.12]]]}},{"type":"Feature","properties":{"kind":"blob","cls":3,"id":8},"geometry":{"type":"Polygon","coordinates":[[[148.75,52.38],[150.75,53.12],[151.38,54.0],[151.12,55.25],[150.5,55.88],[148.5,56.62],[145.5,55.88],[144.88,55.25],[144.88,53.75],[146.5,52.62],[148.75,52.38]]]}},{"type":"Feature","properties":{"kind":"blob","cls":4,"id":9},"geometry":{"type":"Polygon","coordinates":[[[36.0,-57.38],[37.75,-56.88],[38.62,-56.0],[38.62,-55.0],[37.5,-53.88],[33.75,-52.38],[30.75,-53.12],[30.12,-54.0],[30.38,-55.5],[32.5,-56.88],[36.0,-57.38]]]}},{"type":"Feature","properties":{"kind":"blob","cls":4,"id":10},"geometry":{"type":"Polygon","coordinates":[[[106.75,-48.12],[108.0,-47.62],[108.88,-46.5],[108.62,-45.5],[107.5,-44.38],[105.75,-43.62],[103.5,-44.12],[102.62,-45.25],[102.62,-46.0],[104.0,-47.62],[106.75,-48.12]]]}},{"type":"Feature","properties":{"kind":"blob","cls":3,"id":11},"geometry":{"type":"Polygon","coordinates":[[[-156.75,47.12],[-155.0,47.88],[-154.62,48.5],[-154.88,50.0],[-156.75,50.88],[-158.25,50.88],[-160.0,50.12],[-160.38,49.5],[-160.12,48.0],[-159.25,47.38],[-156.75,47.12]],[[-159.75,48.62],[-160.12,49.25],[-159.0,49.12],[-158.62,48.5],[-159.75,48.62]]]}},{"type":"Feature","properties":{"kind":"blob","cls":4,"id":12},"geometry":{"type":"Polygon","coordinates":[[[-85.5,-69.62],[-83.25,-69.12],[-81.88,-68.25],[-81.88,-67.0],[-84.0,-65.38],[-86.25,-64.88],[-90.25,-65.12],[-92.0,-65.88],[-92.88,-66.75],[-92.88,-68.0],[-92.5,-68.38],[-90.25,-69.38],[-85.5,-69.62]]]}},{"type":"Feature","properties":{"kind":"blob","cls":4,"id":13},"geometry":{"type":"Polygon","coordinates":[[[-33.25,63.88],[-32.0,64.38],[-31.12,65.25],[-31.12,65.75],[-32.0,66.62],[-33.75,67.12],[-41.12,64.0],[-33.25,63.88]]]}},{"type":"Feature","properties":{"kind":"blob","cls":4,"id":14},"geometry":{"type":"Polygon","coordinates":[[[14.75,-49.62],[16.0,-49.12],[16.88,-48.25],[16.88,-47.0],[14.75,-45.38],[13.0,-45.12],[11.75,-45.62],[10.88,-46.5],[10.88,-47.75],[12.0,-48.88],[14.75,-49.62]]]}},{"type":"Feature","properties":{"kind":"blob","cls":4,"id":15},"geometry":{"type":"Polygon","coordinates":[[[-19.75,-75.12],[-16.75,-74.12],[-14.12,-73.75],[-15.5,-73.38],[-11.5,-73.38],[-9.5,-71.88],[-8.0,-71.88],[-6.0,-71.12],[-5.38,-70.0],[-7.0,-68.88],[-9.75,-68.38],[-14.5,-68.88],[-16.12,-70.0],[-16.12,-70.5],[-15.25,-71.38],[-21.25,-72.12],[-23.12,-73.25],[-23.12,-73.75],[-22.0,-74.62],[-19.75,-75.12]]]}},{"type":"Feature","properties":{"kind":"blob","cls":4,"id":16},"geometry":{"type":"Polygon","coordinates":[[[-57.5,49.38],[-56.0,49.88],[-55.12,50.75],[-55.12,52.25],[-56.0,53.12],[-57.5,53.62],[-60.5,52.88],[-61.38,52.0],[-61.38,50.75],[-60.5,49.88],[-57.5,49.38]]]}},{"type":"Feature","properties":{"kind":"blob","cls":4,"id":17},"geometry":{"type":"Polygon","coordinates":[[[45.0,80.62],[52.5,82.12],[59.0,81.62],[79.5,81.88],[88.25,82.62],[90.5,83.12],[91.38,83.75],[90.5,84.38],[88.25,84.88],[80.75,85.62],[57.75,85.88],[52.0,85.38],[31.5,85.38],[23.0,84.38],[19.62,83.0],[19.75,82.38],[21.0,81.62],[22.75,81.12],[26.5,80.62],[45.0,80.62]]]}},{"type":"Feature","properties":{"kind":"blob","cls":4,"id":18},"geometry":{"type":"Polygon","coordinates":[[[179.75,82.88],[180.0,87.38],[165.0,86.38],[161.0,85.62],[159.38,84.75],[161.25,83.88],[165.0,83.38],[179.75,82.88]]]}},{"type":"Feature","properties":{"kind":"blob","cls":4,"id":18},"geometry":{"type":"Polygon","coordinates":[[[-179.75,87.38],[-180.0,82.88],[-127.5,83.12],[-115.0,83.88],[-110.5,84.62],[-109.62,85.25],[-110.0,85.62],[-112.25,85.88],[-123.0,86.62],[-152.75,87.88],[-179.75,87.38]]]}},{"type":"Feature","properties":{"kind":"blob","cls":4,"id":19},"geometry":{"type":"Polygon","coordinates":[[[-50.75,-76.88],[-46.25,-76.38],[-43.5,-75.38],[-43.12,-74.25],[-44.0,-73.38],[-47.75,-72.12],[-51.0,-71.62],[-54.5,-71.62],[-60.0,-72.88],[-61.25,-73.38],[-62.12,-74.5],[-62.12,-75.0],[-60.75,-76.12],[-50.75,-76.88]]]}},{"type":"Feature","properties":{"kind":"blob","cls":4,"id":20},"geometry":{"type":"Polygon","coordinates":[[[-3.5,-46.12],[-1.25,-45.12],[-0.62,-44.5],[-0.62,-43.0],[-2.5,-41.88],[-4.75,-41.88],[-6.0,-42.38],[-6.62,-43.0],[-6.88,-44.25],[-6.0,-45.62],[-3.5,-46.12]]]}},{"type":"Feature","properties":{"kind":"blob","cls":1,"id":21},"geometry":{"type":"Polygon","coordinates":[[[-57.25,65.62],[-55.0,66.12],[-53.62,67.0],[-53.62,68.25],[-55.75,69.38],[-60.5,69.62],[-62.75,69.12],[-64.12,68.25],[-63.75,66.62],[-62.0,65.88],[-57.25,65.62]]]}},{"type":"Feature","properties":{"kind":"blob","cls":3,"id":22},"geometry":{"type":"MultiPolygon","coordinates":[[[[-71.5,66.62],[-69.0,67.12],[-67.62,68.25],[-67.62,68.75],[-68.5,69.62],[-69.5,69.12],[-70.12,69.75],[-70.0,70.12],[-73.25,70.38],[-73.0,69.88],[-76.25,69.88],[-77.62,68.75],[-77.62,68.25],[-76.75,67.38],[-71.5,66.62]]],[[[-69.25,69.88],[-69.38,69.75],[-69.0,69.62],[-69.25,69.88]]]]}},{"type":"Feature","properties":{"kind":"blob","cls":3,"id":23},"geometry":{"type":"Polygon","coordinates":[[[169.75,42.88],[171.0,43.38],[171.88,44.5],[171.62,45.5],[169.75,46.62],[167.25,46.12],[166.62,45.5],[166.38,44.5],[167.25,43.38],[169.75,42.88]]]}},{"type":"Feature","properties":{"kind":"blob","cls":4,"id":24},"geometry":{"type":"Polygon","coordinates":[[[179.75,-48.38],[180.0,-44.62],[178.0,-44.38],[176.12,-45.5],[175.88,-47.0],[177.0,-48.12],[178.25,-48.62],[179.75,-48.38]]]}},{"type":"Feature","properties":{"kind":"blob","cls":4,"id":24},"geometry":{"type":"Polygon","coordinates":[[[-179.88,-44.75],[-179.75,-48.38],[-178.12,-47.0],[-178.12,-46.0],[-179.88,-44.75]]]}},{"type":"Feature","properties":{"kind":"blob","cls":3,"id":25},"geometry":{"type":"Polygon","coordinates":[[[58.75,-67.62],[59.38,-66.5],[58.5,-65.62],[55.75,-64.88],[51.5,-65.12],[50.25,-65.62],[49.38,-66.5],[49.75,-67.38],[51.5,-67.38],[51.5,-66.38],[55.0,-66.12],[55.88,-66.5],[55.75,-67.12],[58.75,-67.62]]]}},{"type":"Feature","properties":{"kind":"blob","cls":1,"id":26},"geometry":{"type":"Polygon","coordinates":[[[-89.75,66.88],[-87.25,67.38],[-85.88,68.25],[-85.88,69.25],[-88.25,70.38],[-92.75,70.62],[-95.25,70.12],[-96.62,69.25],[-96.62,68.25],[-96.25,67.88],[-94.25,67.12],[-89.75,66.88]]]}},{"type":"Feature","properties":{"kind":"blob","cls":6,"id":27},"geometry":{"type":"Polygon","coordinates":[[[154.5,10.38],[156.0,10.38],[156.88,11.5],[156.62,13.0],[155.25,13.88],[154.0,13.62],[153.12,12.5],[153.38,11.0],[154.5,10.38]]]}},{"type":"Feature","properties":{"kind":"blob","cls":1,"id":28},"geometry":{"type":"Polygon","coordinates":[[[168.75,-41.38],[170.38,-40.25],[170.62,-38.75],[169.5,-37.38],[167.25,-37.12],[165.62,-38.25],[165.62,-40.0],[166.75,-41.12],[168.75,-41.38]]]}},{"type":"Feature","properties":{"kind":"blob","cls":1,"id":29},"geometry":{"type":"Polygon","coordinates":[[[-103.75,-39.62],[-102.62,-38.5],[-102.38,-37.5],[-103.5,-36.12],[-105.75,-35.88],[-107.38,-37.0],[-107.38,-38.5],[-106.25,-39.62],[-103.75,-39.62]]]}},{"type":"Feature","properties":{"kind":"blob","cls":0,"id":30},"geometry":{"type":"Polygon","coordinates":[[[-169.5,-13.62],[-168.75,-13.38],[-168.12,-12.75],[-167.88,-11.0],[-168.75,-9.88],[-170.25,-9.62],[-171.0,-9.88],[-171.88,-11.0],[-170.75,-10.62],[-169.88,-11.25],[-169.5,-13.62]]]}},{"type":"Feature","properties":{"kind":"blob","cls":4,"id":31},"geometry":{"type":"Polygon","coordinates":[[[-66.75,-15.88],[-65.75,-15.88],[-64.62,-14.5],[-64.62,-13.5],[-65.75,-11.88],[-67.5,-11.12],[-68.75,-11.12],[-69.75,-11.62],[-70.75,-10.12],[-71.5,-9.88],[-73.88,-11.0],[-73.0,-12.38],[-72.25,-11.88],[-71.62,-12.25],[-71.25,-13.12],[-68.5,-13.88],[-67.88,-15.25],[-66.75,-15.88]]]}},{"type":"Feature","properties":{"kind":"blob","cls":6,"id":32},"geometry":{"type":"Polygon","coordinates":[[[-99.0,9.38],[-97.5,9.38],[-96.62,10.5],[-96.88,12.0],[-98.25,12.88],[-99.75,12.62],[-100.62,11.5],[-100.5,10.62],[-98.75,11.38],[-97.62,11.0],[-97.62,10.5],[-99.0,9.38]]]}},{"type":"Feature","properties":{"kind":"blob","cls":4,"id":33},"geometry":{"type":"Polygon","coordinates":[[[-104.25,53.38],[-102.5,53.88],[-101.62,54.75],[-101.88,56.25],[-103.0,57.38],[-106.0,58.38],[-109.25,58.12],[-110.62,57.0],[-110.62,55.75],[-109.25,54.38],[-104.25,53.38]]]}},{"type":"Feature","properties":{"kind":"blob","cls":4,"id":34},"geometry":{"type":"Polygon","coordinates":[[[73.0,28.62],[75.0,28.62],[76.38,30.0],[76.38,31.0],[75.25,32.38],[72.25,32.38],[71.25,32.12],[70.38,31.25],[70.38,30.25],[71.0,29.38],[73.0,28.62]]]}},{"type":"Feature","properties":{"kind":"blob","cls":4,"id":35},"geometry":{"type":"Polygon","coordinates":[[[37.5,40.88],[40.75,40.88],[42.0,41.88],[44.38,42.0],[40.25,43.38],[39.75,44.12],[42.12,44.0],[40.75,45.38],[39.5,45.88],[38.0,45.88],[36.12,44.75],[36.12,43.0],[36.88,41.25],[37.5,40.88]]]}},{"type":"Feature","properties":{"kind":"blob","cls":3,"id":36},"geometry":{"type":"Polygon","coordinates":[[[-74.12,-11.75],[-74.0,-11.88],[-73.88,-11.75],[-74.12,-11.75]]]}},{"type":"Feature","properties":{"kind":"blob","cls":3,"id":37},"geometry":{"type":"Polygon","coordinates":[[[-74.5,-11.38],[-74.12,-11.25],[-74.25,-11.12],[-74.5,-11.38]]]}},{"type":"Feature","properties":{"kind":"blob","cls":1,"id":38},"geometry":{"type":"Polygon","coordinates":[[[-102.38,29.5],[-102.25,29.38],[-102.12,29.75],[-102.38,29.5]]]}},{"type":"Feature","properties":{"kind":"blob","cls":4,"id":39},"geometry":{"type":"MultiPolygon","coordinates":[[[[-101.5,35.88],[-101.62,35.75],[-101.5,35.62],[-101.5,35.88]]],[[[-101.62,36.25],[-101.25,35.88],[-100.5,36.12],[-99.62,37.5],[-100.12,39.25],[-101.0,40.12],[-101.62,40.0],[-101.12,39.25],[-101.62,36.25]]]]}},{"type":"Feature","properties":{"kind":"blob","cls":3,"id":40},"geometry":{"type":"Polygon","coordinates":[[[-64.38,-22.5],[-64.25,-22.88],[-63.38,-22.0],[-63.38,-21.0],[-64.0,-20.62],[-64.12,-21.25],[-63.62,-21.75],[-64.38,-22.5]]]}},{"type":"Feature","properties":{"kind":"blob","cls":4,"id":41},"geometry":{"type":"MultiPolygon","coordinates":[[[[43.75,43.38],[43.62,43.25],[44.0,43.12],[43.75,43.38]]],[[[43.62,43.5],[43.5,43.62],[43.38,43.5],[43.62,43.5]]],[[[43.38,43.75],[43.25,43.88],[43.12,43.75],[43.38,43.75]]]]}},{"type":"Feature","properties":{"kind":"center","id":1,"lat":67.75,"lon":-13.75,"mslp":950.0,"hvtl":25.1,"hvtu":1.1,"hb":23.6,"idx":0.5,"cls":2,"psfc":950.0,"terrain":false,"radius_km":200,"name":"asym deep warm","track":"T02"},"geometry":{"type":"Point","coordinates":[-13.75,67.75]}},{"type":"Feature","properties":{"kind":"center","id":2,"lat":-62.5,"lon":113.75,"mslp":950.4,"hvtl":20.6,"hvtu":-110.3,"hb":39.2,"idx":-0.4,"cls":3,"psfc":950.4,"terrain":false,"radius_km":200,"name":"asym shallow warm","track":"T07"},"geometry":{"type":"Point","coordinates":[113.75,-62.5]}},{"type":"Feature","properties":{"kind":"center","id":3,"lat":-74.25,"lon":-105.25,"mslp":955.9,"hvtl":38.7,"hvtu":-12.9,"hb":6.3,"idx":0.6,"cls":1,"psfc":955.9,"terrain":false,"radius_km":200,"name":"sym shallow warm","track":"T11"},"geometry":{"type":"Point","coordinates":[-105.25,-74.25]}},{"type":"Feature","properties":{"kind":"center","id":4,"lat":-61.25,"lon":-107.25,"mslp":957.7,"hvtl":-3.7,"hvtu":-167.2,"hb":14.8,"idx":-1.0,"cls":4,"psfc":957.7,"terrain":false,"radius_km":200,"name":"asym cold","track":"T16"},"geometry":{"type":"Point","coordinates":[-107.25,-61.25]}},{"type":"Feature","properties":{"kind":"center","id":5,"lat":-53.0,"lon":97.5,"mslp":957.9,"hvtl":45.9,"hvtu":-16.7,"hb":7.5,"idx":0.7,"cls":1,"psfc":957.9,"terrain":false,"radius_km":200,"name":"sym shallow warm","track":"T13"},"geometry":{"type":"Point","coordinates":[97.5,-53.0]}},{"type":"Feature","properties":{"kind":"center","id":6,"lat":-62.5,"lon":9.0,"mslp":960.4,"hvtl":35.3,"hvtu":-113.6,"hb":17.1,"idx":-0.1,"cls":3,"psfc":960.4,"terrain":false,"radius_km":200,"name":"asym shallow warm","track":"T23"},"geometry":{"type":"Point","coordinates":[9.0,-62.5]}},{"type":"Feature","properties":{"kind":"center","id":7,"lat":-64.0,"lon":-178.25,"mslp":961.4,"hvtl":82.1,"hvtu":-142.7,"hb":49.4,"idx":0.5,"cls":3,"psfc":961.4,"terrain":false,"radius_km":200,"name":"asym shallow warm","track":"T18"},"geometry":{"type":"Point","coordinates":[-178.25,-64.0]}},{"type":"Feature","properties":{"kind":"center","id":8,"lat":54.5,"lon":148.0,"mslp":965.9,"hvtl":104.9,"hvtu":-100.7,"hb":14.0,"idx":0.8,"cls":3,"psfc":965.9,"terrain":false,"radius_km":200,"name":"asym shallow warm","track":"T30"},"geometry":{"type":"Point","coordinates":[148.0,54.5]}},{"type":"Feature","properties":{"kind":"center","id":9,"lat":-55.25,"lon":34.75,"mslp":969.7,"hvtl":-202.7,"hvtu":-411.4,"hb":100.8,"idx":-2.9,"cls":4,"psfc":969.7,"terrain":false,"radius_km":200,"name":"asym cold","track":"T05"},"geometry":{"type":"Point","coordinates":[34.75,-55.25]}},{"type":"Feature","properties":{"kind":"center","id":10,"lat":-46.0,"lon":105.75,"mslp":969.7,"hvtl":-266.2,"hvtu":-210.2,"hb":52.6,"idx":-3.0,"cls":4,"psfc":969.7,"terrain":false,"radius_km":200,"name":"asym cold","track":"T20"},"geometry":{"type":"Point","coordinates":[105.75,-46.0]}},{"type":"Feature","properties":{"kind":"center","id":11,"lat":49.0,"lon":-157.5,"mslp":970.8,"hvtl":129.1,"hvtu":-61.1,"hb":41.0,"idx":1.2,"cls":3,"psfc":970.8,"terrain":false,"radius_km":200,"name":"asym shallow warm","track":"T34"},"geometry":{"type":"Point","coordinates":[-157.5,49.0]}},{"type":"Feature","properties":{"kind":"center","id":12,"lat":-67.5,"lon":-87.5,"mslp":972.6,"hvtl":-89.2,"hvtu":-105.6,"hb":21.1,"idx":-2.2,"cls":4,"psfc":972.6,"terrain":false,"radius_km":200,"name":"asym cold","track":"T39"},"geometry":{"type":"Point","coordinates":[-87.5,-67.5]}},{"type":"Feature","properties":{"kind":"center","id":13,"lat":65.75,"lon":-35.0,"mslp":977.8,"hvtl":-124.9,"hvtu":-50.0,"hb":12.0,"idx":-2.2,"cls":4,"psfc":977.8,"terrain":false,"radius_km":200,"name":"asym cold","track":"T51"},"geometry":{"type":"Point","coordinates":[-35.0,65.75]}},{"type":"Feature","properties":{"kind":"center","id":14,"lat":-47.5,"lon":14.0,"mslp":981.5,"hvtl":-375.2,"hvtu":-491.1,"hb":77.2,"idx":-3.0,"cls":4,"psfc":981.5,"terrain":false,"radius_km":200,"name":"asym cold","track":"T21"},"geometry":{"type":"Point","coordinates":[14.0,-47.5]}},{"type":"Feature","properties":{"kind":"center","id":15,"lat":-73.5,"lon":-16.0,"mslp":981.5,"hvtl":-290.3,"hvtu":-297.7,"hb":66.3,"idx":-3.0,"cls":4,"psfc":936.0,"terrain":false,"radius_km":200,"name":"asym cold","track":"T61"},"geometry":{"type":"Point","coordinates":[-16.0,-73.5]}},{"type":"Feature","properties":{"kind":"center","id":16,"lat":51.5,"lon":-58.25,"mslp":983.2,"hvtl":-91.7,"hvtu":-171.6,"hb":81.8,"idx":-2.4,"cls":4,"psfc":965.7,"terrain":false,"radius_km":200,"name":"asym cold","track":"T44"},"geometry":{"type":"Point","coordinates":[-58.25,51.5]}},{"type":"Feature","properties":{"kind":"center","id":17,"lat":82.25,"lon":35.5,"mslp":984.4,"hvtl":-99.1,"hvtu":-288.0,"hb":47.7,"idx":-2.5,"cls":4,"psfc":984.4,"terrain":false,"radius_km":200,"name":"asym cold","track":"T32"},"geometry":{"type":"Point","coordinates":[35.5,82.25]}},{"type":"Feature","properties":{"kind":"center","id":18,"lat":85.25,"lon":-158.0,"mslp":986.0,"hvtl":-87.8,"hvtu":-117.0,"hb":35.2,"idx":-2.2,"cls":4,"psfc":986.0,"terrain":false,"radius_km":200,"name":"asym cold","track":"T59"},"geometry":{"type":"Point","coordinates":[-158.0,85.25]}},{"type":"Feature","properties":{"kind":"center","id":19,"lat":-74.25,"lon":-54.0,"mslp":986.8,"hvtl":-209.8,"hvtu":-109.6,"hb":52.5,"idx":-2.7,"cls":4,"psfc":986.7,"terrain":false,"radius_km":200,"name":"asym cold","track":"T43"},"geometry":{"type":"Point","coordinates":[-54.0,-74.25]}},{"type":"Feature","properties":{"kind":"center","id":20,"lat":-43.75,"lon":-1.75,"mslp":990.6,"hvtl":-264.7,"hvtu":-453.6,"hb":46.4,"idx":-3.0,"cls":4,"psfc":990.6,"terrain":false,"radius_km":200,"name":"asym cold","track":"T31"},"geometry":{"type":"Point","coordinates":[-1.75,-43.75]}},{"type":"Feature","properties":{"kind":"center","id":21,"lat":67.5,"lon":-59.5,"mslp":990.7,"hvtl":5.5,"hvtu":-229.1,"hb":8.3,"idx":-0.9,"cls":1,"psfc":990.7,"terrain":false,"radius_km":200,"name":"sym shallow warm","track":"T73"},"geometry":{"type":"Point","coordinates":[-59.5,67.5]}},{"type":"Feature","properties":{"kind":"center","id":22,"lat":68.0,"lon":-69.5,"mslp":991.5,"hvtl":27.0,"hvtu":-120.0,"hb":20.1,"idx":-0.3,"cls":3,"psfc":940.3,"terrain":false,"radius_km":200,"name":"asym shallow warm","track":"T70"},"geometry":{"type":"Point","coordinates":[-69.5,68.0]}},{"type":"Feature","properties":{"kind":"center","id":23,"lat":44.75,"lon":169.0,"mslp":992.0,"hvtl":8.9,"hvtu":-75.5,"hb":52.9,"idx":-0.5,"cls":3,"psfc":992.0,"terrain":false,"radius_km":200,"name":"asym shallow warm","track":"T09"},"geometry":{"type":"Point","coordinates":[169.0,44.75]}},{"type":"Feature","properties":{"kind":"center","id":24,"lat":-46.5,"lon":178.75,"mslp":992.8,"hvtl":-34.1,"hvtu":-233.8,"hb":77.8,"idx":-1.6,"cls":4,"psfc":992.8,"terrain":false,"radius_km":200,"name":"asym cold","track":"T01"},"geometry":{"type":"Point","coordinates":[178.75,-46.5]}},{"type":"Feature","properties":{"kind":"center","id":25,"lat":-65.75,"lon":50.25,"mslp":993.3,"hvtl":4.3,"hvtu":-86.7,"hb":19.2,"idx":-0.6,"cls":3,"psfc":993.3,"terrain":false,"radius_km":200,"name":"asym shallow warm"},"geometry":{"type":"Point","coordinates":[50.25,-65.75]}},{"type":"Feature","properties":{"kind":"center","id":26,"lat":68.75,"lon":-91.25,"mslp":995.0,"hvtl":136.8,"hvtu":-28.9,"hb":-28.9,"idx":1.5,"cls":1,"psfc":970.8,"terrain":false,"radius_km":200,"name":"sym shallow warm","track":"T71"},"geometry":{"type":"Point","coordinates":[-91.25,68.75]}},{"type":"Feature","properties":{"kind":"center","id":27,"lat":12.0,"lon":155.0,"mslp":997.0,"hvtl":-17.5,"hvtu":48.0,"hb":11.2,"idx":0.1,"cls":6,"psfc":997.0,"terrain":false,"radius_km":200,"name":"shallow cold","track":"T50"},"geometry":{"type":"Point","coordinates":[155.0,12.0]}},{"type":"Feature","properties":{"kind":"center","id":28,"lat":-39.25,"lon":168.0,"mslp":999.7,"hvtl":18.3,"hvtu":-152.6,"hb":4.2,"idx":-0.5,"cls":1,"psfc":999.7,"terrain":false,"radius_km":200,"name":"sym shallow warm","track":"T55"},"geometry":{"type":"Point","coordinates":[168.0,-39.25]}},{"type":"Feature","properties":{"kind":"center","id":29,"lat":-37.75,"lon":-105.0,"mslp":1001.3,"hvtl":43.9,"hvtu":-31.2,"hb":-20.2,"idx":0.5,"cls":1,"psfc":1001.3,"terrain":false,"radius_km":200,"name":"sym shallow warm","track":"T90"},"geometry":{"type":"Point","coordinates":[-105.0,-37.75]}},{"type":"Feature","properties":{"kind":"center","id":30,"lat":-11.5,"lon":-169.75,"mslp":1003.1,"hvtl":11.2,"hvtu":35.8,"hb":5.2,"idx":0.6,"cls":0,"psfc":1003.1,"terrain":false,"radius_km":200,"name":"sym deep warm","track":"T88"},"geometry":{"type":"Point","coordinates":[-169.75,-11.5]}},{"type":"Feature","properties":{"kind":"center","id":31,"lat":-13.75,"lon":-67.75,"mslp":1003.4,"hvtl":-82.7,"hvtu":-44.3,"hb":12.4,"idx":-1.8,"cls":4,"psfc":979.6,"terrain":false,"radius_km":200,"name":"asym cold","track":"T92"},"geometry":{"type":"Point","coordinates":[-67.75,-13.75]}},{"type":"Feature","properties":{"kind":"center","id":32,"lat":11.0,"lon":-97.0,"mslp":1003.6,"hvtl":-20.7,"hvtu":62.0,"hb":-0.3,"idx":0.1,"cls":6,"psfc":1003.6,"terrain":false,"radius_km":200,"name":"shallow cold","track":"T24"},"geometry":{"type":"Point","coordinates":[-97.0,11.0]}},{"type":"Feature","properties":{"kind":"center","id":33,"lat":55.75,"lon":-105.5,"mslp":1004.8,"hvtl":-24.6,"hvtu":-296.6,"hb":73.9,"idx":-1.5,"cls":4,"psfc":956.2,"terrain":false,"radius_km":200,"name":"asym cold","track":"T84"},"geometry":{"type":"Point","coordinates":[-105.5,55.75]}},{"type":"Feature","properties":{"kind":"center","id":34,"lat":30.5,"lon":73.25,"mslp":1007.7,"hvtl":-93.2,"hvtu":-229.3,"hb":36.1,"idx":-2.4,"cls":4,"psfc":989.1,"terrain":false,"radius_km":200,"name":"asym cold","track":"T94"},"geometry":{"type":"Point","coordinates":[73.25,30.5]}},{"type":"Feature","properties":{"kind":"center","id":35,"lat":42.25,"lon":39.5,"mslp":1008.6,"hvtl":-192.5,"hvtu":-120.0,"hb":28.6,"idx":-2.8,"cls":4,"psfc":1008.6,"terrain":false,"radius_km":200,"name":"asym cold","track":"T98"},"geometry":{"type":"Point","coordinates":[39.5,42.25]}},{"type":"Feature","properties":{"kind":"center","id":36,"lat":-11.75,"lon":-74.0,"mslp":1008.9,"hvtl":134.2,"hvtu":-16.6,"hb":25.4,"idx":1.6,"cls":3,"psfc":934.7,"terrain":false,"radius_km":200,"name":"asym shallow warm","track":"T97"},"geometry":{"type":"Point","coordinates":[-74.0,-11.75]}},{"type":"Feature","properties":{"kind":"center","id":37,"lat":-11.25,"lon":-74.25,"mslp":1009.4,"hvtl":119.8,"hvtu":-14.4,"hb":20.3,"idx":1.5,"cls":3,"psfc":902.4,"terrain":true,"radius_km":200,"name":"asym shallow warm"},"geometry":{"type":"Point","coordinates":[-74.25,-11.25]}},{"type":"Feature","properties":{"kind":"center","id":38,"lat":29.75,"lon":-102.25,"mslp":1009.9,"hvtl":51.6,"hvtu":-144.7,"hb":-15.3,"idx":0.1,"cls":1,"psfc":936.1,"terrain":false,"radius_km":200,"name":"sym shallow warm"},"geometry":{"type":"Point","coordinates":[-102.25,29.75]}},{"type":"Feature","properties":{"kind":"center","id":39,"lat":36.75,"lon":-101.0,"mslp":1010.1,"hvtl":-194.6,"hvtu":-319.1,"hb":17.5,"idx":-2.9,"cls":4,"psfc":915.2,"terrain":true,"radius_km":200,"name":"asym cold"},"geometry":{"type":"Point","coordinates":[-101.0,36.75]}},{"type":"Feature","properties":{"kind":"center","id":40,"lat":-20.75,"lon":-64.0,"mslp":1012.4,"hvtl":42.8,"hvtu":-240.7,"hb":52.9,"idx":-0.2,"cls":3,"psfc":901.9,"terrain":true,"radius_km":200,"name":"asym shallow warm"},"geometry":{"type":"Point","coordinates":[-64.0,-20.75]}},{"type":"Feature","properties":{"kind":"center","id":41,"lat":43.75,"lon":43.25,"mslp":1015.5,"hvtl":-47.3,"hvtu":-109.6,"hb":13.8,"idx":-1.7,"cls":4,"psfc":927.3,"terrain":false,"radius_km":200,"name":"asym cold"},"geometry":{"type":"Point","coordinates":[43.25,43.75]}}]}