{"type":"FeatureCollection","features":[{"type":"Feature","properties":{"kind":"blob","cls":1,"id":1},"geometry":{"type":"Polygon","coordinates":[[[-169.75,-67.88],[-163.75,-68.12],[-162.0,-67.38],[-161.38,-66.5],[-162.25,-65.38],[-164.0,-64.62],[-168.0,-64.38],[-171.0,-65.38],[-171.88,-66.5],[-171.25,-67.38],[-169.75,-67.88]]]}},{"type":"Feature","properties":{"kind":"blob","cls":1,"id":2},"geometry":{"type":"Polygon","coordinates":[[[2.75,-60.88],[4.5,-60.38],[5.62,-59.25],[5.62,-57.75],[4.5,-56.62],[2.5,-55.88],[-0.25,-55.88],[-2.75,-56.88],[-3.38,-57.5],[-3.38,-59.0],[-1.5,-60.38],[2.75,-60.88]],[[2.25,-59.12],[1.62,-58.5],[2.5,-57.88],[3.75,-57.88],[4.12,-58.25],[3.5,-59.12],[2.25,-59.12]]]}},{"type":"Feature","properties":{"kind":"blob","cls":0,"id":3},"geometry":{"type":"Polygon","coordinates":[[[-118.0,-74.38],[-115.0,-73.88],[-112.62,-72.25],[-112.62,-71.25],[-113.25,-70.62],[-115.25,-69.88],[-121.0,-69.62],[-122.5,-69.88],[-121.88,-70.25],[-121.88,-70.75],[-123.0,-71.38],[-126.25,-71.38],[-126.62,-71.75],[-126.62,-72.5],[-125.5,-73.38],[-123.25,-74.12],[-118.0,-74.38]]]}},{"type":"Feature","properties":{"kind":"blob","cls":3,"id":4},"geometry":{"type":"Polygon","coordinates":[[[-105.25,-60.12],[-103.25,-59.38],[-102.62,-58.75],[-102.62,-56.75],[-104.25,-55.12],[-107.25,-54.62],[-109.0,-55.12],[-110.12,-56.25],[-110.38,-57.5],[-109.88,-58.5],[-109.0,-59.38],[-105.25,-60.12]]]}},{"type":"Feature","properties":{"kind":"blob","cls":0,"id":5},"geometry":{"type":"Polygon","coordinates":[[[-38.75,59.38],[-36.88,60.75],[-36.88,61.75],[-38.5,62.88],[-39.75,63.12],[-42.75,62.88],[-42.75,61.62],[-41.0,61.62],[-40.38,61.0],[-42.0,60.12],[-43.5,60.62],[-43.38,60.25],[-43.88,60.0],[-42.75,59.38],[-38.75,59.38]]]}},{"type":"Feature","properties":{"kind":"blob","cls":1,"id":6},"geometry":{"type":"Polygon","coordinates":[[[-150.0,-77.88],[-144.75,-77.88],[-144.62,-77.0],[-145.38,-76.25],[-143.12,-75.75],[-152.0,-75.88],[-155.0,-76.62],[-155.62,-77.25],[-150.0,-77.88]]]}},{"type":"Feature","properties":{"kind":"blob","cls":4,"id":7},"geometry":{"type":"Polygon","coordinates":[[[39.5,-54.38],[41.0,-53.88],[41.88,-53.0],[41.88,-51.5],[41.0,-50.62],[39.5,-50.12],[37.75,-50.12],[36.25,-50.62],[35.38,-51.5],[35.38,-53.0],[36.25,-53.88],[39.5,-54.38]]]}},{"type":"Feature","properties":{"kind":"blob","cls":4,"id":8},"geometry":{"type":"Polygon","coordinates":[[[123.5,-66.88],[124.88,-65.75],[124.88,-65.25],[124.0,-64.38],[122.75,-63.88],[119.25,-63.62],[116.5,-64.38],[115.62,-65.25],[115.75,-66.38],[114.12,-66.5],[123.5,-66.88]]]}},{"type":"Feature","properties":{"kind":"blob","cls":3,"id":9},"geometry":{"type":"Polygon","coordinates":[[[-122.0,-52.62],[-120.88,-51.75],[-120.62,-50.75],[-122.25,-49.12],[-126.0,-49.12],[-127.12,-50.0],[-127.38,-51.25],[-126.5,-52.38],[-122.0,-52.62]]]}},{"type":"Feature","properties":{"kind":"blob","cls":4,"id":10},"geometry":{"type":"Polygon","coordinates":[[[-5.5,62.88],[-3.25,63.88],[-2.62,65.0],[-3.5,66.12],[-6.0,67.12],[-9.0,67.38],[-11.75,66.62],[-13.12,65.0],[-12.88,64.25],[-10.5,62.88],[-5.5,62.88]]]}},{"type":"Feature","properties":{"kind":"blob","cls":5,"id":11},"geometry":{"type":"Polygon","coordinates":[[[100.0,-66.12],[101.5,-66.38],[101.62,-66.0],[101.5,-65.88],[100.0,-66.12]]]}},{"type":"Feature","properties":{"kind":"blob","cls":6,"id":12},"geometry":{"type":"Polygon","coordinates":[[[105.12,-66.25],[105.25,-66.38],[105.38,-66.25],[105.12,-66.25]]]}},{"type":"Feature","properties":{"kind":"blob","cls":4,"id":13},"geometry":{"type":"Polygon","coordinates":[[[-93.75,-66.62],[-91.5,-66.12],[-90.38,-65.25],[-90.38,-64.25],[-92.25,-63.12],[-95.25,-62.88],[-97.5,-63.38],[-98.62,-64.25],[-98.62,-65.25],[-98.25,-65.62],[-96.75,-66.38],[-93.75,-66.62]]]}},{"type":"Feature","properties":{"kind":"blob","cls":1,"id":14},"geometry":{"type":"Polygon","coordinates":[[[-147.0,-79.38],[-146.88,-79.0],[-152.0,-78.62],[-153.5,-77.88],[-155.38,-78.0],[-152.0,-79.12],[-147.0,-79.38]]]}},{"type":"Feature","properties":{"kind":"blob","cls":1,"id":15},"geometry":{"type":"Polygon","coordinates":[[[-143.0,-79.38],[-142.38,-79.25],[-142.5,-79.12],[-143.0,-79.38]]]}},{"type":"Feature","properties":{"kind":"blob","cls":3,"id":16},"geometry":{"type":"Polygon","coordinates":[[[161.75,-71.38],[162.62,-71.5],[162.25,-70.62],[164.5,-71.12],[164.75,-70.62],[166.0,-70.62],[169.75,-71.38],[170.88,-70.5],[170.88,-70.0],[170.25,-69.12],[167.25,-67.62],[164.75,-67.12],[162.25,-67.12],[160.0,-67.62],[159.25,-67.12],[156.75,-66.62],[153.75,-66.62],[151.25,-67.12],[149.88,-68.25],[155.5,-69.38],[156.25,-69.12],[159.5,-69.62],[161.75,-71.38]]]}},{"type":"Feature","properties":{"kind":"blob","cls":2,"id":17},"geometry":{"type":"Polygon","coordinates":[[[151.25,33.62],[153.0,33.62],[154.12,34.75],[154.12,36.5],[152.5,37.62],[151.25,37.62],[149.62,36.5],[149.88,34.25],[151.25,33.62]]]}},{"type":"Feature","properties":{"kind":"blob","cls":1,"id":18},"geometry":{"type":"Polygon","coordinates":[[[-141.75,-79.12],[-139.88,-79.0],[-140.0,-78.88],[-141.75,-79.12]]]}},{"type":"Feature","properties":{"kind":"blob","cls":4,"id":19},"geometry":{"type":"Polygon","coordinates":[[[-37.25,49.88],[-34.75,50.62],[-33.38,51.75],[-33.38,52.75],[-34.25,53.62],[-35.75,54.12],[-37.5,54.12],[-40.0,53.38],[-41.38,52.25],[-41.38,51.25],[-40.5,50.38],[-37.25,49.88]]]}},{"type":"Feature","properties":{"kind":"blob","cls":3,"id":20},"geometry":{"type":"Polygon","coordinates":[[[-59.5,73.88],[-57.88,74.25],[-59.25,74.88],[-61.0,76.38],[-66.5,76.38],[-67.25,76.88],[-68.75,76.88],[-69.62,76.25],[-69.38,75.25],[-68.25,74.62],[-66.25,74.12],[-59.5,73.88]]]}},{"type":"Feature","properties":{"kind":"blob","cls":3,"id":21},"geometry":{"type":"Polygon","coordinates":[[[-161.12,-83.25],[-167.75,-82.88],[-176.62,-83.0],[-161.12,-83.25]]]}},{"type":"Feature","properties":{"kind":"blob","cls":3,"id":22},"geometry":{"type":"Polygon","coordinates":[[[161.75,-79.12],[163.25,-79.38],[167.25,-78.88],[169.0,-78.38],[169.88,-77.5],[167.5,-75.62],[164.5,-75.38],[162.38,-77.0],[163.88,-78.0],[163.75,-78.38],[164.62,-78.5],[161.75,-78.62],[161.75,-79.12]],[[166.62,-77.5],[169.12,-77.5],[169.0,-77.62],[166.62,-77.5]]]}},{"type":"Feature","properties":{"kind":"blob","cls":4,"id":23},"geometry":{"type":"Polygon","coordinates":[[[-49.5,40.88],[-47.75,41.62],[-47.12,42.5],[-47.38,44.0],[-49.0,44.88],[-51.5,44.38],[-52.38,43.25],[-52.38,42.25],[-51.75,41.38],[-49.5,40.88]]]}},{"type":"Feature","properties":{"kind":"blob","cls":3,"id":24},"geometry":{"type":"Polygon","coordinates":[[[142.88,-67.0],[140.5,-66.38],[138.5,-66.38],[138.12,-66.75],[138.25,-66.88],[142.88,-67.0]]]}},{"type":"Feature","properties":{"kind":"blob","cls":5,"id":25},"geometry":{"type":"Polygon","coordinates":[[[-24.75,-74.38],[-18.25,-74.38],[-15.0,-73.12],[-14.12,-72.25],[-14.12,-71.75],[-15.0,-70.38],[-17.5,-69.38],[-22.5,-69.12],[-24.5,-69.38],[-27.0,-70.38],[-29.38,-72.75],[-28.25,-73.88],[-24.75,-74.38]]]}},{"type":"Feature","properties":{"kind":"blob","cls":5,"id":26},"geometry":{"type":"Polygon","coordinates":[[[76.75,85.88],[95.25,86.88],[100.5,87.62],[101.12,88.0],[100.5,88.38],[96.5,88.88],[78.0,89.62],[30.25,89.88],[-1.0,89.12],[-7.5,88.62],[-9.62,88.0],[-7.5,87.38],[1.0,86.62],[18.5,85.88],[76.75,85.88]]]}},{"type":"Feature","properties":{"kind":"blob","cls":1,"id":27},"geometry":{"type":"Polygon","coordinates":[[[87.0,66.12],[89.5,67.12],[90.38,68.0],[90.38,68.75],[89.0,70.12],[87.0,69.88],[86.0,70.88],[80.25,70.62],[77.88,69.25],[77.62,68.0],[78.75,66.88],[80.5,66.12],[87.0,66.12]]]}},{"type":"Feature","properties":{"kind":"blob","cls":4,"id":28},"geometry":{"type":"Polygon","coordinates":[[[-120.5,77.12],[-115.5,77.62],[-111.25,78.62],[-110.25,79.12],[-109.62,80.0],[-110.75,80.88],[-113.5,81.62],[-121.5,82.38],[-133.0,82.12],[-138.5,81.38],[-140.38,80.5],[-140.25,79.88],[-138.75,79.12],[-136.0,78.38],[-130.25,77.38],[-120.5,77.12]]]}},{"type":"Feature","properties":{"kind":"blob","cls":4,"id":29},"geometry":{"type":"MultiPolygon","coordinates":[[[[143.75,-67.38],[143.62,-67.5],[143.75,-67.62],[143.75,-67.38]]],[[[143.5,-67.12],[143.38,-67.25],[143.5,-67.38],[143.5,-67.12]]]]}},{"type":"Feature","properties":{"kind":"blob","cls":4,"id":30},"geometry":{"type":"Polygon","coordinates":[[[-64.25,-76.38],[-61.0,-75.88],[-59.75,-75.38],[-59.12,-74.25],[-60.25,-73.38],[-62.25,-73.12],[-62.5,-74.12],[-63.75,-74.38],[-64.0,-74.88],[-67.0,-75.88],[-69.38,-76.0],[-64.25,-76.38]]]}},{"type":"Feature","properties":{"kind":"blob","cls":3,"id":31},"geometry":{"type":"Polygon","coordinates":[[[-67.5,77.38],[-65.25,77.12],[-64.88,77.5],[-66.25,77.62],[-67.5,77.38]]]}},{"type":"Feature","properties":{"kind":"blob","cls":1,"id":32},"geometry":{"type":"Polygon","coordinates":[[[-169.75,60.12],[-168.75,60.12],[-165.75,61.12],[-164.38,62.25],[-164.38,63.75],[-165.25,64.62],[-166.5,65.12],[-168.88,62.5],[-169.75,60.12]]]}},{"type":"Feature","properties":{"kind":"blob","cls":4,"id":33},"geometry":{"type":"Polygon","coordinates":[[[-12.5,-38.62],[-9.5,-38.88],[-8.0,-38.12],[-7.38,-37.5],[-7.38,-36.0],[-9.0,-34.88],[-12.5,-34.88],[-13.5,-35.38],[-14.12,-36.0],[-14.12,-37.5],[-12.5,-38.62]]]}},{"type":"Feature","properties":{"kind":"blob","cls":1,"id":34},"geometry":{"type":"Polygon","coordinates":[[[-26.25,15.88],[-24.75,15.88],[-23.88,17.0],[-24.12,18.75],[-25.5,19.62],[-26.75,19.38],[-27.62,18.25],[-27.38,16.5],[-26.25,15.88]]]}},{"type":"Feature","properties":{"kind":"blob","cls":1,"id":35},"geometry":{"type":"Polygon","coordinates":[[[-174.0,61.38],[-173.12,62.25],[-171.88,64.5],[-172.0,64.88],[-174.38,63.25],[-174.0,61.38]]]}},{"type":"Feature","properties":{"kind":"blob","cls":3,"id":36},"geometry":{"type":"Polygon","coordinates":[[[140.5,53.88],[142.25,54.38],[143.38,55.5],[143.38,56.75],[142.5,57.62],[140.75,58.12],[137.5,57.62],[136.88,57.0],[137.62,57.0],[137.25,56.38],[136.62,56.25],[136.75,56.88],[136.38,56.5],[136.38,55.25],[137.75,54.12],[140.5,53.88]]]}},{"type":"Feature","properties":{"kind":"blob","cls":3,"id":37},"geometry":{"type":"Polygon","coordinates":[[[153.5,-48.62],[154.75,-48.12],[155.62,-47.25],[155.62,-46.0],[154.5,-44.88],[153.25,-44.38],[151.0,-44.88],[149.88,-46.0],[149.88,-47.25],[150.75,-48.12],[153.5,-48.62]]]}},{"type":"Feature","properties":{"kind":"blob","cls":4,"id":38},"geometry":{"type":"Polygon","coordinates":[[[-63.12,-18.0],[-62.88,-16.5],[-64.62,-13.25],[-66.75,-11.62],[-69.0,-11.62],[-69.88,-12.75],[-69.88,-13.5],[-68.5,-13.88],[-67.5,-15.62],[-67.0,-15.62],[-65.5,-17.12],[-63.12,-18.0]]]}},{"type":"Feature","properties":{"kind":"blob","cls":4,"id":39},"geometry":{"type":"Polygon","coordinates":[[[-71.25,-73.38],[-69.25,-73.62],[-66.5,-73.12],[-66.38,-72.75],[-69.25,-72.88],[-71.25,-73.38]]]}},{"type":"Feature","properties":{"kind":"blob","cls":1,"id":40},"geometry":{"type":"Polygon","coordinates":[[[-73.0,-11.62],[-72.38,-11.0],[-72.25,-9.38],[-75.0,-9.88],[-75.38,-10.25],[-74.75,-10.62],[-74.25,-10.12],[-73.88,-11.25],[-73.0,-11.62]]]}},{"type":"Feature","properties":{"kind":"blob","cls":4,"id":41},"geometry":{"type":"MultiPolygon","coordinates":[[[[-101.0,38.38],[-100.12,39.5],[-100.38,40.5],[-101.0,41.12],[-101.38,40.5],[-100.88,39.25],[-101.0,38.38]]],[[[-101.25,41.38],[-101.38,41.25],[-101.25,41.12],[-101.25,41.38]]]]}},{"type":"Feature","properties":{"kind":"blob","cls":1,"id":42},"geometry":{"type":"Polygon","coordinates":[[[130.0,51.62],[132.5,52.88],[133.12,53.75],[133.12,54.5],[132.75,54.88],[131.25,54.62],[130.75,55.12],[128.75,54.38],[128.62,54.75],[129.38,55.5],[128.0,55.88],[125.0,54.88],[124.38,54.0],[124.88,52.5],[126.5,51.62],[130.0,51.62]],[[125.25,54.38],[125.12,54.5],[125.5,54.62],[125.25,54.38]]]}},{"type":"Feature","properties":{"kind":"blob","cls":4,"id":43},"geometry":{"type":"Polygon","coordinates":[[[-142.5,46.38],[-139.5,47.62],[-138.38,48.5],[-138.38,50.0],[-139.5,50.88],[-142.5,51.12],[-145.5,49.88],[-146.12,49.0],[-146.12,48.0],[-145.0,46.88],[-142.5,46.38]]]}},{"type":"Feature","properties":{"kind":"blob","cls":4,"id":44},"geometry":{"type":"MultiPolygon","coordinates":[[[[-68.5,-33.62],[-68.25,-34.12],[-67.75,-34.12],[-66.12,-33.25],[-66.38,-32.75],[-65.38,-32.0],[-65.38,-31.0],[-66.0,-30.12],[-67.0,-29.88],[-67.38,-30.25],[-67.38,-31.25],[-68.0,-31.62],[-68.12,-31.25],[-67.62,-31.0],[-68.38,-30.0],[-69.12,-33.5],[-68.5,-33.62]],[[-66.38,-31.0],[-66.5,-31.12],[-66.62,-30.75],[-66.38,-31.0]]],[[[-67.25,-29.62],[-67.38,-29.75],[-67.25,-29.88],[-67.25,-29.62]]]]}},{"type":"Feature","properties":{"kind":"blob","cls":4,"id":45},"geometry":{"type":"Polygon","coordinates":[[[-55.0,-81.62],[-47.38,-81.5],[-47.5,-81.38],[-55.0,-81.62]]]}},{"type":"Feature","properties":{"kind":"blob","cls":3,"id":46},"geometry":{"type":"Polygon","coordinates":[[[-74.12,-11.75],[-74.0,-11.88],[-73.88,-11.75],[-74.12,-11.75]]]}},{"type":"Feature","properties":{"kind":"blob","cls":4,"id":47},"geometry":{"type":"MultiPolygon","coordinates":[[[[-65.5,-27.12],[-64.88,-26.75],[-65.25,-26.12],[-65.38,-26.25],[-65.5,-27.12]]],[[[-64.75,-26.62],[-64.38,-26.25],[-64.5,-24.62],[-65.12,-25.75],[-64.75,-26.62]]],[[[-64.62,-24.5],[-64.75,-24.38],[-64.88,-24.5],[-64.62,-24.5]]]]}},{"type":"Feature","properties":{"kind":"blob","cls":3,"id":48},"geometry":{"type":"Polygon","coordinates":[[[-74.5,-11.38],[-74.12,-11.25],[-74.25,-11.12],[-74.5,-11.38]]]}},{"type":"Feature","properties":{"kind":"blob","cls":4,"id":49},"geometry":{"type":"Polygon","coordinates":[[[128.75,37.88],[129.88,39.0],[130.12,40.0],[129.25,41.12],[126.75,40.12],[126.88,41.25],[127.62,41.5],[127.5,41.88],[127.0,41.88],[125.12,40.5],[125.38,38.75],[126.25,37.88],[128.75,37.88]]]}},{"type":"Feature","properties":{"kind":"blob","cls":1,"id":50},"geometry":{"type":"Polygon","coordinates":[[[38.25,40.88],[40.75,40.88],[42.25,41.88],[43.62,42.0],[41.5,43.12],[40.0,43.38],[38.12,42.0],[38.25,40.88]]]}},{"type":"Feature","properties":{"kind":"blob","cls":4,"id":51},"geometry":{"type":"Polygon","coordinates":[[[-71.25,-32.62],[-70.62,-32.75],[-71.12,-32.0],[-71.0,-29.62],[-71.62,-31.0],[-71.25,-32.62]]]}},{"type":"Feature","properties":{"kind":"blob","cls":4,"id":52},"geometry":{"type":"Polygon","coordinates":[[[175.5,36.12],[176.62,37.25],[176.88,38.25],[175.75,39.62],[173.5,39.88],[171.88,38.75],[171.88,37.0],[172.75,36.12],[175.5,36.12]]]}},{"type":"Feature","properties":{"kind":"center","id":1,"lat":-66.5,"lon":-166.5,"mslp":947.7,"hvtl":12.3,"hvtu":-29.5,"hb":-8.9,"idx":-0.0,"cls":1,"psfc":947.7,"terrain":false,"radius_km":200,"name":"sym shallow warm","track":"T04"},"geometry":{"type":"Point","coordinates":[-166.5,-66.5]}},{"type":"Feature","properties":{"kind":"center","id":2,"lat":-58.0,"lon":0.75,"mslp":959.5,"hvtl":82.3,"hvtu":-34.9,"hb":-5.6,"idx":1.0,"cls":1,"psfc":959.5,"terrain":false,"radius_km":200,"name":"sym shallow warm","track":"T19"},"geometry":{"type":"Point","coordinates":[0.75,-58.0]}},{"type":"Feature","properties":{"kind":"center","id":3,"lat":-72.25,"lon":-119.25,"mslp":962.0,"hvtl":9.0,"hvtu":7.6,"hb":9.2,"idx":0.3,"cls":0,"psfc":962.0,"terrain":false,"radius_km":200,"name":"sym deep warm","track":"T12"},"geometry":{"type":"Point","coordinates":[-119.25,-72.25]}},{"type":"Feature","properties":{"kind":"center","id":4,"lat":-57.0,"lon":-106.5,"mslp":966.0,"hvtl":10.5,"hvtu":-118.6,"hb":20.6,"idx":-0.6,"cls":3,"psfc":966.0,"terrain":false,"radius_km":200,"name":"asym shallow warm","track":"T26"},"geometry":{"type":"Point","coordinates":[-106.5,-57.0]}},{"type":"Feature","properties":{"kind":"center","id":5,"lat":61.25,"lon":-40.5,"mslp":967.5,"hvtl":131.7,"hvtu":28.6,"hb":5.3,"idx":2.0,"cls":0,"psfc":967.5,"terrain":false,"radius_km":200,"name":"sym deep warm","track":"T14"},"geometry":{"type":"Point","coordinates":[-40.5,61.25]}},{"type":"Feature","properties":{"kind":"center","id":6,"lat":-77.5,"lon":-147.25,"mslp":968.8,"hvtl":167.3,"hvtu":-56.4,"hb":-41.6,"idx":1.4,"cls":1,"psfc":931.5,"terrain":false,"radius_km":200,"name":"sym shallow warm","track":"T28"},"geometry":{"type":"Point","coordinates":[-147.25,-77.5]}},{"type":"Feature","properties":{"kind":"center","id":7,"lat":-52.25,"lon":38.5,"mslp":971.0,"hvtl":-91.9,"hvtu":-217.3,"hb":33.6,"idx":-2.4,"cls":4,"psfc":971.0,"terrain":false,"radius_km":200,"name":"asym cold","track":"T29"},"geometry":{"type":"Point","coordinates":[38.5,-52.25]}},{"type":"Feature","properties":{"kind":"center","id":8,"lat":-65.75,"lon":120.0,"mslp":972.7,"hvtl":-341.3,"hvtu":-94.6,"hb":53.7,"idx":-2.7,"cls":4,"psfc":972.7,"terrain":false,"radius_km":200,"name":"asym cold","track":"T33"},"geometry":{"type":"Point","coordinates":[120.0,-65.75]}},{"type":"Feature","properties":{"kind":"center","id":9,"lat":-51.0,"lon":-124.0,"mslp":973.2,"hvtl":48.1,"hvtu":-5.6,"hb":29.6,"idx":0.8,"cls":3,"psfc":973.2,"terrain":false,"radius_km":200,"name":"asym shallow warm","track":"T39"},"geometry":{"type":"Point","coordinates":[-124.0,-51.0]}},{"type":"Feature","properties":{"kind":"center","id":10,"lat":65.0,"lon":-8.25,"mslp":973.6,"hvtl":-97.6,"hvtu":-426.9,"hb":57.7,"idx":-2.5,"cls":4,"psfc":973.6,"terrain":false,"radius_km":200,"name":"asym cold","track":"T32"},"geometry":{"type":"Point","coordinates":[-8.25,65.0]}},{"type":"Feature","properties":{"kind":"center","id":11,"lat":-66.25,"lon":101.0,"mslp":974.5,"hvtl":-248.8,"hvtu":-62.0,"hb":-20.2,"idx":-2.5,"cls":5,"psfc":950.3,"terrain":false,"radius_km":200,"name":"sym cold","track":"T38"},"geometry":{"type":"Point","coordinates":[101.0,-66.25]}},{"type":"Feature","properties":{"kind":"center","id":12,"lat":-66.25,"lon":105.25,"mslp":975.3,"hvtl":-293.2,"hvtu":15.4,"hb":52.2,"idx":-1.8,"cls":6,"psfc":919.5,"terrain":false,"radius_km":200,"name":"shallow cold","track":"T37"},"geometry":{"type":"Point","coordinates":[105.25,-66.25]}},{"type":"Feature","properties":{"kind":"center","id":13,"lat":-63.0,"lon":-95.25,"mslp":978.0,"hvtl":-107.1,"hvtu":-278.4,"hb":37.4,"idx":-2.6,"cls":4,"psfc":978.0,"terrain":false,"radius_km":200,"name":"asym cold"},"geometry":{"type":"Point","coordinates":[-95.25,-63.0]}},{"type":"Feature","properties":{"kind":"center","id":14,"lat":-78.5,"lon":-152.75,"mslp":978.2,"hvtl":265.4,"hvtu":-148.6,"hb":-3.3,"idx":1.1,"cls":1,"psfc":911.8,"terrain":false,"radius_km":200,"name":"sym shallow warm"},"geometry":{"type":"Point","coordinates":[-152.75,-78.5]}},{"type":"Feature","properties":{"kind":"center","id":15,"lat":-79.25,"lon":-143.0,"mslp":981.7,"hvtl":147.5,"hvtu":-37.2,"hb":-40.7,"idx":1.4,"cls":1,"psfc":901.1,"terrain":false,"radius_km":200,"name":"sym shallow warm"},"geometry":{"type":"Point","coordinates":[-143.0,-79.25]}},{"type":"Feature","properties":{"kind":"center","id":16,"lat":-70.0,"lon":166.75,"mslp":982.1,"hvtl":81.6,"hvtu":-141.1,"hb":60.7,"idx":0.5,"cls":3,"psfc":982.1,"terrain":false,"radius_km":200,"name":"asym shallow warm","track":"T47"},"geometry":{"type":"Point","coordinates":[166.75,-70.0]}},{"type":"Feature","properties":{"kind":"center","id":17,"lat":35.75,"lon":151.75,"mslp":982.4,"hvtl":87.1,"hvtu":61.1,"hb":24.2,"idx":1.9,"cls":2,"psfc":982.4,"terrain":false,"radius_km":200,"name":"asym deep warm","track":"T09"},"geometry":{"type":"Point","coordinates":[151.75,35.75]}},{"type":"Feature","properties":{"kind":"center","id":18,"lat":-79.0,"lon":-141.75,"mslp":982.9,"hvtl":119.5,"hvtu":-31.6,"hb":-53.3,"idx":1.4,"cls":1,"psfc":900.4,"terrain":false,"radius_km":200,"name":"sym shallow warm"},"geometry":{"type":"Point","coordinates":[-141.75,-79.0]}},{"type":"Feature","properties":{"kind":"center","id":19,"lat":52.0,"lon":-37.5,"mslp":983.0,"hvtl":-380.7,"hvtu":-400.3,"hb":91.6,"idx":-3.0,"cls":4,"psfc":983.0,"terrain":false,"radius_km":200,"name":"asym cold","track":"T10"},"geometry":{"type":"Point","coordinates":[-37.5,52.0]}},{"type":"Feature","properties":{"kind":"center","id":20,"lat":75.75,"lon":-61.0,"mslp":987.9,"hvtl":180.7,"hvtu":-207.5,"hb":68.5,"idx":0.9,"cls":3,"psfc":987.9,"terrain":false,"radius_km":200,"name":"asym shallow warm","track":"T51"},"geometry":{"type":"Point","coordinates":[-61.0,75.75]}},{"type":"Feature","properties":{"kind":"center","id":21,"lat":-83.25,"lon":-161.25,"mslp":988.5,"hvtl":110.6,"hvtu":-273.2,"hb":43.1,"idx":0.6,"cls":3,"psfc":979.2,"terrain":false,"radius_km":200,"name":"asym shallow warm","track":"T54"},"geometry":{"type":"Point","coordinates":[-161.25,-83.25]}},{"type":"Feature","properties":{"kind":"center","id":22,"lat":-76.25,"lon":166.5,"mslp":989.5,"hvtl":202.7,"hvtu":-189.8,"hb":31.4,"idx":1.0,"cls":3,"psfc":989.5,"terrain":false,"radius_km":200,"name":"asym shallow warm","track":"T67"},"geometry":{"type":"Point","coordinates":[166.5,-76.25]}},{"type":"Feature","properties":{"kind":"center","id":23,"lat":43.0,"lon":-49.75,"mslp":989.9,"hvtl":-262.3,"hvtu":-386.1,"hb":92.3,"idx":-3.0,"cls":4,"psfc":989.9,"terrain":false,"radius_km":200,"name":"asym cold","track":"T64"},"geometry":{"type":"Point","coordinates":[-49.75,43.0]}},{"type":"Feature","properties":{"kind":"center","id":24,"lat":-66.5,"lon":138.5,"mslp":990.5,"hvtl":66.3,"hvtu":-123.0,"hb":25.8,"idx":0.3,"cls":3,"psfc":977.0,"terrain":false,"radius_km":200,"name":"asym shallow warm"},"geometry":{"type":"Point","coordinates":[138.5,-66.5]}},{"type":"Feature","properties":{"kind":"center","id":25,"lat":-72.0,"lon":-21.5,"mslp":991.5,"hvtl":-171.0,"hvtu":-57.2,"hb":2.0,"idx":-2.4,"cls":5,"psfc":991.5,"terrain":false,"radius_km":200,"name":"sym cold","track":"T56"},"geometry":{"type":"Point","coordinates":[-21.5,-72.0]}},{"type":"Feature","properties":{"kind":"center","id":26,"lat":87.5,"lon":47.75,"mslp":991.7,"hvtl":-3.1,"hvtu":-276.7,"hb":-11.8,"idx":-1.1,"cls":5,"psfc":991.7,"terrain":false,"radius_km":200,"name":"sym cold","track":"T59"},"geometry":{"type":"Point","coordinates":[47.75,87.5]}},{"type":"Feature","properties":{"kind":"center","id":27,"lat":68.75,"lon":84.0,"mslp":992.0,"hvtl":36.7,"hvtu":-11.8,"hb":9.7,"idx":0.6,"cls":1,"psfc":984.6,"terrain":false,"radius_km":200,"name":"sym shallow warm","track":"T57"},"geometry":{"type":"Point","coordinates":[84.0,68.75]}},{"type":"Feature","properties":{"kind":"center","id":28,"lat":79.75,"lon":-124.75,"mslp":993.7,"hvtl":-47.8,"hvtu":-51.1,"hb":13.0,"idx":-1.4,"cls":4,"psfc":993.7,"terrain":false,"radius_km":200,"name":"asym cold","track":"T72"},"geometry":{"type":"Point","coordinates":[-124.75,79.75]}},{"type":"Feature","properties":{"kind":"center","id":29,"lat":-67.25,"lon":143.5,"mslp":993.8,"hvtl":-106.7,"hvtu":-157.8,"hb":14.2,"idx":-2.5,"cls":4,"psfc":902.6,"terrain":true,"radius_km":200,"name":"asym cold"},"geometry":{"type":"Point","coordinates":[143.5,-67.25]}},{"type":"Feature","properties":{"kind":"center","id":30,"lat":-76.0,"lon":-69.25,"mslp":994.4,"hvtl":-275.2,"hvtu":-142.8,"hb":85.0,"idx":-2.9,"cls":4,"psfc":902.4,"terrain":true,"radius_km":200,"name":"asym cold"},"geometry":{"type":"Point","coordinates":[-69.25,-76.0]}},{"type":"Feature","properties":{"kind":"center","id":31,"lat":77.25,"lon":-67.5,"mslp":996.5,"hvtl":238.0,"hvtu":-193.6,"hb":69.9,"idx":1.0,"cls":3,"psfc":930.2,"terrain":false,"radius_km":200,"name":"asym shallow warm","track":"T68"},"geometry":{"type":"Point","coordinates":[-67.5,77.25]}},{"type":"Feature","properties":{"kind":"center","id":32,"lat":62.75,"lon":-168.5,"mslp":997.3,"hvtl":106.4,"hvtu":-171.8,"hb":8.1,"idx":0.6,"cls":1,"psfc":997.3,"terrain":false,"radius_km":200,"name":"sym shallow warm","track":"T48"},"geometry":{"type":"Point","coordinates":[-168.5,62.75]}},{"type":"Feature","properties":{"kind":"center","id":33,"lat":-37.0,"lon":-10.5,"mslp":998.2,"hvtl":-285.5,"hvtu":-351.7,"hb":82.7,"idx":-3.0,"cls":4,"psfc":998.2,"terrain":false,"radius_km":200,"name":"asym cold","track":"T05"},"geometry":{"type":"Point","coordinates":[-10.5,-37.0]}},{"type":"Feature","properties":{"kind":"center","id":34,"lat":17.5,"lon":-25.75,"mslp":999.3,"hvtl":133.4,"hvtu":-8.5,"hb":1.8,"idx":1.7,"cls":1,"psfc":999.3,"terrain":false,"radius_km":200,"name":"sym shallow warm","track":"T86"},"geometry":{"type":"Point","coordinates":[-25.75,17.5]}},{"type":"Feature","properties":{"kind":"center","id":35,"lat":63.0,"lon":-172.75,"mslp":1000.5,"hvtl":177.0,"hvtu":-121.7,"hb":-28.8,"idx":1.0,"cls":1,"psfc":1000.5,"terrain":false,"radius_km":200,"name":"sym shallow warm","track":"T89"},"geometry":{"type":"Point","coordinates":[-172.75,63.0]}},{"type":"Feature","properties":{"kind":"center","id":36,"lat":56.0,"lon":139.5,"mslp":1001.5,"hvtl":69.8,"hvtu":-286.1,"hb":82.6,"idx":0.2,"cls":3,"psfc":1001.5,"terrain":false,"radius_km":200,"name":"asym shallow warm","track":"T87"},"geometry":{"type":"Point","coordinates":[139.5,56.0]}},{"type":"Feature","properties":{"kind":"center","id":37,"lat":-47.25,"lon":154.75,"mslp":1002.4,"hvtl":37.2,"hvtu":-279.3,"hb":15.3,"idx":-0.3,"cls":3,"psfc":1002.4,"terrain":false,"radius_km":200,"name":"asym shallow warm","track":"T55"},"geometry":{"type":"Point","coordinates":[154.75,-47.25]}},{"type":"Feature","properties":{"kind":"center","id":38,"lat":-15.5,"lon":-65.75,"mslp":1003.2,"hvtl":-105.3,"hvtu":-89.3,"hb":10.4,"idx":-2.3,"cls":4,"psfc":982.7,"terrain":false,"radius_km":200,"name":"asym cold","track":"T92"},"geometry":{"type":"Point","coordinates":[-65.75,-15.5]}},{"type":"Feature","properties":{"kind":"center","id":39,"lat":-73.5,"lon":-71.25,"mslp":1003.7,"hvtl":-147.4,"hvtu":-130.0,"hb":27.0,"idx":-2.7,"cls":4,"psfc":926.3,"terrain":false,"radius_km":200,"name":"asym cold"},"geometry":{"type":"Point","coordinates":[-71.25,-73.5]}},{"type":"Feature","properties":{"kind":"center","id":40,"lat":-10.0,"lon":-74.0,"mslp":1005.2,"hvtl":90.0,"hvtu":-19.1,"hb":7.5,"idx":1.2,"cls":1,"psfc":983.3,"terrain":false,"radius_km":200,"name":"sym shallow warm"},"geometry":{"type":"Point","coordinates":[-74.0,-10.0]}},{"type":"Feature","properties":{"kind":"center","id":41,"lat":39.0,"lon":-101.0,"mslp":1005.5,"hvtl":-117.4,"hvtu":-197.2,"hb":45.9,"idx":-2.6,"cls":4,"psfc":902.0,"terrain":true,"radius_km":200,"name":"asym cold"},"geometry":{"type":"Point","coordinates":[-101.0,39.0]}},{"type":"Feature","properties":{"kind":"center","id":42,"lat":53.75,"lon":128.25,"mslp":1005.6,"hvtl":92.7,"hvtu":-160.0,"hb":5.3,"idx":0.5,"cls":1,"psfc":931.2,"terrain":false,"radius_km":200,"name":"sym shallow warm","track":"T83"},"geometry":{"type":"Point","coordinates":[128.25,53.75]}},{"type":"Feature","properties":{"kind":"center","id":43,"lat":48.75,"lon":-142.5,"mslp":1006.5,"hvtl":-207.3,"hvtu":-283.3,"hb":62.8,"idx":-2.9,"cls":4,"psfc":1006.5,"terrain":false,"radius_km":200,"name":"asym cold","track":"T84"},"geometry":{"type":"Point","coordinates":[-142.5,48.75]}},{"type":"Feature","properties":{"kind":"center","id":44,"lat":-32.25,"lon":-68.25,"mslp":1007.0,"hvtl":-27.6,"hvtu":-182.0,"hb":26.9,"idx":-1.5,"cls":4,"psfc":943.8,"terrain":false,"radius_km":200,"name":"asym cold","track":"T101"},"geometry":{"type":"Point","coordinates":[-68.25,-32.25]}},{"type":"Feature","properties":{"kind":"center","id":45,"lat":-81.5,"lon":-55.0,"mslp":1007.3,"hvtl":-429.3,"hvtu":-216.4,"hb":51.0,"idx":-3.0,"cls":4,"psfc":988.9,"terrain":false,"radius_km":200,"name":"asym cold","track":"T61"},"geometry":{"type":"Point","coordinates":[-55.0,-81.5]}},{"type":"Feature","properties":{"kind":"center","id":46,"lat":-11.75,"lon":-74.0,"mslp":1007.9,"hvtl":86.2,"hvtu":-30.8,"hb":22.0,"idx":1.1,"cls":3,"psfc":933.9,"terrain":false,"radius_km":200,"name":"asym shallow warm"},"geometry":{"type":"Point","coordinates":[-74.0,-11.75]}},{"type":"Feature","properties":{"kind":"center","id":47,"lat":-24.5,"lon":-64.75,"mslp":1008.1,"hvtl":-196.8,"hvtu":-288.3,"hb":47.8,"idx":-2.9,"cls":4,"psfc":922.0,"terrain":false,"radius_km":200,"name":"asym cold","track":"T96"},"geometry":{"type":"Point","coordinates":[-64.75,-24.5]}},{"type":"Feature","properties":{"kind":"center","id":48,"lat":-11.25,"lon":-74.25,"mslp":1009.3,"hvtl":93.0,"hvtu":-29.3,"hb":17.3,"idx":1.2,"cls":3,"psfc":902.2,"terrain":true,"radius_km":200,"name":"asym shallow warm"},"geometry":{"type":"Point","coordinates":[-74.25,-11.25]}},{"type":"Feature","properties":{"kind":"center","id":49,"lat":40.0,"lon":127.5,"mslp":1010.1,"hvtl":-125.9,"hvtu":-375.4,"hb":74.3,"idx":-2.7,"cls":4,"psfc":993.3,"terrain":false,"radius_km":200,"name":"asym cold"},"geometry":{"type":"Point","coordinates":[127.5,40.0]}},{"type":"Feature","properties":{"kind":"center","id":50,"lat":42.0,"lon":38.5,"mslp":1011.7,"hvtl":4.9,"hvtu":-130.4,"hb":8.8,"idx":-0.8,"cls":1,"psfc":1011.7,"terrain":false,"radius_km":200,"name":"sym shallow warm"},"geometry":{"type":"Point","coordinates":[38.5,42.0]}},{"type":"Feature","properties":{"kind":"center","id":51,"lat":-32.75,"lon":-70.75,"mslp":1012.8,"hvtl":-96.9,"hvtu":-170.7,"hb":35.2,"idx":-2.4,"cls":4,"psfc":911.1,"terrain":true,"radius_km":200,"name":"asym cold"},"geometry":{"type":"Point","coordinates":[-70.75,-32.75]}},{"type":"Feature","properties":{"kind":"center","id":52,"lat":38.0,"lon":174.25,"mslp":1013.7,"hvtl":-120.3,"hvtu":-393.6,"hb":41.9,"idx":-2.7,"cls":4,"psfc":1013.7,"terrain":false,"radius_km":200,"name":"asym cold"},"geometry":{"type":"Point","coordinates":[174.25,38.0]}}]}