{"type":"FeatureCollection","features":[{"type":"Feature","properties":{"kind":"blob","cls":3,"id":1},"geometry":{"type":"Polygon","coordinates":[[[147.5,-65.12],[149.5,-64.62],[150.88,-63.5],[150.88,-62.5],[149.0,-61.12],[147.0,-60.62],[143.5,-60.88],[141.12,-62.25],[141.12,-63.5],[141.5,-63.88],[143.5,-64.88],[147.5,-65.12]]]}},{"type":"Feature","properties":{"kind":"blob","cls":3,"id":2},"geometry":{"type":"Polygon","coordinates":[[[3.75,-62.62],[8.0,-61.62],[8.88,-61.0],[9.12,-60.0],[8.5,-59.12],[6.25,-58.38],[4.5,-58.38],[0.0,-59.62],[-0.62,-60.25],[-0.62,-61.25],[1.0,-62.38],[3.75,-62.62]]]}},{"type":"Feature","properties":{"kind":"blob","cls":2,"id":3},"geometry":{"type":"Polygon","coordinates":[[[18.75,-67.62],[20.5,-66.88],[21.12,-65.5],[19.25,-64.12],[16.0,-63.38],[11.75,-63.62],[9.88,-64.75],[9.88,-65.75],[11.0,-66.88],[12.75,-67.62],[18.75,-67.62]]]}},{"type":"Feature","properties":{"kind":"blob","cls":0,"id":4},"geometry":{"type":"Polygon","coordinates":[[[145.25,26.62],[146.38,28.0],[146.12,29.25],[144.5,30.38],[143.25,30.12],[142.38,29.25],[143.38,28.75],[143.25,28.12],[142.12,28.75],[142.38,27.5],[143.25,26.62],[145.25,26.62]]]}},{"type":"Feature","properties":{"kind":"blob","cls":3,"id":5},"geometry":{"type":"Polygon","coordinates":[[[101.5,-60.38],[105.25,-60.38],[106.88,-59.25],[106.88,-58.0],[105.25,-56.88],[101.12,-55.75],[102.0,-55.38],[102.62,-54.5],[102.62,-53.5],[102.0,-52.38],[100.0,-51.62],[98.5,-51.62],[96.5,-52.38],[95.62,-53.5],[95.62,-54.5],[96.25,-55.38],[98.38,-56.25],[97.12,-57.0],[97.12,-58.5],[99.25,-59.88],[101.5,-60.38]]]}},{"type":"Feature","properties":{"kind":"blob","cls":0,"id":6},"geometry":{"type":"Polygon","coordinates":[[[-131.25,-59.12],[-128.25,-59.12],[-126.88,-58.25],[-126.62,-57.25],[-127.25,-56.38],[-128.25,-55.88],[-132.0,-55.88],[-133.38,-56.75],[-133.62,-57.75],[-133.0,-58.62],[-131.25,-59.12]]]}},{"type":"Feature","properties":{"kind":"blob","cls":3,"id":7},"geometry":{"type":"Polygon","coordinates":[[[16.5,-60.62],[18.5,-59.88],[19.12,-59.25],[19.12,-58.0],[18.5,-57.38],[16.5,-56.62],[15.0,-56.62],[13.0,-57.38],[12.38,-58.0],[12.38,-59.25],[14.0,-60.38],[16.5,-60.62]]]}},{"type":"Feature","properties":{"kind":"blob","cls":4,"id":8},"geometry":{"type":"Polygon","coordinates":[[[-153.75,-83.12],[-142.75,-82.12],[-142.12,-81.75],[-142.12,-81.25],[-143.25,-80.62],[-151.5,-78.88],[-153.0,-78.88],[-153.38,-78.5],[-153.0,-78.12],[-154.0,-77.88],[-156.88,-77.75],[-156.5,-77.38],[-154.0,-77.38],[-151.5,-77.88],[-144.75,-77.88],[-144.62,-77.0],[-145.38,-76.25],[-144.75,-75.88],[-140.5,-75.88],[-139.38,-75.25],[-144.25,-74.38],[-147.75,-74.38],[-150.5,-74.88],[-153.5,-74.62],[-156.75,-77.12],[-158.25,-77.88],[-160.25,-78.12],[-161.0,-77.88],[-161.88,-76.75],[-161.88,-76.0],[-161.12,-75.0],[-162.25,-74.88],[-164.5,-75.38],[-166.12,-76.5],[-165.75,-77.38],[-162.75,-78.38],[-172.25,-78.88],[-175.0,-79.62],[-176.62,-80.5],[-176.5,-81.12],[-174.75,-81.88],[-168.5,-83.12],[-153.75,-83.12]],[[-149.5,-81.88],[-150.38,-81.5],[-147.5,-81.38],[-145.88,-81.75],[-146.0,-81.88],[-149.5,-81.88]]]}},{"type":"Feature","properties":{"kind":"blob","cls":3,"id":9},"geometry":{"type":"Polygon","coordinates":[[[-155.75,-69.88],[-151.25,-69.88],[-149.75,-69.38],[-148.38,-68.0],[-149.0,-67.12],[-150.0,-66.62],[-152.25,-66.12],[-157.25,-66.38],[-159.38,-67.5],[-159.62,-68.0],[-158.5,-69.38],[-155.75,-69.88]]]}},{"type":"Feature","properties":{"kind":"blob","cls":4,"id":10},"geometry":{"type":"Polygon","coordinates":[[[-21.0,-75.62],[-19.25,-74.62],[-15.0,-73.88],[-15.62,-73.5],[-15.0,-73.12],[-12.25,-73.38],[-11.0,-72.88],[-9.88,-71.75],[-11.0,-70.88],[-12.75,-70.38],[-18.75,-70.12],[-24.5,-71.62],[-26.38,-73.25],[-26.38,-74.0],[-25.25,-74.88],[-23.5,-75.38],[-21.0,-75.62]]]}},{"type":"Feature","properties":{"kind":"blob","cls":4,"id":11},"geometry":{"type":"Polygon","coordinates":[[[-128.25,-70.62],[-125.75,-70.12],[-124.38,-69.25],[-124.12,-68.25],[-125.0,-67.38],[-126.5,-66.88],[-130.75,-66.62],[-133.25,-67.12],[-134.88,-68.25],[-134.88,-69.25],[-134.5,-69.62],[-132.5,-70.38],[-128.25,-70.62]]]}},{"type":"Feature","properties":{"kind":"blob","cls":4,"id":12},"geometry":{"type":"Polygon","coordinates":[[[-145.25,-60.62],[-142.0,-59.38],[-140.62,-58.0],[-140.88,-56.75],[-143.25,-55.62],[-145.25,-55.62],[-147.75,-56.62],[-149.62,-58.25],[-149.62,-59.25],[-148.0,-60.38],[-145.25,-60.62]]]}},{"type":"Feature","properties":{"kind":"blob","cls":4,"id":13},"geometry":{"type":"Polygon","coordinates":[[[-102.5,-73.12],[-99.0,-71.88],[-97.62,-70.5],[-97.88,-69.5],[-97.12,-68.5],[-97.38,-67.25],[-99.0,-66.12],[-101.25,-65.62],[-106.5,-65.88],[-108.75,-66.88],[-109.88,-68.25],[-111.38,-71.5],[-109.5,-72.88],[-102.5,-73.12]]]}},{"type":"Feature","properties":{"kind":"blob","cls":1,"id":14},"geometry":{"type":"Polygon","coordinates":[[[23.5,66.62],[27.25,66.62],[28.75,67.12],[29.62,68.0],[29.62,68.5],[28.75,69.38],[27.25,69.88],[22.75,69.88],[24.12,71.0],[24.12,71.75],[23.5,72.38],[21.5,73.12],[14.5,73.38],[11.75,72.88],[9.88,71.5],[9.88,71.0],[10.75,70.12],[13.25,69.12],[18.5,68.88],[20.75,69.62],[22.25,69.62],[19.88,68.0],[20.75,67.12],[23.5,66.62]]]}},{"type":"Feature","properties":{"kind":"blob","cls":0,"id":15},"geometry":{"type":"MultiPolygon","coordinates":[[[[-116.5,19.12],[-116.62,19.0],[-116.25,18.88],[-116.5,19.12]]],[[[-116.0,19.12],[-115.5,19.12],[-114.88,19.75],[-114.88,21.75],[-116.25,22.62],[-117.5,22.38],[-118.38,21.25],[-118.12,19.75],[-117.25,20.62],[-116.5,20.62],[-116.0,19.12]]]]}},{"type":"Feature","properties":{"kind":"blob","cls":0,"id":16},"geometry":{"type":"Polygon","coordinates":[[[174.25,24.38],[175.12,25.25],[175.12,26.75],[173.5,27.88],[172.25,27.62],[171.38,26.75],[171.38,25.25],[172.25,24.38],[174.25,24.38]]]}},{"type":"Feature","properties":{"kind":"blob","cls":3,"id":17},"geometry":{"type":"Polygon","coordinates":[[[76.75,80.88],[85.5,81.62],[88.25,82.62],[88.38,83.25],[66.0,83.12],[36.62,81.0],[76.75,80.88]]]}},{"type":"Feature","properties":{"kind":"blob","cls":4,"id":18},"geometry":{"type":"Polygon","coordinates":[[[-99.0,-57.62],[-97.25,-57.12],[-96.12,-56.0],[-96.12,-54.5],[-97.25,-53.38],[-99.25,-52.62],[-100.5,-52.62],[-102.5,-53.38],[-103.62,-54.5],[-103.62,-56.0],[-102.5,-57.12],[-99.0,-57.62]]]}},{"type":"Feature","properties":{"kind":"blob","cls":1,"id":19},"geometry":{"type":"Polygon","coordinates":[[[27.5,82.62],[28.75,82.38],[31.5,83.12],[38.25,83.88],[62.75,84.62],[63.12,85.0],[40.0,84.88],[30.75,83.88],[28.75,83.38],[27.5,82.62]]]}},{"type":"Feature","properties":{"kind":"blob","cls":4,"id":20},"geometry":{"type":"Polygon","coordinates":[[[-32.25,-46.38],[-31.0,-45.88],[-30.12,-44.5],[-30.38,-43.25],[-32.25,-42.12],[-34.0,-42.12],[-35.25,-42.62],[-36.38,-44.25],[-35.25,-45.88],[-32.25,-46.38]]]}},{"type":"Feature","properties":{"kind":"blob","cls":4,"id":21},"geometry":{"type":"Polygon","coordinates":[[[-153.25,54.62],[-150.0,54.62],[-148.12,56.5],[-149.5,58.12],[-151.25,59.12],[-154.25,59.38],[-156.25,58.62],[-156.88,57.75],[-156.62,56.5],[-155.25,55.12],[-153.25,54.62]]]}},{"type":"Feature","properties":{"kind":"blob","cls":3,"id":22},"geometry":{"type":"Polygon","coordinates":[[[-62.75,47.88],[-61.0,48.62],[-60.38,49.5],[-60.62,50.5],[-62.5,52.12],[-66.25,53.62],[-68.25,53.38],[-69.62,52.25],[-69.62,51.0],[-68.5,49.88],[-66.25,49.12],[-64.75,48.12],[-62.75,47.88]]]}},{"type":"Feature","properties":{"kind":"blob","cls":4,"id":23},"geometry":{"type":"Polygon","coordinates":[[[140.75,44.38],[142.0,44.88],[142.88,46.0],[142.88,47.0],[141.75,48.12],[140.5,48.62],[139.5,48.62],[138.5,47.88],[138.25,48.12],[137.88,47.0],[137.12,46.75],[137.12,46.0],[138.0,44.88],[140.75,44.38]]]}},{"type":"Feature","properties":{"kind":"blob","cls":4,"id":24},"geometry":{"type":"Polygon","coordinates":[[[-13.0,60.88],[-11.0,61.38],[-9.88,62.25],[-9.88,63.25],[-11.25,64.38],[-13.25,64.88],[-15.75,64.88],[-15.62,64.5],[-16.25,64.12],[-18.25,64.12],[-19.12,63.25],[-19.12,62.25],[-18.0,61.38],[-13.0,60.88]]]}},{"type":"Feature","properties":{"kind":"blob","cls":5,"id":25},"geometry":{"type":"Polygon","coordinates":[[[70.75,52.88],[72.5,53.38],[74.38,54.75],[74.38,55.75],[73.25,56.88],[71.25,56.88],[71.0,57.38],[67.5,56.88],[66.12,55.75],[66.12,54.5],[66.75,53.62],[70.75,52.88]]]}},{"type":"Feature","properties":{"kind":"blob","cls":0,"id":26},"geometry":{"type":"Polygon","coordinates":[[[-80.88,-40.75],[-81.88,-39.5],[-81.88,-38.5],[-81.25,-38.38],[-79.25,-40.62],[-78.12,-39.25],[-78.38,-38.0],[-80.0,-36.88],[-83.5,-37.12],[-84.38,-38.0],[-84.62,-39.0],[-83.25,-40.62],[-80.88,-40.75]]]}},{"type":"Feature","properties":{"kind":"blob","cls":4,"id":27},"geometry":{"type":"Polygon","coordinates":[[[-82.75,-36.62],[-81.12,-35.75],[-80.88,-34.25],[-81.5,-33.38],[-83.5,-32.88],[-85.12,-33.75],[-85.12,-35.75],[-82.75,-36.62]]]}},{"type":"Feature","properties":{"kind":"blob","cls":4,"id":28},"geometry":{"type":"Polygon","coordinates":[[[-39.0,62.38],[-35.5,62.38],[-33.75,63.62],[-30.0,63.88],[-28.75,64.38],[-27.62,65.5],[-27.62,66.0],[-28.25,66.88],[-29.25,67.38],[-32.5,67.88],[-39.5,64.62],[-41.75,64.38],[-41.88,63.5],[-42.62,63.0],[-39.0,62.38]]]}},{"type":"Feature","properties":{"kind":"blob","cls":3,"id":29},"geometry":{"type":"Polygon","coordinates":[[[134.25,58.88],[136.5,59.62],[137.12,60.25],[137.12,62.0],[134.75,63.62],[132.5,64.12],[129.25,63.88],[127.62,63.0],[127.38,62.0],[127.75,61.38],[131.5,59.12],[134.25,58.88]]]}},{"type":"Feature","properties":{"kind":"blob","cls":4,"id":30},"geometry":{"type":"Polygon","coordinates":[[[-63.5,-19.12],[-62.75,-19.12],[-61.38,-18.25],[-61.38,-16.0],[-62.0,-15.38],[-63.25,-15.12],[-64.5,-13.38],[-66.0,-12.62],[-68.25,-12.62],[-69.12,-13.75],[-68.12,-14.25],[-67.5,-15.62],[-67.0,-15.62],[-65.5,-17.12],[-64.0,-17.62],[-63.38,-18.25],[-63.5,-19.12]]]}},{"type":"Feature","properties":{"kind":"blob","cls":1,"id":31},"geometry":{"type":"Polygon","coordinates":[[[-58.75,-53.62],[-56.5,-52.88],[-55.62,-52.0],[-55.62,-51.0],[-56.5,-50.12],[-58.0,-49.62],[-61.25,-50.38],[-62.12,-51.25],[-62.12,-52.25],[-61.25,-53.12],[-58.75,-53.62]]]}},{"type":"Feature","properties":{"kind":"blob","cls":6,"id":32},"geometry":{"type":"Polygon","coordinates":[[[167.5,12.12],[169.0,12.12],[169.88,13.25],[169.62,14.75],[168.25,15.62],[167.0,15.38],[166.12,14.25],[166.38,12.75],[167.5,12.12]]]}},{"type":"Feature","properties":{"kind":"blob","cls":4,"id":33},"geometry":{"type":"Polygon","coordinates":[[[26.75,-36.12],[28.38,-35.25],[28.62,-33.5],[28.0,-32.62],[25.0,-32.62],[24.62,-33.0],[24.38,-34.75],[25.0,-35.62],[26.75,-36.12]]]}},{"type":"Feature","properties":{"kind":"blob","cls":3,"id":34},"geometry":{"type":"Polygon","coordinates":[[[72.25,28.62],[73.62,30.0],[73.88,31.5],[73.25,32.38],[71.25,32.12],[70.12,31.5],[70.12,30.0],[68.88,29.5],[69.75,28.62],[72.25,28.62]]]}},{"type":"Feature","properties":{"kind":"blob","cls":5,"id":35},"geometry":{"type":"Polygon","coordinates":[[[-27.5,70.12],[-27.25,69.88],[-25.75,70.38],[-22.25,70.38],[-20.62,71.25],[-20.62,72.25],[-22.25,73.12],[-24.5,73.38],[-25.12,72.5],[-24.12,72.0],[-25.25,71.38],[-26.0,71.62],[-26.0,70.62],[-27.5,70.12]]]}},{"type":"Feature","properties":{"kind":"blob","cls":1,"id":36},"geometry":{"type":"Polygon","coordinates":[[[-73.25,-11.88],[-72.75,-11.88],[-72.12,-11.25],[-72.0,-9.62],[-73.88,-11.0],[-73.25,-11.88]]]}},{"type":"Feature","properties":{"kind":"blob","cls":1,"id":37},"geometry":{"type":"Polygon","coordinates":[[[68.75,24.88],[69.88,26.5],[69.62,28.25],[68.0,29.38],[67.5,29.38],[67.12,28.75],[66.75,26.88],[65.38,26.75],[66.75,24.88],[68.75,24.88]]]}},{"type":"Feature","properties":{"kind":"blob","cls":1,"id":38},"geometry":{"type":"Polygon","coordinates":[[[-74.12,-12.0],[-74.0,-12.12],[-73.88,-11.75],[-74.12,-12.0]]]}},{"type":"Feature","properties":{"kind":"blob","cls":4,"id":39},"geometry":{"type":"Polygon","coordinates":[[[-26.38,71.0],[-26.25,70.88],[-26.12,71.0],[-26.38,71.0]]]}},{"type":"Feature","properties":{"kind":"blob","cls":4,"id":40},"geometry":{"type":"Polygon","coordinates":[[[-68.5,-32.38],[-67.25,-32.12],[-66.38,-31.25],[-66.62,-30.75],[-66.25,-31.12],[-66.12,-30.25],[-64.62,-29.25],[-64.38,-27.5],[-65.25,-26.38],[-65.88,-27.25],[-65.38,-28.5],[-65.75,-28.38],[-66.25,-28.88],[-66.12,-27.75],[-66.88,-28.0],[-66.62,-29.0],[-67.38,-29.75],[-67.38,-31.25],[-68.12,-31.5],[-67.62,-31.0],[-68.25,-29.88],[-68.62,-30.5],[-68.5,-32.38]]]}},{"type":"Feature","properties":{"kind":"blob","cls":5,"id":41},"geometry":{"type":"Polygon","coordinates":[[[158.5,-43.62],[160.0,-43.88],[161.5,-43.12],[162.12,-42.25],[161.88,-40.75],[160.0,-39.62],[158.0,-39.88],[157.0,-40.62],[156.62,-41.25],[156.88,-42.75],[158.5,-43.62]]]}},{"type":"Feature","properties":{"kind":"blob","cls":3,"id":42},"geometry":{"type":"Polygon","coordinates":[[[-121.25,37.12],[-120.5,37.38],[-120.12,38.0],[-121.88,40.25],[-121.88,41.0],[-123.25,40.88],[-123.5,41.88],[-124.88,40.75],[-124.88,39.75],[-124.38,38.5],[-123.5,37.62],[-121.25,37.12]],[[-122.75,39.38],[-123.12,39.5],[-123.5,40.62],[-122.88,40.5],[-122.75,39.38]]]}},{"type":"Feature","properties":{"kind":"blob","cls":1,"id":43},"geometry":{"type":"Polygon","coordinates":[[[51.75,27.38],[52.62,28.5],[51.12,30.0],[51.25,30.38],[50.75,30.38],[49.88,31.25],[49.75,31.88],[48.12,30.75],[47.88,29.5],[49.75,27.38],[51.75,27.38]]]}},{"type":"Feature","properties":{"kind":"blob","cls":4,"id":44},"geometry":{"type":"Polygon","coordinates":[[[-54.0,69.62],[-53.75,70.12],[-52.5,70.12],[-52.75,70.62],[-52.0,70.38],[-51.62,70.75],[-54.0,72.88],[-56.0,73.62],[-61.25,73.38],[-63.88,72.25],[-63.88,71.25],[-63.0,70.62],[-60.25,69.62],[-54.0,69.62]]]}},{"type":"Feature","properties":{"kind":"blob","cls":1,"id":45},"geometry":{"type":"Polygon","coordinates":[[[-74.5,-11.38],[-74.12,-11.25],[-74.25,-11.12],[-74.5,-11.38]]]}},{"type":"Feature","properties":{"kind":"blob","cls":3,"id":46},"geometry":{"type":"Polygon","coordinates":[[[-122.62,41.75],[-122.5,41.62],[-122.38,41.75],[-122.62,41.75]]]}},{"type":"Feature","properties":{"kind":"blob","cls":3,"id":47},"geometry":{"type":"Polygon","coordinates":[[[-122.88,42.25],[-122.75,42.12],[-122.62,42.25],[-122.88,42.25]]]}},{"type":"Feature","properties":{"kind":"blob","cls":3,"id":48},"geometry":{"type":"Polygon","coordinates":[[[179.88,-33.5],[179.75,-30.12],[178.88,-31.25],[178.88,-32.5],[179.88,-33.5]]]}},{"type":"Feature","properties":{"kind":"blob","cls":3,"id":48},"geometry":{"type":"Polygon","coordinates":[[[-179.88,-30.0],[-180.0,-33.62],[-178.25,-33.88],[-177.0,-33.38],[-176.38,-32.5],[-176.62,-30.75],[-178.5,-29.62],[-179.88,-30.0]]]}},{"type":"Feature","properties":{"kind":"blob","cls":4,"id":49},"geometry":{"type":"Polygon","coordinates":[[[172.25,-44.38],[174.25,-44.38],[176.0,-43.12],[176.38,-42.5],[176.12,-41.0],[174.5,-40.12],[173.25,-40.12],[171.25,-41.12],[170.62,-42.0],[170.62,-43.0],[171.5,-42.88],[171.38,-43.5],[170.88,-43.75],[172.25,-44.38]],[[172.12,-42.75],[172.75,-41.88],[173.62,-42.0],[172.5,-42.38],[172.12,-42.75]]]}},{"type":"Feature","properties":{"kind":"center","id":1,"lat":-63.0,"lon":146.0,"mslp":940.0,"hvtl":49.5,"hvtu":-23.0,"hb":25.4,"idx":0.7,"cls":3,"psfc":940.0,"terrain":false,"radius_km":200,"name":"asym shallow warm","track":"T06"},"geometry":{"type":"Point","coordinates":[146.0,-63.0]}},{"type":"Feature","properties":{"kind":"center","id":2,"lat":-60.25,"lon":5.5,"mslp":941.8,"hvtl":178.6,"hvtu":-109.1,"hb":27.7,"idx":1.1,"cls":3,"psfc":941.8,"terrain":false,"radius_km":200,"name":"asym shallow warm","track":"T03"},"geometry":{"type":"Point","coordinates":[5.5,-60.25]}},{"type":"Feature","properties":{"kind":"center","id":3,"lat":-65.75,"lon":15.25,"mslp":944.8,"hvtl":0.3,"hvtu":2.3,"hb":35.3,"idx":0.0,"cls":2,"psfc":944.8,"terrain":false,"radius_km":200,"name":"asym deep warm","track":"T04"},"geometry":{"type":"Point","coordinates":[15.25,-65.75]}},{"type":"Feature","properties":{"kind":"center","id":4,"lat":28.5,"lon":144.25,"mslp":947.8,"hvtl":123.7,"hvtu":231.0,"hb":3.8,"idx":2.7,"cls":0,"psfc":947.8,"terrain":false,"radius_km":200,"name":"sym deep warm","track":"T07"},"geometry":{"type":"Point","coordinates":[144.25,28.5]}},{"type":"Feature","properties":{"kind":"center","id":5,"lat":-54.0,"lon":99.0,"mslp":949.4,"hvtl":129.5,"hvtu":-243.7,"hb":12.6,"idx":0.7,"cls":3,"psfc":949.4,"terrain":false,"radius_km":200,"name":"asym shallow warm","track":"T12"},"geometry":{"type":"Point","coordinates":[99.0,-54.0]}},{"type":"Feature","properties":{"kind":"center","id":6,"lat":-57.5,"lon":-130.0,"mslp":951.7,"hvtl":159.1,"hvtu":51.5,"hb":-32.8,"idx":2.3,"cls":0,"psfc":951.7,"terrain":false,"radius_km":200,"name":"sym deep warm","track":"T18"},"geometry":{"type":"Point","coordinates":[-130.0,-57.5]}},{"type":"Feature","properties":{"kind":"center","id":7,"lat":-58.75,"lon":15.5,"mslp":953.8,"hvtl":9.2,"hvtu":-61.0,"hb":17.2,"idx":-0.4,"cls":3,"psfc":953.8,"terrain":false,"radius_km":200,"name":"asym shallow warm","track":"T19"},"geometry":{"type":"Point","coordinates":[15.5,-58.75]}},{"type":"Feature","properties":{"kind":"center","id":8,"lat":-80.5,"lon":-161.5,"mslp":963.3,"hvtl":-11.8,"hvtu":-31.3,"hb":16.1,"idx":-0.5,"cls":4,"psfc":953.8,"terrain":false,"radius_km":200,"name":"asym cold","track":"T05"},"geometry":{"type":"Point","coordinates":[-161.5,-80.5]}},{"type":"Feature","properties":{"kind":"center","id":9,"lat":-68.0,"lon":-154.0,"mslp":965.8,"hvtl":31.0,"hvtu":-225.8,"hb":31.4,"idx":-0.4,"cls":3,"psfc":965.8,"terrain":false,"radius_km":200,"name":"asym shallow warm","track":"T28"},"geometry":{"type":"Point","coordinates":[-154.0,-68.0]}},{"type":"Feature","properties":{"kind":"center","id":10,"lat":-73.25,"lon":-18.75,"mslp":966.3,"hvtl":-233.8,"hvtu":-49.8,"hb":51.6,"idx":-2.4,"cls":4,"psfc":960.1,"terrain":false,"radius_km":200,"name":"asym cold","track":"T23"},"geometry":{"type":"Point","coordinates":[-18.75,-73.25]}},{"type":"Feature","properties":{"kind":"center","id":11,"lat":-68.5,"lon":-129.5,"mslp":968.1,"hvtl":-157.5,"hvtu":-24.5,"hb":55.4,"idx":-2.1,"cls":4,"psfc":968.1,"terrain":false,"radius_km":200,"name":"asym cold","track":"T10"},"geometry":{"type":"Point","coordinates":[-129.5,-68.5]}},{"type":"Feature","properties":{"kind":"center","id":12,"lat":-58.0,"lon":-144.75,"mslp":970.4,"hvtl":-206.1,"hvtu":-234.2,"hb":58.8,"idx":-2.9,"cls":4,"psfc":970.4,"terrain":false,"radius_km":200,"name":"asym cold","track":"T33"},"geometry":{"type":"Point","coordinates":[-144.75,-58.0]}},{"type":"Feature","properties":{"kind":"center","id":13,"lat":-68.25,"lon":-104.0,"mslp":972.9,"hvtl":-86.9,"hvtu":-177.9,"hb":55.9,"idx":-2.3,"cls":4,"psfc":972.9,"terrain":false,"radius_km":200,"name":"asym cold","track":"T34"},"geometry":{"type":"Point","coordinates":[-104.0,-68.25]}},{"type":"Feature","properties":{"kind":"center","id":14,"lat":71.25,"lon":17.0,"mslp":973.3,"hvtl":132.7,"hvtu":-69.1,"hb":2.8,"idx":1.1,"cls":1,"psfc":973.3,"terrain":false,"radius_km":200,"name":"sym shallow warm","track":"T41"},"geometry":{"type":"Point","coordinates":[17.0,71.25]}},{"type":"Feature","properties":{"kind":"center","id":15,"lat":20.75,"lon":-116.5,"mslp":975.2,"hvtl":76.8,"hvtu":174.6,"hb":1.1,"idx":2.2,"cls":0,"psfc":975.3,"terrain":false,"radius_km":200,"name":"sym deep warm","track":"T48"},"geometry":{"type":"Point","coordinates":[-116.5,20.75]}},{"type":"Feature","properties":{"kind":"center","id":16,"lat":26.0,"lon":173.25,"mslp":981.2,"hvtl":116.8,"hvtu":185.3,"hb":-2.4,"idx":2.6,"cls":0,"psfc":981.2,"terrain":false,"radius_km":200,"name":"sym deep warm","track":"T40"},"geometry":{"type":"Point","coordinates":[173.25,26.0]}},{"type":"Feature","properties":{"kind":"center","id":17,"lat":82.75,"lon":60.5,"mslp":985.2,"hvtl":80.8,"hvtu":-167.2,"hb":29.2,"idx":0.4,"cls":3,"psfc":985.2,"terrain":false,"radius_km":200,"name":"asym shallow warm","track":"T61"},"geometry":{"type":"Point","coordinates":[60.5,82.75]}},{"type":"Feature","properties":{"kind":"center","id":18,"lat":-55.5,"lon":-100.25,"mslp":987.2,"hvtl":-80.8,"hvtu":-177.2,"hb":30.4,"idx":-2.3,"cls":4,"psfc":987.2,"terrain":false,"radius_km":200,"name":"asym cold","track":"T65"},"geometry":{"type":"Point","coordinates":[-100.25,-55.5]}},{"type":"Feature","properties":{"kind":"center","id":19,"lat":82.5,"lon":28.75,"mslp":987.4,"hvtl":217.4,"hvtu":-113.2,"hb":-40.0,"idx":1.1,"cls":1,"psfc":987.4,"terrain":false,"radius_km":200,"name":"sym shallow warm"},"geometry":{"type":"Point","coordinates":[28.75,82.5]}},{"type":"Feature","properties":{"kind":"center","id":20,"lat":-44.25,"lon":-33.0,"mslp":987.5,"hvtl":-34.8,"hvtu":-231.2,"hb":54.7,"idx":-1.6,"cls":4,"psfc":987.5,"terrain":false,"radius_km":200,"name":"asym cold","track":"T16"},"geometry":{"type":"Point","coordinates":[-33.0,-44.25]}},{"type":"Feature","properties":{"kind":"center","id":21,"lat":56.5,"lon":-152.0,"mslp":991.3,"hvtl":-24.1,"hvtu":-183.3,"hb":11.2,"idx":-1.4,"cls":4,"psfc":991.3,"terrain":false,"radius_km":200,"name":"asym cold","track":"T35"},"geometry":{"type":"Point","coordinates":[-152.0,56.5]}},{"type":"Feature","properties":{"kind":"center","id":22,"lat":51.5,"lon":-66.75,"mslp":991.8,"hvtl":1.4,"hvtu":-257.6,"hb":40.0,"idx":-1.0,"cls":3,"psfc":915.9,"terrain":false,"radius_km":200,"name":"asym shallow warm","track":"T57"},"geometry":{"type":"Point","coordinates":[-66.75,51.5]}},{"type":"Feature","properties":{"kind":"center","id":23,"lat":46.5,"lon":139.75,"mslp":997.7,"hvtl":-109.6,"hvtu":-358.0,"hb":55.5,"idx":-2.6,"cls":4,"psfc":997.7,"terrain":false,"radius_km":200,"name":"asym cold","track":"T26"},"geometry":{"type":"Point","coordinates":[139.75,46.5]}},{"type":"Feature","properties":{"kind":"center","id":24,"lat":63.0,"lon":-14.25,"mslp":999.6,"hvtl":-40.3,"hvtu":-244.8,"hb":21.5,"idx":-1.8,"cls":4,"psfc":999.5,"terrain":false,"radius_km":200,"name":"asym cold"},"geometry":{"type":"Point","coordinates":[-14.25,63.0]}},{"type":"Feature","properties":{"kind":"center","id":25,"lat":55.0,"lon":70.5,"mslp":1000.7,"hvtl":-89.5,"hvtu":-63.6,"hb":4.0,"idx":-2.0,"cls":5,"psfc":984.9,"terrain":false,"radius_km":200,"name":"sym cold","track":"T77"},"geometry":{"type":"Point","coordinates":[70.5,55.0]}},{"type":"Feature","properties":{"kind":"center","id":26,"lat":-38.75,"lon":-82.0,"mslp":1000.7,"hvtl":70.3,"hvtu":46.0,"hb":7.0,"idx":1.6,"cls":0,"psfc":1000.7,"terrain":false,"radius_km":200,"name":"sym deep warm"},"geometry":{"type":"Point","coordinates":[-82.0,-38.75]}},{"type":"Feature","properties":{"kind":"center","id":27,"lat":-34.75,"lon":-83.0,"mslp":1001.5,"hvtl":-97.1,"hvtu":-176.8,"hb":25.2,"idx":-2.4,"cls":4,"psfc":1001.4,"terrain":false,"radius_km":200,"name":"asym cold","track":"T92"},"geometry":{"type":"Point","coordinates":[-83.0,-34.75]}},{"type":"Feature","properties":{"kind":"center","id":28,"lat":65.75,"lon":-32.5,"mslp":1001.7,"hvtl":-92.5,"hvtu":-97.6,"hb":18.2,"idx":-2.2,"cls":4,"psfc":1001.7,"terrain":false,"radius_km":200,"name":"asym cold","track":"T78"},"geometry":{"type":"Point","coordinates":[-32.5,65.75]}},{"type":"Feature","properties":{"kind":"center","id":29,"lat":62.0,"lon":131.75,"mslp":1001.7,"hvtl":123.9,"hvtu":-109.5,"hb":27.0,"idx":0.9,"cls":3,"psfc":974.1,"terrain":false,"radius_km":200,"name":"asym shallow warm","track":"T82"},"geometry":{"type":"Point","coordinates":[131.75,62.0]}},{"type":"Feature","properties":{"kind":"center","id":30,"lat":-17.0,"lon":-63.0,"mslp":1001.9,"hvtl":-97.6,"hvtu":-57.6,"hb":33.4,"idx":-2.0,"cls":4,"psfc":973.7,"terrain":false,"radius_km":200,"name":"asym cold","track":"T87"},"geometry":{"type":"Point","coordinates":[-63.0,-17.0]}},{"type":"Feature","properties":{"kind":"center","id":31,"lat":-51.5,"lon":-58.5,"mslp":1003.1,"hvtl":32.7,"hvtu":-40.3,"hb":-13.4,"idx":0.2,"cls":1,"psfc":995.7,"terrain":false,"radius_km":200,"name":"sym shallow warm","track":"T86"},"geometry":{"type":"Point","coordinates":[-58.5,-51.5]}},{"type":"Feature","properties":{"kind":"center","id":32,"lat":13.75,"lon":168.0,"mslp":1003.5,"hvtl":-22.2,"hvtu":42.3,"hb":5.8,"idx":-0.0,"cls":6,"psfc":1003.5,"terrain":false,"radius_km":200,"name":"shallow cold"},"geometry":{"type":"Point","coordinates":[168.0,13.75]}},{"type":"Feature","properties":{"kind":"center","id":33,"lat":-35.0,"lon":25.5,"mslp":1004.0,"hvtl":-263.0,"hvtu":-188.8,"hb":58.9,"idx":-2.9,"cls":4,"psfc":1004.0,"terrain":false,"radius_km":200,"name":"asym cold"},"geometry":{"type":"Point","coordinates":[25.5,-35.0]}},{"type":"Feature","properties":{"kind":"center","id":34,"lat":31.0,"lon":71.0,"mslp":1004.9,"hvtl":50.7,"hvtu":-104.5,"hb":13.8,"idx":0.2,"cls":3,"psfc":988.0,"terrain":false,"radius_km":200,"name":"asym shallow warm","track":"T105"},"geometry":{"type":"Point","coordinates":[71.0,31.0]}},{"type":"Feature","properties":{"kind":"center","id":35,"lat":72.25,"lon":-22.0,"mslp":1005.1,"hvtl":-20.0,"hvtu":-71.4,"hb":-1.1,"idx":-1.0,"cls":5,"psfc":1003.3,"terrain":false,"radius_km":200,"name":"sym cold","track":"T102"},"geometry":{"type":"Point","coordinates":[-22.0,72.25]}},{"type":"Feature","properties":{"kind":"center","id":36,"lat":-10.75,"lon":-73.25,"mslp":1005.4,"hvtl":60.1,"hvtu":-42.4,"hb":-1.0,"idx":0.7,"cls":1,"psfc":972.0,"terrain":false,"radius_km":200,"name":"sym shallow warm"},"geometry":{"type":"Point","coordinates":[-73.25,-10.75]}},{"type":"Feature","properties":{"kind":"center","id":37,"lat":27.0,"lon":67.5,"mslp":1005.4,"hvtl":44.3,"hvtu":-50.0,"hb":-1.4,"idx":0.4,"cls":1,"psfc":998.4,"terrain":false,"radius_km":200,"name":"sym shallow warm","track":"T109"},"geometry":{"type":"Point","coordinates":[67.5,27.0]}},{"type":"Feature","properties":{"kind":"center","id":38,"lat":-11.75,"lon":-74.0,"mslp":1006.6,"hvtl":54.7,"hvtu":-47.8,"hb":-7.8,"idx":0.6,"cls":1,"psfc":933.1,"terrain":false,"radius_km":200,"name":"sym shallow warm"},"geometry":{"type":"Point","coordinates":[-74.0,-11.75]}},{"type":"Feature","properties":{"kind":"center","id":39,"lat":71.0,"lon":-26.25,"mslp":1006.9,"hvtl":-31.0,"hvtu":-59.4,"hb":16.6,"idx":-1.1,"cls":4,"psfc":901.0,"terrain":true,"radius_km":200,"name":"asym cold"},"geometry":{"type":"Point","coordinates":[-26.25,71.0]}},{"type":"Feature","properties":{"kind":"center","id":40,"lat":-28.25,"lon":-66.5,"mslp":1007.1,"hvtl":-89.8,"hvtu":-96.5,"hb":22.9,"idx":-2.2,"cls":4,"psfc":924.2,"terrain":false,"radius_km":200,"name":"asym cold","track":"T98"},"geometry":{"type":"Point","coordinates":[-66.5,-28.25]}},{"type":"Feature","properties":{"kind":"center","id":41,"lat":-41.75,"lon":159.25,"mslp":1007.6,"hvtl":-27.6,"hvtu":-81.9,"hb":8.7,"idx":-1.2,"cls":5,"psfc":1007.6,"terrain":false,"radius_km":200,"name":"sym cold"},"geometry":{"type":"Point","coordinates":[159.25,-41.75]}},{"type":"Feature","properties":{"kind":"center","id":42,"lat":39.75,"lon":-122.0,"mslp":1008.0,"hvtl":115.7,"hvtu":-227.2,"hb":16.7,"idx":0.7,"cls":3,"psfc":1002.9,"terrain":false,"radius_km":200,"name":"asym shallow warm"},"geometry":{"type":"Point","coordinates":[-122.0,39.75]}},{"type":"Feature","properties":{"kind":"center","id":43,"lat":29.0,"lon":50.75,"mslp":1008.1,"hvtl":51.8,"hvtu":-99.6,"hb":-1.4,"idx":0.2,"cls":1,"psfc":1008.1,"terrain":false,"radius_km":200,"name":"sym shallow warm"},"geometry":{"type":"Point","coordinates":[50.75,29.0]}},{"type":"Feature","properties":{"kind":"center","id":44,"lat":71.5,"lon":-57.25,"mslp":1008.4,"hvtl":-138.7,"hvtu":-126.3,"hb":21.9,"idx":-2.6,"cls":4,"psfc":1008.5,"terrain":false,"radius_km":200,"name":"asym cold","track":"T69"},"geometry":{"type":"Point","coordinates":[-57.25,71.5]}},{"type":"Feature","properties":{"kind":"center","id":45,"lat":-11.25,"lon":-74.25,"mslp":1008.7,"hvtl":43.2,"hvtu":-40.5,"hb":-8.3,"idx":0.4,"cls":1,"psfc":902.5,"terrain":true,"radius_km":200,"name":"sym shallow warm"},"geometry":{"type":"Point","coordinates":[-74.25,-11.25]}},{"type":"Feature","properties":{"kind":"center","id":46,"lat":41.75,"lon":-122.5,"mslp":1011.2,"hvtl":131.9,"hvtu":-122.5,"hb":39.5,"idx":0.9,"cls":3,"psfc":912.8,"terrain":true,"radius_km":200,"name":"asym shallow warm"},"geometry":{"type":"Point","coordinates":[-122.5,41.75]}},{"type":"Feature","properties":{"kind":"center","id":47,"lat":42.25,"lon":-122.75,"mslp":1013.4,"hvtl":123.9,"hvtu":-100.0,"hb":43.7,"idx":0.9,"cls":3,"psfc":914.4,"terrain":true,"radius_km":200,"name":"asym shallow warm"},"geometry":{"type":"Point","coordinates":[-122.75,42.25]}},{"type":"Feature","properties":{"kind":"center","id":48,"lat":-31.75,"lon":-178.75,"mslp":1014.5,"hvtl":60.7,"hvtu":-104.7,"hb":39.3,"idx":0.3,"cls":3,"psfc":1014.5,"terrain":false,"radius_km":200,"name":"asym shallow warm","track":"T130"},"geometry":{"type":"Point","coordinates":[-178.75,-31.75]}},{"type":"Feature","properties":{"kind":"center","id":49,"lat":-43.75,"lon":171.0,"mslp":1019.8,"hvtl":-60.1,"hvtu":-95.1,"hb":24.0,"idx":-1.8,"cls":4,"psfc":909.8,"terrain":true,"radius_km":200,"name":"asym cold"},"geometry":{"type":"Point","coordinates":[171.0,-43.75]}}]}