{"type":"FeatureCollection","features":[{"type":"Feature","properties":{"kind":"blob","cls":6,"id":1},"geometry":{"type":"Polygon","coordinates":[[[179.75,-69.88],[180.0,-65.88],[168.25,-65.12],[163.75,-63.88],[160.25,-64.12],[159.0,-64.62],[158.12,-65.5],[158.75,-66.62],[159.5,-66.88],[168.25,-67.62],[168.5,-68.12],[166.62,-68.5],[168.25,-69.12],[174.75,-69.88],[179.75,-69.88]]]}},{"type":"Feature","properties":{"kind":"blob","cls":6,"id":1},"geometry":{"type":"Polygon","coordinates":[[[-179.75,-65.88],[-180.0,-69.88],[-176.75,-69.62],[-174.38,-68.25],[-174.38,-67.25],[-175.75,-66.38],[-179.75,-65.88]]]}},{"type":"Feature","properties":{"kind":"blob","cls":0,"id":2},"geometry":{"type":"Polygon","coordinates":[[[146.0,-62.38],[147.62,-61.25],[147.62,-60.25],[145.75,-58.88],[141.75,-58.88],[139.88,-60.25],[139.88,-61.25],[141.5,-62.38],[146.0,-62.38]]]}},{"type":"Feature","properties":{"kind":"blob","cls":3,"id":3},"geometry":{"type":"Polygon","coordinates":[[[-10.12,-62.5],[-10.12,-60.75],[-9.5,-60.12],[-9.0,-60.12],[-7.0,-62.38],[-5.75,-62.12],[-3.88,-60.75],[-3.62,-59.5],[-4.75,-58.38],[-8.25,-57.88],[-13.25,-58.88],[-14.88,-60.0],[-14.88,-61.0],[-14.25,-61.62],[-12.5,-62.38],[-10.12,-62.5]]]}},{"type":"Feature","properties":{"kind":"blob","cls":4,"id":4},"geometry":{"type":"Polygon","coordinates":[[[-111.25,-68.12],[-108.88,-66.75],[-108.88,-65.75],[-111.25,-64.38],[-115.5,-63.88],[-118.75,-64.62],[-120.38,-65.75],[-120.38,-66.75],[-120.0,-67.12],[-117.5,-68.12],[-111.25,-68.12]]]}},{"type":"Feature","properties":{"kind":"blob","cls":3,"id":5},"geometry":{"type":"Polygon","coordinates":[[[-36.75,57.12],[-35.12,58.25],[-35.12,59.25],[-36.25,60.38],[-38.0,60.88],[-41.5,60.38],[-42.38,59.5],[-42.38,58.25],[-40.75,57.12],[-36.75,57.12]],[[-40.5,58.62],[-40.62,59.0],[-38.75,59.38],[-37.62,58.75],[-38.25,58.38],[-40.5,58.62]]]}},{"type":"Feature","properties":{"kind":"blob","cls":3,"id":6},"geometry":{"type":"Polygon","coordinates":[[[-123.25,-52.88],[-121.75,-52.38],[-120.88,-51.25],[-121.12,-50.25],[-122.0,-49.38],[-123.5,-48.88],[-126.5,-49.38],[-127.38,-50.5],[-127.38,-51.25],[-126.5,-52.38],[-123.25,-52.88]]]}},{"type":"Feature","properties":{"kind":"blob","cls":4,"id":7},"geometry":{"type":"Polygon","coordinates":[[[-114.75,-59.38],[-112.75,-58.62],[-112.12,-57.75],[-112.38,-56.75],[-114.75,-55.62],[-116.25,-55.62],[-118.25,-56.38],[-118.88,-57.25],[-118.62,-58.25],[-117.25,-59.12],[-114.75,-59.38]]]}},{"type":"Feature","properties":{"kind":"blob","cls":0,"id":8},"geometry":{"type":"Polygon","coordinates":[[[148.0,25.38],[149.12,27.0],[148.0,28.62],[147.25,28.88],[146.0,28.62],[144.88,27.0],[146.0,25.38],[148.0,25.38]]]}},{"type":"Feature","properties":{"kind":"blob","cls":4,"id":9},"geometry":{"type":"Polygon","coordinates":[[[-24.25,58.12],[-22.5,58.62],[-21.62,59.25],[-21.38,60.25],[-22.5,61.38],[-24.75,62.12],[-26.75,62.12],[-29.0,61.38],[-29.62,60.5],[-29.38,59.5],[-28.0,58.62],[-24.25,58.12]]]}},{"type":"Feature","properties":{"kind":"blob","cls":1,"id":10},"geometry":{"type":"Polygon","coordinates":[[[69.25,-68.38],[74.5,-68.38],[76.5,-67.12],[80.75,-66.88],[82.75,-66.38],[84.25,-65.38],[89.25,-64.88],[92.75,-63.38],[93.12,-62.25],[92.0,-61.12],[90.0,-60.62],[85.5,-60.88],[79.75,-62.62],[76.25,-63.12],[74.25,-63.88],[73.25,-64.88],[68.5,-64.88],[66.75,-65.62],[65.88,-66.5],[65.88,-67.0],[66.75,-67.88],[69.25,-68.38]]]}},{"type":"Feature","properties":{"kind":"blob","cls":4,"id":11},"geometry":{"type":"Polygon","coordinates":[[[125.5,-66.88],[125.62,-66.5],[125.0,-65.62],[122.0,-64.62],[116.75,-64.62],[114.0,-65.38],[113.12,-66.0],[114.0,-66.62],[125.5,-66.88]]]}},{"type":"Feature","properties":{"kind":"blob","cls":4,"id":12},"geometry":{"type":"Polygon","coordinates":[[[29.5,-57.62],[30.88,-56.5],[30.88,-55.25],[29.75,-54.12],[28.0,-53.62],[25.5,-53.62],[23.75,-54.12],[22.88,-55.0],[22.88,-56.25],[24.75,-57.62],[29.5,-57.62]]]}},{"type":"Feature","properties":{"kind":"blob","cls":4,"id":13},"geometry":{"type":"Polygon","coordinates":[[[129.25,-53.38],[130.62,-52.25],[130.62,-51.25],[129.0,-49.88],[125.75,-49.88],[124.12,-51.25],[124.12,-52.25],[125.0,-53.12],[129.25,-53.38]]]}},{"type":"Feature","properties":{"kind":"blob","cls":3,"id":14},"geometry":{"type":"Polygon","coordinates":[[[72.0,67.38],[74.5,68.38],[75.38,69.25],[75.38,69.75],[74.5,70.62],[73.0,71.12],[67.25,71.38],[64.0,70.62],[62.62,69.5],[62.62,69.0],[63.5,68.12],[65.25,67.38],[72.0,67.38]]]}},{"type":"Feature","properties":{"kind":"blob","cls":4,"id":15},"geometry":{"type":"MultiPolygon","coordinates":[[[[41.12,-68.5],[42.12,-68.5],[42.0,-68.38],[41.12,-68.5]]],[[[42.25,-68.12],[42.12,-68.25],[42.75,-68.38],[42.25,-68.12]]],[[[42.88,-68.0],[47.0,-67.88],[49.0,-67.62],[49.12,-67.25],[47.0,-66.12],[43.5,-65.88],[41.25,-66.38],[39.88,-67.25],[44.12,-67.25],[42.88,-68.0]]]]}},{"type":"Feature","properties":{"kind":"blob","cls":1,"id":16},"geometry":{"type":"Polygon","coordinates":[[[-168.25,59.88],[-166.62,61.0],[-166.38,62.0],[-166.88,63.0],[-167.75,63.62],[-169.75,64.12],[-171.75,64.12],[-171.62,63.0],[-172.75,62.38],[-175.62,63.0],[-175.88,61.75],[-174.75,60.62],[-173.0,59.88],[-168.25,59.88]]]}},{"type":"Feature","properties":{"kind":"blob","cls":5,"id":17},"geometry":{"type":"Polygon","coordinates":[[[40.62,-68.75],[40.75,-68.88],[40.88,-68.75],[40.62,-68.75]]]}},{"type":"Feature","properties":{"kind":"blob","cls":4,"id":18},"geometry":{"type":"Polygon","coordinates":[[[-62.25,-77.38],[-60.25,-76.88],[-58.88,-75.75],[-60.25,-74.62],[-62.25,-74.12],[-67.0,-75.88],[-73.12,-76.0],[-72.5,-75.88],[-72.25,-75.38],[-73.25,-75.38],[-73.62,-75.75],[-72.25,-76.88],[-70.25,-77.38],[-62.25,-77.38]]]}},{"type":"Feature","properties":{"kind":"blob","cls":5,"id":19},"geometry":{"type":"Polygon","coordinates":[[[179.75,-80.12],[180.0,-79.12],[176.0,-79.12],[174.88,-79.5],[179.0,-79.88],[179.75,-80.12]]]}},{"type":"Feature","properties":{"kind":"blob","cls":5,"id":19},"geometry":{"type":"Polygon","coordinates":[[[-179.75,-79.12],[-180.0,-80.12],[-178.5,-80.38],[-159.5,-82.12],[-157.5,-82.12],[-156.88,-81.75],[-157.0,-81.12],[-158.0,-80.62],[-162.5,-79.88],[-173.0,-79.12],[-179.75,-79.12]]]}},{"type":"Feature","properties":{"kind":"blob","cls":5,"id":20},"geometry":{"type":"Polygon","coordinates":[[[179.75,-82.88],[180.0,-82.12],[171.75,-81.38],[167.75,-80.62],[166.5,-80.62],[166.12,-81.0],[172.25,-82.38],[179.75,-82.88]]]}},{"type":"Feature","properties":{"kind":"blob","cls":5,"id":20},"geometry":{"type":"Polygon","coordinates":[[[-179.75,-82.12],[-180.0,-82.88],[-178.5,-83.12],[-171.38,-83.0],[-179.0,-82.38],[-179.75,-82.12]]]}},{"type":"Feature","properties":{"kind":"blob","cls":4,"id":21},"geometry":{"type":"Polygon","coordinates":[[[179.75,83.88],[180.0,86.88],[173.5,86.38],[171.38,85.5],[174.25,84.38],[179.75,83.88]]]}},{"type":"Feature","properties":{"kind":"blob","cls":4,"id":21},"geometry":{"type":"Polygon","coordinates":[[[-179.75,86.88],[-180.0,83.88],[-165.25,82.88],[-155.0,82.88],[-145.25,83.38],[-138.5,84.38],[-136.88,85.25],[-137.5,85.88],[-139.25,86.38],[-147.5,87.12],[-170.75,87.38],[-179.75,86.88]]]}},{"type":"Feature","properties":{"kind":"blob","cls":5,"id":22},"geometry":{"type":"Polygon","coordinates":[[[-170.25,-83.38],[-168.38,-83.25],[-168.5,-83.12],[-170.25,-83.38]]]}},{"type":"Feature","properties":{"kind":"blob","cls":4,"id":23},"geometry":{"type":"Polygon","coordinates":[[[-100.5,70.88],[-96.25,72.12],[-95.62,72.75],[-95.62,73.5],[-97.5,74.88],[-102.25,75.88],[-109.25,75.62],[-112.0,74.62],[-112.88,73.75],[-112.88,72.75],[-111.25,71.62],[-108.75,70.88],[-100.5,70.88]]]}},{"type":"Feature","properties":{"kind":"blob","cls":4,"id":24},"geometry":{"type":"Polygon","coordinates":[[[-61.25,-71.38],[-59.75,-70.88],[-58.88,-70.0],[-58.88,-69.5],[-59.75,-68.62],[-61.25,-68.12],[-65.25,-67.88],[-65.62,-68.25],[-65.5,-68.88],[-64.25,-68.88],[-63.25,-69.38],[-62.88,-70.5],[-61.25,-71.38]]]}},{"type":"Feature","properties":{"kind":"blob","cls":4,"id":25},"geometry":{"type":"Polygon","coordinates":[[[-52.75,-65.88],[-51.12,-65.0],[-50.88,-64.0],[-52.25,-62.38],[-54.75,-61.62],[-56.25,-61.62],[-60.5,-62.62],[-62.12,-63.5],[-62.25,-64.62],[-59.0,-63.88],[-62.12,-65.0],[-60.5,-65.88],[-52.75,-65.88]]]}},{"type":"Feature","properties":{"kind":"blob","cls":4,"id":26},"geometry":{"type":"Polygon","coordinates":[[[-79.5,-79.38],[-78.25,-79.62],[-76.38,-78.5],[-78.0,-77.38],[-79.0,-77.38],[-79.5,-79.38]]]}},{"type":"Feature","properties":{"kind":"blob","cls":4,"id":27},"geometry":{"type":"Polygon","coordinates":[[[-67.0,-71.38],[-66.88,-70.75],[-67.62,-70.0],[-66.38,-69.25],[-66.75,-68.12],[-68.5,-68.62],[-69.38,-69.5],[-69.38,-70.0],[-68.5,-70.88],[-67.0,-71.38]]]}},{"type":"Feature","properties":{"kind":"blob","cls":4,"id":28},"geometry":{"type":"Polygon","coordinates":[[[-131.0,72.38],[-128.25,73.38],[-127.88,74.0],[-128.25,74.62],[-131.0,75.62],[-137.5,75.88],[-141.5,75.12],[-142.88,74.0],[-142.5,73.38],[-140.75,72.62],[-131.0,72.38]]]}},{"type":"Feature","properties":{"kind":"blob","cls":4,"id":29},"geometry":{"type":"MultiPolygon","coordinates":[[[[-116.5,34.12],[-116.62,34.0],[-116.5,33.88],[-116.5,34.12]]],[[[-115.75,33.88],[-114.88,34.5],[-116.25,35.38],[-118.12,35.25],[-118.0,34.62],[-116.75,34.88],[-115.75,33.88]]],[[[-117.75,35.88],[-117.5,35.38],[-116.88,35.75],[-117.0,35.88],[-117.75,35.88]]]]}},{"type":"Feature","properties":{"kind":"blob","cls":1,"id":30},"geometry":{"type":"Polygon","coordinates":[[[-118.88,36.5],[-121.75,40.12],[-122.38,39.25],[-122.12,38.25],[-120.5,36.62],[-118.88,36.5]]]}},{"type":"Feature","properties":{"kind":"blob","cls":3,"id":31},"geometry":{"type":"Polygon","coordinates":[[[64.75,77.38],[65.5,77.12],[70.25,77.62],[72.5,78.38],[72.88,79.25],[71.25,80.12],[68.5,80.62],[61.25,80.88],[56.5,80.38],[53.88,79.25],[53.88,78.75],[54.75,78.12],[58.75,77.38],[58.62,79.0],[59.5,79.62],[63.75,79.62],[64.75,79.38],[65.38,78.75],[65.38,78.0],[64.75,77.38]]]}},{"type":"Feature","properties":{"kind":"blob","cls":5,"id":32},"geometry":{"type":"Polygon","coordinates":[[[-82.0,-50.62],[-80.25,-49.88],[-79.88,-49.25],[-79.88,-47.75],[-80.75,-46.88],[-82.0,-46.38],[-83.75,-46.38],[-85.0,-46.88],[-85.88,-47.75],[-85.88,-49.0],[-85.25,-49.88],[-82.0,-50.62]]]}},{"type":"Feature","properties":{"kind":"blob","cls":4,"id":33},"geometry":{"type":"Polygon","coordinates":[[[5.0,77.88],[11.75,78.88],[12.88,79.75],[12.25,80.38],[8.38,81.25],[13.0,82.12],[13.62,82.5],[13.62,83.0],[11.25,83.88],[7.25,84.38],[-9.25,84.62],[-20.0,83.62],[-21.25,83.38],[-22.88,82.25],[-22.25,81.62],[-19.0,80.88],[-7.0,80.38],[-7.38,79.75],[-5.5,78.62],[-2.75,78.12],[5.0,77.88]]]}},{"type":"Feature","properties":{"kind":"blob","cls":4,"id":34},"geometry":{"type":"Polygon","coordinates":[[[-101.0,38.12],[-100.5,38.12],[-98.88,39.5],[-99.12,41.0],[-100.25,42.12],[-101.12,41.25],[-100.88,40.75],[-101.38,40.25],[-100.88,39.5],[-101.0,38.12]]]}},{"type":"Feature","properties":{"kind":"blob","cls":3,"id":35},"geometry":{"type":"Polygon","coordinates":[[[-40.0,-41.62],[-38.5,-40.62],[-35.75,-40.12],[-34.62,-38.75],[-34.88,-37.5],[-36.0,-36.38],[-38.0,-36.12],[-40.0,-37.62],[-41.75,-37.88],[-42.25,-38.38],[-44.25,-36.88],[-46.5,-37.12],[-47.38,-38.0],[-47.62,-39.25],[-46.5,-40.62],[-44.25,-40.88],[-43.0,-40.12],[-42.0,-41.38],[-40.0,-41.62]]]}},{"type":"Feature","properties":{"kind":"blob","cls":3,"id":36},"geometry":{"type":"Polygon","coordinates":[[[18.75,55.12],[22.0,56.38],[22.88,57.5],[22.88,59.0],[21.25,60.12],[18.5,60.38],[18.12,59.5],[16.5,57.88],[15.5,57.88],[14.5,59.12],[14.0,58.88],[13.12,57.75],[13.38,56.75],[15.25,55.38],[18.75,55.12]]]}},{"type":"Feature","properties":{"kind":"blob","cls":3,"id":37},"geometry":{"type":"Polygon","coordinates":[[[6.5,62.62],[8.0,62.88],[9.62,63.75],[8.12,65.25],[8.38,66.0],[7.75,66.38],[4.25,66.62],[2.0,66.12],[0.88,65.25],[0.88,64.0],[1.25,63.62],[2.75,62.88],[6.5,62.62]]]}},{"type":"Feature","properties":{"kind":"blob","cls":4,"id":38},"geometry":{"type":"Polygon","coordinates":[[[-80.5,48.62],[-79.25,49.88],[-75.25,49.62],[-73.5,50.12],[-71.38,51.75],[-71.38,52.75],[-72.25,53.62],[-73.75,54.12],[-79.75,53.88],[-81.12,52.75],[-81.25,51.88],[-83.5,51.88],[-84.62,51.0],[-84.62,49.5],[-83.5,48.62],[-80.5,48.62]]]}},{"type":"Feature","properties":{"kind":"blob","cls":4,"id":39},"geometry":{"type":"Polygon","coordinates":[[[-89.5,46.12],[-86.25,47.62],[-85.62,49.25],[-85.88,50.0],[-88.0,51.12],[-90.25,51.12],[-92.0,50.62],[-93.62,49.5],[-93.88,47.75],[-93.0,46.88],[-89.5,46.12]]]}},{"type":"Feature","properties":{"kind":"blob","cls":4,"id":40},"geometry":{"type":"MultiPolygon","coordinates":[[[[25.25,42.88],[26.75,42.62],[28.62,43.75],[28.88,45.0],[27.75,46.38],[26.25,46.88],[26.0,46.38],[24.5,46.62],[23.62,46.0],[24.0,45.62],[26.62,45.75],[26.0,45.38],[23.12,45.25],[23.38,44.0],[25.25,42.88]]],[[[23.5,45.88],[23.38,45.75],[23.5,45.62],[23.5,45.88]]]]}},{"type":"Feature","properties":{"kind":"blob","cls":1,"id":41},"geometry":{"type":"Polygon","coordinates":[[[40.0,14.12],[40.75,14.12],[41.62,14.75],[40.5,15.62],[39.62,15.25],[40.0,14.12]]]}},{"type":"Feature","properties":{"kind":"blob","cls":3,"id":42},"geometry":{"type":"Polygon","coordinates":[[[145.0,31.38],[146.12,32.25],[146.38,34.25],[145.75,35.12],[144.0,35.62],[142.75,35.12],[141.88,34.25],[141.88,32.25],[142.5,31.62],[145.0,31.38]]]}},{"type":"Feature","properties":{"kind":"blob","cls":2,"id":43},"geometry":{"type":"Polygon","coordinates":[[[37.75,0.62],[38.38,1.75],[38.12,3.0],[36.75,4.12],[35.25,3.62],[35.5,2.88],[36.0,3.12],[36.5,2.12],[36.75,2.38],[37.38,1.75],[37.75,0.62]]]}},{"type":"Feature","properties":{"kind":"blob","cls":4,"id":44},"geometry":{"type":"Polygon","coordinates":[[[-81.25,36.38],[-79.62,37.5],[-79.38,38.75],[-80.5,40.12],[-83.0,40.38],[-84.62,39.25],[-84.62,37.75],[-83.75,36.88],[-81.25,36.38]],[[-80.0,38.62],[-79.62,38.5],[-80.0,38.38],[-80.0,38.62]]]}},{"type":"Feature","properties":{"kind":"blob","cls":4,"id":45},"geometry":{"type":"MultiPolygon","coordinates":[[[[-69.0,-13.62],[-69.12,-13.75],[-69.0,-13.88],[-69.0,-13.62]]],[[[-70.5,-13.38],[-70.0,-13.62],[-69.12,-13.5],[-70.0,-13.12],[-70.5,-13.38]]]]}},{"type":"Feature","properties":{"kind":"blob","cls":4,"id":46},"geometry":{"type":"Polygon","coordinates":[[[119.75,46.12],[120.75,45.88],[123.25,46.62],[124.12,47.5],[124.12,48.5],[122.75,49.62],[122.0,49.38],[122.0,49.88],[118.5,49.12],[117.62,48.25],[117.62,47.25],[118.5,46.38],[119.12,46.5],[119.62,47.75],[120.75,48.88],[121.62,48.75],[121.62,48.0],[121.12,48.0],[120.88,47.0],[119.75,46.12]]]}},{"type":"Feature","properties":{"kind":"blob","cls":1,"id":47},"geometry":{"type":"Polygon","coordinates":[[[51.0,28.38],[51.88,29.25],[51.12,30.0],[51.25,30.38],[50.75,30.38],[49.88,31.25],[49.75,31.88],[49.0,31.62],[47.88,30.25],[48.12,29.25],[49.0,28.38],[51.0,28.38]]]}},{"type":"Feature","properties":{"kind":"blob","cls":4,"id":48},"geometry":{"type":"Polygon","coordinates":[[[-64.5,-17.38],[-64.38,-17.0],[-65.25,-15.88],[-66.5,-15.62],[-66.62,-16.0],[-64.5,-17.38]]]}},{"type":"Feature","properties":{"kind":"blob","cls":5,"id":49},"geometry":{"type":"Polygon","coordinates":[[[-68.75,-32.88],[-68.0,-32.62],[-67.38,-31.75],[-67.5,-31.38],[-68.12,-31.5],[-67.62,-31.0],[-68.25,-29.88],[-68.62,-30.5],[-68.75,-32.88]]]}},{"type":"Feature","properties":{"kind":"blob","cls":3,"id":50},"geometry":{"type":"Polygon","coordinates":[[[58.75,28.88],[59.88,29.5],[59.88,31.0],[59.5,31.38],[58.12,30.75],[57.88,29.75],[58.75,28.88]]]}},{"type":"Feature","properties":{"kind":"blob","cls":4,"id":51},"geometry":{"type":"Polygon","coordinates":[[[-64.38,-22.5],[-64.25,-22.88],[-63.38,-22.0],[-63.38,-21.0],[-64.0,-20.62],[-64.12,-21.25],[-63.62,-21.75],[-64.38,-22.5]]]}},{"type":"Feature","properties":{"kind":"blob","cls":4,"id":52},"geometry":{"type":"MultiPolygon","coordinates":[[[[-64.75,-26.38],[-64.38,-26.0],[-64.5,-24.62],[-65.12,-25.75],[-64.75,-26.38]]],[[[-64.88,-25.0],[-65.0,-24.88],[-65.12,-25.0],[-64.88,-25.0]]],[[[-64.88,-24.25],[-64.75,-24.62],[-64.62,-24.5],[-64.88,-24.25]]]]}},{"type":"Feature","properties":{"kind":"blob","cls":1,"id":53},"geometry":{"type":"MultiPolygon","coordinates":[[[[63.0,29.12],[63.0,28.62],[64.38,29.0],[64.25,29.12],[63.0,29.12]]],[[[64.38,29.25],[65.0,29.12],[65.62,29.75],[65.5,29.88],[64.38,29.25]]]]}},{"type":"Feature","properties":{"kind":"blob","cls":4,"id":54},"geometry":{"type":"Polygon","coordinates":[[[28.25,-35.12],[29.75,-35.12],[30.88,-34.0],[30.62,-32.25],[29.0,-31.38],[27.25,-31.88],[27.38,-32.5],[26.62,-32.75],[26.88,-34.5],[28.25,-35.12]]]}},{"type":"Feature","properties":{"kind":"blob","cls":3,"id":55},"geometry":{"type":"Polygon","coordinates":[[[62.5,28.88],[62.38,29.25],[63.12,29.5],[63.12,30.0],[62.5,30.12],[61.5,31.38],[60.5,31.62],[60.62,30.25],[62.5,28.88]]]}},{"type":"Feature","properties":{"kind":"blob","cls":4,"id":56},"geometry":{"type":"MultiPolygon","coordinates":[[[[-70.12,-37.75],[-70.12,-38.25],[-69.75,-38.38],[-69.62,-38.0],[-70.12,-37.75]]],[[[-69.25,-38.38],[-67.5,-37.88],[-66.88,-37.25],[-66.88,-35.75],[-68.25,-34.88],[-68.12,-36.25],[-68.75,-37.12],[-69.62,-37.25],[-69.25,-38.38]],[[-68.75,-37.88],[-69.12,-37.75],[-69.0,-37.62],[-68.75,-37.88]]],[[[-68.38,-34.75],[-68.5,-34.62],[-68.62,-34.75],[-68.38,-34.75]]]]}},{"type":"Feature","properties":{"kind":"blob","cls":4,"id":57},"geometry":{"type":"MultiPolygon","coordinates":[[[[-71.12,-32.5],[-71.0,-32.62],[-70.88,-32.25],[-71.12,-32.5]]],[[[-71.62,-31.75],[-71.25,-32.12],[-70.88,-31.75],[-71.0,-30.38],[-71.62,-30.75],[-71.62,-31.75]]]]}},{"type":"Feature","properties":{"kind":"blob","cls":4,"id":58},"geometry":{"type":"Polygon","coordinates":[[[-65.25,-26.88],[-65.25,-26.12],[-65.38,-26.25],[-65.25,-26.88]]]}},{"type":"Feature","properties":{"kind":"blob","cls":4,"id":59},"geometry":{"type":"Polygon","coordinates":[[[-71.12,-30.0],[-71.0,-30.12],[-70.88,-30.0],[-71.12,-30.0]]]}},{"type":"Feature","properties":{"kind":"blob","cls":4,"id":60},"geometry":{"type":"Polygon","coordinates":[[[-71.75,-37.38],[-71.0,-34.88],[-71.88,-35.5],[-71.75,-37.38]]]}},{"type":"Feature","properties":{"kind":"blob","cls":3,"id":61},"geometry":{"type":"Polygon","coordinates":[[[61.75,32.12],[62.12,32.75],[61.25,33.38],[60.62,32.75],[61.75,32.12]]]}},{"type":"Feature","properties":{"kind":"blob","cls":5,"id":62},"geometry":{"type":"Polygon","coordinates":[[[87.25,25.12],[88.38,26.75],[85.25,27.38],[84.5,27.88],[82.75,27.88],[82.38,27.0],[82.62,26.25],[83.5,25.38],[87.25,25.12]]]}},{"type":"Feature","properties":{"kind":"blob","cls":0,"id":63},"geometry":{"type":"Polygon","coordinates":[[[44.75,-25.62],[45.62,-24.75],[45.62,-23.25],[44.0,-22.12],[42.75,-22.38],[41.88,-23.25],[41.88,-24.75],[42.75,-25.62],[44.75,-25.62]]]}},{"type":"Feature","properties":{"kind":"blob","cls":4,"id":64},"geometry":{"type":"MultiPolygon","coordinates":[[[[71.0,41.12],[70.88,41.0],[71.0,40.88],[71.0,41.12]]],[[[68.75,39.88],[69.5,39.88],[70.88,40.75],[69.62,40.5],[69.62,41.75],[70.12,42.25],[69.5,42.38],[68.38,41.25],[68.75,39.88]]],[[[70.38,42.5],[70.25,42.62],[70.12,42.5],[70.38,42.5]]]]}},{"type":"Feature","properties":{"kind":"blob","cls":4,"id":65},"geometry":{"type":"Polygon","coordinates":[[[70.75,42.88],[71.5,42.62],[72.62,43.0],[71.5,43.12],[70.75,42.88]]]}},{"type":"Feature","properties":{"kind":"center","id":1,"lat":-66.0,"lon":163.25,"mslp":950.7,"hvtl":-72.4,"hvtu":8.0,"hb":64.4,"idx":-1.2,"cls":6,"psfc":950.7,"terrain":false,"radius_km":200,"name":"shallow cold","track":"T06"},"geometry":{"type":"Point","coordinates":[163.25,-66.0]}},{"type":"Feature","properties":{"kind":"center","id":2,"lat":-60.75,"lon":143.75,"mslp":950.8,"hvtl":68.9,"hvtu":8.8,"hb":0.1,"idx":1.3,"cls":0,"psfc":950.8,"terrain":false,"radius_km":200,"name":"sym deep warm","track":"T03"},"geometry":{"type":"Point","coordinates":[143.75,-60.75]}},{"type":"Feature","properties":{"kind":"center","id":3,"lat":-60.25,"lon":-8.5,"mslp":956.0,"hvtl":163.2,"hvtu":-108.3,"hb":29.9,"idx":1.1,"cls":3,"psfc":956.0,"terrain":false,"radius_km":200,"name":"asym shallow warm","track":"T19"},"geometry":{"type":"Point","coordinates":[-8.5,-60.25]}},{"type":"Feature","properties":{"kind":"center","id":4,"lat":-66.0,"lon":-114.25,"mslp":956.3,"hvtl":-67.9,"hvtu":-77.6,"hb":22.6,"idx":-1.8,"cls":4,"psfc":956.3,"terrain":false,"radius_km":200,"name":"asym cold","track":"T12"},"geometry":{"type":"Point","coordinates":[-114.25,-66.0]}},{"type":"Feature","properties":{"kind":"center","id":5,"lat":59.25,"lon":-38.5,"mslp":960.4,"hvtl":209.1,"hvtu":-69.8,"hb":19.0,"idx":1.3,"cls":3,"psfc":960.4,"terrain":false,"radius_km":200,"name":"asym shallow warm","track":"T14"},"geometry":{"type":"Point","coordinates":[-38.5,59.25]}},{"type":"Feature","properties":{"kind":"center","id":6,"lat":-50.75,"lon":-124.25,"mslp":961.4,"hvtl":22.2,"hvtu":-202.5,"hb":12.1,"idx":-0.5,"cls":3,"psfc":961.4,"terrain":false,"radius_km":200,"name":"asym shallow warm","track":"T26"},"geometry":{"type":"Point","coordinates":[-124.25,-50.75]}},{"type":"Feature","properties":{"kind":"center","id":7,"lat":-57.5,"lon":-115.5,"mslp":964.0,"hvtl":-60.0,"hvtu":-134.0,"hb":20.7,"idx":-1.9,"cls":4,"psfc":964.0,"terrain":false,"radius_km":200,"name":"asym cold"},"geometry":{"type":"Point","coordinates":[-115.5,-57.5]}},{"type":"Feature","properties":{"kind":"center","id":8,"lat":27.0,"lon":147.0,"mslp":966.8,"hvtl":78.0,"hvtu":254.2,"hb":1.2,"idx":2.3,"cls":0,"psfc":966.8,"terrain":false,"radius_km":200,"name":"sym deep warm","track":"T09"},"geometry":{"type":"Point","coordinates":[147.0,27.0]}},{"type":"Feature","properties":{"kind":"center","id":9,"lat":60.25,"lon":-25.75,"mslp":972.1,"hvtl":-86.3,"hvtu":-233.0,"hb":38.1,"idx":-2.4,"cls":4,"psfc":972.1,"terrain":false,"radius_km":200,"name":"asym cold","track":"T17"},"geometry":{"type":"Point","coordinates":[-25.75,60.25]}},{"type":"Feature","properties":{"kind":"center","id":10,"lat":-63.0,"lon":86.75,"mslp":973.3,"hvtl":44.2,"hvtu":-208.6,"hb":6.4,"idx":-0.1,"cls":1,"psfc":973.2,"terrain":false,"radius_km":200,"name":"sym shallow warm","track":"T38"},"geometry":{"type":"Point","coordinates":[86.75,-63.0]}},{"type":"Feature","properties":{"kind":"center","id":11,"lat":-66.75,"lon":119.5,"mslp":974.0,"hvtl":-175.8,"hvtu":-165.6,"hb":32.6,"idx":-2.8,"cls":4,"psfc":973.8,"terrain":false,"radius_km":200,"name":"asym cold","track":"T33"},"geometry":{"type":"Point","coordinates":[119.5,-66.75]}},{"type":"Feature","properties":{"kind":"center","id":12,"lat":-56.0,"lon":27.0,"mslp":976.4,"hvtl":-4.5,"hvtu":-233.9,"hb":59.3,"idx":-1.1,"cls":4,"psfc":976.4,"terrain":false,"radius_km":200,"name":"asym cold","track":"T46"},"geometry":{"type":"Point","coordinates":[27.0,-56.0]}},{"type":"Feature","properties":{"kind":"center","id":13,"lat":-51.75,"lon":127.25,"mslp":979.5,"hvtl":-24.8,"hvtu":-160.7,"hb":11.5,"idx":-1.4,"cls":4,"psfc":979.5,"terrain":false,"radius_km":200,"name":"asym cold","track":"T55"},"geometry":{"type":"Point","coordinates":[127.25,-51.75]}},{"type":"Feature","properties":{"kind":"center","id":14,"lat":69.0,"lon":68.25,"mslp":980.3,"hvtl":124.8,"hvtu":-34.9,"hb":15.2,"idx":1.4,"cls":3,"psfc":980.1,"terrain":false,"radius_km":200,"name":"asym shallow warm","track":"T57"},"geometry":{"type":"Point","coordinates":[68.25,69.0]}},{"type":"Feature","properties":{"kind":"center","id":15,"lat":-67.0,"lon":47.25,"mslp":982.2,"hvtl":-54.9,"hvtu":-50.7,"hb":11.4,"idx":-1.5,"cls":4,"psfc":982.2,"terrain":false,"radius_km":200,"name":"asym cold"},"geometry":{"type":"Point","coordinates":[47.25,-67.0]}},{"type":"Feature","properties":{"kind":"center","id":16,"lat":62.0,"lon":-171.25,"mslp":983.4,"hvtl":6.1,"hvtu":-100.7,"hb":2.9,"idx":-0.6,"cls":1,"psfc":983.4,"terrain":false,"radius_km":200,"name":"sym shallow warm","track":"T48"},"geometry":{"type":"Point","coordinates":[-171.25,62.0]}},{"type":"Feature","properties":{"kind":"center","id":17,"lat":-68.75,"lon":40.75,"mslp":984.8,"hvtl":-70.9,"hvtu":-70.5,"hb":4.5,"idx":-1.8,"cls":5,"psfc":938.3,"terrain":false,"radius_km":200,"name":"sym cold"},"geometry":{"type":"Point","coordinates":[40.75,-68.75]}},{"type":"Feature","properties":{"kind":"center","id":18,"lat":-76.25,"lon":-71.5,"mslp":987.4,"hvtl":-302.6,"hvtu":-135.3,"hb":85.4,"idx":-2.9,"cls":4,"psfc":910.0,"terrain":false,"radius_km":200,"name":"asym cold"},"geometry":{"type":"Point","coordinates":[-71.5,-76.25]}},{"type":"Feature","properties":{"kind":"center","id":19,"lat":-81.0,"lon":-170.75,"mslp":988.0,"hvtl":-22.8,"hvtu":-134.9,"hb":7.3,"idx":-1.3,"cls":5,"psfc":980.5,"terrain":false,"radius_km":200,"name":"sym cold","track":"T60"},"geometry":{"type":"Point","coordinates":[-170.75,-81.0]}},{"type":"Feature","properties":{"kind":"center","id":20,"lat":-81.75,"lon":176.0,"mslp":988.4,"hvtl":-26.6,"hvtu":-92.2,"hb":-0.7,"idx":-1.2,"cls":5,"psfc":981.3,"terrain":false,"radius_km":200,"name":"sym cold","track":"T54"},"geometry":{"type":"Point","coordinates":[176.0,-81.75]}},{"type":"Feature","properties":{"kind":"center","id":21,"lat":85.25,"lon":-161.5,"mslp":990.9,"hvtl":-42.0,"hvtu":-137.9,"hb":58.7,"idx":-1.7,"cls":4,"psfc":990.9,"terrain":false,"radius_km":200,"name":"asym cold","track":"T72"},"geometry":{"type":"Point","coordinates":[-161.5,85.25]}},{"type":"Feature","properties":{"kind":"center","id":22,"lat":-83.25,"lon":-170.25,"mslp":991.1,"hvtl":-55.0,"hvtu":-73.8,"hb":-8.1,"idx":-1.6,"cls":5,"psfc":979.9,"terrain":false,"radius_km":200,"name":"sym cold"},"geometry":{"type":"Point","coordinates":[-170.25,-83.25]}},{"type":"Feature","properties":{"kind":"center","id":23,"lat":73.0,"lon":-104.75,"mslp":992.5,"hvtl":-245.5,"hvtu":-215.1,"hb":67.2,"idx":-2.9,"cls":4,"psfc":991.7,"terrain":false,"radius_km":200,"name":"asym cold","track":"T68"},"geometry":{"type":"Point","coordinates":[-104.75,73.0]}},{"type":"Feature","properties":{"kind":"center","id":24,"lat":-69.25,"lon":-63.75,"mslp":992.7,"hvtl":-172.5,"hvtu":-145.2,"hb":49.2,"idx":-2.8,"cls":4,"psfc":900.8,"terrain":true,"radius_km":200,"name":"asym cold"},"geometry":{"type":"Point","coordinates":[-63.75,-69.25]}},{"type":"Feature","properties":{"kind":"center","id":25,"lat":-65.5,"lon":-61.0,"mslp":992.8,"hvtl":-176.4,"hvtu":-176.6,"hb":32.4,"idx":-2.8,"cls":4,"psfc":989.9,"terrain":false,"radius_km":200,"name":"asym cold"},"geometry":{"type":"Point","coordinates":[-61.0,-65.5]}},{"type":"Feature","properties":{"kind":"center","id":26,"lat":-77.5,"lon":-79.0,"mslp":993.2,"hvtl":-333.8,"hvtu":-110.7,"hb":100.2,"idx":-2.8,"cls":4,"psfc":910.7,"terrain":false,"radius_km":200,"name":"asym cold","track":"T40"},"geometry":{"type":"Point","coordinates":[-79.0,-77.5]}},{"type":"Feature","properties":{"kind":"center","id":27,"lat":-69.5,"lon":-66.75,"mslp":994.0,"hvtl":-195.3,"hvtu":-167.0,"hb":48.3,"idx":-2.9,"cls":4,"psfc":907.8,"terrain":false,"radius_km":200,"name":"asym cold"},"geometry":{"type":"Point","coordinates":[-66.75,-69.5]}},{"type":"Feature","properties":{"kind":"center","id":28,"lat":74.0,"lon":-133.75,"mslp":995.6,"hvtl":-227.6,"hvtu":-127.9,"hb":74.2,"idx":-2.8,"cls":4,"psfc":995.6,"terrain":false,"radius_km":200,"name":"asym cold"},"geometry":{"type":"Point","coordinates":[-133.75,74.0]}},{"type":"Feature","properties":{"kind":"center","id":29,"lat":35.75,"lon":-117.0,"mslp":997.6,"hvtl":-70.0,"hvtu":-158.1,"hb":26.4,"idx":-2.1,"cls":4,"psfc":903.5,"terrain":true,"radius_km":200,"name":"asym cold"},"geometry":{"type":"Point","coordinates":[-117.0,35.75]}},{"type":"Feature","properties":{"kind":"center","id":30,"lat":39.75,"lon":-121.5,"mslp":997.6,"hvtl":139.9,"hvtu":-220.0,"hb":9.1,"idx":0.8,"cls":1,"psfc":922.0,"terrain":false,"radius_km":200,"name":"sym shallow warm"},"geometry":{"type":"Point","coordinates":[-121.5,39.75]}},{"type":"Feature","properties":{"kind":"center","id":31,"lat":77.25,"lon":64.75,"mslp":997.9,"hvtl":242.1,"hvtu":-255.9,"hb":18.3,"idx":1.0,"cls":3,"psfc":997.9,"terrain":false,"radius_km":200,"name":"asym shallow warm","track":"T74"},"geometry":{"type":"Point","coordinates":[64.75,77.25]}},{"type":"Feature","properties":{"kind":"center","id":32,"lat":-48.5,"lon":-82.75,"mslp":999.4,"hvtl":-15.9,"hvtu":-49.0,"hb":-6.4,"idx":-0.8,"cls":5,"psfc":999.4,"terrain":false,"radius_km":200,"name":"sym cold","track":"T79"},"geometry":{"type":"Point","coordinates":[-82.75,-48.5]}},{"type":"Feature","properties":{"kind":"center","id":33,"lat":82.75,"lon":-2.5,"mslp":1001.6,"hvtl":-224.3,"hvtu":-161.2,"hb":75.1,"idx":-2.9,"cls":4,"psfc":1001.6,"terrain":false,"radius_km":200,"name":"asym cold","track":"T59"},"geometry":{"type":"Point","coordinates":[-2.5,82.75]}},{"type":"Feature","properties":{"kind":"center","id":34,"lat":40.25,"lon":-101.25,"mslp":1001.8,"hvtl":-74.9,"hvtu":-139.5,"hb":44.3,"idx":-2.2,"cls":4,"psfc":900.7,"terrain":true,"radius_km":200,"name":"asym cold"},"geometry":{"type":"Point","coordinates":[-101.25,40.25]}},{"type":"Feature","properties":{"kind":"center","id":35,"lat":-39.0,"lon":-45.0,"mslp":1002.3,"hvtl":205.5,"hvtu":-206.3,"hb":47.6,"idx":1.0,"cls":3,"psfc":1002.3,"terrain":false,"radius_km":200,"name":"asym shallow warm","track":"T93"},"geometry":{"type":"Point","coordinates":[-45.0,-39.0]}},{"type":"Feature","properties":{"kind":"center","id":36,"lat":57.75,"lon":18.0,"mslp":1002.5,"hvtl":53.0,"hvtu":-212.9,"hb":30.2,"idx":-0.0,"cls":3,"psfc":1002.5,"terrain":false,"radius_km":200,"name":"asym shallow warm","track":"T80"},"geometry":{"type":"Point","coordinates":[18.0,57.75]}},{"type":"Feature","properties":{"kind":"center","id":37,"lat":64.5,"lon":5.5,"mslp":1005.0,"hvtl":130.9,"hvtu":-223.0,"hb":28.8,"idx":0.8,"cls":3,"psfc":1005.0,"terrain":false,"radius_km":200,"name":"asym shallow warm","track":"T82"},"geometry":{"type":"Point","coordinates":[5.5,64.5]}},{"type":"Feature","properties":{"kind":"center","id":38,"lat":51.75,"lon":-77.25,"mslp":1005.4,"hvtl":-406.9,"hvtu":-193.9,"hb":126.5,"idx":-3.0,"cls":4,"psfc":981.9,"terrain":false,"radius_km":200,"name":"asym cold"},"geometry":{"type":"Point","coordinates":[-77.25,51.75]}},{"type":"Feature","properties":{"kind":"center","id":39,"lat":48.25,"lon":-89.5,"mslp":1005.5,"hvtl":-218.5,"hvtu":-186.7,"hb":70.7,"idx":-2.9,"cls":4,"psfc":970.2,"terrain":false,"radius_km":200,"name":"asym cold"},"geometry":{"type":"Point","coordinates":[-89.5,48.25]}},{"type":"Feature","properties":{"kind":"center","id":40,"lat":44.75,"lon":26.25,"mslp":1006.0,"hvtl":-115.8,"hvtu":-39.9,"hb":51.0,"idx":-2.0,"cls":4,"psfc":996.0,"terrain":false,"radius_km":200,"name":"asym cold"},"geometry":{"type":"Point","coordinates":[26.25,44.75]}},{"type":"Feature","properties":{"kind":"center","id":41,"lat":14.25,"lon":40.5,"mslp":1007.5,"hvtl":72.4,"hvtu":-111.8,"hb":-9.3,"idx":0.4,"cls":1,"psfc":1015.4,"terrain":false,"radius_km":200,"name":"sym shallow warm","track":"T95"},"geometry":{"type":"Point","coordinates":[40.5,14.25]}},{"type":"Feature","properties":{"kind":"center","id":42,"lat":33.0,"lon":144.0,"mslp":1007.5,"hvtl":102.7,"hvtu":-122.1,"hb":31.3,"idx":0.7,"cls":3,"psfc":1007.5,"terrain":false,"radius_km":200,"name":"asym shallow warm","track":"T91"},"geometry":{"type":"Point","coordinates":[144.0,33.0]}},{"type":"Feature","properties":{"kind":"center","id":43,"lat":2.25,"lon":36.5,"mslp":1008.1,"hvtl":31.1,"hvtu":20.7,"hb":11.9,"idx":0.8,"cls":2,"psfc":936.4,"terrain":false,"radius_km":200,"name":"asym deep warm"},"geometry":{"type":"Point","coordinates":[36.5,2.25]}},{"type":"Feature","properties":{"kind":"center","id":44,"lat":38.5,"lon":-82.25,"mslp":1008.3,"hvtl":-72.7,"hvtu":-117.8,"hb":16.7,"idx":-2.1,"cls":4,"psfc":981.4,"terrain":false,"radius_km":200,"name":"asym cold","track":"T100"},"geometry":{"type":"Point","coordinates":[-82.25,38.5]}},{"type":"Feature","properties":{"kind":"center","id":45,"lat":-13.25,"lon":-70.25,"mslp":1008.6,"hvtl":-21.2,"hvtu":-60.6,"hb":30.1,"idx":-1.0,"cls":4,"psfc":942.8,"terrain":false,"radius_km":200,"name":"asym cold"},"geometry":{"type":"Point","coordinates":[-70.25,-13.25]}},{"type":"Feature","properties":{"kind":"center","id":46,"lat":48.75,"lon":121.25,"mslp":1009.3,"hvtl":-264.4,"hvtu":-364.1,"hb":89.1,"idx":-3.0,"cls":4,"psfc":902.5,"terrain":true,"radius_km":200,"name":"asym cold"},"geometry":{"type":"Point","coordinates":[121.25,48.75]}},{"type":"Feature","properties":{"kind":"center","id":47,"lat":30.0,"lon":50.0,"mslp":1009.5,"hvtl":35.6,"hvtu":-118.8,"hb":8.1,"idx":-0.1,"cls":1,"psfc":1009.5,"terrain":false,"radius_km":200,"name":"sym shallow warm"},"geometry":{"type":"Point","coordinates":[50.0,30.0]}},{"type":"Feature","properties":{"kind":"center","id":48,"lat":-16.0,"lon":-66.25,"mslp":1009.9,"hvtl":-210.7,"hvtu":-115.2,"hb":43.6,"idx":-2.8,"cls":4,"psfc":969.4,"terrain":false,"radius_km":200,"name":"asym cold"},"geometry":{"type":"Point","coordinates":[-66.25,-16.0]}},{"type":"Feature","properties":{"kind":"center","id":49,"lat":-30.0,"lon":-68.25,"mslp":1009.9,"hvtl":-29.5,"hvtu":-206.3,"hb":7.7,"idx":-1.5,"cls":5,"psfc":904.7,"terrain":true,"radius_km":200,"name":"sym cold"},"geometry":{"type":"Point","coordinates":[-68.25,-30.0]}},{"type":"Feature","properties":{"kind":"center","id":50,"lat":30.0,"lon":59.0,"mslp":1010.6,"hvtl":55.3,"hvtu":-130.9,"hb":26.4,"idx":0.1,"cls":3,"psfc":973.1,"terrain":false,"radius_km":200,"name":"asym shallow warm"},"geometry":{"type":"Point","coordinates":[59.0,30.0]}},{"type":"Feature","properties":{"kind":"center","id":51,"lat":-21.0,"lon":-64.0,"mslp":1011.0,"hvtl":-180.1,"hvtu":-153.8,"hb":36.2,"idx":-2.8,"cls":4,"psfc":920.1,"terrain":true,"radius_km":200,"name":"asym cold"},"geometry":{"type":"Point","coordinates":[-64.0,-21.0]}},{"type":"Feature","properties":{"kind":"center","id":52,"lat":-24.25,"lon":-64.75,"mslp":1011.1,"hvtl":-124.7,"hvtu":-208.4,"hb":29.1,"idx":-2.7,"cls":4,"psfc":946.8,"terrain":false,"radius_km":200,"name":"asym cold","track":"T96"},"geometry":{"type":"Point","coordinates":[-64.75,-24.25]}},{"type":"Feature","properties":{"kind":"center","id":53,"lat":28.75,"lon":63.0,"mslp":1011.2,"hvtl":31.6,"hvtu":-143.6,"hb":-5.4,"idx":-0.3,"cls":1,"psfc":943.7,"terrain":false,"radius_km":200,"name":"sym shallow warm"},"geometry":{"type":"Point","coordinates":[63.0,28.75]}},{"type":"Feature","properties":{"kind":"center","id":54,"lat":-33.75,"lon":27.0,"mslp":1011.3,"hvtl":-101.7,"hvtu":-141.7,"hb":30.3,"idx":-2.4,"cls":4,"psfc":1011.3,"terrain":false,"radius_km":200,"name":"asym cold"},"geometry":{"type":"Point","coordinates":[27.0,-33.75]}},{"type":"Feature","properties":{"kind":"center","id":55,"lat":30.0,"lon":62.5,"mslp":1011.5,"hvtl":63.6,"hvtu":-144.5,"hb":13.5,"idx":0.2,"cls":3,"psfc":953.1,"terrain":false,"radius_km":200,"name":"asym shallow warm"},"geometry":{"type":"Point","coordinates":[62.5,30.0]}},{"type":"Feature","properties":{"kind":"center","id":56,"lat":-37.25,"lon":-69.0,"mslp":1011.7,"hvtl":-43.1,"hvtu":-81.3,"hb":15.4,"idx":-1.5,"cls":4,"psfc":920.4,"terrain":true,"radius_km":200,"name":"asym cold"},"geometry":{"type":"Point","coordinates":[-69.0,-37.25]}},{"type":"Feature","properties":{"kind":"center","id":57,"lat":-30.5,"lon":-71.0,"mslp":1011.8,"hvtl":-86.3,"hvtu":-182.0,"hb":29.5,"idx":-2.3,"cls":4,"psfc":916.7,"terrain":true,"radius_km":200,"name":"asym cold"},"geometry":{"type":"Point","coordinates":[-71.0,-30.5]}},{"type":"Feature","properties":{"kind":"center","id":58,"lat":-26.25,"lon":-65.25,"mslp":1012.4,"hvtl":-67.8,"hvtu":-193.3,"hb":29.6,"idx":-2.1,"cls":4,"psfc":917.2,"terrain":true,"radius_km":200,"name":"asym cold"},"geometry":{"type":"Point","coordinates":[-65.25,-26.25]}},{"type":"Feature","properties":{"kind":"center","id":59,"lat":-30.0,"lon":-71.0,"mslp":1012.5,"hvtl":-84.0,"hvtu":-199.2,"hb":32.3,"idx":-2.3,"cls":4,"psfc":931.8,"terrain":false,"radius_km":200,"name":"asym cold","track":"T101"},"geometry":{"type":"Point","coordinates":[-71.0,-30.0]}},{"type":"Feature","properties":{"kind":"center","id":60,"lat":-35.0,"lon":-71.25,"mslp":1012.7,"hvtl":-142.2,"hvtu":-121.9,"hb":27.1,"idx":-2.6,"cls":4,"psfc":982.1,"terrain":false,"radius_km":200,"name":"asym cold"},"geometry":{"type":"Point","coordinates":[-71.25,-35.0]}},{"type":"Feature","properties":{"kind":"center","id":61,"lat":32.25,"lon":61.75,"mslp":1013.2,"hvtl":76.7,"hvtu":-148.3,"hb":95.2,"idx":0.4,"cls":3,"psfc":943.8,"terrain":false,"radius_km":200,"name":"asym shallow warm","track":"T112"},"geometry":{"type":"Point","coordinates":[61.75,32.25]}},{"type":"Feature","properties":{"kind":"center","id":62,"lat":25.5,"lon":86.5,"mslp":1013.3,"hvtl":-60.1,"hvtu":-161.5,"hb":-1.7,"idx":-2.0,"cls":5,"psfc":1008.5,"terrain":false,"radius_km":200,"name":"sym cold"},"geometry":{"type":"Point","coordinates":[86.5,25.5]}},{"type":"Feature","properties":{"kind":"center","id":63,"lat":-24.0,"lon":43.75,"mslp":1015.2,"hvtl":115.7,"hvtu":19.8,"hb":-8.3,"idx":1.8,"cls":0,"psfc":1010.4,"terrain":false,"radius_km":200,"name":"sym deep warm"},"geometry":{"type":"Point","coordinates":[43.75,-24.0]}},{"type":"Feature","properties":{"kind":"center","id":64,"lat":40.75,"lon":70.75,"mslp":1015.3,"hvtl":-96.5,"hvtu":-119.0,"hb":30.0,"idx":-2.3,"cls":4,"psfc":956.6,"terrain":false,"radius_km":200,"name":"asym cold"},"geometry":{"type":"Point","coordinates":[70.75,40.75]}},{"type":"Feature","properties":{"kind":"center","id":65,"lat":43.0,"lon":72.5,"mslp":1017.5,"hvtl":-79.5,"hvtu":-157.3,"hb":12.2,"idx":-2.2,"cls":4,"psfc":933.1,"terrain":false,"radius_km":200,"name":"asym cold"},"geometry":{"type":"Point","coordinates":[72.5,43.0]}}]}