{"type":"FeatureCollection","features":[{"type":"Feature","properties":{"kind":"blob","cls":4,"id":1},"geometry":{"type":"Polygon","coordinates":[[[-115.0,-58.62],[-113.38,-57.25],[-113.38,-56.75],[-115.0,-55.12],[-118.75,-55.12],[-120.62,-56.75],[-120.62,-57.25],[-119.5,-58.38],[-115.0,-58.62]]]}},{"type":"Feature","properties":{"kind":"blob","cls":4,"id":2},"geometry":{"type":"Polygon","coordinates":[[[174.75,-68.62],[176.0,-68.12],[176.88,-67.25],[176.88,-66.5],[176.0,-65.62],[173.5,-64.38],[169.75,-63.38],[165.0,-63.62],[163.25,-64.38],[162.12,-65.5],[162.75,-66.88],[164.25,-67.62],[167.75,-68.62],[174.75,-68.62]]]}},{"type":"Feature","properties":{"kind":"blob","cls":0,"id":3},"geometry":{"type":"MultiPolygon","coordinates":[[[[158.25,15.12],[158.12,15.0],[158.25,14.88],[158.25,15.12]]],[[[159.25,13.88],[160.25,13.62],[161.62,14.5],[161.88,16.0],[161.0,17.12],[159.75,17.38],[158.38,16.5],[158.25,15.62],[159.25,15.88],[159.62,15.5],[159.25,14.88],[158.38,14.75],[159.25,13.88]]]]}},{"type":"Feature","properties":{"kind":"blob","cls":0,"id":4},"geometry":{"type":"Polygon","coordinates":[[[141.25,16.38],[142.12,17.5],[141.88,19.0],[140.5,19.88],[139.25,19.62],[138.38,18.5],[138.38,17.5],[140.0,17.38],[141.25,16.38]]]}},{"type":"Feature","properties":{"kind":"blob","cls":3,"id":5},"geometry":{"type":"Polygon","coordinates":[[[84.75,-65.88],[86.75,-64.88],[87.62,-64.0],[87.62,-63.5],[87.12,-62.5],[86.0,-61.62],[83.25,-60.88],[81.25,-60.88],[76.0,-62.12],[73.62,-63.75],[73.62,-64.25],[74.5,-65.12],[76.0,-65.88],[84.75,-65.88]]]}},{"type":"Feature","properties":{"kind":"blob","cls":1,"id":6},"geometry":{"type":"Polygon","coordinates":[[[132.0,-58.62],[134.5,-58.62],[135.5,-58.12],[136.62,-56.75],[135.25,-55.12],[134.25,-54.62],[130.75,-54.62],[128.88,-56.0],[128.62,-56.75],[129.75,-58.12],[132.0,-58.62]]]}},{"type":"Feature","properties":{"kind":"blob","cls":4,"id":7},"geometry":{"type":"Polygon","coordinates":[[[-24.25,-70.88],[-20.5,-70.12],[-18.38,-68.5],[-18.38,-68.0],[-19.25,-67.12],[-20.75,-66.62],[-27.5,-66.38],[-31.0,-67.12],[-32.62,-68.25],[-32.62,-69.25],[-32.0,-69.88],[-30.25,-70.62],[-24.25,-70.88]]]}},{"type":"Feature","properties":{"kind":"blob","cls":4,"id":8},"geometry":{"type":"Polygon","coordinates":[[[-96.0,-65.38],[-92.0,-64.38],[-90.62,-63.25],[-90.38,-61.75],[-91.25,-60.88],[-93.5,-60.12],[-96.5,-60.12],[-100.0,-61.12],[-102.12,-62.75],[-102.38,-63.5],[-101.5,-64.62],[-96.0,-65.38]]]}},{"type":"Feature","properties":{"kind":"blob","cls":4,"id":9},"geometry":{"type":"Polygon","coordinates":[[[-33.5,-66.38],[-31.0,-65.12],[-30.38,-63.75],[-31.5,-62.62],[-32.75,-62.12],[-36.0,-61.88],[-40.75,-62.88],[-43.12,-64.25],[-43.12,-65.25],[-42.75,-65.62],[-41.25,-66.38],[-33.5,-66.38]]]}},{"type":"Feature","properties":{"kind":"blob","cls":4,"id":10},"geometry":{"type":"Polygon","coordinates":[[[4.5,-70.62],[18.75,-70.62],[21.12,-69.25],[21.12,-68.25],[17.25,-66.38],[13.25,-66.12],[10.75,-66.88],[5.75,-67.38],[3.0,-68.38],[2.38,-69.5],[3.0,-70.12],[4.5,-70.62]]]}},{"type":"Feature","properties":{"kind":"blob","cls":3,"id":11},"geometry":{"type":"Polygon","coordinates":[[[-173.0,55.12],[-170.25,55.12],[-168.12,56.5],[-168.12,58.0],[-169.62,59.0],[-167.38,60.25],[-167.38,61.25],[-168.25,62.12],[-169.25,62.62],[-172.5,63.12],[-173.25,62.38],[-175.5,62.88],[-177.62,61.5],[-177.62,60.25],[-175.62,59.0],[-176.12,58.5],[-176.12,56.75],[-175.0,55.62],[-173.0,55.12]]]}},{"type":"Feature","properties":{"kind":"blob","cls":4,"id":12},"geometry":{"type":"Polygon","coordinates":[[[-47.25,-81.38],[-43.88,-81.0],[-57.75,-79.88],[-64.75,-79.88],[-72.38,-80.75],[-47.25,-81.38]]]}},{"type":"Feature","properties":{"kind":"blob","cls":4,"id":13},"geometry":{"type":"Polygon","coordinates":[[[-79.0,-79.38],[-77.5,-79.62],[-75.62,-78.5],[-77.25,-77.38],[-78.75,-77.38],[-79.0,-79.38]]]}},{"type":"Feature","properties":{"kind":"blob","cls":5,"id":14},"geometry":{"type":"Polygon","coordinates":[[[114.25,-66.62],[124.25,-66.88],[124.62,-66.5],[124.0,-65.38],[120.0,-64.12],[114.0,-64.38],[111.62,-65.75],[111.75,-66.12],[113.5,-66.12],[114.25,-66.62]]]}},{"type":"Feature","properties":{"kind":"blob","cls":3,"id":15},"geometry":{"type":"Polygon","coordinates":[[[-49.25,52.88],[-47.25,53.62],[-46.38,54.5],[-46.38,55.5],[-47.5,56.62],[-49.25,57.12],[-52.25,56.62],[-53.12,55.75],[-53.12,54.5],[-52.25,53.62],[-49.25,52.88]]]}},{"type":"Feature","properties":{"kind":"blob","cls":4,"id":16},"geometry":{"type":"Polygon","coordinates":[[[30.0,-69.88],[32.25,-70.12],[41.62,-68.5],[39.5,-67.62],[34.0,-67.38],[30.5,-68.38],[29.88,-69.0],[30.0,-69.88]]]}},{"type":"Feature","properties":{"kind":"blob","cls":1,"id":17},"geometry":{"type":"Polygon","coordinates":[[[5.5,64.62],[7.75,65.62],[8.62,66.5],[8.62,67.0],[7.5,68.62],[4.25,69.62],[2.88,69.5],[2.88,69.0],[4.38,67.0],[4.38,66.0],[3.5,65.38],[2.0,65.38],[0.62,66.25],[0.38,68.5],[-0.5,69.38],[-1.75,69.12],[-3.62,68.0],[-3.62,66.75],[-2.25,65.38],[-0.5,64.62],[5.5,64.62]]]}},{"type":"Feature","properties":{"kind":"blob","cls":3,"id":18},"geometry":{"type":"Polygon","coordinates":[[[174.25,-82.62],[176.38,-82.5],[176.25,-82.38],[174.25,-82.62]]]}},{"type":"Feature","properties":{"kind":"blob","cls":3,"id":19},"geometry":{"type":"Polygon","coordinates":[[[177.25,-82.88],[179.38,-82.75],[179.25,-82.62],[177.25,-82.88]]]}},{"type":"Feature","properties":{"kind":"blob","cls":4,"id":20},"geometry":{"type":"Polygon","coordinates":[[[-5.0,-50.12],[-3.75,-49.62],[-2.88,-48.75],[-2.88,-47.5],[-3.75,-46.62],[-5.0,-46.12],[-6.5,-46.12],[-7.75,-46.62],[-8.62,-47.5],[-8.62,-48.5],[-7.5,-49.62],[-5.0,-50.12]]]}},{"type":"Feature","properties":{"kind":"blob","cls":4,"id":21},"geometry":{"type":"Polygon","coordinates":[[[38.5,60.12],[39.5,60.62],[40.62,62.0],[40.38,63.0],[38.75,63.88],[35.0,64.12],[33.0,63.62],[32.12,63.0],[31.88,61.75],[32.5,61.12],[38.5,60.12]]]}},{"type":"Feature","properties":{"kind":"blob","cls":4,"id":22},"geometry":{"type":"Polygon","coordinates":[[[10.5,83.12],[14.0,82.88],[23.75,83.38],[30.5,84.38],[31.38,85.0],[30.25,85.88],[27.5,86.38],[14.25,87.12],[-9.75,86.88],[-16.0,86.38],[-18.75,85.88],[-19.62,85.25],[-18.0,84.38],[-10.75,83.38],[9.0,83.62],[10.88,83.25],[10.5,83.12]]]}},{"type":"Feature","properties":{"kind":"blob","cls":4,"id":23},"geometry":{"type":"Polygon","coordinates":[[[2.25,-48.88],[3.5,-48.38],[4.62,-47.25],[4.62,-46.25],[3.75,-45.38],[2.5,-44.88],[0.25,-45.38],[-0.88,-46.5],[-0.88,-47.5],[0.0,-48.38],[2.25,-48.88]]]}},{"type":"Feature","properties":{"kind":"blob","cls":4,"id":24},"geometry":{"type":"Polygon","coordinates":[[[26.75,54.88],[28.12,56.0],[28.38,56.75],[26.75,58.38],[22.5,58.38],[21.12,57.25],[20.88,56.5],[22.0,55.12],[26.75,54.88]]]}},{"type":"Feature","properties":{"kind":"blob","cls":1,"id":25},"geometry":{"type":"Polygon","coordinates":[[[-4.0,59.62],[-0.75,59.62],[0.88,60.75],[1.12,61.5],[0.25,62.62],[-0.75,63.12],[-5.0,63.12],[-6.0,62.62],[-6.88,61.5],[-6.0,60.12],[-4.0,59.62]]]}},{"type":"Feature","properties":{"kind":"blob","cls":3,"id":26},"geometry":{"type":"Polygon","coordinates":[[[-123.75,21.62],[-122.12,22.75],[-122.12,24.75],[-124.0,26.12],[-125.5,25.88],[-126.62,24.75],[-126.62,23.0],[-125.5,21.88],[-123.75,21.62]]]}},{"type":"Feature","properties":{"kind":"blob","cls":4,"id":27},"geometry":{"type":"Polygon","coordinates":[[[-106.5,47.12],[-106.38,47.75],[-107.25,48.62],[-108.0,48.88],[-108.62,48.5],[-108.25,48.12],[-106.5,47.12]]]}},{"type":"Feature","properties":{"kind":"blob","cls":4,"id":28},"geometry":{"type":"Polygon","coordinates":[[[-111.0,50.12],[-107.25,50.12],[-106.12,51.25],[-106.12,52.25],[-108.0,53.88],[-111.75,53.88],[-113.38,52.5],[-113.38,51.75],[-113.0,51.38],[-112.25,51.62],[-112.38,51.0],[-111.0,50.12]]]}},{"type":"Feature","properties":{"kind":"blob","cls":4,"id":29},"geometry":{"type":"Polygon","coordinates":[[[-109.62,49.0],[-109.5,48.88],[-109.38,49.0],[-109.62,49.0]]]}},{"type":"Feature","properties":{"kind":"blob","cls":4,"id":30},"geometry":{"type":"Polygon","coordinates":[[[115.75,46.88],[118.0,46.62],[119.25,47.12],[120.38,48.25],[120.12,49.75],[118.5,50.88],[115.5,50.88],[114.12,49.75],[113.88,48.5],[115.75,46.88]]]}},{"type":"Feature","properties":{"kind":"blob","cls":4,"id":31},"geometry":{"type":"Polygon","coordinates":[[[-81.0,-47.62],[-79.12,-46.5],[-78.62,-44.5],[-79.5,-43.12],[-80.75,-42.62],[-82.25,-42.62],[-83.5,-43.12],[-84.38,-44.0],[-84.88,-45.75],[-83.75,-47.12],[-81.0,-47.62]]]}},{"type":"Feature","properties":{"kind":"blob","cls":4,"id":32},"geometry":{"type":"Polygon","coordinates":[[[-135.25,68.88],[-132.5,69.38],[-130.62,70.5],[-130.38,71.5],[-131.0,72.12],[-133.0,72.88],[-139.5,73.12],[-142.25,72.62],[-143.88,71.5],[-143.62,70.5],[-142.25,69.62],[-135.25,68.88]]]}},{"type":"Feature","properties":{"kind":"blob","cls":3,"id":33},"geometry":{"type":"Polygon","coordinates":[[[-50.25,-34.38],[-48.62,-33.5],[-48.38,-31.75],[-49.25,-30.62],[-51.25,-30.12],[-52.88,-31.0],[-53.12,-33.0],[-52.5,-33.88],[-50.25,-34.38]]]}},{"type":"Feature","properties":{"kind":"blob","cls":0,"id":34},"geometry":{"type":"Polygon","coordinates":[[[-101.5,12.88],[-100.38,14.25],[-100.38,15.5],[-101.25,16.62],[-103.5,16.62],[-104.62,15.25],[-104.5,14.62],[-104.0,15.38],[-102.25,16.12],[-101.12,15.75],[-101.38,14.5],[-103.62,13.0],[-101.5,12.88]]]}},{"type":"Feature","properties":{"kind":"blob","cls":0,"id":35},"geometry":{"type":"Polygon","coordinates":[[[-94.75,18.38],[-93.88,19.5],[-94.12,21.0],[-95.5,21.88],[-96.75,21.62],[-97.62,20.5],[-97.5,19.88],[-96.62,19.75],[-96.88,18.5],[-94.75,18.38]]]}},{"type":"Feature","properties":{"kind":"blob","cls":4,"id":36},"geometry":{"type":"Polygon","coordinates":[[[-116.5,34.62],[-115.88,35.25],[-116.5,35.62],[-117.25,35.12],[-116.62,35.75],[-117.75,35.88],[-118.12,35.0],[-116.5,34.62]]]}},{"type":"Feature","properties":{"kind":"blob","cls":4,"id":37},"geometry":{"type":"Polygon","coordinates":[[[71.0,66.62],[73.5,67.12],[75.38,68.5],[75.62,69.5],[74.5,70.62],[72.5,71.38],[68.25,71.62],[64.25,70.62],[63.12,69.5],[63.75,67.88],[66.5,66.88],[71.0,66.62]]]}},{"type":"Feature","properties":{"kind":"blob","cls":4,"id":38},"geometry":{"type":"Polygon","coordinates":[[[-118.75,35.38],[-118.62,36.0],[-119.25,36.88],[-119.38,36.0],[-118.75,35.38]]]}},{"type":"Feature","properties":{"kind":"blob","cls":4,"id":39},"geometry":{"type":"Polygon","coordinates":[[[-39.5,40.38],[-38.0,41.12],[-37.62,41.75],[-37.88,43.75],[-39.5,44.62],[-41.0,44.62],[-42.25,44.12],[-43.12,43.0],[-43.12,41.75],[-42.75,41.12],[-39.5,40.38]]]}},{"type":"Feature","properties":{"kind":"blob","cls":3,"id":40},"geometry":{"type":"Polygon","coordinates":[[[59.75,28.12],[60.12,28.5],[59.5,30.62],[58.12,29.75],[58.38,29.0],[59.75,28.12]]]}},{"type":"Feature","properties":{"kind":"blob","cls":4,"id":41},"geometry":{"type":"Polygon","coordinates":[[[179.75,29.38],[180.0,32.38],[179.12,31.5],[179.12,30.25],[179.75,29.38]]]}},{"type":"Feature","properties":{"kind":"blob","cls":4,"id":41},"geometry":{"type":"Polygon","coordinates":[[[-179.88,32.5],[-180.0,29.38],[-179.25,28.62],[-177.0,28.62],[-175.62,30.0],[-175.62,31.25],[-176.75,32.62],[-178.5,33.12],[-179.88,32.5]]]}},{"type":"Feature","properties":{"kind":"blob","cls":1,"id":42},"geometry":{"type":"Polygon","coordinates":[[[42.88,12.75],[42.62,14.5],[41.0,15.62],[39.75,15.38],[40.12,13.25],[42.88,12.75]]]}},{"type":"Feature","properties":{"kind":"blob","cls":4,"id":43},"geometry":{"type":"Polygon","coordinates":[[[-30.75,49.88],[-29.25,50.38],[-28.38,51.25],[-28.38,52.75],[-29.25,53.62],[-30.75,54.12],[-33.25,53.62],[-34.12,52.75],[-34.12,51.25],[-33.25,50.38],[-30.75,49.88]]]}},{"type":"Feature","properties":{"kind":"blob","cls":1,"id":44},"geometry":{"type":"Polygon","coordinates":[[[156.0,66.88],[158.5,67.38],[159.88,68.25],[160.12,69.5],[157.5,70.12],[158.12,70.75],[157.25,71.12],[150.0,71.38],[146.75,70.62],[145.12,69.5],[145.75,68.38],[147.25,67.62],[156.0,66.88]]]}},{"type":"Feature","properties":{"kind":"blob","cls":5,"id":45},"geometry":{"type":"MultiPolygon","coordinates":[[[[168.75,-37.88],[168.62,-38.0],[168.75,-38.12],[168.75,-37.88]]],[[[169.12,-38.25],[170.25,-38.38],[172.38,-36.75],[172.38,-35.25],[170.5,-33.88],[168.5,-34.38],[167.38,-35.5],[167.38,-37.0],[168.25,-37.88],[169.25,-36.88],[170.12,-37.0],[170.12,-37.75],[169.12,-38.25]]]]}},{"type":"Feature","properties":{"kind":"blob","cls":3,"id":46},"geometry":{"type":"Polygon","coordinates":[[[165.75,30.88],[167.62,32.0],[167.88,34.0],[167.25,34.88],[165.0,35.38],[163.38,34.5],[163.12,32.25],[163.75,31.38],[165.75,30.88]]]}},{"type":"Feature","properties":{"kind":"blob","cls":1,"id":47},"geometry":{"type":"Polygon","coordinates":[[[59.88,27.75],[58.5,28.12],[57.75,28.88],[57.38,28.25],[58.25,27.88],[59.88,27.75]]]}},{"type":"Feature","properties":{"kind":"blob","cls":3,"id":48},"geometry":{"type":"Polygon","coordinates":[[[61.25,29.62],[63.0,29.38],[63.12,29.75],[60.75,30.88],[60.62,30.25],[61.25,29.62]]]}},{"type":"Feature","properties":{"kind":"blob","cls":0,"id":49},"geometry":{"type":"Polygon","coordinates":[[[37.75,0.38],[38.38,2.25],[37.75,3.38],[36.75,3.88],[36.62,2.5],[37.38,1.75],[37.75,0.38]]]}},{"type":"Feature","properties":{"kind":"blob","cls":4,"id":50},"geometry":{"type":"Polygon","coordinates":[[[-36.0,61.88],[-31.75,62.38],[-29.88,63.75],[-29.88,64.5],[-30.25,65.12],[-32.0,66.12],[-35.0,66.62],[-37.5,65.88],[-39.5,64.62],[-41.88,64.25],[-41.62,64.0],[-42.12,63.25],[-41.75,62.88],[-40.0,62.12],[-36.0,61.88]]]}},{"type":"Feature","properties":{"kind":"blob","cls":4,"id":51},"geometry":{"type":"MultiPolygon","coordinates":[[[[-67.25,-29.62],[-67.38,-30.0],[-67.25,-30.12],[-66.88,-29.75],[-67.25,-29.62]]],[[[-66.88,-29.25],[-66.75,-29.62],[-66.62,-29.5],[-66.88,-29.25]]],[[[-66.5,-29.12],[-66.75,-27.88],[-67.12,-28.25],[-66.5,-29.12]]]]}},{"type":"Feature","properties":{"kind":"blob","cls":4,"id":52},"geometry":{"type":"Polygon","coordinates":[[[-64.5,-17.38],[-64.38,-17.0],[-65.25,-15.88],[-66.5,-15.62],[-66.62,-16.0],[-64.5,-17.38]]]}},{"type":"Feature","properties":{"kind":"blob","cls":4,"id":53},"geometry":{"type":"Polygon","coordinates":[[[-56.25,69.88],[-54.0,70.62],[-52.62,71.75],[-53.5,72.12],[-54.0,72.88],[-57.75,74.62],[-63.25,74.38],[-65.88,73.25],[-66.38,71.75],[-65.25,70.62],[-63.25,69.88],[-56.25,69.88]]]}},{"type":"Feature","properties":{"kind":"blob","cls":4,"id":54},"geometry":{"type":"Polygon","coordinates":[[[-13.0,-32.12],[-11.38,-31.0],[-11.12,-30.0],[-12.25,-28.62],[-14.0,-28.38],[-15.62,-29.5],[-15.62,-31.0],[-14.75,-31.88],[-13.0,-32.12]]]}},{"type":"Feature","properties":{"kind":"blob","cls":5,"id":55},"geometry":{"type":"Polygon","coordinates":[[[64.75,29.12],[65.38,29.5],[64.75,29.62],[64.75,29.12]]]}},{"type":"Feature","properties":{"kind":"blob","cls":1,"id":56},"geometry":{"type":"Polygon","coordinates":[[[63.5,28.88],[64.12,29.0],[64.0,29.12],[63.5,28.88]]]}},{"type":"Feature","properties":{"kind":"blob","cls":1,"id":57},"geometry":{"type":"Polygon","coordinates":[[[96.0,23.62],[97.0,23.38],[97.38,24.0],[95.5,25.62],[95.38,24.25],[96.0,23.62]]]}},{"type":"Feature","properties":{"kind":"blob","cls":4,"id":58},"geometry":{"type":"Polygon","coordinates":[[[-68.75,-33.38],[-68.0,-33.12],[-67.38,-32.25],[-67.5,-31.38],[-68.12,-31.5],[-67.62,-31.0],[-68.25,-29.88],[-68.62,-30.5],[-68.75,-33.38]]]}},{"type":"Feature","properties":{"kind":"blob","cls":4,"id":59},"geometry":{"type":"MultiPolygon","coordinates":[[[[-64.75,-26.38],[-64.38,-26.0],[-64.5,-24.62],[-65.12,-25.75],[-64.75,-26.38]]],[[[-64.88,-25.0],[-65.0,-24.88],[-65.12,-25.0],[-64.88,-25.0]]],[[[-64.88,-24.25],[-64.75,-24.62],[-64.62,-24.5],[-64.88,-24.25]]]]}},{"type":"Feature","properties":{"kind":"blob","cls":4,"id":60},"geometry":{"type":"Polygon","coordinates":[[[-64.5,-23.88],[-63.88,-23.25],[-63.88,-22.5],[-63.38,-22.0],[-63.38,-21.0],[-64.0,-20.62],[-64.12,-21.25],[-63.62,-21.5],[-64.38,-22.25],[-64.5,-23.88]]]}},{"type":"Feature","properties":{"kind":"blob","cls":4,"id":61},"geometry":{"type":"Polygon","coordinates":[[[-65.25,-26.88],[-65.25,-26.12],[-65.38,-26.25],[-65.25,-26.88]]]}},{"type":"Feature","properties":{"kind":"blob","cls":1,"id":62},"geometry":{"type":"Polygon","coordinates":[[[97.38,23.25],[97.5,23.12],[97.62,23.25],[97.38,23.25]]]}},{"type":"Feature","properties":{"kind":"blob","cls":3,"id":63},"geometry":{"type":"MultiPolygon","coordinates":[[[[61.0,33.12],[60.88,33.0],[61.0,32.88],[61.0,33.12]]],[[[61.25,33.38],[61.12,33.25],[61.25,33.12],[61.25,33.38]]]]}},{"type":"Feature","properties":{"kind":"blob","cls":4,"id":64},"geometry":{"type":"Polygon","coordinates":[[[-71.25,-32.88],[-70.62,-33.0],[-71.12,-32.0],[-71.0,-29.88],[-71.62,-30.75],[-71.62,-32.25],[-71.25,-32.88]]]}},{"type":"Feature","properties":{"kind":"blob","cls":4,"id":65},"geometry":{"type":"MultiPolygon","coordinates":[[[[71.0,41.12],[70.88,41.0],[71.0,40.88],[71.0,41.12]]],[[[68.62,40.25],[69.5,39.88],[70.88,40.75],[69.62,40.5],[70.0,42.38],[68.62,41.25],[68.62,40.25]]]]}},{"type":"Feature","properties":{"kind":"center","id":1,"lat":-57.0,"lon":-117.0,"mslp":951.4,"hvtl":-25.6,"hvtu":-98.5,"hb":32.5,"idx":-1.3,"cls":4,"psfc":951.4,"terrain":false,"radius_km":200,"name":"asym cold","track":"T11"},"geometry":{"type":"Point","coordinates":[-117.0,-57.0]}},{"type":"Feature","properties":{"kind":"center","id":2,"lat":-66.5,"lon":169.5,"mslp":952.7,"hvtl":-91.0,"hvtu":-163.4,"hb":67.6,"idx":-2.4,"cls":4,"psfc":952.7,"terrain":false,"radius_km":200,"name":"asym cold","track":"T17"},"geometry":{"type":"Point","coordinates":[169.5,-66.5]}},{"type":"Feature","properties":{"kind":"center","id":3,"lat":15.5,"lon":160.0,"mslp":959.1,"hvtl":105.4,"hvtu":213.0,"hb":6.6,"idx":2.5,"cls":0,"psfc":959.1,"terrain":false,"radius_km":200,"name":"sym deep warm","track":"T02"},"geometry":{"type":"Point","coordinates":[160.0,15.5]}},{"type":"Feature","properties":{"kind":"center","id":4,"lat":18.0,"lon":140.25,"mslp":961.0,"hvtl":85.8,"hvtu":233.2,"hb":2.3,"idx":2.4,"cls":0,"psfc":961.0,"terrain":false,"radius_km":200,"name":"sym deep warm","track":"T08"},"geometry":{"type":"Point","coordinates":[140.25,18.0]}},{"type":"Feature","properties":{"kind":"center","id":5,"lat":-64.0,"lon":81.0,"mslp":961.9,"hvtl":202.9,"hvtu":-182.6,"hb":17.1,"idx":1.0,"cls":3,"psfc":961.9,"terrain":false,"radius_km":200,"name":"asym shallow warm","track":"T20"},"geometry":{"type":"Point","coordinates":[81.0,-64.0]}},{"type":"Feature","properties":{"kind":"center","id":6,"lat":-56.5,"lon":132.5,"mslp":969.1,"hvtl":29.5,"hvtu":-51.2,"hb":-7.6,"idx":0.1,"cls":1,"psfc":969.1,"terrain":false,"radius_km":200,"name":"sym shallow warm","track":"T22"},"geometry":{"type":"Point","coordinates":[132.5,-56.5]}},{"type":"Feature","properties":{"kind":"center","id":7,"lat":-68.5,"lon":-25.25,"mslp":973.0,"hvtl":-31.2,"hvtu":-148.2,"hb":24.4,"idx":-1.5,"cls":4,"psfc":973.0,"terrain":false,"radius_km":200,"name":"asym cold","track":"T45"},"geometry":{"type":"Point","coordinates":[-25.25,-68.5]}},{"type":"Feature","properties":{"kind":"center","id":8,"lat":-62.5,"lon":-95.5,"mslp":973.2,"hvtl":-46.6,"hvtu":-193.6,"hb":24.5,"idx":-1.8,"cls":4,"psfc":973.2,"terrain":false,"radius_km":200,"name":"asym cold","track":"T39"},"geometry":{"type":"Point","coordinates":[-95.5,-62.5]}},{"type":"Feature","properties":{"kind":"center","id":9,"lat":-64.5,"lon":-35.75,"mslp":975.1,"hvtl":-279.5,"hvtu":-350.0,"hb":48.2,"idx":-3.0,"cls":4,"psfc":975.1,"terrain":false,"radius_km":200,"name":"asym cold","track":"T32"},"geometry":{"type":"Point","coordinates":[-35.75,-64.5]}},{"type":"Feature","properties":{"kind":"center","id":10,"lat":-69.25,"lon":10.75,"mslp":981.4,"hvtl":-146.7,"hvtu":-65.9,"hb":28.2,"idx":-2.4,"cls":4,"psfc":981.4,"terrain":false,"radius_km":200,"name":"asym cold","track":"T46"},"geometry":{"type":"Point","coordinates":[10.75,-69.25]}},{"type":"Feature","properties":{"kind":"center","id":11,"lat":60.0,"lon":-173.0,"mslp":981.6,"hvtl":22.7,"hvtu":-351.2,"hb":11.5,"idx":-0.6,"cls":3,"psfc":981.6,"terrain":false,"radius_km":200,"name":"asym shallow warm","track":"T07"},"geometry":{"type":"Point","coordinates":[-173.0,60.0]}},{"type":"Feature","properties":{"kind":"center","id":12,"lat":-81.25,"lon":-53.25,"mslp":982.2,"hvtl":-422.3,"hvtu":-12.6,"hb":63.6,"idx":-2.1,"cls":4,"psfc":965.1,"terrain":false,"radius_km":200,"name":"asym cold","track":"T60"},"geometry":{"type":"Point","coordinates":[-53.25,-81.25]}},{"type":"Feature","properties":{"kind":"center","id":13,"lat":-77.5,"lon":-78.75,"mslp":982.4,"hvtl":-286.1,"hvtu":-259.1,"hb":55.9,"idx":-3.0,"cls":4,"psfc":905.6,"terrain":false,"radius_km":200,"name":"asym cold","track":"T43"},"geometry":{"type":"Point","coordinates":[-78.75,-77.5]}},{"type":"Feature","properties":{"kind":"center","id":14,"lat":-66.25,"lon":119.75,"mslp":982.5,"hvtl":-3.1,"hvtu":-157.4,"hb":7.3,"idx":-1.0,"cls":5,"psfc":982.5,"terrain":false,"radius_km":200,"name":"sym cold"},"geometry":{"type":"Point","coordinates":[119.75,-66.25]}},{"type":"Feature","properties":{"kind":"center","id":15,"lat":55.0,"lon":-49.75,"mslp":984.9,"hvtl":106.7,"hvtu":-199.6,"hb":56.5,"idx":0.6,"cls":3,"psfc":984.8,"terrain":false,"radius_km":200,"name":"asym shallow warm","track":"T47"},"geometry":{"type":"Point","coordinates":[-49.75,55.0]}},{"type":"Feature","properties":{"kind":"center","id":16,"lat":-69.25,"lon":37.0,"mslp":985.2,"hvtl":-110.0,"hvtu":-97.1,"hb":32.9,"idx":-2.3,"cls":4,"psfc":985.2,"terrain":false,"radius_km":200,"name":"asym cold","track":"T36"},"geometry":{"type":"Point","coordinates":[37.0,-69.25]}},{"type":"Feature","properties":{"kind":"center","id":17,"lat":67.75,"lon":4.0,"mslp":988.8,"hvtl":159.7,"hvtu":-113.4,"hb":-9.0,"idx":1.0,"cls":1,"psfc":988.8,"terrain":false,"radius_km":200,"name":"sym shallow warm","track":"T66"},"geometry":{"type":"Point","coordinates":[4.0,67.75]}},{"type":"Feature","properties":{"kind":"center","id":18,"lat":-82.5,"lon":176.25,"mslp":988.9,"hvtl":124.2,"hvtu":-118.8,"hb":30.1,"idx":0.9,"cls":3,"psfc":981.0,"terrain":false,"radius_km":200,"name":"asym shallow warm","track":"T64"},"geometry":{"type":"Point","coordinates":[176.25,-82.5]}},{"type":"Feature","properties":{"kind":"center","id":19,"lat":-82.75,"lon":179.25,"mslp":989.0,"hvtl":141.3,"hvtu":-107.4,"hb":30.3,"idx":1.0,"cls":3,"psfc":979.9,"terrain":false,"radius_km":200,"name":"asym shallow warm"},"geometry":{"type":"Point","coordinates":[179.25,-82.75]}},{"type":"Feature","properties":{"kind":"center","id":20,"lat":-48.0,"lon":-5.75,"mslp":989.1,"hvtl":-11.5,"hvtu":-182.3,"hb":21.1,"idx":-1.2,"cls":4,"psfc":989.1,"terrain":false,"radius_km":200,"name":"asym cold","track":"T72"},"geometry":{"type":"Point","coordinates":[-5.75,-48.0]}},{"type":"Feature","properties":{"kind":"center","id":21,"lat":61.75,"lon":36.25,"mslp":989.2,"hvtl":-48.8,"hvtu":-146.4,"hb":27.7,"idx":-1.8,"cls":4,"psfc":983.9,"terrain":false,"radius_km":200,"name":"asym cold","track":"T70"},"geometry":{"type":"Point","coordinates":[36.25,61.75]}},{"type":"Feature","properties":{"kind":"center","id":22,"lat":85.0,"lon":6.0,"mslp":991.1,"hvtl":-44.9,"hvtu":-26.3,"hb":69.8,"idx":-1.1,"cls":4,"psfc":991.1,"terrain":false,"radius_km":200,"name":"asym cold","track":"T73"},"geometry":{"type":"Point","coordinates":[6.0,85.0]}},{"type":"Feature","properties":{"kind":"center","id":23,"lat":-47.0,"lon":1.75,"mslp":992.9,"hvtl":-102.6,"hvtu":-345.3,"hb":33.0,"idx":-2.5,"cls":4,"psfc":992.9,"terrain":false,"radius_km":200,"name":"asym cold","track":"T63"},"geometry":{"type":"Point","coordinates":[1.75,-47.0]}},{"type":"Feature","properties":{"kind":"center","id":24,"lat":56.75,"lon":24.5,"mslp":993.9,"hvtl":-30.0,"hvtu":-47.5,"hb":18.4,"idx":-1.0,"cls":4,"psfc":989.4,"terrain":false,"radius_km":200,"name":"asym cold","track":"T83"},"geometry":{"type":"Point","coordinates":[24.5,56.75]}},{"type":"Feature","properties":{"kind":"center","id":25,"lat":62.25,"lon":0.5,"mslp":994.0,"hvtl":27.2,"hvtu":-140.6,"hb":-5.4,"idx":-0.4,"cls":1,"psfc":994.0,"terrain":false,"radius_km":200,"name":"sym shallow warm","track":"T53"},"geometry":{"type":"Point","coordinates":[0.5,62.25]}},{"type":"Feature","properties":{"kind":"center","id":26,"lat":23.75,"lon":-124.25,"mslp":994.6,"hvtl":40.4,"hvtu":-29.6,"hb":19.6,"idx":0.5,"cls":3,"psfc":994.6,"terrain":false,"radius_km":200,"name":"asym shallow warm","track":"T48"},"geometry":{"type":"Point","coordinates":[-124.25,23.75]}},{"type":"Feature","properties":{"kind":"center","id":27,"lat":47.75,"lon":-107.5,"mslp":995.2,"hvtl":-257.5,"hvtu":-140.2,"hb":80.6,"idx":-2.9,"cls":4,"psfc":906.3,"terrain":false,"radius_km":200,"name":"asym cold","track":"T68"},"geometry":{"type":"Point","coordinates":[-107.5,47.75]}},{"type":"Feature","properties":{"kind":"center","id":28,"lat":52.0,"lon":-109.75,"mslp":996.1,"hvtl":-38.1,"hvtu":-170.9,"hb":124.1,"idx":-1.7,"cls":4,"psfc":914.7,"terrain":false,"radius_km":200,"name":"asym cold"},"geometry":{"type":"Point","coordinates":[-109.75,52.0]}},{"type":"Feature","properties":{"kind":"center","id":29,"lat":49.0,"lon":-109.5,"mslp":996.3,"hvtl":-292.8,"hvtu":-133.2,"hb":119.2,"idx":-2.9,"cls":4,"psfc":901.3,"terrain":true,"radius_km":200,"name":"asym cold"},"geometry":{"type":"Point","coordinates":[-109.5,49.0]}},{"type":"Feature","properties":{"kind":"center","id":30,"lat":48.75,"lon":117.0,"mslp":998.3,"hvtl":-89.3,"hvtu":-301.5,"hb":58.5,"idx":-2.4,"cls":4,"psfc":935.4,"terrain":false,"radius_km":200,"name":"asym cold"},"geometry":{"type":"Point","coordinates":[117.0,48.75]}},{"type":"Feature","properties":{"kind":"center","id":31,"lat":-44.75,"lon":-81.75,"mslp":999.2,"hvtl":-37.4,"hvtu":-144.7,"hb":19.7,"idx":-1.6,"cls":4,"psfc":999.2,"terrain":false,"radius_km":200,"name":"asym cold","track":"T94"},"geometry":{"type":"Point","coordinates":[-81.75,-44.75]}},{"type":"Feature","properties":{"kind":"center","id":32,"lat":71.0,"lon":-137.5,"mslp":1000.7,"hvtl":-19.4,"hvtu":-212.9,"hb":41.0,"idx":-1.4,"cls":4,"psfc":1000.7,"terrain":false,"radius_km":200,"name":"asym cold","track":"T97"},"geometry":{"type":"Point","coordinates":[-137.5,71.0]}},{"type":"Feature","properties":{"kind":"center","id":33,"lat":-32.25,"lon":-50.75,"mslp":1001.0,"hvtl":54.1,"hvtu":-232.7,"hb":41.8,"idx":0.0,"cls":3,"psfc":1001.0,"terrain":false,"radius_km":200,"name":"asym shallow warm","track":"T84"},"geometry":{"type":"Point","coordinates":[-50.75,-32.25]}},{"type":"Feature","properties":{"kind":"center","id":34,"lat":15.25,"lon":-104.25,"mslp":1001.9,"hvtl":53.7,"hvtu":34.3,"hb":3.8,"idx":1.3,"cls":0,"psfc":1001.9,"terrain":false,"radius_km":200,"name":"sym deep warm","track":"T80"},"geometry":{"type":"Point","coordinates":[-104.25,15.25]}},{"type":"Feature","properties":{"kind":"center","id":35,"lat":20.0,"lon":-95.75,"mslp":1002.3,"hvtl":22.6,"hvtu":42.7,"hb":5.8,"idx":0.8,"cls":0,"psfc":1002.3,"terrain":false,"radius_km":200,"name":"sym deep warm","track":"T90"},"geometry":{"type":"Point","coordinates":[-95.75,20.0]}},{"type":"Feature","properties":{"kind":"center","id":36,"lat":35.75,"lon":-116.75,"mslp":1002.8,"hvtl":-133.0,"hvtu":-235.1,"hb":63.5,"idx":-2.7,"cls":4,"psfc":930.6,"terrain":false,"radius_km":200,"name":"asym cold","track":"T95"},"geometry":{"type":"Point","coordinates":[-116.75,35.75]}},{"type":"Feature","properties":{"kind":"center","id":37,"lat":69.25,"lon":69.0,"mslp":1002.9,"hvtl":-141.6,"hvtu":-302.8,"hb":66.7,"idx":-2.8,"cls":4,"psfc":999.9,"terrain":false,"radius_km":200,"name":"asym cold","track":"T103"},"geometry":{"type":"Point","coordinates":[69.0,69.25]}},{"type":"Feature","properties":{"kind":"center","id":38,"lat":36.0,"lon":-119.25,"mslp":1004.0,"hvtl":-134.4,"hvtu":-204.0,"hb":66.9,"idx":-2.7,"cls":4,"psfc":993.6,"terrain":false,"radius_km":200,"name":"asym cold","track":"T96"},"geometry":{"type":"Point","coordinates":[-119.25,36.0]}},{"type":"Feature","properties":{"kind":"center","id":39,"lat":42.5,"lon":-40.5,"mslp":1005.0,"hvtl":-121.9,"hvtu":-258.0,"hb":25.7,"idx":-2.7,"cls":4,"psfc":1005.1,"terrain":false,"radius_km":200,"name":"asym cold"},"geometry":{"type":"Point","coordinates":[-40.5,42.5]}},{"type":"Feature","properties":{"kind":"center","id":40,"lat":30.0,"lon":59.0,"mslp":1006.0,"hvtl":158.4,"hvtu":-104.3,"hb":26.9,"idx":1.1,"cls":3,"psfc":968.8,"terrain":false,"radius_km":200,"name":"asym shallow warm","track":"T106"},"geometry":{"type":"Point","coordinates":[59.0,30.0]}},{"type":"Feature","properties":{"kind":"center","id":41,"lat":30.75,"lon":-178.25,"mslp":1006.0,"hvtl":-7.3,"hvtu":-273.8,"hb":21.7,"idx":-1.1,"cls":4,"psfc":1006.0,"terrain":false,"radius_km":200,"name":"asym cold","track":"T81"},"geometry":{"type":"Point","coordinates":[-178.25,30.75]}},{"type":"Feature","properties":{"kind":"center","id":42,"lat":13.25,"lon":40.75,"mslp":1006.4,"hvtl":110.4,"hvtu":-12.3,"hb":4.7,"idx":1.5,"cls":1,"psfc":1009.1,"terrain":false,"radius_km":200,"name":"sym shallow warm"},"geometry":{"type":"Point","coordinates":[40.75,13.25]}},{"type":"Feature","properties":{"kind":"center","id":43,"lat":51.75,"lon":-32.5,"mslp":1006.6,"hvtl":-45.8,"hvtu":-312.4,"hb":28.1,"idx":-1.9,"cls":4,"psfc":1006.6,"terrain":false,"radius_km":200,"name":"asym cold","track":"T42"},"geometry":{"type":"Point","coordinates":[-32.5,51.75]}},{"type":"Feature","properties":{"kind":"center","id":44,"lat":69.0,"lon":154.0,"mslp":1007.1,"hvtl":0.8,"hvtu":-22.5,"hb":9.2,"idx":-0.2,"cls":1,"psfc":1005.0,"terrain":false,"radius_km":200,"name":"sym shallow warm","track":"T110"},"geometry":{"type":"Point","coordinates":[154.0,69.0]}},{"type":"Feature","properties":{"kind":"center","id":45,"lat":-36.25,"lon":169.75,"mslp":1007.5,"hvtl":-9.1,"hvtu":-142.4,"hb":3.0,"idx":-1.1,"cls":5,"psfc":1007.5,"terrain":false,"radius_km":200,"name":"sym cold","track":"T107"},"geometry":{"type":"Point","coordinates":[169.75,-36.25]}},{"type":"Feature","properties":{"kind":"center","id":46,"lat":33.25,"lon":165.5,"mslp":1008.2,"hvtl":193.6,"hvtu":-174.0,"hb":31.1,"idx":1.0,"cls":3,"psfc":1008.2,"terrain":false,"radius_km":200,"name":"asym shallow warm","track":"T40"},"geometry":{"type":"Point","coordinates":[165.5,33.25]}},{"type":"Feature","properties":{"kind":"center","id":47,"lat":27.75,"lon":59.0,"mslp":1008.3,"hvtl":45.3,"hvtu":-79.9,"hb":-6.1,"idx":0.2,"cls":1,"psfc":956.8,"terrain":false,"radius_km":200,"name":"sym shallow warm","track":"T112"},"geometry":{"type":"Point","coordinates":[59.0,27.75]}},{"type":"Feature","properties":{"kind":"center","id":48,"lat":29.75,"lon":62.0,"mslp":1008.6,"hvtl":147.6,"hvtu":-115.1,"hb":14.6,"idx":1.0,"cls":3,"psfc":955.0,"terrain":false,"radius_km":200,"name":"asym shallow warm","track":"T114"},"geometry":{"type":"Point","coordinates":[62.0,29.75]}},{"type":"Feature","properties":{"kind":"center","id":49,"lat":2.75,"lon":36.75,"mslp":1008.9,"hvtl":123.9,"hvtu":19.2,"hb":8.0,"idx":1.9,"cls":0,"psfc":939.8,"terrain":false,"radius_km":200,"name":"sym deep warm"},"geometry":{"type":"Point","coordinates":[36.75,2.75]}},{"type":"Feature","properties":{"kind":"center","id":50,"lat":64.0,"lon":-38.0,"mslp":1009.0,"hvtl":-112.1,"hvtu":-176.6,"hb":27.5,"idx":-2.6,"cls":4,"psfc":1009.0,"terrain":false,"radius_km":200,"name":"asym cold","track":"T62"},"geometry":{"type":"Point","coordinates":[-38.0,64.0]}},{"type":"Feature","properties":{"kind":"center","id":51,"lat":-28.5,"lon":-66.5,"mslp":1009.4,"hvtl":-121.7,"hvtu":-144.8,"hb":13.6,"idx":-2.6,"cls":4,"psfc":927.1,"terrain":false,"radius_km":200,"name":"asym cold"},"geometry":{"type":"Point","coordinates":[-66.5,-28.5]}},{"type":"Feature","properties":{"kind":"center","id":52,"lat":-16.0,"lon":-65.25,"mslp":1009.6,"hvtl":-130.7,"hvtu":-84.8,"hb":23.0,"idx":-2.4,"cls":4,"psfc":989.2,"terrain":false,"radius_km":200,"name":"asym cold"},"geometry":{"type":"Point","coordinates":[-65.25,-16.0]}},{"type":"Feature","properties":{"kind":"center","id":53,"lat":72.75,"lon":-59.25,"mslp":1010.1,"hvtl":-258.9,"hvtu":-243.8,"hb":71.7,"idx":-3.0,"cls":4,"psfc":1010.1,"terrain":false,"radius_km":200,"name":"asym cold","track":"T123"},"geometry":{"type":"Point","coordinates":[-59.25,72.75]}},{"type":"Feature","properties":{"kind":"center","id":54,"lat":-30.25,"lon":-13.25,"mslp":1010.1,"hvtl":-247.9,"hvtu":-390.8,"hb":63.2,"idx":-3.0,"cls":4,"psfc":1010.1,"terrain":false,"radius_km":200,"name":"asym cold","track":"T76"},"geometry":{"type":"Point","coordinates":[-13.25,-30.25]}},{"type":"Feature","properties":{"kind":"center","id":55,"lat":29.25,"lon":64.75,"mslp":1010.2,"hvtl":-31.4,"hvtu":-90.1,"hb":6.7,"idx":-1.3,"cls":5,"psfc":915.1,"terrain":true,"radius_km":200,"name":"sym cold"},"geometry":{"type":"Point","coordinates":[64.75,29.25]}},{"type":"Feature","properties":{"kind":"center","id":56,"lat":29.0,"lon":64.0,"mslp":1010.3,"hvtl":24.9,"hvtu":-94.6,"hb":8.0,"idx":-0.2,"cls":1,"psfc":901.5,"terrain":true,"radius_km":200,"name":"sym shallow warm"},"geometry":{"type":"Point","coordinates":[64.0,29.0]}},{"type":"Feature","properties":{"kind":"center","id":57,"lat":23.75,"lon":96.25,"mslp":1010.5,"hvtl":9.8,"hvtu":-87.7,"hb":8.6,"idx":-0.5,"cls":1,"psfc":992.6,"terrain":false,"radius_km":200,"name":"sym shallow warm"},"geometry":{"type":"Point","coordinates":[96.25,23.75]}},{"type":"Feature","properties":{"kind":"center","id":58,"lat":-30.0,"lon":-68.25,"mslp":1010.5,"hvtl":-114.4,"hvtu":-147.4,"hb":24.9,"idx":-2.5,"cls":4,"psfc":905.4,"terrain":true,"radius_km":200,"name":"asym cold"},"geometry":{"type":"Point","coordinates":[-68.25,-30.0]}},{"type":"Feature","properties":{"kind":"center","id":59,"lat":-24.25,"lon":-64.75,"mslp":1012.7,"hvtl":-88.1,"hvtu":-188.7,"hb":21.7,"idx":-2.4,"cls":4,"psfc":948.4,"terrain":false,"radius_km":200,"name":"asym cold","track":"T119"},"geometry":{"type":"Point","coordinates":[-64.75,-24.25]}},{"type":"Feature","properties":{"kind":"center","id":60,"lat":-21.0,"lon":-64.0,"mslp":1012.8,"hvtl":-174.7,"hvtu":-164.9,"hb":36.7,"idx":-2.8,"cls":4,"psfc":922.0,"terrain":true,"radius_km":200,"name":"asym cold"},"geometry":{"type":"Point","coordinates":[-64.0,-21.0]}},{"type":"Feature","properties":{"kind":"center","id":61,"lat":-26.25,"lon":-65.25,"mslp":1013.0,"hvtl":-79.9,"hvtu":-181.1,"hb":18.3,"idx":-2.3,"cls":4,"psfc":918.0,"terrain":true,"radius_km":200,"name":"asym cold"},"geometry":{"type":"Point","coordinates":[-65.25,-26.25]}},{"type":"Feature","properties":{"kind":"center","id":62,"lat":23.25,"lon":97.5,"mslp":1013.4,"hvtl":40.3,"hvtu":-68.5,"hb":-2.0,"idx":0.2,"cls":1,"psfc":919.9,"terrain":true,"radius_km":200,"name":"sym shallow warm"},"geometry":{"type":"Point","coordinates":[97.5,23.25]}},{"type":"Feature","properties":{"kind":"center","id":63,"lat":33.25,"lon":61.25,"mslp":1013.9,"hvtl":168.2,"hvtu":-124.5,"hb":102.4,"idx":1.0,"cls":3,"psfc":915.3,"terrain":true,"radius_km":200,"name":"asym shallow warm"},"geometry":{"type":"Point","coordinates":[61.25,33.25]}},{"type":"Feature","properties":{"kind":"center","id":64,"lat":-30.25,"lon":-71.0,"mslp":1014.0,"hvtl":-122.7,"hvtu":-179.1,"hb":47.2,"idx":-2.6,"cls":4,"psfc":900.8,"terrain":true,"radius_km":200,"name":"asym cold"},"geometry":{"type":"Point","coordinates":[-71.0,-30.25]}},{"type":"Feature","properties":{"kind":"center","id":65,"lat":40.5,"lon":70.5,"mslp":1014.1,"hvtl":-121.4,"hvtu":-122.3,"hb":33.9,"idx":-2.5,"cls":4,"psfc":967.8,"terrain":false,"radius_km":200,"name":"asym cold"},"geometry":{"type":"Point","coordinates":[70.5,40.5]}}]}