{"type":"FeatureCollection","features":[{"type":"Feature","properties":{"kind":"blob","cls":0,"id":1},"geometry":{"type":"Polygon","coordinates":[[[147.0,-64.38],[149.0,-63.88],[149.88,-63.25],[150.12,-61.75],[148.75,-60.12],[146.75,-59.12],[143.25,-58.88],[141.0,-59.62],[140.38,-60.25],[140.38,-61.5],[143.0,-63.88],[147.0,-64.38]],[[147.5,-62.12],[144.12,-61.0],[145.5,-60.88],[148.12,-61.75],[147.5,-62.12]]]}},{"type":"Feature","properties":{"kind":"blob","cls":3,"id":2},"geometry":{"type":"Polygon","coordinates":[[[-23.5,-66.12],[-21.0,-65.62],[-19.5,-64.88],[-18.62,-64.0],[-18.62,-63.5],[-20.25,-62.12],[-23.75,-61.62],[-27.75,-62.38],[-30.12,-63.5],[-30.38,-64.5],[-30.0,-65.12],[-28.5,-65.88],[-23.5,-66.12]]]}},{"type":"Feature","properties":{"kind":"blob","cls":0,"id":3},"geometry":{"type":"Polygon","coordinates":[[[147.75,22.88],[149.25,22.88],[150.12,23.75],[150.12,25.25],[148.5,26.38],[147.25,26.12],[146.38,25.25],[147.75,22.88]]]}},{"type":"Feature","properties":{"kind":"blob","cls":0,"id":4},"geometry":{"type":"MultiPolygon","coordinates":[[[[-106.75,17.62],[-106.88,17.5],[-106.75,17.38],[-106.75,17.62]]],[[[-105.75,16.38],[-104.0,16.38],[-103.12,17.5],[-103.38,19.0],[-104.75,19.88],[-105.38,19.5],[-105.88,17.75],[-106.62,17.25],[-105.75,16.38]]]]}},{"type":"Feature","properties":{"kind":"blob","cls":4,"id":5},"geometry":{"type":"Polygon","coordinates":[[[-120.75,-58.12],[-119.12,-56.5],[-120.75,-54.88],[-124.5,-54.88],[-126.12,-56.5],[-125.0,-57.88],[-120.75,-58.12]]]}},{"type":"Feature","properties":{"kind":"blob","cls":4,"id":6},"geometry":{"type":"Polygon","coordinates":[[[-117.25,-64.88],[-115.25,-64.38],[-114.12,-63.5],[-114.12,-62.25],[-114.5,-61.62],[-116.0,-60.88],[-119.5,-60.12],[-122.5,-60.38],[-123.38,-64.0],[-122.25,-64.62],[-117.25,-64.88]]]}},{"type":"Feature","properties":{"kind":"blob","cls":4,"id":7},"geometry":{"type":"Polygon","coordinates":[[[46.25,-65.62],[48.75,-64.88],[52.5,-65.62],[55.0,-65.62],[57.5,-64.88],[58.38,-64.0],[58.38,-63.5],[56.0,-61.12],[52.0,-60.62],[49.0,-61.12],[46.75,-62.12],[39.75,-62.12],[38.0,-62.88],[37.12,-63.75],[37.12,-64.25],[38.0,-65.12],[39.0,-65.62],[46.25,-65.62]],[[46.88,-64.5],[47.0,-64.12],[49.0,-63.38],[52.62,-63.25],[51.5,-63.88],[46.88,-64.5]]]}},{"type":"Feature","properties":{"kind":"blob","cls":4,"id":8},"geometry":{"type":"Polygon","coordinates":[[[-138.75,-58.88],[-137.0,-58.38],[-135.12,-56.5],[-135.12,-55.25],[-136.0,-54.38],[-137.75,-53.88],[-140.75,-54.38],[-142.88,-56.25],[-143.12,-57.25],[-142.0,-58.38],[-138.75,-58.88]]]}},{"type":"Feature","properties":{"kind":"blob","cls":4,"id":9},"geometry":{"type":"Polygon","coordinates":[[[67.25,-66.62],[73.25,-66.62],[75.88,-65.0],[75.88,-64.0],[74.0,-62.88],[69.25,-62.62],[65.5,-63.12],[63.62,-64.25],[63.62,-65.25],[64.75,-66.12],[67.25,-66.62]]]}},{"type":"Feature","properties":{"kind":"blob","cls":4,"id":10},"geometry":{"type":"Polygon","coordinates":[[[-104.75,-74.12],[-99.0,-74.38],[-98.75,-73.88],[-95.0,-73.62],[-94.12,-72.75],[-95.0,-71.38],[-96.25,-70.88],[-99.0,-70.38],[-102.75,-70.38],[-106.25,-71.12],[-107.62,-72.25],[-107.62,-72.75],[-106.75,-73.62],[-104.75,-74.12]]]}},{"type":"Feature","properties":{"kind":"blob","cls":4,"id":11},"geometry":{"type":"Polygon","coordinates":[[[-2.25,-71.62],[-1.75,-71.62],[4.0,-70.88],[28.75,-70.38],[31.5,-70.12],[31.62,-69.5],[31.25,-69.12],[28.5,-69.62],[25.75,-69.62],[25.12,-69.25],[25.25,-68.88],[27.0,-68.38],[27.5,-67.88],[21.0,-68.12],[18.0,-69.38],[8.0,-69.38],[6.0,-68.88],[2.5,-68.88],[-1.0,-69.62],[-2.38,-70.5],[-2.25,-71.62]]]}},{"type":"Feature","properties":{"kind":"blob","cls":4,"id":12},"geometry":{"type":"Polygon","coordinates":[[[-36.5,55.12],[-35.12,56.25],[-34.88,57.25],[-37.0,58.88],[-41.0,58.88],[-42.38,58.0],[-42.88,56.75],[-41.5,55.38],[-36.5,55.12]]]}},{"type":"Feature","properties":{"kind":"blob","cls":1,"id":13},"geometry":{"type":"Polygon","coordinates":[[[179.88,59.25],[180.0,61.88],[179.12,61.0],[179.12,60.0],[179.88,59.25]]]}},{"type":"Feature","properties":{"kind":"blob","cls":1,"id":13},"geometry":{"type":"Polygon","coordinates":[[[-179.88,62.0],[-180.0,59.12],[-177.75,58.12],[-174.25,58.12],[-172.5,59.12],[-172.12,59.75],[-172.12,61.25],[-174.0,62.62],[-176.75,62.88],[-176.88,62.0],[-177.75,61.38],[-179.88,62.0]]]}},{"type":"Feature","properties":{"kind":"blob","cls":4,"id":14},"geometry":{"type":"MultiPolygon","coordinates":[[[[-167.62,-83.25],[-163.12,-83.25],[-163.25,-83.12],[-167.62,-83.25]]],[[[-176.62,-83.0],[-167.62,-83.0],[-167.75,-82.88],[-176.62,-83.0]]]]}},{"type":"Feature","properties":{"kind":"blob","cls":3,"id":15},"geometry":{"type":"Polygon","coordinates":[[[15.0,-52.62],[16.5,-52.12],[17.38,-51.0],[17.12,-49.75],[16.25,-48.88],[14.75,-48.38],[12.0,-48.88],[11.12,-50.0],[11.12,-50.75],[12.25,-52.12],[15.0,-52.62]]]}},{"type":"Feature","properties":{"kind":"blob","cls":4,"id":16},"geometry":{"type":"Polygon","coordinates":[[[138.25,-52.38],[139.75,-51.88],[140.62,-50.75],[140.38,-49.75],[139.25,-48.62],[137.75,-48.12],[134.75,-48.62],[133.88,-49.75],[134.12,-50.75],[135.0,-51.62],[138.25,-52.38]]]}},{"type":"Feature","properties":{"kind":"blob","cls":4,"id":17},"geometry":{"type":"Polygon","coordinates":[[[177.75,-82.88],[178.12,-82.75],[178.0,-82.62],[177.75,-82.88]]]}},{"type":"Feature","properties":{"kind":"blob","cls":5,"id":18},"geometry":{"type":"Polygon","coordinates":[[[174.5,-82.62],[175.12,-82.5],[175.0,-82.38],[174.5,-82.62]]]}},{"type":"Feature","properties":{"kind":"blob","cls":3,"id":19},"geometry":{"type":"Polygon","coordinates":[[[170.25,-73.88],[173.0,-73.38],[174.25,-72.88],[174.88,-71.75],[173.75,-70.62],[170.25,-69.88],[166.25,-69.88],[163.38,-70.5],[163.75,-71.12],[164.5,-71.12],[164.75,-70.62],[166.0,-70.62],[170.62,-71.75],[169.25,-73.12],[168.25,-72.88],[166.62,-73.25],[166.75,-73.62],[170.25,-73.88]],[[169.75,-73.62],[169.62,-73.5],[169.75,-73.38],[169.75,-73.62]]]}},{"type":"Feature","properties":{"kind":"blob","cls":3,"id":20},"geometry":{"type":"Polygon","coordinates":[[[162.5,-71.62],[162.62,-71.25],[162.0,-71.12],[162.5,-71.62]]]}},{"type":"Feature","properties":{"kind":"blob","cls":4,"id":21},"geometry":{"type":"Polygon","coordinates":[[[162.25,-79.38],[164.75,-79.62],[174.0,-78.88],[175.75,-78.38],[177.12,-76.75],[177.38,-75.75],[176.0,-74.88],[174.0,-74.38],[165.5,-74.38],[164.75,-74.62],[164.0,-75.88],[162.38,-77.0],[164.62,-78.5],[162.0,-78.62],[162.25,-79.38]],[[166.62,-77.5],[169.12,-77.5],[169.0,-77.62],[166.62,-77.5]]]}},{"type":"Feature","properties":{"kind":"blob","cls":4,"id":22},"geometry":{"type":"Polygon","coordinates":[[[56.5,65.62],[61.25,66.62],[62.5,67.12],[63.62,68.25],[63.62,69.25],[62.25,70.12],[59.75,70.62],[55.75,70.62],[53.25,70.12],[51.75,69.38],[50.38,68.0],[50.38,67.0],[52.5,65.88],[56.5,65.62]]]}},{"type":"Feature","properties":{"kind":"blob","cls":5,"id":23},"geometry":{"type":"Polygon","coordinates":[[[-37.25,-79.62],[-35.5,-79.88],[-30.62,-78.75],[-35.25,-78.62],[-35.25,-78.12],[-35.75,-78.12],[-37.38,-79.0],[-37.25,-79.62]]]}},{"type":"Feature","properties":{"kind":"blob","cls":5,"id":24},"geometry":{"type":"Polygon","coordinates":[[[-34.62,-78.0],[-34.5,-78.12],[-34.38,-78.0],[-34.62,-78.0]]]}},{"type":"Feature","properties":{"kind":"blob","cls":1,"id":25},"geometry":{"type":"Polygon","coordinates":[[[-30.25,-78.62],[-29.62,-78.5],[-29.75,-78.38],[-30.25,-78.62]]]}},{"type":"Feature","properties":{"kind":"blob","cls":4,"id":26},"geometry":{"type":"Polygon","coordinates":[[[4.25,-51.38],[6.0,-50.62],[6.62,-49.5],[6.38,-48.5],[4.25,-47.38],[2.25,-47.62],[1.5,-48.12],[0.88,-49.25],[1.12,-50.25],[2.25,-51.12],[4.25,-51.38]]]}},{"type":"Feature","properties":{"kind":"blob","cls":4,"id":27},"geometry":{"type":"Polygon","coordinates":[[[-116.5,26.62],[-115.38,28.0],[-115.62,29.25],[-116.5,30.12],[-118.75,30.12],[-119.88,28.75],[-119.62,27.5],[-118.75,26.62],[-116.5,26.62]]]}},{"type":"Feature","properties":{"kind":"blob","cls":4,"id":28},"geometry":{"type":"Polygon","coordinates":[[[-22.0,48.88],[-20.5,49.38],[-18.88,51.0],[-18.88,52.0],[-20.0,53.12],[-21.5,53.62],[-23.5,53.62],[-26.25,52.88],[-27.12,52.0],[-27.12,50.75],[-25.25,49.38],[-22.0,48.88]]]}},{"type":"Feature","properties":{"kind":"blob","cls":3,"id":29},"geometry":{"type":"Polygon","coordinates":[[[55.0,74.12],[64.5,75.12],[67.5,76.12],[70.75,76.62],[72.25,77.38],[73.12,78.5],[72.0,79.38],[68.0,80.38],[59.25,80.62],[54.75,80.12],[56.12,79.0],[56.38,77.0],[55.5,76.12],[53.5,75.38],[50.5,75.38],[49.38,76.5],[48.25,78.88],[45.5,78.38],[42.38,76.75],[42.75,75.88],[44.25,75.12],[47.5,74.38],[55.0,74.12]],[[59.38,75.5],[60.12,75.5],[60.0,75.38],[59.38,75.5]]]}},{"type":"Feature","properties":{"kind":"blob","cls":4,"id":30},"geometry":{"type":"Polygon","coordinates":[[[-62.25,-74.12],[-61.25,-74.38],[-58.25,-73.88],[-56.62,-72.75],[-56.62,-72.25],[-59.0,-70.88],[-62.75,-70.38],[-61.62,-71.25],[-62.88,-72.0],[-61.38,-73.0],[-62.12,-73.25],[-61.88,-73.5],[-62.38,-73.75],[-62.25,-74.12]]]}},{"type":"Feature","properties":{"kind":"blob","cls":3,"id":31},"geometry":{"type":"Polygon","coordinates":[[[-167.5,70.62],[-160.0,70.62],[-157.75,71.38],[-156.38,72.75],[-157.25,73.88],[-159.5,74.62],[-165.75,74.88],[-168.5,74.38],[-171.88,72.25],[-170.75,71.12],[-167.5,70.62]]]}},{"type":"Feature","properties":{"kind":"blob","cls":4,"id":32},"geometry":{"type":"Polygon","coordinates":[[[-151.25,71.88],[-143.0,71.88],[-140.0,72.88],[-139.12,74.0],[-139.5,74.62],[-142.25,75.62],[-150.75,75.88],[-154.75,75.12],[-156.12,74.0],[-156.12,73.25],[-155.0,72.38],[-151.25,71.88]]]}},{"type":"Feature","properties":{"kind":"blob","cls":4,"id":33},"geometry":{"type":"Polygon","coordinates":[[[-100.5,42.38],[-99.88,43.0],[-99.88,44.5],[-101.5,45.88],[-103.25,46.12],[-103.38,45.75],[-102.88,45.5],[-103.62,44.75],[-102.5,43.38],[-101.25,43.38],[-100.5,42.38]]]}},{"type":"Feature","properties":{"kind":"blob","cls":1,"id":34},"geometry":{"type":"Polygon","coordinates":[[[-85.0,-48.62],[-83.25,-47.88],[-82.38,-47.0],[-82.62,-45.5],[-84.5,-44.38],[-86.25,-44.38],[-87.5,-44.88],[-88.38,-46.0],[-88.38,-47.0],[-87.75,-47.38],[-86.5,-46.88],[-86.62,-48.25],[-85.0,-48.62]]]}},{"type":"Feature","properties":{"kind":"blob","cls":4,"id":35},"geometry":{"type":"Polygon","coordinates":[[[-98.0,45.38],[-95.75,45.38],[-93.88,47.0],[-93.62,48.5],[-94.5,49.62],[-96.25,50.38],[-97.75,50.38],[-99.62,49.5],[-100.38,48.25],[-100.38,46.75],[-99.5,45.88],[-98.0,45.38]]]}},{"type":"Feature","properties":{"kind":"blob","cls":4,"id":36},"geometry":{"type":"Polygon","coordinates":[[[179.75,85.38],[180.0,88.38],[164.25,88.88],[120.25,88.62],[108.0,87.88],[104.62,87.0],[108.0,86.12],[116.25,85.38],[140.5,84.62],[154.0,84.62],[179.75,85.38]]]}},{"type":"Feature","properties":{"kind":"blob","cls":4,"id":36},"geometry":{"type":"Polygon","coordinates":[[[-179.75,88.38],[-180.0,85.38],[-174.0,85.88],[-169.12,87.0],[-172.5,87.88],[-179.75,88.38]]]}},{"type":"Feature","properties":{"kind":"blob","cls":3,"id":37},"geometry":{"type":"Polygon","coordinates":[[[-49.88,64.75],[-49.75,64.62],[-49.62,64.75],[-49.88,64.75]]]}},{"type":"Feature","properties":{"kind":"blob","cls":4,"id":38},"geometry":{"type":"Polygon","coordinates":[[[-131.0,68.88],[-127.5,69.38],[-125.5,70.12],[-124.88,71.0],[-124.88,71.75],[-125.5,72.38],[-127.5,73.12],[-134.0,73.38],[-137.5,72.62],[-139.12,71.5],[-138.88,70.5],[-137.75,69.62],[-131.0,68.88]]]}},{"type":"Feature","properties":{"kind":"blob","cls":3,"id":39},"geometry":{"type":"Polygon","coordinates":[[[-50.12,65.0],[-50.25,65.88],[-51.88,65.75],[-51.5,65.38],[-50.12,65.0]]]}},{"type":"Feature","properties":{"kind":"blob","cls":4,"id":40},"geometry":{"type":"MultiPolygon","coordinates":[[[[-118.0,34.88],[-117.12,35.0],[-117.75,35.38],[-118.0,34.88]]],[[[-117.25,35.38],[-116.88,35.75],[-117.75,35.88],[-117.25,35.38]]]]}},{"type":"Feature","properties":{"kind":"blob","cls":4,"id":41},"geometry":{"type":"Polygon","coordinates":[[[-118.62,35.25],[-118.88,36.5],[-119.75,37.38],[-119.88,36.0],[-118.62,35.25]]]}},{"type":"Feature","properties":{"kind":"blob","cls":3,"id":42},"geometry":{"type":"Polygon","coordinates":[[[13.5,57.12],[15.25,57.62],[16.12,58.5],[16.12,59.5],[14.5,60.62],[12.0,60.88],[12.38,60.25],[11.75,59.62],[9.38,58.5],[10.25,57.62],[13.5,57.12]]]}},{"type":"Feature","properties":{"kind":"blob","cls":4,"id":43},"geometry":{"type":"Polygon","coordinates":[[[-68.5,-72.88],[-66.38,-73.0],[-66.62,-72.5],[-66.12,-71.75],[-66.88,-71.5],[-66.75,-70.88],[-68.25,-71.38],[-68.88,-72.0],[-68.5,-72.88]]]}},{"type":"Feature","properties":{"kind":"blob","cls":1,"id":44},"geometry":{"type":"Polygon","coordinates":[[[4.5,61.12],[6.5,61.62],[7.62,62.5],[7.62,63.75],[5.75,64.88],[3.75,63.88],[0.25,64.38],[-0.62,63.5],[-0.62,62.5],[0.5,61.62],[4.5,61.12]]]}},{"type":"Feature","properties":{"kind":"blob","cls":4,"id":45},"geometry":{"type":"MultiPolygon","coordinates":[[[[-116.75,35.38],[-116.88,35.25],[-116.75,35.12],[-116.75,35.38]]],[[[-116.5,35.62],[-116.62,35.5],[-116.5,35.38],[-116.5,35.62]]]]}},{"type":"Feature","properties":{"kind":"blob","cls":4,"id":46},"geometry":{"type":"Polygon","coordinates":[[[27.5,57.62],[29.25,58.12],[30.38,59.25],[30.38,60.0],[29.25,61.12],[27.5,61.62],[24.75,61.62],[23.0,61.12],[21.62,59.75],[21.62,59.25],[22.75,58.12],[27.5,57.62]]]}},{"type":"Feature","properties":{"kind":"blob","cls":4,"id":47},"geometry":{"type":"Polygon","coordinates":[[[-105.0,77.88],[-100.0,78.38],[-96.5,79.88],[-96.38,81.0],[-97.25,81.62],[-100.0,82.38],[-110.0,83.38],[-124.25,83.12],[-128.75,82.38],[-130.12,81.25],[-129.5,80.62],[-128.0,80.12],[-120.5,79.38],[-114.75,78.12],[-105.0,77.88]]]}},{"type":"Feature","properties":{"kind":"blob","cls":4,"id":48},"geometry":{"type":"Polygon","coordinates":[[[-29.25,65.38],[-23.25,65.38],[-20.25,66.62],[-19.88,67.0],[-19.88,68.25],[-21.5,69.38],[-24.0,69.88],[-25.25,69.62],[-26.25,68.88],[-30.5,68.62],[-31.75,68.12],[-32.62,67.25],[-32.62,66.75],[-31.75,65.88],[-29.25,65.38]]]}},{"type":"Feature","properties":{"kind":"blob","cls":4,"id":49},"geometry":{"type":"Polygon","coordinates":[[[-15.5,71.38],[-11.75,72.12],[-10.25,72.88],[-9.62,74.0],[-10.62,74.75],[-10.38,75.75],[-12.25,76.88],[-5.5,77.38],[-3.25,78.12],[-2.62,79.25],[-5.25,80.38],[-10.0,80.88],[-16.5,80.88],[-23.0,79.88],[-23.88,79.25],[-23.38,78.5],[-23.62,78.25],[-20.88,77.25],[-23.0,77.12],[-24.0,76.88],[-24.12,76.5],[-22.5,75.62],[-21.75,75.62],[-21.88,75.0],[-21.38,74.75],[-22.25,74.38],[-24.25,74.38],[-25.12,72.5],[-23.75,71.88],[-15.5,71.38]],[[-23.25,73.62],[-23.38,73.75],[-23.25,73.88],[-23.25,73.62]]]}},{"type":"Feature","properties":{"kind":"blob","cls":3,"id":50},"geometry":{"type":"Polygon","coordinates":[[[145.75,30.12],[147.62,31.25],[147.88,33.0],[147.25,33.88],[145.0,34.38],[143.38,33.5],[143.12,31.5],[143.75,30.62],[145.75,30.12]]]}},{"type":"Feature","properties":{"kind":"blob","cls":4,"id":51},"geometry":{"type":"Polygon","coordinates":[[[19.75,38.62],[20.88,39.75],[20.38,41.25],[19.75,41.88],[18.0,42.12],[16.12,40.75],[16.12,39.75],[17.25,38.62],[19.75,38.62]]]}},{"type":"Feature","properties":{"kind":"blob","cls":3,"id":52},"geometry":{"type":"Polygon","coordinates":[[[59.75,28.12],[60.12,28.5],[59.5,30.62],[58.12,29.75],[58.38,29.0],[59.75,28.12]]]}},{"type":"Feature","properties":{"kind":"blob","cls":1,"id":53},"geometry":{"type":"Polygon","coordinates":[[[40.25,12.88],[40.88,13.5],[41.25,14.88],[39.88,14.25],[40.25,12.88]]]}},{"type":"Feature","properties":{"kind":"blob","cls":3,"id":54},"geometry":{"type":"Polygon","coordinates":[[[-51.88,66.75],[-51.75,66.38],[-49.62,66.5],[-50.5,67.88],[-51.88,66.75]]]}},{"type":"Feature","properties":{"kind":"blob","cls":4,"id":55},"geometry":{"type":"Polygon","coordinates":[[[-57.75,72.88],[-55.38,73.25],[-59.0,75.12],[-60.0,76.38],[-66.88,76.75],[-65.0,77.38],[-68.75,76.88],[-70.12,75.75],[-69.5,74.62],[-68.0,74.12],[-65.5,73.88],[-63.25,73.12],[-57.75,72.88]]]}},{"type":"Feature","properties":{"kind":"blob","cls":4,"id":56},"geometry":{"type":"Polygon","coordinates":[[[-86.75,32.12],[-85.12,33.0],[-84.88,34.75],[-85.75,36.12],[-87.75,36.62],[-89.38,35.75],[-89.62,33.5],[-89.0,32.62],[-86.75,32.12]]]}},{"type":"Feature","properties":{"kind":"blob","cls":5,"id":57},"geometry":{"type":"Polygon","coordinates":[[[9.0,41.12],[10.38,42.25],[10.62,43.75],[9.75,44.88],[7.5,45.38],[7.38,44.5],[7.88,44.0],[6.75,43.62],[5.5,44.62],[4.88,44.25],[5.12,42.25],[6.0,41.38],[9.0,41.12]],[[9.0,42.12],[8.88,42.25],[9.0,42.38],[9.0,42.12]]]}},{"type":"Feature","properties":{"kind":"blob","cls":1,"id":58},"geometry":{"type":"Polygon","coordinates":[[[59.38,27.75],[57.75,28.88],[57.38,28.25],[59.38,27.75]]]}},{"type":"Feature","properties":{"kind":"blob","cls":3,"id":59},"geometry":{"type":"Polygon","coordinates":[[[61.12,30.0],[60.75,30.62],[60.62,30.25],[61.12,30.0]]]}},{"type":"Feature","properties":{"kind":"blob","cls":3,"id":60},"geometry":{"type":"Polygon","coordinates":[[[-47.25,-40.12],[-45.5,-38.88],[-44.75,-39.38],[-43.75,-39.38],[-41.88,-38.0],[-41.88,-36.5],[-43.5,-35.38],[-45.0,-35.38],[-46.5,-36.12],[-48.75,-34.62],[-50.0,-34.62],[-52.12,-36.0],[-52.12,-38.0],[-50.75,-39.62],[-47.25,-40.12]]]}},{"type":"Feature","properties":{"kind":"blob","cls":4,"id":61},"geometry":{"type":"Polygon","coordinates":[[[-71.25,-32.88],[-70.62,-33.0],[-71.12,-32.0],[-71.0,-30.12],[-71.62,-31.0],[-71.25,-32.88]]]}},{"type":"Feature","properties":{"kind":"blob","cls":4,"id":62},"geometry":{"type":"Polygon","coordinates":[[[-67.0,-27.88],[-66.5,-28.12],[-66.12,-27.75],[-66.5,-27.62],[-67.0,-27.88]]]}},{"type":"Feature","properties":{"kind":"blob","cls":4,"id":63},"geometry":{"type":"Polygon","coordinates":[[[-68.75,-33.38],[-68.0,-33.12],[-67.38,-32.25],[-67.5,-31.38],[-68.12,-31.5],[-67.62,-31.0],[-68.0,-30.12],[-68.62,-30.5],[-68.75,-33.38]]]}},{"type":"Feature","properties":{"kind":"blob","cls":4,"id":64},"geometry":{"type":"Polygon","coordinates":[[[-64.0,-21.38],[-63.62,-21.0],[-64.0,-20.62],[-64.0,-21.38]]]}},{"type":"Feature","properties":{"kind":"blob","cls":3,"id":65},"geometry":{"type":"Polygon","coordinates":[[[-65.88,-27.25],[-65.75,-27.38],[-65.62,-27.25],[-65.88,-27.25]]]}},{"type":"Feature","properties":{"kind":"center","id":1,"lat":-61.25,"lon":144.5,"mslp":944.7,"hvtl":131.9,"hvtu":27.0,"hb":-38.2,"idx":2.0,"cls":0,"psfc":944.7,"terrain":false,"radius_km":200,"name":"sym deep warm","track":"T03"},"geometry":{"type":"Point","coordinates":[144.5,-61.25]}},{"type":"Feature","properties":{"kind":"center","id":2,"lat":-64.25,"lon":-25.25,"mslp":957.5,"hvtl":29.6,"hvtu":-236.0,"hb":41.0,"idx":-0.4,"cls":3,"psfc":957.5,"terrain":false,"radius_km":200,"name":"asym shallow warm","track":"T19"},"geometry":{"type":"Point","coordinates":[-25.25,-64.25]}},{"type":"Feature","properties":{"kind":"center","id":3,"lat":24.5,"lon":148.25,"mslp":957.8,"hvtl":81.6,"hvtu":330.9,"hb":2.0,"idx":2.3,"cls":0,"psfc":957.8,"terrain":false,"radius_km":200,"name":"sym deep warm","track":"T09"},"geometry":{"type":"Point","coordinates":[148.25,24.5]}},{"type":"Feature","properties":{"kind":"center","id":4,"lat":18.0,"lon":-105.0,"mslp":960.2,"hvtl":90.5,"hvtu":286.8,"hb":-15.3,"idx":2.4,"cls":0,"psfc":960.2,"terrain":false,"radius_km":200,"name":"sym deep warm"},"geometry":{"type":"Point","coordinates":[-105.0,18.0]}},{"type":"Feature","properties":{"kind":"center","id":5,"lat":-56.5,"lon":-122.5,"mslp":960.7,"hvtl":-4.6,"hvtu":-68.4,"hb":10.2,"idx":-0.7,"cls":4,"psfc":960.7,"terrain":false,"radius_km":200,"name":"asym cold"},"geometry":{"type":"Point","coordinates":[-122.5,-56.5]}},{"type":"Feature","properties":{"kind":"center","id":6,"lat":-61.25,"lon":-119.75,"mslp":961.4,"hvtl":-109.5,"hvtu":-70.4,"hb":51.4,"idx":-2.2,"cls":4,"psfc":961.4,"terrain":false,"radius_km":200,"name":"asym cold","track":"T12"},"geometry":{"type":"Point","coordinates":[-119.75,-61.25]}},{"type":"Feature","properties":{"kind":"center","id":7,"lat":-64.0,"lon":41.75,"mslp":962.5,"hvtl":-20.5,"hvtu":-36.3,"hb":20.5,"idx":-0.8,"cls":4,"psfc":962.6,"terrain":false,"radius_km":200,"name":"asym cold"},"geometry":{"type":"Point","coordinates":[41.75,-64.0]}},{"type":"Feature","properties":{"kind":"center","id":8,"lat":-56.5,"lon":-139.25,"mslp":966.6,"hvtl":-109.7,"hvtu":-391.5,"hb":25.3,"idx":-2.6,"cls":4,"psfc":966.6,"terrain":false,"radius_km":200,"name":"asym cold","track":"T26"},"geometry":{"type":"Point","coordinates":[-139.25,-56.5]}},{"type":"Feature","properties":{"kind":"center","id":9,"lat":-65.0,"lon":69.75,"mslp":967.5,"hvtl":-78.9,"hvtu":-256.8,"hb":44.3,"idx":-2.3,"cls":4,"psfc":967.4,"terrain":false,"radius_km":200,"name":"asym cold"},"geometry":{"type":"Point","coordinates":[69.75,-65.0]}},{"type":"Feature","properties":{"kind":"center","id":10,"lat":-72.5,"lon":-101.0,"mslp":973.8,"hvtl":-130.7,"hvtu":-141.2,"hb":90.9,"idx":-2.6,"cls":4,"psfc":969.7,"terrain":false,"radius_km":200,"name":"asym cold","track":"T40"},"geometry":{"type":"Point","coordinates":[-101.0,-72.5]}},{"type":"Feature","properties":{"kind":"center","id":11,"lat":-70.0,"lon":25.0,"mslp":974.2,"hvtl":-94.3,"hvtu":-75.4,"hb":21.7,"idx":-2.1,"cls":4,"psfc":974.2,"terrain":false,"radius_km":200,"name":"asym cold"},"geometry":{"type":"Point","coordinates":[25.0,-70.0]}},{"type":"Feature","properties":{"kind":"center","id":12,"lat":57.0,"lon":-38.75,"mslp":976.4,"hvtl":-48.6,"hvtu":-231.6,"hb":32.6,"idx":-1.9,"cls":4,"psfc":976.4,"terrain":false,"radius_km":200,"name":"asym cold","track":"T14"},"geometry":{"type":"Point","coordinates":[-38.75,57.0]}},{"type":"Feature","properties":{"kind":"center","id":13,"lat":60.5,"lon":-176.25,"mslp":978.3,"hvtl":26.3,"hvtu":-54.5,"hb":5.2,"idx":0.0,"cls":1,"psfc":978.3,"terrain":false,"radius_km":200,"name":"sym shallow warm","track":"T48"},"geometry":{"type":"Point","coordinates":[-176.25,60.5]}},{"type":"Feature","properties":{"kind":"center","id":14,"lat":-83.25,"lon":-165.75,"mslp":978.8,"hvtl":-196.9,"hvtu":-56.3,"hb":20.4,"idx":-2.4,"cls":4,"psfc":969.2,"terrain":false,"radius_km":200,"name":"asym cold","track":"T54"},"geometry":{"type":"Point","coordinates":[-165.75,-83.25]}},{"type":"Feature","properties":{"kind":"center","id":15,"lat":-50.5,"lon":14.25,"mslp":979.4,"hvtl":43.1,"hvtu":-391.1,"hb":56.3,"idx":-0.2,"cls":3,"psfc":979.4,"terrain":false,"radius_km":200,"name":"asym shallow warm","track":"T46"},"geometry":{"type":"Point","coordinates":[14.25,-50.5]}},{"type":"Feature","properties":{"kind":"center","id":16,"lat":-50.25,"lon":137.25,"mslp":980.8,"hvtl":-276.3,"hvtu":-372.1,"hb":66.7,"idx":-3.0,"cls":4,"psfc":980.8,"terrain":false,"radius_km":200,"name":"asym cold"},"geometry":{"type":"Point","coordinates":[137.25,-50.25]}},{"type":"Feature","properties":{"kind":"center","id":17,"lat":-82.75,"lon":177.75,"mslp":981.2,"hvtl":-24.4,"hvtu":-62.2,"hb":10.3,"idx":-1.0,"cls":4,"psfc":972.9,"terrain":false,"radius_km":200,"name":"asym cold","track":"T60"},"geometry":{"type":"Point","coordinates":[177.75,-82.75]}},{"type":"Feature","properties":{"kind":"center","id":18,"lat":-82.5,"lon":174.5,"mslp":981.3,"hvtl":-9.9,"hvtu":-65.0,"hb":4.5,"idx":-0.8,"cls":5,"psfc":973.5,"terrain":false,"radius_km":200,"name":"sym cold"},"geometry":{"type":"Point","coordinates":[174.5,-82.5]}},{"type":"Feature","properties":{"kind":"center","id":19,"lat":-70.0,"lon":166.25,"mslp":981.3,"hvtl":210.0,"hvtu":-376.2,"hb":68.1,"idx":0.9,"cls":3,"psfc":981.3,"terrain":false,"radius_km":200,"name":"asym shallow warm","track":"T06"},"geometry":{"type":"Point","coordinates":[166.25,-70.0]}},{"type":"Feature","properties":{"kind":"center","id":20,"lat":-71.25,"lon":162.0,"mslp":982.2,"hvtl":47.4,"hvtu":-358.6,"hb":75.8,"idx":-0.1,"cls":3,"psfc":955.0,"terrain":false,"radius_km":200,"name":"asym shallow warm"},"geometry":{"type":"Point","coordinates":[162.0,-71.25]}},{"type":"Feature","properties":{"kind":"center","id":21,"lat":-76.0,"lon":168.25,"mslp":982.3,"hvtl":-269.7,"hvtu":-273.9,"hb":38.2,"idx":-3.0,"cls":4,"psfc":982.3,"terrain":false,"radius_km":200,"name":"asym cold","track":"T15"},"geometry":{"type":"Point","coordinates":[168.25,-76.0]}},{"type":"Feature","properties":{"kind":"center","id":22,"lat":68.25,"lon":57.0,"mslp":984.1,"hvtl":-96.0,"hvtu":-227.4,"hb":52.8,"idx":-2.5,"cls":4,"psfc":979.3,"terrain":false,"radius_km":200,"name":"asym cold","track":"T57"},"geometry":{"type":"Point","coordinates":[57.0,68.25]}},{"type":"Feature","properties":{"kind":"center","id":23,"lat":-78.25,"lon":-35.5,"mslp":984.4,"hvtl":-36.0,"hvtu":-41.9,"hb":2.0,"idx":-1.1,"cls":5,"psfc":920.8,"terrain":false,"radius_km":200,"name":"sym cold","track":"T65"},"geometry":{"type":"Point","coordinates":[-35.5,-78.25]}},{"type":"Feature","properties":{"kind":"center","id":24,"lat":-78.0,"lon":-34.5,"mslp":985.0,"hvtl":-23.5,"hvtu":-43.3,"hb":1.2,"idx":-0.9,"cls":5,"psfc":901.2,"terrain":false,"radius_km":200,"name":"sym cold"},"geometry":{"type":"Point","coordinates":[-34.5,-78.0]}},{"type":"Feature","properties":{"kind":"center","id":25,"lat":-78.5,"lon":-30.25,"mslp":985.7,"hvtl":2.6,"hvtu":-46.3,"hb":-5.5,"idx":-0.4,"cls":1,"psfc":900.3,"terrain":false,"radius_km":200,"name":"sym shallow warm","track":"T56"},"geometry":{"type":"Point","coordinates":[-30.25,-78.5]}},{"type":"Feature","properties":{"kind":"center","id":26,"lat":-49.5,"lon":3.75,"mslp":985.8,"hvtl":-194.8,"hvtu":-242.0,"hb":34.9,"idx":-2.9,"cls":4,"psfc":985.8,"terrain":false,"radius_km":200,"name":"asym cold"},"geometry":{"type":"Point","coordinates":[3.75,-49.5]}},{"type":"Feature","properties":{"kind":"center","id":27,"lat":28.25,"lon":-117.75,"mslp":988.3,"hvtl":-27.9,"hvtu":-52.8,"hb":46.5,"idx":-1.0,"cls":4,"psfc":988.3,"terrain":false,"radius_km":200,"name":"asym cold"},"geometry":{"type":"Point","coordinates":[-117.75,28.25]}},{"type":"Feature","properties":{"kind":"center","id":28,"lat":51.25,"lon":-22.75,"mslp":991.9,"hvtl":-144.0,"hvtu":-256.8,"hb":57.4,"idx":-2.8,"cls":4,"psfc":991.9,"terrain":false,"radius_km":200,"name":"asym cold","track":"T17"},"geometry":{"type":"Point","coordinates":[-22.75,51.25]}},{"type":"Feature","properties":{"kind":"center","id":29,"lat":77.0,"lon":56.5,"mslp":992.2,"hvtl":149.0,"hvtu":-146.4,"hb":29.6,"idx":0.9,"cls":3,"psfc":992.2,"terrain":false,"radius_km":200,"name":"asym shallow warm","track":"T74"},"geometry":{"type":"Point","coordinates":[56.5,77.0]}},{"type":"Feature","properties":{"kind":"center","id":30,"lat":-73.5,"lon":-61.75,"mslp":992.6,"hvtl":-185.3,"hvtu":-203.6,"hb":57.1,"idx":-2.9,"cls":4,"psfc":918.2,"terrain":false,"radius_km":200,"name":"asym cold"},"geometry":{"type":"Point","coordinates":[-61.75,-73.5]}},{"type":"Feature","properties":{"kind":"center","id":31,"lat":72.75,"lon":-164.5,"mslp":994.2,"hvtl":88.6,"hvtu":-152.1,"hb":46.4,"idx":0.5,"cls":3,"psfc":994.2,"terrain":false,"radius_km":200,"name":"asym shallow warm"},"geometry":{"type":"Point","coordinates":[-164.5,72.75]}},{"type":"Feature","properties":{"kind":"center","id":32,"lat":73.75,"lon":-148.0,"mslp":995.3,"hvtl":-122.9,"hvtu":-142.4,"hb":56.2,"idx":-2.6,"cls":4,"psfc":995.3,"terrain":false,"radius_km":200,"name":"asym cold"},"geometry":{"type":"Point","coordinates":[-148.0,73.75]}},{"type":"Feature","properties":{"kind":"center","id":33,"lat":43.75,"lon":-102.75,"mslp":996.0,"hvtl":-126.7,"hvtu":-149.1,"hb":84.6,"idx":-2.6,"cls":4,"psfc":902.0,"terrain":true,"radius_km":200,"name":"asym cold"},"geometry":{"type":"Point","coordinates":[-102.75,43.75]}},{"type":"Feature","properties":{"kind":"center","id":34,"lat":-46.5,"lon":-85.5,"mslp":996.1,"hvtl":90.4,"hvtu":-54.5,"hb":3.8,"idx":0.9,"cls":1,"psfc":996.1,"terrain":false,"radius_km":200,"name":"sym shallow warm","track":"T79"},"geometry":{"type":"Point","coordinates":[-85.5,-46.5]}},{"type":"Feature","properties":{"kind":"center","id":35,"lat":47.5,"lon":-97.0,"mslp":996.1,"hvtl":-150.3,"hvtu":-93.5,"hb":52.2,"idx":-2.5,"cls":4,"psfc":965.4,"terrain":false,"radius_km":200,"name":"asym cold"},"geometry":{"type":"Point","coordinates":[-97.0,47.5]}},{"type":"Feature","properties":{"kind":"center","id":36,"lat":87.0,"lon":148.5,"mslp":996.2,"hvtl":-99.9,"hvtu":-206.6,"hb":58.5,"idx":-2.5,"cls":4,"psfc":996.2,"terrain":false,"radius_km":200,"name":"asym cold","track":"T72"},"geometry":{"type":"Point","coordinates":[148.5,87.0]}},{"type":"Feature","properties":{"kind":"center","id":37,"lat":64.75,"lon":-49.75,"mslp":996.6,"hvtl":260.0,"hvtu":-210.3,"hb":64.5,"idx":1.0,"cls":3,"psfc":904.2,"terrain":true,"radius_km":200,"name":"asym shallow warm"},"geometry":{"type":"Point","coordinates":[-49.75,64.75]}},{"type":"Feature","properties":{"kind":"center","id":38,"lat":71.5,"lon":-132.25,"mslp":997.4,"hvtl":-171.2,"hvtu":-203.5,"hb":46.7,"idx":-2.8,"cls":4,"psfc":997.4,"terrain":false,"radius_km":200,"name":"asym cold","track":"T68"},"geometry":{"type":"Point","coordinates":[-132.25,71.5]}},{"type":"Feature","properties":{"kind":"center","id":39,"lat":65.0,"lon":-50.25,"mslp":997.5,"hvtl":279.4,"hvtu":-209.7,"hb":63.8,"idx":1.0,"cls":3,"psfc":907.3,"terrain":true,"radius_km":200,"name":"asym shallow warm"},"geometry":{"type":"Point","coordinates":[-50.25,65.0]}},{"type":"Feature","properties":{"kind":"center","id":40,"lat":35.75,"lon":-117.75,"mslp":997.9,"hvtl":-123.2,"hvtu":-217.5,"hb":61.3,"idx":-2.7,"cls":4,"psfc":911.0,"terrain":false,"radius_km":200,"name":"asym cold"},"geometry":{"type":"Point","coordinates":[-117.75,35.75]}},{"type":"Feature","properties":{"kind":"center","id":41,"lat":36.5,"lon":-119.75,"mslp":998.0,"hvtl":-38.7,"hvtu":-224.7,"hb":76.4,"idx":-1.7,"cls":4,"psfc":989.1,"terrain":false,"radius_km":200,"name":"asym cold"},"geometry":{"type":"Point","coordinates":[-119.75,36.5]}},{"type":"Feature","properties":{"kind":"center","id":42,"lat":59.0,"lon":12.75,"mslp":998.5,"hvtl":17.5,"hvtu":-130.4,"hb":25.6,"idx":-0.5,"cls":3,"psfc":991.1,"terrain":false,"radius_km":200,"name":"asym shallow warm","track":"T80"},"geometry":{"type":"Point","coordinates":[12.75,59.0]}},{"type":"Feature","properties":{"kind":"center","id":43,"lat":-73.0,"lon":-66.5,"mslp":998.7,"hvtl":-189.8,"hvtu":-211.0,"hb":56.6,"idx":-2.9,"cls":4,"psfc":900.7,"terrain":true,"radius_km":200,"name":"asym cold"},"geometry":{"type":"Point","coordinates":[-66.5,-73.0]}},{"type":"Feature","properties":{"kind":"center","id":44,"lat":63.0,"lon":3.5,"mslp":998.8,"hvtl":88.1,"hvtu":-152.9,"hb":-2.4,"idx":0.5,"cls":1,"psfc":998.8,"terrain":false,"radius_km":200,"name":"sym shallow warm","track":"T82"},"geometry":{"type":"Point","coordinates":[3.5,63.0]}},{"type":"Feature","properties":{"kind":"center","id":45,"lat":35.5,"lon":-116.5,"mslp":1000.0,"hvtl":-108.9,"hvtu":-222.4,"hb":47.7,"idx":-2.6,"cls":4,"psfc":901.5,"terrain":true,"radius_km":200,"name":"asym cold"},"geometry":{"type":"Point","coordinates":[-116.5,35.5]}},{"type":"Feature","properties":{"kind":"center","id":46,"lat":59.5,"lon":25.75,"mslp":1000.2,"hvtl":-174.0,"hvtu":-281.1,"hb":58.2,"idx":-2.9,"cls":4,"psfc":993.9,"terrain":false,"radius_km":200,"name":"asym cold"},"geometry":{"type":"Point","coordinates":[25.75,59.5]}},{"type":"Feature","properties":{"kind":"center","id":47,"lat":80.5,"lon":-109.75,"mslp":1002.1,"hvtl":-47.9,"hvtu":-286.8,"hb":41.5,"idx":-1.9,"cls":4,"psfc":1002.1,"terrain":false,"radius_km":200,"name":"asym cold"},"geometry":{"type":"Point","coordinates":[-109.75,80.5]}},{"type":"Feature","properties":{"kind":"center","id":48,"lat":67.5,"lon":-25.5,"mslp":1003.3,"hvtl":-119.2,"hvtu":-257.0,"hb":20.2,"idx":-2.7,"cls":4,"psfc":1003.4,"terrain":false,"radius_km":200,"name":"asym cold"},"geometry":{"type":"Point","coordinates":[-25.5,67.5]}},{"type":"Feature","properties":{"kind":"center","id":49,"lat":78.75,"lon":-13.5,"mslp":1004.1,"hvtl":-278.4,"hvtu":-160.2,"hb":67.5,"idx":-2.9,"cls":4,"psfc":1004.1,"terrain":false,"radius_km":200,"name":"asym cold","track":"T59"},"geometry":{"type":"Point","coordinates":[-13.5,78.75]}},{"type":"Feature","properties":{"kind":"center","id":50,"lat":32.25,"lon":145.5,"mslp":1005.3,"hvtl":138.3,"hvtu":-107.0,"hb":26.3,"idx":1.0,"cls":3,"psfc":1005.3,"terrain":false,"radius_km":200,"name":"asym shallow warm","track":"T91"},"geometry":{"type":"Point","coordinates":[145.5,32.25]}},{"type":"Feature","properties":{"kind":"center","id":51,"lat":40.25,"lon":18.5,"mslp":1005.4,"hvtl":-105.0,"hvtu":-138.6,"hb":36.2,"idx":-2.4,"cls":4,"psfc":1004.6,"terrain":false,"radius_km":200,"name":"asym cold"},"geometry":{"type":"Point","coordinates":[18.5,40.25]}},{"type":"Feature","properties":{"kind":"center","id":52,"lat":30.0,"lon":58.5,"mslp":1006.3,"hvtl":5.5,"hvtu":-155.2,"hb":11.7,"idx":-0.8,"cls":3,"psfc":970.3,"terrain":false,"radius_km":200,"name":"asym shallow warm"},"geometry":{"type":"Point","coordinates":[58.5,30.0]}},{"type":"Feature","properties":{"kind":"center","id":53,"lat":14.0,"lon":40.5,"mslp":1006.7,"hvtl":65.5,"hvtu":-64.2,"hb":-17.0,"idx":0.6,"cls":1,"psfc":1018.4,"terrain":false,"radius_km":200,"name":"sym shallow warm","track":"T95"},"geometry":{"type":"Point","coordinates":[40.5,14.0]}},{"type":"Feature","properties":{"kind":"center","id":54,"lat":66.5,"lon":-51.75,"mslp":1007.3,"hvtl":246.3,"hvtu":-196.0,"hb":68.9,"idx":1.0,"cls":3,"psfc":918.5,"terrain":false,"radius_km":200,"name":"asym shallow warm"},"geometry":{"type":"Point","coordinates":[-51.75,66.5]}},{"type":"Feature","properties":{"kind":"center","id":55,"lat":75.75,"lon":-61.5,"mslp":1008.4,"hvtl":-80.7,"hvtu":-86.0,"hb":25.7,"idx":-2.0,"cls":4,"psfc":1008.4,"terrain":false,"radius_km":200,"name":"asym cold"},"geometry":{"type":"Point","coordinates":[-61.5,75.75]}},{"type":"Feature","properties":{"kind":"center","id":56,"lat":34.0,"lon":-87.25,"mslp":1008.6,"hvtl":-177.0,"hvtu":-89.9,"hb":29.2,"idx":-2.6,"cls":4,"psfc":987.0,"terrain":false,"radius_km":200,"name":"asym cold","track":"T100"},"geometry":{"type":"Point","coordinates":[-87.25,34.0]}},{"type":"Feature","properties":{"kind":"center","id":57,"lat":43.0,"lon":7.75,"mslp":1008.6,"hvtl":-68.7,"hvtu":-176.5,"hb":8.0,"idx":-2.1,"cls":5,"psfc":1008.6,"terrain":false,"radius_km":200,"name":"sym cold"},"geometry":{"type":"Point","coordinates":[7.75,43.0]}},{"type":"Feature","properties":{"kind":"center","id":58,"lat":27.75,"lon":58.75,"mslp":1009.1,"hvtl":58.3,"hvtu":-135.2,"hb":-11.8,"idx":0.2,"cls":1,"psfc":964.2,"terrain":false,"radius_km":200,"name":"sym shallow warm"},"geometry":{"type":"Point","coordinates":[58.75,27.75]}},{"type":"Feature","properties":{"kind":"center","id":59,"lat":30.25,"lon":61.0,"mslp":1009.6,"hvtl":12.3,"hvtu":-153.1,"hb":12.4,"idx":-0.7,"cls":3,"psfc":954.1,"terrain":false,"radius_km":200,"name":"asym shallow warm","track":"T112"},"geometry":{"type":"Point","coordinates":[61.0,30.25]}},{"type":"Feature","properties":{"kind":"center","id":60,"lat":-37.5,"lon":-49.0,"mslp":1011.3,"hvtl":49.0,"hvtu":-224.0,"hb":46.7,"idx":-0.1,"cls":3,"psfc":1011.3,"terrain":false,"radius_km":200,"name":"asym shallow warm","track":"T93"},"geometry":{"type":"Point","coordinates":[-49.0,-37.5]}},{"type":"Feature","properties":{"kind":"center","id":61,"lat":-31.0,"lon":-71.5,"mslp":1014.6,"hvtl":-196.5,"hvtu":-167.6,"hb":44.2,"idx":-2.9,"cls":4,"psfc":958.3,"terrain":false,"radius_km":200,"name":"asym cold"},"geometry":{"type":"Point","coordinates":[-71.5,-31.0]}},{"type":"Feature","properties":{"kind":"center","id":62,"lat":-27.75,"lon":-66.5,"mslp":1018.2,"hvtl":-12.6,"hvtu":-136.5,"hb":22.3,"idx":-1.1,"cls":4,"psfc":923.5,"terrain":true,"radius_km":200,"name":"asym cold"},"geometry":{"type":"Point","coordinates":[-66.5,-27.75]}},{"type":"Feature","properties":{"kind":"center","id":63,"lat":-31.5,"lon":-67.5,"mslp":1018.4,"hvtl":-48.7,"hvtu":-138.9,"hb":10.5,"idx":-1.8,"cls":4,"psfc":947.0,"terrain":false,"radius_km":200,"name":"asym cold"},"geometry":{"type":"Point","coordinates":[-67.5,-31.5]}},{"type":"Feature","properties":{"kind":"center","id":64,"lat":-21.0,"lon":-63.75,"mslp":1019.6,"hvtl":-93.1,"hvtu":-151.9,"hb":41.6,"idx":-2.4,"cls":4,"psfc":929.3,"terrain":true,"radius_km":200,"name":"asym cold"},"geometry":{"type":"Point","coordinates":[-63.75,-21.0]}},{"type":"Feature","properties":{"kind":"center","id":65,"lat":-27.25,"lon":-65.75,"mslp":1021.9,"hvtl":16.9,"hvtu":-126.8,"hb":20.3,"idx":-0.5,"cls":3,"psfc":934.1,"terrain":false,"radius_km":200,"name":"asym shallow warm"},"geometry":{"type":"Point","coordinates":[-65.75,-27.25]}}]}