{"type":"FeatureCollection","features":[{"type":"Feature","properties":{"kind":"blob","cls":3,"id":1},"geometry":{"type":"Polygon","coordinates":[[[116.5,-63.38],[117.5,-62.88],[118.62,-61.5],[117.75,-60.38],[116.75,-59.88],[111.25,-59.62],[111.38,-58.25],[110.75,-57.62],[108.75,-56.88],[105.75,-57.12],[104.12,-58.25],[104.12,-59.25],[105.75,-60.38],[109.25,-60.38],[109.25,-61.12],[108.0,-61.38],[107.38,-62.0],[109.0,-63.12],[116.5,-63.38]]]}},{"type":"Feature","properties":{"kind":"blob","cls":3,"id":2},"geometry":{"type":"Polygon","coordinates":[[[9.0,-68.62],[14.5,-68.62],[15.75,-68.12],[16.62,-67.25],[16.62,-66.5],[15.75,-65.62],[14.5,-65.12],[9.0,-64.88],[6.75,-65.38],[5.38,-66.5],[5.38,-67.0],[6.5,-68.12],[9.0,-68.62]]]}},{"type":"Feature","properties":{"kind":"blob","cls":1,"id":3},"geometry":{"type":"Polygon","coordinates":[[[153.75,-66.88],[156.0,-66.38],[157.38,-65.25],[157.38,-64.0],[155.5,-62.88],[151.0,-62.62],[149.5,-62.88],[147.62,-64.0],[147.62,-65.25],[148.25,-65.88],[150.25,-65.88],[150.5,-66.62],[153.75,-66.88]]]}},{"type":"Feature","properties":{"kind":"blob","cls":1,"id":4},"geometry":{"type":"Polygon","coordinates":[[[24.75,-64.62],[26.75,-64.12],[27.88,-63.25],[27.88,-62.25],[26.0,-61.12],[22.75,-60.88],[20.75,-61.38],[19.62,-62.25],[19.62,-63.25],[20.25,-63.88],[24.75,-64.62]]]}},{"type":"Feature","properties":{"kind":"blob","cls":0,"id":5},"geometry":{"type":"Polygon","coordinates":[[[146.0,29.62],[147.62,30.5],[147.88,32.25],[147.25,33.12],[145.25,33.62],[143.62,32.75],[143.38,31.0],[144.0,30.12],[146.0,29.62]]]}},{"type":"Feature","properties":{"kind":"blob","cls":0,"id":6},"geometry":{"type":"Polygon","coordinates":[[[-123.0,-59.88],[-121.38,-58.75],[-121.38,-57.75],[-122.0,-57.12],[-124.0,-56.38],[-127.0,-56.62],[-128.62,-57.75],[-128.62,-58.75],[-127.0,-59.88],[-123.0,-59.88]]]}},{"type":"Feature","properties":{"kind":"blob","cls":4,"id":7},"geometry":{"type":"Polygon","coordinates":[[[21.0,-70.12],[26.5,-70.38],[28.5,-69.62],[28.88,-69.25],[28.88,-68.25],[27.5,-67.38],[25.0,-66.88],[21.25,-67.12],[18.88,-68.25],[18.88,-69.25],[19.25,-69.62],[21.0,-70.12]]]}},{"type":"Feature","properties":{"kind":"blob","cls":3,"id":8},"geometry":{"type":"Polygon","coordinates":[[[9.75,-61.12],[11.5,-60.62],[12.62,-59.5],[12.38,-57.5],[11.75,-56.88],[9.75,-56.12],[8.0,-56.12],[6.0,-56.88],[4.62,-59.25],[5.75,-60.62],[9.75,-61.12]]]}},{"type":"Feature","properties":{"kind":"blob","cls":6,"id":9},"geometry":{"type":"Polygon","coordinates":[[[-114.0,-63.38],[-111.88,-62.0],[-111.88,-60.75],[-113.5,-59.62],[-114.75,-59.38],[-118.0,-59.62],[-120.12,-61.0],[-120.38,-62.0],[-118.5,-63.38],[-114.0,-63.38]]]}},{"type":"Feature","properties":{"kind":"blob","cls":4,"id":10},"geometry":{"type":"Polygon","coordinates":[[[-12.5,-71.88],[-10.25,-71.38],[-9.25,-70.88],[-8.62,-70.0],[-9.0,-69.12],[-10.12,-69.0],[-9.38,-68.25],[-10.25,-67.38],[-13.25,-66.62],[-16.25,-66.62],[-18.75,-67.12],[-20.0,-67.88],[-22.0,-68.38],[-22.88,-69.25],[-22.88,-69.75],[-21.75,-71.12],[-19.75,-71.88],[-12.5,-71.88]]]}},{"type":"Feature","properties":{"kind":"blob","cls":4,"id":11},"geometry":{"type":"Polygon","coordinates":[[[-132.5,-55.38],[-130.5,-54.62],[-129.62,-53.25],[-129.88,-52.75],[-130.75,-51.88],[-132.25,-51.38],[-135.25,-51.88],[-136.38,-53.25],[-135.5,-54.62],[-132.5,-55.38]]]}},{"type":"Feature","properties":{"kind":"blob","cls":3,"id":12},"geometry":{"type":"Polygon","coordinates":[[[179.75,-81.62],[180.0,-78.38],[177.5,-79.38],[176.88,-80.0],[177.0,-80.62],[179.75,-81.62]]]}},{"type":"Feature","properties":{"kind":"blob","cls":3,"id":12},"geometry":{"type":"Polygon","coordinates":[[[-179.75,-78.38],[-180.0,-81.62],[-177.25,-82.12],[-163.75,-82.12],[-158.75,-81.38],[-156.88,-80.5],[-157.25,-80.12],[-162.5,-80.88],[-166.75,-80.88],[-167.12,-80.5],[-166.75,-80.12],[-165.25,-79.38],[-159.88,-78.25],[-164.25,-77.38],[-171.5,-77.12],[-179.75,-78.38]]]}},{"type":"Feature","properties":{"kind":"blob","cls":4,"id":13},"geometry":{"type":"Polygon","coordinates":[[[-113.0,-74.88],[-99.5,-74.38],[-98.38,-73.25],[-98.38,-72.25],[-99.0,-71.62],[-101.0,-70.88],[-107.75,-70.88],[-111.0,-72.12],[-113.5,-72.38],[-116.5,-73.38],[-117.12,-74.0],[-117.12,-74.5],[-113.0,-74.88]]]}},{"type":"Feature","properties":{"kind":"blob","cls":5,"id":14},"geometry":{"type":"Polygon","coordinates":[[[41.5,64.38],[44.12,65.75],[44.12,66.75],[42.25,68.12],[38.12,68.75],[39.0,69.12],[39.62,70.0],[39.62,71.0],[38.75,71.88],[35.25,72.62],[32.5,72.62],[29.0,71.88],[27.62,70.5],[27.88,69.5],[29.25,68.62],[32.75,67.88],[35.25,68.12],[34.12,67.0],[34.38,65.75],[36.25,64.62],[41.5,64.38]],[[37.5,68.38],[37.38,68.5],[37.5,68.62],[37.5,68.38]]]}},{"type":"Feature","properties":{"kind":"blob","cls":4,"id":15},"geometry":{"type":"Polygon","coordinates":[[[-133.25,-73.38],[-127.0,-73.38],[-124.5,-72.38],[-124.38,-71.25],[-125.0,-70.62],[-127.0,-69.88],[-133.0,-69.62],[-135.75,-70.12],[-137.38,-71.25],[-137.38,-72.25],[-136.5,-72.88],[-133.25,-73.38]]]}},{"type":"Feature","properties":{"kind":"blob","cls":4,"id":16},"geometry":{"type":"Polygon","coordinates":[[[69.25,-68.88],[78.25,-68.88],[79.75,-68.12],[81.12,-68.0],[79.25,-67.12],[74.5,-66.88],[71.0,-67.62],[69.25,-68.88]]]}},{"type":"Feature","properties":{"kind":"blob","cls":4,"id":17},"geometry":{"type":"Polygon","coordinates":[[[63.75,-65.38],[69.25,-64.38],[71.25,-63.38],[71.62,-62.25],[71.25,-61.62],[69.75,-60.88],[66.0,-60.62],[61.5,-61.38],[59.0,-62.38],[58.38,-63.0],[58.12,-63.5],[59.0,-64.62],[63.75,-65.38]]]}},{"type":"Feature","properties":{"kind":"blob","cls":0,"id":18},"geometry":{"type":"Polygon","coordinates":[[[-118.25,19.12],[-116.75,19.12],[-115.88,20.25],[-116.12,22.0],[-117.5,22.88],[-119.0,22.62],[-119.88,21.5],[-119.5,19.62],[-119.0,20.62],[-118.0,20.62],[-117.62,20.25],[-117.62,19.5],[-118.25,19.12]]]}},{"type":"Feature","properties":{"kind":"blob","cls":3,"id":19},"geometry":{"type":"Polygon","coordinates":[[[-64.25,50.38],[-62.75,50.88],[-61.88,51.75],[-61.88,52.75],[-62.75,53.62],[-64.25,54.12],[-67.0,53.62],[-67.88,52.75],[-67.88,51.75],[-67.0,50.88],[-64.25,50.38]],[[-63.75,50.88],[-64.5,51.12],[-65.12,51.75],[-63.25,51.62],[-63.75,50.88]],[[-67.25,51.62],[-67.38,51.75],[-67.25,51.88],[-67.25,51.62]]]}},{"type":"Feature","properties":{"kind":"blob","cls":4,"id":20},"geometry":{"type":"Polygon","coordinates":[[[49.5,-67.12],[51.25,-67.38],[51.62,-67.0],[51.12,-66.75],[51.5,-66.38],[55.25,-66.12],[55.88,-66.5],[56.0,-67.12],[58.5,-67.38],[58.88,-66.5],[58.0,-65.62],[56.75,-65.12],[53.0,-64.88],[50.25,-65.62],[49.38,-66.5],[49.5,-67.12]]]}},{"type":"Feature","properties":{"kind":"blob","cls":4,"id":21},"geometry":{"type":"Polygon","coordinates":[[[164.0,-57.62],[165.75,-57.12],[166.62,-56.25],[166.62,-55.25],[165.75,-54.38],[164.0,-53.88],[161.0,-54.38],[160.12,-55.25],[160.12,-56.25],[161.5,-57.38],[164.0,-57.62]]]}},{"type":"Feature","properties":{"kind":"blob","cls":4,"id":22},"geometry":{"type":"Polygon","coordinates":[[[-92.75,-62.38],[-90.5,-61.62],[-89.88,-61.0],[-90.12,-59.25],[-92.75,-58.12],[-95.0,-58.12],[-96.75,-58.62],[-97.88,-59.75],[-97.88,-61.0],[-96.25,-62.12],[-92.75,-62.38]]]}},{"type":"Feature","properties":{"kind":"blob","cls":0,"id":23},"geometry":{"type":"Polygon","coordinates":[[[170.5,24.38],[171.38,25.25],[171.38,26.75],[170.5,27.62],[169.0,27.88],[167.38,26.75],[167.38,25.25],[168.25,24.38],[170.5,24.38]]]}},{"type":"Feature","properties":{"kind":"blob","cls":4,"id":24},"geometry":{"type":"Polygon","coordinates":[[[-22.0,-46.88],[-18.0,-47.12],[-16.12,-46.0],[-15.88,-45.0],[-16.75,-43.88],[-17.75,-43.38],[-21.25,-43.38],[-25.5,-41.38],[-26.75,-41.38],[-28.38,-42.25],[-28.62,-44.5],[-27.75,-45.38],[-25.5,-46.38],[-23.5,-46.38],[-22.0,-46.88]]]}},{"type":"Feature","properties":{"kind":"blob","cls":3,"id":25},"geometry":{"type":"Polygon","coordinates":[[[98.25,80.88],[105.0,81.88],[106.25,82.38],[106.38,83.0],[105.75,83.38],[103.0,83.62],[95.75,83.88],[77.25,83.88],[56.88,82.0],[62.0,81.12],[98.25,80.88]]]}},{"type":"Feature","properties":{"kind":"blob","cls":4,"id":26},"geometry":{"type":"Polygon","coordinates":[[[148.5,50.88],[151.0,51.88],[152.12,53.25],[151.62,54.5],[151.0,55.12],[149.0,55.88],[146.5,55.62],[145.0,54.88],[143.88,53.5],[143.88,52.25],[144.75,51.38],[148.5,50.88]]]}},{"type":"Feature","properties":{"kind":"blob","cls":3,"id":27},"geometry":{"type":"Polygon","coordinates":[[[-146.25,56.38],[-144.62,57.5],[-144.62,58.5],[-145.25,59.12],[-147.25,59.88],[-150.5,59.62],[-152.12,58.5],[-152.12,57.5],[-150.5,56.38],[-146.25,56.38]]]}},{"type":"Feature","properties":{"kind":"blob","cls":4,"id":28},"geometry":{"type":"Polygon","coordinates":[[[-97.75,57.12],[-96.0,57.62],[-94.12,59.25],[-94.12,60.0],[-95.25,61.38],[-97.5,62.12],[-99.5,62.12],[-101.75,61.38],[-102.62,60.25],[-102.62,59.25],[-101.0,57.62],[-97.75,57.12]]]}},{"type":"Feature","properties":{"kind":"blob","cls":4,"id":29},"geometry":{"type":"Polygon","coordinates":[[[-76.5,-38.12],[-74.88,-37.0],[-74.88,-35.25],[-76.75,-33.88],[-77.75,-33.88],[-79.25,-34.88],[-80.5,-33.62],[-82.25,-33.12],[-83.5,-33.62],[-84.62,-34.75],[-84.62,-36.25],[-82.5,-37.88],[-81.25,-37.88],[-79.25,-36.62],[-78.75,-37.38],[-76.5,-38.12]]]}},{"type":"Feature","properties":{"kind":"blob","cls":1,"id":30},"geometry":{"type":"Polygon","coordinates":[[[152.0,70.12],[154.75,70.62],[156.62,71.75],[156.62,72.5],[155.5,73.38],[153.75,73.62],[151.25,72.38],[148.0,72.12],[147.38,73.75],[147.0,73.88],[145.25,73.38],[144.12,72.5],[144.12,72.0],[145.5,70.88],[152.0,70.12]]]}},{"type":"Feature","properties":{"kind":"blob","cls":4,"id":31},"geometry":{"type":"Polygon","coordinates":[[[79.75,53.88],[81.5,54.38],[82.62,55.5],[82.38,57.0],[80.5,58.38],[78.0,58.62],[76.25,57.38],[75.0,57.62],[74.12,56.75],[74.12,55.75],[75.25,54.62],[79.75,53.88]]]}},{"type":"Feature","properties":{"kind":"blob","cls":5,"id":32},"geometry":{"type":"Polygon","coordinates":[[[-31.25,62.12],[-29.5,63.12],[-26.0,63.62],[-24.88,64.5],[-24.62,65.25],[-25.5,66.38],[-27.0,67.12],[-31.5,67.62],[-36.75,66.12],[-39.88,64.5],[-39.88,63.75],[-39.0,62.88],[-37.25,62.12],[-31.25,62.12]]]}},{"type":"Feature","properties":{"kind":"blob","cls":1,"id":33},"geometry":{"type":"MultiPolygon","coordinates":[[[[66.75,25.38],[68.25,25.12],[69.88,26.25],[70.38,28.5],[69.5,29.62],[68.0,30.12],[67.38,29.75],[66.88,27.0],[65.62,26.75],[65.62,26.25],[66.75,25.38]]],[[[72.5,28.88],[73.75,29.38],[75.12,30.75],[75.38,32.25],[72.5,32.38],[70.5,31.88],[70.12,31.5],[69.88,29.5],[72.5,28.88]]]]}},{"type":"Feature","properties":{"kind":"blob","cls":1,"id":34},"geometry":{"type":"Polygon","coordinates":[[[134.5,59.12],[136.12,60.25],[136.12,61.25],[134.5,62.38],[133.25,62.62],[131.5,62.62],[129.25,61.88],[128.62,61.25],[128.62,60.25],[130.25,59.12],[134.5,59.12]]]}},{"type":"Feature","properties":{"kind":"blob","cls":4,"id":35},"geometry":{"type":"MultiPolygon","coordinates":[[[[-68.88,-33.5],[-69.0,-33.38],[-69.12,-33.5],[-68.88,-33.5]]],[[[-68.38,-35.0],[-67.0,-35.38],[-65.75,-34.88],[-65.12,-34.0],[-65.12,-31.0],[-65.88,-30.0],[-65.88,-29.25],[-66.38,-28.75],[-66.12,-28.0],[-66.5,-27.62],[-66.88,-28.0],[-66.62,-29.0],[-67.38,-29.75],[-67.38,-31.25],[-68.12,-31.5],[-67.62,-31.0],[-68.25,-29.88],[-68.62,-30.75],[-68.88,-33.25],[-68.38,-33.5],[-68.38,-35.0]],[[-66.38,-31.0],[-66.5,-31.12],[-66.62,-30.75],[-66.38,-31.0]],[[-65.62,-33.0],[-66.25,-33.12],[-66.38,-32.75],[-65.75,-32.38],[-65.62,-33.0]]],[[[-65.88,-28.75],[-66.0,-28.62],[-66.12,-28.75],[-65.88,-28.75]]],[[[-65.62,-28.5],[-65.75,-28.38],[-65.88,-28.5],[-65.62,-28.5]]]]}},{"type":"Feature","properties":{"kind":"blob","cls":1,"id":36},"geometry":{"type":"Polygon","coordinates":[[[32.75,-30.62],[33.88,-29.25],[33.62,-28.0],[32.75,-27.12],[31.25,-26.88],[30.88,-27.5],[31.38,-27.75],[31.12,-28.5],[29.88,-28.75],[30.88,-29.0],[30.12,-30.25],[32.75,-30.62]]]}},{"type":"Feature","properties":{"kind":"blob","cls":4,"id":37},"geometry":{"type":"Polygon","coordinates":[[[-66.5,-16.12],[-65.25,-16.12],[-64.38,-15.0],[-64.38,-13.75],[-64.88,-12.75],[-65.5,-12.12],[-68.0,-11.12],[-69.75,-11.38],[-70.62,-12.5],[-70.62,-13.25],[-68.5,-13.88],[-67.88,-15.25],[-66.5,-16.12]]]}},{"type":"Feature","properties":{"kind":"blob","cls":4,"id":38},"geometry":{"type":"Polygon","coordinates":[[[-65.25,-28.12],[-64.88,-27.5],[-65.25,-26.38],[-65.88,-27.25],[-65.25,-28.12]]]}},{"type":"Feature","properties":{"kind":"blob","cls":4,"id":39},"geometry":{"type":"Polygon","coordinates":[[[17.12,-27.0],[17.25,-27.38],[17.75,-27.38],[18.88,-26.5],[17.88,-26.5],[18.38,-26.0],[18.0,-25.62],[17.12,-27.0]]]}},{"type":"Feature","properties":{"kind":"blob","cls":5,"id":40},"geometry":{"type":"Polygon","coordinates":[[[-21.0,71.12],[-20.88,72.25],[-23.5,73.38],[-24.88,73.25],[-25.12,72.5],[-24.12,72.0],[-24.62,71.75],[-24.25,71.38],[-21.0,71.12]]]}},{"type":"Feature","properties":{"kind":"blob","cls":1,"id":41},"geometry":{"type":"Polygon","coordinates":[[[97.5,22.38],[98.12,22.75],[98.12,23.25],[97.5,23.38],[97.0,22.62],[96.88,23.25],[97.38,23.5],[97.38,24.0],[95.5,25.62],[94.25,24.62],[93.38,25.0],[93.38,24.25],[94.12,24.25],[93.88,23.75],[94.25,23.38],[97.5,22.38]]]}},{"type":"Feature","properties":{"kind":"blob","cls":3,"id":42},"geometry":{"type":"Polygon","coordinates":[[[15.62,-25.0],[15.75,-25.12],[15.88,-24.75],[15.62,-25.0]]]}},{"type":"Feature","properties":{"kind":"blob","cls":5,"id":43},"geometry":{"type":"Polygon","coordinates":[[[93.5,25.38],[94.38,26.25],[93.75,26.38],[93.5,25.38]]]}},{"type":"Feature","properties":{"kind":"blob","cls":3,"id":44},"geometry":{"type":"Polygon","coordinates":[[[16.0,-26.62],[16.38,-26.25],[15.75,-25.38],[15.62,-26.25],[16.0,-26.62]]]}},{"type":"Feature","properties":{"kind":"blob","cls":4,"id":45},"geometry":{"type":"Polygon","coordinates":[[[-54.5,71.38],[-52.38,71.75],[-58.5,75.12],[-61.0,74.88],[-62.88,73.75],[-62.88,73.25],[-61.5,72.12],[-54.5,71.38]]]}},{"type":"Feature","properties":{"kind":"blob","cls":3,"id":46},"geometry":{"type":"Polygon","coordinates":[[[179.88,-35.0],[180.0,-31.62],[179.75,-31.62],[178.88,-32.25],[178.62,-33.5],[179.88,-34.0],[179.88,-35.0]]]}},{"type":"Feature","properties":{"kind":"blob","cls":3,"id":46},"geometry":{"type":"Polygon","coordinates":[[[-179.75,-31.62],[-180.0,-35.12],[-178.5,-35.38],[-177.25,-34.88],[-176.62,-34.0],[-176.88,-32.25],[-178.5,-31.38],[-179.75,-31.62]]]}},{"type":"Feature","properties":{"kind":"blob","cls":1,"id":47},"geometry":{"type":"Polygon","coordinates":[[[98.5,22.88],[98.88,23.25],[98.5,23.38],[98.5,22.88]]]}},{"type":"Feature","properties":{"kind":"center","id":1,"lat":-61.5,"lon":111.5,"mslp":937.8,"hvtl":216.1,"hvtu":-137.8,"hb":20.9,"idx":1.1,"cls":3,"psfc":937.8,"terrain":false,"radius_km":200,"name":"asym shallow warm","track":"T01"},"geometry":{"type":"Point","coordinates":[111.5,-61.5]}},{"type":"Feature","properties":{"kind":"center","id":2,"lat":-66.75,"lon":11.0,"mslp":947.6,"hvtl":45.1,"hvtu":-40.2,"hb":21.1,"idx":0.5,"cls":3,"psfc":947.6,"terrain":false,"radius_km":200,"name":"asym shallow warm","track":"T04"},"geometry":{"type":"Point","coordinates":[11.0,-66.75]}},{"type":"Feature","properties":{"kind":"center","id":3,"lat":-64.75,"lon":152.5,"mslp":948.9,"hvtl":140.5,"hvtu":-18.8,"hb":9.5,"idx":1.6,"cls":1,"psfc":948.9,"terrain":false,"radius_km":200,"name":"sym shallow warm","track":"T06"},"geometry":{"type":"Point","coordinates":[152.5,-64.75]}},{"type":"Feature","properties":{"kind":"center","id":4,"lat":-62.75,"lon":23.75,"mslp":952.9,"hvtl":29.3,"hvtu":-110.4,"hb":-2.9,"idx":-0.2,"cls":1,"psfc":952.9,"terrain":false,"radius_km":200,"name":"sym shallow warm","track":"T19"},"geometry":{"type":"Point","coordinates":[23.75,-62.75]}},{"type":"Feature","properties":{"kind":"center","id":5,"lat":31.5,"lon":145.5,"mslp":953.5,"hvtl":116.5,"hvtu":208.2,"hb":5.9,"idx":2.6,"cls":0,"psfc":953.5,"terrain":false,"radius_km":200,"name":"sym deep warm","track":"T07"},"geometry":{"type":"Point","coordinates":[145.5,31.5]}},{"type":"Feature","properties":{"kind":"center","id":6,"lat":-58.25,"lon":-125.0,"mslp":953.8,"hvtl":53.9,"hvtu":30.4,"hb":-12.9,"idx":1.3,"cls":0,"psfc":953.8,"terrain":false,"radius_km":200,"name":"sym deep warm","track":"T18"},"geometry":{"type":"Point","coordinates":[-125.0,-58.25]}},{"type":"Feature","properties":{"kind":"center","id":7,"lat":-68.25,"lon":19.0,"mslp":954.3,"hvtl":-2.9,"hvtu":-55.6,"hb":20.0,"idx":-0.6,"cls":4,"psfc":954.3,"terrain":false,"radius_km":200,"name":"asym cold"},"geometry":{"type":"Point","coordinates":[19.0,-68.25]}},{"type":"Feature","properties":{"kind":"center","id":8,"lat":-60.75,"lon":10.0,"mslp":954.8,"hvtl":0.5,"hvtu":-144.2,"hb":27.2,"idx":-0.9,"cls":3,"psfc":954.8,"terrain":false,"radius_km":200,"name":"asym shallow warm","track":"T03"},"geometry":{"type":"Point","coordinates":[10.0,-60.75]}},{"type":"Feature","properties":{"kind":"center","id":9,"lat":-61.5,"lon":-116.25,"mslp":959.5,"hvtl":-88.3,"hvtu":61.2,"hb":19.0,"idx":-0.9,"cls":6,"psfc":959.5,"terrain":false,"radius_km":200,"name":"shallow cold"},"geometry":{"type":"Point","coordinates":[-116.25,-61.5]}},{"type":"Feature","properties":{"kind":"center","id":10,"lat":-69.75,"lon":-16.5,"mslp":961.5,"hvtl":-301.1,"hvtu":-51.6,"hb":23.4,"idx":-2.5,"cls":4,"psfc":961.5,"terrain":false,"radius_km":200,"name":"asym cold","track":"T23"},"geometry":{"type":"Point","coordinates":[-16.5,-69.75]}},{"type":"Feature","properties":{"kind":"center","id":11,"lat":-53.25,"lon":-133.0,"mslp":968.9,"hvtl":-92.4,"hvtu":-135.4,"hb":25.6,"idx":-2.3,"cls":4,"psfc":968.8,"terrain":false,"radius_km":200,"name":"asym cold","track":"T33"},"geometry":{"type":"Point","coordinates":[-133.0,-53.25]}},{"type":"Feature","properties":{"kind":"center","id":12,"lat":-80.0,"lon":-171.0,"mslp":969.6,"hvtl":79.7,"hvtu":-32.7,"hb":15.3,"idx":1.0,"cls":3,"psfc":962.7,"terrain":false,"radius_km":200,"name":"asym shallow warm","track":"T05"},"geometry":{"type":"Point","coordinates":[-171.0,-80.0]}},{"type":"Feature","properties":{"kind":"center","id":13,"lat":-74.25,"lon":-109.0,"mslp":970.4,"hvtl":-115.8,"hvtu":-173.4,"hb":37.2,"idx":-2.6,"cls":4,"psfc":970.4,"terrain":false,"radius_km":200,"name":"asym cold","track":"T34"},"geometry":{"type":"Point","coordinates":[-109.0,-74.25]}},{"type":"Feature","properties":{"kind":"center","id":14,"lat":70.0,"lon":33.5,"mslp":971.9,"hvtl":-3.3,"hvtu":-111.6,"hb":8.3,"idx":-0.9,"cls":5,"psfc":971.9,"terrain":false,"radius_km":200,"name":"sym cold","track":"T41"},"geometry":{"type":"Point","coordinates":[33.5,70.0]}},{"type":"Feature","properties":{"kind":"center","id":15,"lat":-71.5,"lon":-131.0,"mslp":972.5,"hvtl":-30.4,"hvtu":-86.9,"hb":57.2,"idx":-1.3,"cls":4,"psfc":972.5,"terrain":false,"radius_km":200,"name":"asym cold","track":"T10"},"geometry":{"type":"Point","coordinates":[-131.0,-71.5]}},{"type":"Feature","properties":{"kind":"center","id":16,"lat":-67.75,"lon":80.75,"mslp":976.2,"hvtl":-181.5,"hvtu":-176.0,"hb":25.0,"idx":-2.8,"cls":4,"psfc":976.2,"terrain":false,"radius_km":200,"name":"asym cold"},"geometry":{"type":"Point","coordinates":[80.75,-67.75]}},{"type":"Feature","properties":{"kind":"center","id":17,"lat":-63.25,"lon":63.5,"mslp":977.0,"hvtl":-405.1,"hvtu":-458.5,"hb":92.2,"idx":-3.0,"cls":4,"psfc":977.0,"terrain":false,"radius_km":200,"name":"asym cold"},"geometry":{"type":"Point","coordinates":[63.5,-63.25]}},{"type":"Feature","properties":{"kind":"center","id":18,"lat":20.75,"lon":-118.0,"mslp":977.5,"hvtl":66.7,"hvtu":186.0,"hb":4.4,"idx":2.1,"cls":0,"psfc":977.5,"terrain":false,"radius_km":200,"name":"sym deep warm","track":"T48"},"geometry":{"type":"Point","coordinates":[-118.0,20.75]}},{"type":"Feature","properties":{"kind":"center","id":19,"lat":52.25,"lon":-65.0,"mslp":979.3,"hvtl":8.5,"hvtu":-84.8,"hb":11.4,"idx":-0.5,"cls":3,"psfc":905.6,"terrain":false,"radius_km":200,"name":"asym shallow warm","track":"T57"},"geometry":{"type":"Point","coordinates":[-65.0,52.25]}},{"type":"Feature","properties":{"kind":"center","id":20,"lat":-66.5,"lon":49.5,"mslp":981.6,"hvtl":-172.4,"hvtu":-237.8,"hb":27.1,"idx":-2.9,"cls":4,"psfc":981.6,"terrain":false,"radius_km":200,"name":"asym cold"},"geometry":{"type":"Point","coordinates":[49.5,-66.5]}},{"type":"Feature","properties":{"kind":"center","id":21,"lat":-56.75,"lon":164.25,"mslp":981.7,"hvtl":-342.5,"hvtu":-311.2,"hb":81.6,"idx":-3.0,"cls":4,"psfc":981.7,"terrain":false,"radius_km":200,"name":"asym cold","track":"T15"},"geometry":{"type":"Point","coordinates":[164.25,-56.75]}},{"type":"Feature","properties":{"kind":"center","id":22,"lat":-60.5,"lon":-94.25,"mslp":987.1,"hvtl":-54.8,"hvtu":-181.4,"hb":25.4,"idx":-1.9,"cls":4,"psfc":987.1,"terrain":false,"radius_km":200,"name":"asym cold","track":"T65"},"geometry":{"type":"Point","coordinates":[-94.25,-60.5]}},{"type":"Feature","properties":{"kind":"center","id":23,"lat":26.0,"lon":169.5,"mslp":987.6,"hvtl":112.7,"hvtu":162.8,"hb":-2.3,"idx":2.5,"cls":0,"psfc":987.5,"terrain":false,"radius_km":200,"name":"sym deep warm","track":"T40"},"geometry":{"type":"Point","coordinates":[169.5,26.0]}},{"type":"Feature","properties":{"kind":"center","id":24,"lat":-45.25,"lon":-20.5,"mslp":987.6,"hvtl":-145.8,"hvtu":-295.6,"hb":78.8,"idx":-2.8,"cls":4,"psfc":987.6,"terrain":false,"radius_km":200,"name":"asym cold"},"geometry":{"type":"Point","coordinates":[-20.5,-45.25]}},{"type":"Feature","properties":{"kind":"center","id":25,"lat":83.0,"lon":82.75,"mslp":989.9,"hvtl":151.3,"hvtu":-173.7,"hb":54.0,"idx":0.9,"cls":3,"psfc":989.9,"terrain":false,"radius_km":200,"name":"asym shallow warm","track":"T61"},"geometry":{"type":"Point","coordinates":[82.75,83.0]}},{"type":"Feature","properties":{"kind":"center","id":26,"lat":53.0,"lon":147.5,"mslp":990.0,"hvtl":-122.9,"hvtu":-453.3,"hb":55.0,"idx":-2.7,"cls":4,"psfc":990.0,"terrain":false,"radius_km":200,"name":"asym cold","track":"T26"},"geometry":{"type":"Point","coordinates":[147.5,53.0]}},{"type":"Feature","properties":{"kind":"center","id":27,"lat":58.0,"lon":-148.25,"mslp":995.1,"hvtl":5.5,"hvtu":-162.0,"hb":11.2,"idx":-0.8,"cls":3,"psfc":995.1,"terrain":false,"radius_km":200,"name":"asym shallow warm","track":"T35"},"geometry":{"type":"Point","coordinates":[-148.25,58.0]}},{"type":"Feature","properties":{"kind":"center","id":28,"lat":59.5,"lon":-98.75,"mslp":996.7,"hvtl":-68.1,"hvtu":-83.1,"hb":30.3,"idx":-1.9,"cls":4,"psfc":959.5,"terrain":false,"radius_km":200,"name":"asym cold","track":"T89"},"geometry":{"type":"Point","coordinates":[-98.75,59.5]}},{"type":"Feature","properties":{"kind":"center","id":29,"lat":-35.75,"lon":-77.25,"mslp":1002.3,"hvtl":-165.2,"hvtu":-76.3,"hb":26.6,"idx":-2.5,"cls":4,"psfc":1002.3,"terrain":false,"radius_km":200,"name":"asym cold","track":"T92"},"geometry":{"type":"Point","coordinates":[-77.25,-35.75]}},{"type":"Feature","properties":{"kind":"center","id":30,"lat":72.25,"lon":150.5,"mslp":1003.2,"hvtl":73.1,"hvtu":-33.9,"hb":-17.2,"idx":0.9,"cls":1,"psfc":1003.2,"terrain":false,"radius_km":200,"name":"sym shallow warm"},"geometry":{"type":"Point","coordinates":[150.5,72.25]}},{"type":"Feature","properties":{"kind":"center","id":31,"lat":56.25,"lon":77.75,"mslp":1003.3,"hvtl":-103.9,"hvtu":-62.0,"hb":11.8,"idx":-2.1,"cls":4,"psfc":988.5,"terrain":false,"radius_km":200,"name":"asym cold","track":"T77"},"geometry":{"type":"Point","coordinates":[77.75,56.25]}},{"type":"Feature","properties":{"kind":"center","id":32,"lat":64.25,"lon":-34.75,"mslp":1003.3,"hvtl":-111.5,"hvtu":-198.0,"hb":5.3,"idx":-2.6,"cls":5,"psfc":1003.3,"terrain":false,"radius_km":200,"name":"sym cold","track":"T78"},"geometry":{"type":"Point","coordinates":[-34.75,64.25]}},{"type":"Feature","properties":{"kind":"center","id":33,"lat":27.5,"lon":67.75,"mslp":1004.1,"hvtl":36.9,"hvtu":-76.3,"hb":-3.7,"idx":0.1,"cls":1,"psfc":999.1,"terrain":false,"radius_km":200,"name":"sym shallow warm","track":"T109"},"geometry":{"type":"Point","coordinates":[67.75,27.5]}},{"type":"Feature","properties":{"kind":"center","id":34,"lat":60.75,"lon":132.5,"mslp":1005.1,"hvtl":80.5,"hvtu":-79.8,"hb":-18.1,"idx":0.7,"cls":1,"psfc":962.6,"terrain":false,"radius_km":200,"name":"sym shallow warm","track":"T82"},"geometry":{"type":"Point","coordinates":[132.5,60.75]}},{"type":"Feature","properties":{"kind":"center","id":35,"lat":-31.75,"lon":-67.5,"mslp":1005.8,"hvtl":-171.3,"hvtu":-234.8,"hb":41.0,"idx":-2.9,"cls":4,"psfc":943.4,"terrain":false,"radius_km":200,"name":"asym cold","track":"T98"},"geometry":{"type":"Point","coordinates":[-67.5,-31.75]}},{"type":"Feature","properties":{"kind":"center","id":36,"lat":-29.0,"lon":31.5,"mslp":1006.4,"hvtl":122.5,"hvtu":-51.8,"hb":-19.5,"idx":1.2,"cls":1,"psfc":985.0,"terrain":false,"radius_km":200,"name":"sym shallow warm"},"geometry":{"type":"Point","coordinates":[31.5,-29.0]}},{"type":"Feature","properties":{"kind":"center","id":37,"lat":-14.25,"lon":-66.75,"mslp":1007.0,"hvtl":-36.1,"hvtu":-30.2,"hb":22.1,"idx":-1.0,"cls":4,"psfc":987.9,"terrain":false,"radius_km":200,"name":"asym cold","track":"T87"},"geometry":{"type":"Point","coordinates":[-66.75,-14.25]}},{"type":"Feature","properties":{"kind":"center","id":38,"lat":-27.25,"lon":-65.0,"mslp":1009.0,"hvtl":-198.7,"hvtu":-209.4,"hb":21.3,"idx":-2.9,"cls":4,"psfc":971.7,"terrain":false,"radius_km":200,"name":"asym cold"},"geometry":{"type":"Point","coordinates":[-65.0,-27.25]}},{"type":"Feature","properties":{"kind":"center","id":39,"lat":-26.5,"lon":18.75,"mslp":1009.2,"hvtl":-6.0,"hvtu":-172.7,"hb":54.2,"idx":-1.1,"cls":4,"psfc":903.3,"terrain":true,"radius_km":200,"name":"asym cold"},"geometry":{"type":"Point","coordinates":[18.75,-26.5]}},{"type":"Feature","properties":{"kind":"center","id":40,"lat":72.25,"lon":-21.25,"mslp":1009.9,"hvtl":-44.8,"hvtu":-58.8,"hb":-5.2,"idx":-1.4,"cls":5,"psfc":1009.9,"terrain":false,"radius_km":200,"name":"sym cold","track":"T102"},"geometry":{"type":"Point","coordinates":[-21.25,72.25]}},{"type":"Feature","properties":{"kind":"center","id":41,"lat":24.25,"lon":96.75,"mslp":1010.3,"hvtl":37.7,"hvtu":-115.2,"hb":1.0,"idx":-0.1,"cls":1,"psfc":993.3,"terrain":false,"radius_km":200,"name":"sym shallow warm","track":"T118"},"geometry":{"type":"Point","coordinates":[96.75,24.25]}},{"type":"Feature","properties":{"kind":"center","id":42,"lat":-24.75,"lon":15.75,"mslp":1011.1,"hvtl":74.0,"hvtu":-118.2,"hb":45.6,"idx":0.4,"cls":3,"psfc":917.3,"terrain":true,"radius_km":200,"name":"asym shallow warm"},"geometry":{"type":"Point","coordinates":[15.75,-24.75]}},{"type":"Feature","properties":{"kind":"center","id":43,"lat":26.25,"lon":94.0,"mslp":1011.6,"hvtl":-75.4,"hvtu":-142.0,"hb":4.1,"idx":-2.2,"cls":5,"psfc":990.8,"terrain":false,"radius_km":200,"name":"sym cold"},"geometry":{"type":"Point","coordinates":[94.0,26.25]}},{"type":"Feature","properties":{"kind":"center","id":44,"lat":-26.25,"lon":16.0,"mslp":1012.0,"hvtl":49.6,"hvtu":-160.9,"hb":56.7,"idx":-0.0,"cls":3,"psfc":922.3,"terrain":false,"radius_km":200,"name":"asym shallow warm"},"geometry":{"type":"Point","coordinates":[16.0,-26.25]}},{"type":"Feature","properties":{"kind":"center","id":45,"lat":73.25,"lon":-56.0,"mslp":1014.1,"hvtl":-134.0,"hvtu":-109.6,"hb":30.1,"idx":-2.5,"cls":4,"psfc":1012.2,"terrain":false,"radius_km":200,"name":"asym cold","track":"T69"},"geometry":{"type":"Point","coordinates":[-56.0,73.25]}},{"type":"Feature","properties":{"kind":"center","id":46,"lat":-33.5,"lon":-179.0,"mslp":1014.5,"hvtl":37.0,"hvtu":-41.9,"hb":23.8,"idx":0.3,"cls":3,"psfc":1014.5,"terrain":false,"radius_km":200,"name":"asym shallow warm","track":"T130"},"geometry":{"type":"Point","coordinates":[-179.0,-33.5]}},{"type":"Feature","properties":{"kind":"center","id":47,"lat":23.25,"lon":98.5,"mslp":1014.8,"hvtl":54.7,"hvtu":-96.3,"hb":-15.2,"idx":0.3,"cls":1,"psfc":905.2,"terrain":true,"radius_km":200,"name":"sym shallow warm"},"geometry":{"type":"Point","coordinates":[98.5,23.25]}}]}