{"type":"FeatureCollection","features":[{"type":"Feature","properties":{"kind":"blob","cls":0,"id":1},"geometry":{"type":"Polygon","coordinates":[[[159.0,16.12],[159.88,17.25],[159.62,18.75],[158.25,19.62],[157.0,19.38],[156.12,18.25],[156.12,17.25],[157.25,17.38],[157.38,16.75],[156.62,16.5],[159.0,16.12]]]}},{"type":"Feature","properties":{"kind":"blob","cls":0,"id":2},"geometry":{"type":"Polygon","coordinates":[[[138.0,17.38],[138.62,18.0],[138.88,19.5],[138.0,20.62],[136.75,20.88],[135.38,20.0],[135.12,18.5],[135.5,17.88],[138.0,17.38]]]}},{"type":"Feature","properties":{"kind":"blob","cls":0,"id":3},"geometry":{"type":"Polygon","coordinates":[[[-112.0,-62.38],[-110.38,-61.25],[-110.38,-60.25],[-112.0,-59.12],[-113.25,-58.88],[-115.25,-58.88],[-117.5,-59.62],[-118.12,-60.5],[-117.38,-61.0],[-117.38,-61.75],[-116.5,-62.38],[-112.0,-62.38]]]}},{"type":"Feature","properties":{"kind":"blob","cls":3,"id":4},"geometry":{"type":"Polygon","coordinates":[[[-167.0,-69.88],[-164.75,-69.12],[-161.25,-68.88],[-160.38,-68.25],[-160.38,-67.0],[-163.25,-65.38],[-167.5,-65.12],[-170.5,-65.88],[-172.88,-67.25],[-172.88,-68.25],[-172.25,-68.88],[-170.5,-69.62],[-167.0,-69.88]]]}},{"type":"Feature","properties":{"kind":"blob","cls":3,"id":5},"geometry":{"type":"Polygon","coordinates":[[[97.0,-63.62],[99.5,-63.12],[101.0,-62.38],[106.25,-62.38],[109.5,-61.38],[110.38,-60.75],[110.62,-59.75],[109.5,-58.62],[107.0,-57.88],[102.75,-58.12],[97.75,-59.38],[91.25,-59.38],[87.75,-60.12],[86.12,-61.25],[91.0,-60.88],[92.38,-61.25],[90.75,-61.88],[86.38,-62.5],[87.75,-63.38],[97.0,-63.62]]]}},{"type":"Feature","properties":{"kind":"blob","cls":4,"id":6},"geometry":{"type":"Polygon","coordinates":[[[-148.5,-65.38],[-145.75,-64.62],[-143.88,-63.25],[-143.62,-62.0],[-144.75,-60.88],[-147.0,-60.12],[-148.75,-60.12],[-152.5,-61.12],[-154.38,-62.75],[-154.38,-63.75],[-153.0,-64.88],[-148.5,-65.38]]]}},{"type":"Feature","properties":{"kind":"blob","cls":4,"id":7},"geometry":{"type":"Polygon","coordinates":[[[-16.0,-60.62],[-13.5,-59.88],[-11.62,-58.5],[-11.62,-57.5],[-12.5,-56.62],[-14.5,-55.88],[-19.0,-56.12],[-21.38,-57.75],[-21.38,-59.0],[-19.75,-60.12],[-16.0,-60.62]]]}},{"type":"Feature","properties":{"kind":"blob","cls":1,"id":8},"geometry":{"type":"Polygon","coordinates":[[[-102.0,-69.88],[-95.5,-69.88],[-94.0,-69.38],[-92.62,-68.0],[-93.25,-67.12],[-94.75,-66.38],[-97.0,-65.88],[-102.75,-66.12],[-105.38,-67.5],[-105.62,-68.5],[-104.75,-69.38],[-102.0,-69.88]]]}},{"type":"Feature","properties":{"kind":"blob","cls":0,"id":9},"geometry":{"type":"Polygon","coordinates":[[[-46.25,53.12],[-44.25,53.88],[-43.62,54.5],[-43.62,55.75],[-45.25,56.88],[-46.25,55.88],[-47.25,55.88],[-47.62,56.25],[-47.25,56.88],[-46.25,57.12],[-49.5,56.62],[-50.38,55.75],[-50.38,54.5],[-48.75,53.38],[-46.25,53.12]]]}},{"type":"Feature","properties":{"kind":"blob","cls":4,"id":10},"geometry":{"type":"Polygon","coordinates":[[[146.75,-61.88],[148.5,-61.38],[149.38,-60.75],[149.62,-59.75],[149.25,-59.12],[147.62,-58.25],[147.62,-57.5],[146.75,-56.62],[144.75,-55.88],[140.75,-55.88],[138.38,-57.0],[138.12,-58.0],[139.0,-59.12],[141.25,-59.88],[142.75,-61.38],[146.75,-61.88]]]}},{"type":"Feature","properties":{"kind":"blob","cls":3,"id":11},"geometry":{"type":"Polygon","coordinates":[[[-40.0,57.12],[-38.25,57.62],[-37.12,59.25],[-38.25,60.62],[-40.0,61.12],[-42.0,61.12],[-43.75,60.62],[-43.62,60.25],[-44.25,60.12],[-44.88,59.25],[-44.62,58.5],[-43.75,57.62],[-40.0,57.12]]]}},{"type":"Feature","properties":{"kind":"blob","cls":4,"id":12},"geometry":{"type":"Polygon","coordinates":[[[161.25,-70.88],[162.25,-71.12],[162.25,-70.62],[165.5,-70.62],[166.5,-70.12],[167.38,-69.0],[166.5,-67.88],[165.5,-67.38],[155.0,-65.88],[149.5,-65.88],[147.25,-66.38],[145.88,-67.25],[146.0,-67.88],[147.75,-67.88],[155.75,-69.38],[158.5,-69.38],[159.5,-69.62],[161.25,-70.88]]]}},{"type":"Feature","properties":{"kind":"blob","cls":4,"id":13},"geometry":{"type":"Polygon","coordinates":[[[17.25,-57.62],[18.62,-56.5],[18.62,-55.25],[16.25,-53.12],[14.75,-52.38],[11.75,-52.38],[9.88,-53.75],[9.62,-55.75],[11.5,-57.38],[17.25,-57.62]]]}},{"type":"Feature","properties":{"kind":"blob","cls":4,"id":14},"geometry":{"type":"Polygon","coordinates":[[[-37.5,-80.38],[-29.38,-78.5],[-35.0,-78.62],[-35.0,-78.12],[-33.75,-77.62],[-30.38,-77.0],[-30.75,-76.62],[-35.5,-76.62],[-41.5,-77.38],[-44.12,-78.5],[-44.12,-79.0],[-43.25,-79.62],[-37.5,-80.38]]]}},{"type":"Feature","properties":{"kind":"blob","cls":3,"id":15},"geometry":{"type":"MultiPolygon","coordinates":[[[[42.88,61.25],[42.75,61.38],[42.62,61.25],[42.88,61.25]]],[[[43.12,61.5],[43.0,61.62],[42.88,61.5],[43.12,61.5]]],[[[42.88,62.25],[42.75,62.38],[42.62,62.25],[42.88,62.25]]],[[[39.25,59.62],[42.25,60.62],[42.5,61.12],[38.5,60.62],[36.88,61.25],[38.75,62.12],[42.5,62.38],[42.12,63.0],[42.88,63.75],[42.88,64.25],[41.0,65.62],[39.5,65.88],[36.0,65.62],[34.5,64.88],[33.38,63.5],[34.38,62.25],[33.88,61.5],[34.75,60.38],[39.25,59.62]]]]}},{"type":"Feature","properties":{"kind":"blob","cls":4,"id":16},"geometry":{"type":"Polygon","coordinates":[[[0.75,-50.12],[2.0,-49.62],[3.12,-48.5],[3.12,-47.5],[2.25,-46.62],[1.0,-46.12],[-0.75,-46.12],[-2.0,-46.62],[-2.88,-47.5],[-2.88,-48.75],[-2.0,-49.62],[0.75,-50.12]]]}},{"type":"Feature","properties":{"kind":"blob","cls":4,"id":17},"geometry":{"type":"Polygon","coordinates":[[[-103.0,45.62],[-101.75,45.88],[-100.38,47.0],[-100.62,49.75],[-102.5,50.62],[-103.75,50.62],[-106.25,49.62],[-105.88,48.5],[-106.88,48.5],[-106.88,47.5],[-106.5,47.12],[-105.25,47.38],[-105.62,46.75],[-105.25,46.38],[-104.25,46.88],[-103.25,46.62],[-102.88,46.25],[-103.0,45.62]]]}},{"type":"Feature","properties":{"kind":"blob","cls":4,"id":18},"geometry":{"type":"Polygon","coordinates":[[[21.5,-70.62],[24.12,-70.5],[24.0,-70.38],[21.5,-70.62]]]}},{"type":"Feature","properties":{"kind":"blob","cls":4,"id":19},"geometry":{"type":"Polygon","coordinates":[[[146.0,-50.88],[148.25,-50.88],[149.38,-50.0],[149.62,-49.25],[148.75,-47.38],[147.25,-46.38],[145.5,-46.12],[144.25,-46.62],[143.38,-47.5],[143.38,-48.75],[144.5,-50.38],[146.0,-50.88]]]}},{"type":"Feature","properties":{"kind":"blob","cls":4,"id":20},"geometry":{"type":"Polygon","coordinates":[[[19.62,-70.75],[19.75,-70.88],[19.88,-70.75],[19.62,-70.75]]]}},{"type":"Feature","properties":{"kind":"blob","cls":6,"id":21},"geometry":{"type":"Polygon","coordinates":[[[-5.5,84.62],[-3.12,85.0],[-11.75,85.62],[-15.0,87.88],[-21.5,89.88],[-57.25,89.62],[-71.5,88.88],[-73.88,88.25],[-71.5,87.62],[-52.0,86.12],[-30.25,84.88],[-5.5,84.62]]]}},{"type":"Feature","properties":{"kind":"blob","cls":3,"id":22},"geometry":{"type":"Polygon","coordinates":[[[-47.75,-37.38],[-45.75,-37.62],[-44.12,-36.5],[-44.12,-34.5],[-44.75,-33.62],[-47.25,-33.12],[-49.12,-34.25],[-49.12,-36.5],[-47.75,-37.38]]]}},{"type":"Feature","properties":{"kind":"blob","cls":0,"id":23},"geometry":{"type":"Polygon","coordinates":[[[-103.38,14.0],[-103.0,13.62],[-101.62,14.5],[-101.38,16.0],[-102.25,17.12],[-103.75,17.38],[-105.12,16.5],[-105.38,15.25],[-103.25,15.62],[-102.88,14.5],[-103.38,14.0]]]}},{"type":"Feature","properties":{"kind":"blob","cls":4,"id":24},"geometry":{"type":"MultiPolygon","coordinates":[[[[-0.75,-71.38],[-0.88,-71.5],[-0.75,-71.62],[-0.75,-71.38]]],[[[-0.62,-71.25],[10.38,-70.75],[7.5,-70.12],[3.5,-70.12],[-0.62,-71.25]]]]}},{"type":"Feature","properties":{"kind":"blob","cls":6,"id":25},"geometry":{"type":"Polygon","coordinates":[[[26.75,86.38],[27.62,86.5],[27.5,86.62],[26.75,86.38]]]}},{"type":"Feature","properties":{"kind":"blob","cls":3,"id":26},"geometry":{"type":"Polygon","coordinates":[[[-119.5,22.62],[-118.12,24.0],[-118.12,25.75],[-119.25,26.88],[-121.0,27.12],[-122.88,25.75],[-122.88,23.75],[-121.75,22.62],[-119.5,22.62]]]}},{"type":"Feature","properties":{"kind":"blob","cls":6,"id":27},"geometry":{"type":"Polygon","coordinates":[[[28.5,86.88],[31.5,86.62],[45.75,87.38],[50.75,87.88],[51.38,88.25],[49.0,88.88],[44.0,89.12],[37.75,87.88],[28.5,86.88]]]}},{"type":"Feature","properties":{"kind":"blob","cls":4,"id":28},"geometry":{"type":"Polygon","coordinates":[[[-79.25,-79.62],[-77.5,-79.62],[-75.62,-78.5],[-77.75,-77.12],[-79.5,-77.38],[-79.38,-78.5],[-79.88,-79.25],[-79.25,-79.62]]]}},{"type":"Feature","properties":{"kind":"blob","cls":1,"id":29},"geometry":{"type":"Polygon","coordinates":[[[2.5,62.88],[7.25,62.88],[9.25,63.88],[9.62,64.5],[4.75,67.62],[3.0,68.38],[2.0,68.38],[-1.12,66.75],[-1.38,65.0],[-1.12,64.25],[0.0,63.38],[2.5,62.88]]]}},{"type":"Feature","properties":{"kind":"blob","cls":1,"id":30},"geometry":{"type":"Polygon","coordinates":[[[-170.12,69.0],[-170.0,68.62],[-169.5,68.62],[-168.88,69.25],[-169.5,69.38],[-170.12,69.0]]]}},{"type":"Feature","properties":{"kind":"blob","cls":4,"id":31},"geometry":{"type":"Polygon","coordinates":[[[12.5,56.62],[14.5,57.38],[15.12,58.0],[15.12,59.25],[14.5,59.88],[12.5,60.62],[11.0,60.62],[9.0,59.88],[8.12,59.0],[8.12,58.0],[9.75,56.88],[12.5,56.62]]]}},{"type":"Feature","properties":{"kind":"blob","cls":3,"id":32},"geometry":{"type":"Polygon","coordinates":[[[-136.75,70.62],[-130.25,70.62],[-128.0,71.38],[-127.38,72.0],[-127.38,72.75],[-129.25,74.12],[-134.25,75.12],[-141.25,74.88],[-143.75,74.12],[-144.88,73.25],[-144.25,72.12],[-142.5,71.38],[-136.75,70.62]]]}},{"type":"Feature","properties":{"kind":"blob","cls":1,"id":33},"geometry":{"type":"Polygon","coordinates":[[[-124.0,60.88],[-121.5,61.62],[-120.88,62.25],[-120.88,63.25],[-122.0,64.12],[-124.0,64.62],[-126.5,64.38],[-126.0,63.38],[-125.5,63.38],[-124.62,62.5],[-124.0,60.88]]]}},{"type":"Feature","properties":{"kind":"blob","cls":4,"id":34},"geometry":{"type":"Polygon","coordinates":[[[-116.5,34.62],[-115.88,35.25],[-116.5,35.62],[-117.25,35.12],[-116.88,35.75],[-117.75,35.88],[-117.62,35.5],[-118.12,35.0],[-116.5,34.62]]]}},{"type":"Feature","properties":{"kind":"blob","cls":4,"id":35},"geometry":{"type":"Polygon","coordinates":[[[86.75,68.62],[89.25,69.62],[89.88,70.75],[88.25,71.88],[86.5,72.38],[81.5,72.62],[78.0,71.88],[76.62,70.75],[76.62,70.0],[77.25,69.38],[79.25,68.62],[86.75,68.62]]]}},{"type":"Feature","properties":{"kind":"blob","cls":3,"id":36},"geometry":{"type":"Polygon","coordinates":[[[-75.75,-49.38],[-74.5,-48.88],[-73.38,-47.75],[-73.62,-46.5],[-75.5,-45.38],[-78.0,-45.88],[-78.88,-46.75],[-78.88,-48.0],[-78.0,-48.88],[-75.75,-49.38]]]}},{"type":"Feature","properties":{"kind":"blob","cls":4,"id":37},"geometry":{"type":"Polygon","coordinates":[[[130.0,47.62],[132.25,48.62],[132.88,49.5],[132.62,50.75],[131.75,51.62],[130.25,52.12],[128.75,52.12],[126.75,51.38],[125.88,50.25],[126.12,49.25],[127.5,48.12],[130.0,47.62]]]}},{"type":"Feature","properties":{"kind":"blob","cls":1,"id":38},"geometry":{"type":"Polygon","coordinates":[[[-125.75,61.38],[-125.12,61.5],[-125.25,61.62],[-125.75,61.38]]]}},{"type":"Feature","properties":{"kind":"blob","cls":4,"id":39},"geometry":{"type":"Polygon","coordinates":[[[-118.62,35.5],[-119.0,36.62],[-119.12,35.75],[-118.62,35.5]]]}},{"type":"Feature","properties":{"kind":"blob","cls":3,"id":40},"geometry":{"type":"Polygon","coordinates":[[[58.5,28.88],[59.0,28.62],[59.88,29.0],[59.5,30.62],[58.38,30.0],[58.5,28.88]]]}},{"type":"Feature","properties":{"kind":"blob","cls":0,"id":41},"geometry":{"type":"Polygon","coordinates":[[[-96.75,18.88],[-95.5,19.12],[-94.62,20.25],[-94.88,22.0],[-96.25,22.88],[-97.5,22.62],[-98.38,21.5],[-98.38,20.75],[-97.5,19.88],[-96.62,19.75],[-96.75,18.88]]]}},{"type":"Feature","properties":{"kind":"blob","cls":4,"id":42},"geometry":{"type":"Polygon","coordinates":[[[126.25,-29.12],[128.0,-29.12],[128.88,-28.25],[129.12,-27.25],[127.75,-25.62],[125.5,-25.12],[123.88,-26.25],[123.62,-27.0],[124.75,-28.62],[126.25,-29.12]]]}},{"type":"Feature","properties":{"kind":"blob","cls":5,"id":43},"geometry":{"type":"Polygon","coordinates":[[[96.75,23.12],[97.38,23.75],[95.5,25.62],[94.25,24.62],[93.38,25.0],[93.38,24.5],[94.12,24.25],[94.25,23.62],[96.75,23.12]]]}},{"type":"Feature","properties":{"kind":"blob","cls":4,"id":44},"geometry":{"type":"Polygon","coordinates":[[[93.5,25.38],[94.38,26.25],[93.75,26.38],[93.5,25.38]]]}},{"type":"Feature","properties":{"kind":"blob","cls":3,"id":45},"geometry":{"type":"Polygon","coordinates":[[[60.62,30.25],[60.75,30.12],[60.88,30.5],[60.62,30.25]]]}},{"type":"Feature","properties":{"kind":"blob","cls":4,"id":46},"geometry":{"type":"Polygon","coordinates":[[[-67.5,-34.38],[-65.88,-33.5],[-66.38,-32.75],[-65.62,-32.0],[-66.25,-31.12],[-67.25,-30.88],[-68.0,-31.62],[-68.12,-31.25],[-67.62,-31.0],[-68.0,-30.62],[-68.62,-31.0],[-69.12,-33.75],[-68.5,-33.62],[-67.5,-34.38]]]}},{"type":"Feature","properties":{"kind":"blob","cls":5,"id":47},"geometry":{"type":"Polygon","coordinates":[[[97.38,23.25],[97.5,23.12],[97.62,23.25],[97.38,23.25]]]}},{"type":"Feature","properties":{"kind":"blob","cls":5,"id":48},"geometry":{"type":"Polygon","coordinates":[[[172.75,-39.12],[174.62,-37.75],[174.62,-36.0],[173.0,-34.88],[171.25,-34.88],[169.62,-36.0],[169.62,-37.75],[170.5,-38.62],[172.75,-39.12]]]}},{"type":"Feature","properties":{"kind":"blob","cls":4,"id":49},"geometry":{"type":"Polygon","coordinates":[[[-62.25,73.62],[-57.62,74.5],[-60.0,76.38],[-62.5,76.62],[-69.25,76.38],[-69.5,76.88],[-70.25,76.88],[-71.62,75.75],[-71.25,75.12],[-68.75,74.12],[-62.25,73.62]]]}},{"type":"Feature","properties":{"kind":"blob","cls":3,"id":50},"geometry":{"type":"Polygon","coordinates":[[[164.25,29.38],[164.88,29.75],[165.62,31.0],[165.62,32.0],[164.75,33.12],[162.75,33.62],[160.88,32.5],[160.62,30.75],[161.75,29.88],[164.25,29.38]]]}},{"type":"Feature","properties":{"kind":"blob","cls":1,"id":51},"geometry":{"type":"Polygon","coordinates":[[[157.75,66.38],[159.5,67.12],[160.12,68.0],[158.25,69.62],[156.0,70.12],[152.5,69.88],[149.62,68.5],[149.38,68.0],[150.0,67.12],[151.75,66.38],[157.75,66.38]]]}},{"type":"Feature","properties":{"kind":"blob","cls":3,"id":52},"geometry":{"type":"Polygon","coordinates":[[[-77.5,31.12],[-75.88,32.0],[-75.62,33.5],[-76.25,34.38],[-78.0,34.88],[-79.62,34.0],[-79.62,32.0],[-77.5,31.12]]]}},{"type":"Feature","properties":{"kind":"blob","cls":4,"id":53},"geometry":{"type":"Polygon","coordinates":[[[145.5,57.12],[147.25,57.62],[148.62,59.25],[147.5,60.62],[145.75,61.12],[144.75,61.12],[144.25,60.62],[144.0,61.12],[143.0,61.12],[141.25,60.62],[140.12,59.25],[140.38,58.75],[141.5,57.62],[145.5,57.12]]]}},{"type":"Feature","properties":{"kind":"blob","cls":4,"id":54},"geometry":{"type":"Polygon","coordinates":[[[86.38,48.0],[86.5,47.88],[86.62,48.25],[86.38,48.0]]]}},{"type":"Feature","properties":{"kind":"center","id":1,"lat":17.75,"lon":158.0,"mslp":937.1,"hvtl":116.7,"hvtu":303.6,"hb":4.1,"idx":2.6,"cls":0,"psfc":937.1,"terrain":false,"radius_km":200,"name":"sym deep warm","track":"T02"},"geometry":{"type":"Point","coordinates":[158.0,17.75]}},{"type":"Feature","properties":{"kind":"center","id":2,"lat":19.0,"lon":137.0,"mslp":945.2,"hvtl":74.3,"hvtu":254.5,"hb":-1.5,"idx":2.2,"cls":0,"psfc":945.2,"terrain":false,"radius_km":200,"name":"sym deep warm","track":"T08"},"geometry":{"type":"Point","coordinates":[137.0,19.0]}},{"type":"Feature","properties":{"kind":"center","id":3,"lat":-60.75,"lon":-114.25,"mslp":949.5,"hvtl":19.0,"hvtu":37.1,"hb":1.6,"idx":0.7,"cls":0,"psfc":949.5,"terrain":false,"radius_km":200,"name":"sym deep warm","track":"T11"},"geometry":{"type":"Point","coordinates":[-114.25,-60.75]}},{"type":"Feature","properties":{"kind":"center","id":4,"lat":-67.25,"lon":-166.5,"mslp":953.8,"hvtl":91.7,"hvtu":-111.3,"hb":16.0,"idx":0.6,"cls":3,"psfc":953.8,"terrain":false,"radius_km":200,"name":"asym shallow warm","track":"T17"},"geometry":{"type":"Point","coordinates":[-166.5,-67.25]}},{"type":"Feature","properties":{"kind":"center","id":5,"lat":-60.25,"lon":104.25,"mslp":953.8,"hvtl":82.6,"hvtu":-105.4,"hb":21.3,"idx":0.6,"cls":3,"psfc":953.8,"terrain":false,"radius_km":200,"name":"asym shallow warm"},"geometry":{"type":"Point","coordinates":[104.25,-60.25]}},{"type":"Feature","properties":{"kind":"center","id":6,"lat":-64.75,"lon":-153.0,"mslp":956.8,"hvtl":-85.7,"hvtu":-239.9,"hb":37.1,"idx":-2.4,"cls":4,"psfc":956.8,"terrain":false,"radius_km":200,"name":"asym cold"},"geometry":{"type":"Point","coordinates":[-153.0,-64.75]}},{"type":"Feature","properties":{"kind":"center","id":7,"lat":-58.25,"lon":-16.75,"mslp":965.7,"hvtl":-1.8,"hvtu":-188.7,"hb":19.2,"idx":-1.0,"cls":4,"psfc":965.7,"terrain":false,"radius_km":200,"name":"asym cold","track":"T32"},"geometry":{"type":"Point","coordinates":[-16.75,-58.25]}},{"type":"Feature","properties":{"kind":"center","id":8,"lat":-67.5,"lon":-101.5,"mslp":968.3,"hvtl":40.9,"hvtu":-93.7,"hb":9.4,"idx":0.0,"cls":1,"psfc":968.3,"terrain":false,"radius_km":200,"name":"sym shallow warm","track":"T39"},"geometry":{"type":"Point","coordinates":[-101.5,-67.5]}},{"type":"Feature","properties":{"kind":"center","id":9,"lat":55.0,"lon":-47.0,"mslp":973.3,"hvtl":168.4,"hvtu":9.4,"hb":-10.3,"idx":2.0,"cls":0,"psfc":973.3,"terrain":false,"radius_km":200,"name":"sym deep warm","track":"T47"},"geometry":{"type":"Point","coordinates":[-47.0,55.0]}},{"type":"Feature","properties":{"kind":"center","id":10,"lat":-58.25,"lon":143.25,"mslp":978.3,"hvtl":-32.3,"hvtu":-118.4,"hb":11.6,"idx":-1.5,"cls":4,"psfc":978.3,"terrain":false,"radius_km":200,"name":"asym cold","track":"T22"},"geometry":{"type":"Point","coordinates":[143.25,-58.25]}},{"type":"Feature","properties":{"kind":"center","id":11,"lat":59.0,"lon":-41.0,"mslp":978.5,"hvtl":94.7,"hvtu":-211.2,"hb":43.1,"idx":0.5,"cls":3,"psfc":978.5,"terrain":false,"radius_km":200,"name":"asym shallow warm","track":"T42"},"geometry":{"type":"Point","coordinates":[-41.0,59.0]}},{"type":"Feature","properties":{"kind":"center","id":12,"lat":-68.75,"lon":160.25,"mslp":981.9,"hvtl":-390.8,"hvtu":-57.8,"hb":55.3,"idx":-2.5,"cls":4,"psfc":981.9,"terrain":false,"radius_km":200,"name":"asym cold"},"geometry":{"type":"Point","coordinates":[160.25,-68.75]}},{"type":"Feature","properties":{"kind":"center","id":13,"lat":-55.5,"lon":14.5,"mslp":984.5,"hvtl":-96.3,"hvtu":-275.0,"hb":36.7,"idx":-2.5,"cls":4,"psfc":984.5,"terrain":false,"radius_km":200,"name":"asym cold","track":"T63"},"geometry":{"type":"Point","coordinates":[14.5,-55.5]}},{"type":"Feature","properties":{"kind":"center","id":14,"lat":-78.75,"lon":-34.0,"mslp":987.9,"hvtl":-311.6,"hvtu":-36.8,"hb":82.3,"idx":-2.3,"cls":4,"psfc":917.5,"terrain":false,"radius_km":200,"name":"asym cold","track":"T60"},"geometry":{"type":"Point","coordinates":[-34.0,-78.75]}},{"type":"Feature","properties":{"kind":"center","id":15,"lat":62.0,"lon":38.5,"mslp":988.3,"hvtl":32.3,"hvtu":-144.8,"hb":29.0,"idx":-0.3,"cls":3,"psfc":970.6,"terrain":false,"radius_km":200,"name":"asym shallow warm","track":"T70"},"geometry":{"type":"Point","coordinates":[38.5,62.0]}},{"type":"Feature","properties":{"kind":"center","id":16,"lat":-48.0,"lon":0.0,"mslp":989.4,"hvtl":-80.8,"hvtu":-244.8,"hb":14.1,"idx":-2.3,"cls":4,"psfc":989.3,"terrain":false,"radius_km":200,"name":"asym cold","track":"T72"},"geometry":{"type":"Point","coordinates":[0.0,-48.0]}},{"type":"Feature","properties":{"kind":"center","id":17,"lat":48.0,"lon":-104.0,"mslp":991.0,"hvtl":-134.6,"hvtu":-126.7,"hb":113.0,"idx":-2.6,"cls":4,"psfc":921.5,"terrain":false,"radius_km":200,"name":"asym cold","track":"T68"},"geometry":{"type":"Point","coordinates":[-104.0,48.0]}},{"type":"Feature","properties":{"kind":"center","id":18,"lat":-70.5,"lon":24.0,"mslp":992.4,"hvtl":-130.1,"hvtu":-89.6,"hb":29.0,"idx":-2.4,"cls":4,"psfc":974.6,"terrain":false,"radius_km":200,"name":"asym cold","track":"T36"},"geometry":{"type":"Point","coordinates":[24.0,-70.5]}},{"type":"Feature","properties":{"kind":"center","id":19,"lat":-48.5,"lon":146.25,"mslp":992.9,"hvtl":-266.1,"hvtu":-331.3,"hb":74.4,"idx":-3.0,"cls":4,"psfc":992.9,"terrain":false,"radius_km":200,"name":"asym cold"},"geometry":{"type":"Point","coordinates":[146.25,-48.5]}},{"type":"Feature","properties":{"kind":"center","id":20,"lat":-70.75,"lon":19.75,"mslp":993.5,"hvtl":-130.0,"hvtu":-122.1,"hb":32.6,"idx":-2.6,"cls":4,"psfc":983.1,"terrain":false,"radius_km":200,"name":"asym cold","track":"T46"},"geometry":{"type":"Point","coordinates":[19.75,-70.75]}},{"type":"Feature","properties":{"kind":"center","id":21,"lat":87.5,"lon":-14.5,"mslp":993.7,"hvtl":-78.4,"hvtu":21.0,"hb":22.2,"idx":-1.1,"cls":6,"psfc":993.7,"terrain":false,"radius_km":200,"name":"shallow cold","track":"T41"},"geometry":{"type":"Point","coordinates":[-14.5,87.5]}},{"type":"Feature","properties":{"kind":"center","id":22,"lat":-35.5,"lon":-46.5,"mslp":995.2,"hvtl":58.0,"hvtu":-26.5,"hb":77.2,"idx":0.8,"cls":3,"psfc":995.2,"terrain":false,"radius_km":200,"name":"asym shallow warm","track":"T84"},"geometry":{"type":"Point","coordinates":[-46.5,-35.5]}},{"type":"Feature","properties":{"kind":"center","id":23,"lat":15.75,"lon":-103.25,"mslp":995.3,"hvtl":136.3,"hvtu":32.1,"hb":8.7,"idx":2.1,"cls":0,"psfc":995.3,"terrain":false,"radius_km":200,"name":"sym deep warm","track":"T80"},"geometry":{"type":"Point","coordinates":[-103.25,15.75]}},{"type":"Feature","properties":{"kind":"center","id":24,"lat":-70.75,"lon":10.25,"mslp":995.4,"hvtl":-158.2,"hvtu":-157.4,"hb":40.9,"idx":-2.8,"cls":4,"psfc":941.6,"terrain":false,"radius_km":200,"name":"asym cold"},"geometry":{"type":"Point","coordinates":[10.25,-70.75]}},{"type":"Feature","properties":{"kind":"center","id":25,"lat":86.5,"lon":26.75,"mslp":996.1,"hvtl":-73.5,"hvtu":7.8,"hb":-57.4,"idx":-1.2,"cls":6,"psfc":996.1,"terrain":false,"radius_km":200,"name":"shallow cold","track":"T73"},"geometry":{"type":"Point","coordinates":[26.75,86.5]}},{"type":"Feature","properties":{"kind":"center","id":26,"lat":25.0,"lon":-120.5,"mslp":996.2,"hvtl":56.0,"hvtu":-80.8,"hb":24.2,"idx":0.3,"cls":3,"psfc":996.2,"terrain":false,"radius_km":200,"name":"asym shallow warm","track":"T48"},"geometry":{"type":"Point","coordinates":[-120.5,25.0]}},{"type":"Feature","properties":{"kind":"center","id":27,"lat":86.75,"lon":28.5,"mslp":996.6,"hvtl":-105.3,"hvtu":8.9,"hb":-57.1,"idx":-1.5,"cls":6,"psfc":996.6,"terrain":false,"radius_km":200,"name":"shallow cold"},"geometry":{"type":"Point","coordinates":[28.5,86.75]}},{"type":"Feature","properties":{"kind":"center","id":28,"lat":-79.5,"lon":-78.0,"mslp":997.0,"hvtl":-317.1,"hvtu":-156.7,"hb":80.0,"idx":-2.9,"cls":4,"psfc":939.7,"terrain":false,"radius_km":200,"name":"asym cold"},"geometry":{"type":"Point","coordinates":[-78.0,-79.5]}},{"type":"Feature","properties":{"kind":"center","id":29,"lat":66.5,"lon":5.0,"mslp":997.3,"hvtl":100.2,"hvtu":-53.3,"hb":6.9,"idx":1.0,"cls":1,"psfc":997.3,"terrain":false,"radius_km":200,"name":"sym shallow warm","track":"T66"},"geometry":{"type":"Point","coordinates":[5.0,66.5]}},{"type":"Feature","properties":{"kind":"center","id":30,"lat":68.75,"lon":-170.0,"mslp":997.6,"hvtl":122.0,"hvtu":-35.9,"hb":3.5,"idx":1.3,"cls":1,"psfc":997.6,"terrain":false,"radius_km":200,"name":"sym shallow warm"},"geometry":{"type":"Point","coordinates":[-170.0,68.75]}},{"type":"Feature","properties":{"kind":"center","id":31,"lat":58.75,"lon":12.0,"mslp":998.5,"hvtl":-97.7,"hvtu":-56.6,"hb":22.4,"idx":-2.0,"cls":4,"psfc":980.3,"terrain":false,"radius_km":200,"name":"asym cold","track":"T53"},"geometry":{"type":"Point","coordinates":[12.0,58.75]}},{"type":"Feature","properties":{"kind":"center","id":32,"lat":72.5,"lon":-136.0,"mslp":1000.0,"hvtl":77.6,"hvtu":-188.8,"hb":37.3,"idx":0.3,"cls":3,"psfc":1000.0,"terrain":false,"radius_km":200,"name":"asym shallow warm","track":"T97"},"geometry":{"type":"Point","coordinates":[-136.0,72.5]}},{"type":"Feature","properties":{"kind":"center","id":33,"lat":62.75,"lon":-124.75,"mslp":1000.1,"hvtl":63.7,"hvtu":-41.3,"hb":-2.2,"idx":0.7,"cls":1,"psfc":903.0,"terrain":true,"radius_km":200,"name":"sym shallow warm"},"geometry":{"type":"Point","coordinates":[-124.75,62.75]}},{"type":"Feature","properties":{"kind":"center","id":34,"lat":35.0,"lon":-116.25,"mslp":1000.8,"hvtl":-165.2,"hvtu":-339.1,"hb":84.1,"idx":-2.9,"cls":4,"psfc":940.1,"terrain":false,"radius_km":200,"name":"asym cold","track":"T96"},"geometry":{"type":"Point","coordinates":[-116.25,35.0]}},{"type":"Feature","properties":{"kind":"center","id":35,"lat":70.5,"lon":83.0,"mslp":1001.4,"hvtl":-118.2,"hvtu":-189.1,"hb":42.6,"idx":-2.6,"cls":4,"psfc":1000.5,"terrain":false,"radius_km":200,"name":"asym cold","track":"T103"},"geometry":{"type":"Point","coordinates":[83.0,70.5]}},{"type":"Feature","properties":{"kind":"center","id":36,"lat":-47.25,"lon":-76.25,"mslp":1001.5,"hvtl":36.4,"hvtu":-85.5,"hb":11.7,"idx":0.0,"cls":3,"psfc":1001.5,"terrain":false,"radius_km":200,"name":"asym shallow warm","track":"T94"},"geometry":{"type":"Point","coordinates":[-76.25,-47.25]}},{"type":"Feature","properties":{"kind":"center","id":37,"lat":50.0,"lon":129.5,"mslp":1002.8,"hvtl":-156.9,"hvtu":-310.7,"hb":77.0,"idx":-2.8,"cls":4,"psfc":976.0,"terrain":false,"radius_km":200,"name":"asym cold"},"geometry":{"type":"Point","coordinates":[129.5,50.0]}},{"type":"Feature","properties":{"kind":"center","id":38,"lat":61.5,"lon":-125.25,"mslp":1004.5,"hvtl":12.4,"hvtu":-47.6,"hb":-1.1,"idx":-0.2,"cls":1,"psfc":900.6,"terrain":true,"radius_km":200,"name":"sym shallow warm"},"geometry":{"type":"Point","coordinates":[-125.25,61.5]}},{"type":"Feature","properties":{"kind":"center","id":39,"lat":36.5,"lon":-119.0,"mslp":1005.0,"hvtl":-10.4,"hvtu":-312.7,"hb":24.4,"idx":-1.2,"cls":4,"psfc":941.2,"terrain":false,"radius_km":200,"name":"asym cold","track":"T95"},"geometry":{"type":"Point","coordinates":[-119.0,36.5]}},{"type":"Feature","properties":{"kind":"center","id":40,"lat":29.75,"lon":59.0,"mslp":1005.5,"hvtl":82.2,"hvtu":-42.3,"hb":14.4,"idx":1.0,"cls":3,"psfc":970.4,"terrain":false,"radius_km":200,"name":"asym shallow warm","track":"T112"},"geometry":{"type":"Point","coordinates":[59.0,29.75]}},{"type":"Feature","properties":{"kind":"center","id":41,"lat":21.0,"lon":-96.5,"mslp":1005.7,"hvtl":3.1,"hvtu":39.9,"hb":7.7,"idx":0.4,"cls":0,"psfc":1005.7,"terrain":false,"radius_km":200,"name":"sym deep warm"},"geometry":{"type":"Point","coordinates":[-96.5,21.0]}},{"type":"Feature","properties":{"kind":"center","id":42,"lat":-26.75,"lon":125.0,"mslp":1007.4,"hvtl":-112.9,"hvtu":-262.8,"hb":73.7,"idx":-2.6,"cls":4,"psfc":955.0,"terrain":false,"radius_km":200,"name":"asym cold"},"geometry":{"type":"Point","coordinates":[125.0,-26.75]}},{"type":"Feature","properties":{"kind":"center","id":43,"lat":24.0,"lon":96.5,"mslp":1007.7,"hvtl":-26.0,"hvtu":-116.5,"hb":3.6,"idx":-1.3,"cls":5,"psfc":992.0,"terrain":false,"radius_km":200,"name":"sym cold"},"geometry":{"type":"Point","coordinates":[96.5,24.0]}},{"type":"Feature","properties":{"kind":"center","id":44,"lat":25.75,"lon":93.5,"mslp":1008.9,"hvtl":-11.2,"hvtu":-167.7,"hb":10.1,"idx":-1.2,"cls":4,"psfc":982.2,"terrain":false,"radius_km":200,"name":"asym cold","track":"T120"},"geometry":{"type":"Point","coordinates":[93.5,25.75]}},{"type":"Feature","properties":{"kind":"center","id":45,"lat":30.5,"lon":60.75,"mslp":1011.1,"hvtl":104.2,"hvtu":-57.5,"hb":28.6,"idx":1.0,"cls":3,"psfc":909.3,"terrain":true,"radius_km":200,"name":"asym shallow warm"},"geometry":{"type":"Point","coordinates":[60.75,30.5]}},{"type":"Feature","properties":{"kind":"center","id":46,"lat":-32.5,"lon":-67.75,"mslp":1011.2,"hvtl":-18.8,"hvtu":-206.2,"hb":32.1,"idx":-1.3,"cls":4,"psfc":950.5,"terrain":false,"radius_km":200,"name":"asym cold"},"geometry":{"type":"Point","coordinates":[-67.75,-32.5]}},{"type":"Feature","properties":{"kind":"center","id":47,"lat":23.25,"lon":97.5,"mslp":1011.5,"hvtl":-12.5,"hvtu":-95.8,"hb":-5.7,"idx":-1.0,"cls":5,"psfc":918.4,"terrain":true,"radius_km":200,"name":"sym cold"},"geometry":{"type":"Point","coordinates":[97.5,23.25]}},{"type":"Feature","properties":{"kind":"center","id":48,"lat":-37.0,"lon":172.25,"mslp":1011.6,"hvtl":-22.8,"hvtu":-183.4,"hb":7.3,"idx":-1.4,"cls":5,"psfc":1011.6,"terrain":false,"radius_km":200,"name":"sym cold","track":"T107"},"geometry":{"type":"Point","coordinates":[172.25,-37.0]}},{"type":"Feature","properties":{"kind":"center","id":49,"lat":75.75,"lon":-63.5,"mslp":1012.3,"hvtl":-140.2,"hvtu":-119.9,"hb":60.1,"idx":-2.6,"cls":4,"psfc":1012.3,"terrain":false,"radius_km":200,"name":"asym cold","track":"T123"},"geometry":{"type":"Point","coordinates":[-63.5,75.75]}},{"type":"Feature","properties":{"kind":"center","id":50,"lat":31.5,"lon":163.0,"mslp":1012.3,"hvtl":176.7,"hvtu":-165.0,"hb":28.1,"idx":1.0,"cls":3,"psfc":1012.3,"terrain":false,"radius_km":200,"name":"asym shallow warm","track":"T40"},"geometry":{"type":"Point","coordinates":[163.0,31.5]}},{"type":"Feature","properties":{"kind":"center","id":51,"lat":68.0,"lon":155.25,"mslp":1013.4,"hvtl":16.6,"hvtu":-61.9,"hb":-1.5,"idx":-0.2,"cls":1,"psfc":1007.8,"terrain":false,"radius_km":200,"name":"sym shallow warm","track":"T110"},"geometry":{"type":"Point","coordinates":[155.25,68.0]}},{"type":"Feature","properties":{"kind":"center","id":52,"lat":33.0,"lon":-77.75,"mslp":1014.6,"hvtl":75.7,"hvtu":-46.8,"hb":36.9,"idx":0.8,"cls":3,"psfc":1014.6,"terrain":false,"radius_km":200,"name":"asym shallow warm"},"geometry":{"type":"Point","coordinates":[-77.75,33.0]}},{"type":"Feature","properties":{"kind":"center","id":53,"lat":59.0,"lon":148.25,"mslp":1015.5,"hvtl":-156.3,"hvtu":-108.0,"hb":48.4,"idx":-2.6,"cls":4,"psfc":1015.5,"terrain":false,"radius_km":200,"name":"asym cold"},"geometry":{"type":"Point","coordinates":[148.25,59.0]}},{"type":"Feature","properties":{"kind":"center","id":54,"lat":48.0,"lon":86.5,"mslp":1025.6,"hvtl":-11.8,"hvtu":-272.6,"hb":32.5,"idx":-1.2,"cls":4,"psfc":965.6,"terrain":false,"radius_km":200,"name":"asym cold"},"geometry":{"type":"Point","coordinates":[86.5,48.0]}}]}