{"type":"FeatureCollection","features":[{"type":"Feature","properties":{"kind":"blob","cls":1,"id":1},"geometry":{"type":"Polygon","coordinates":[[[10.5,-65.62],[13.0,-64.88],[14.12,-63.5],[13.88,-62.5],[11.75,-61.12],[9.75,-60.62],[6.75,-60.88],[5.25,-61.62],[4.88,-62.25],[5.12,-64.0],[6.5,-65.12],[10.5,-65.62]]]}},{"type":"Feature","properties":{"kind":"blob","cls":3,"id":2},"geometry":{"type":"Polygon","coordinates":[[[-1.0,-63.62],[2.5,-63.62],[4.38,-62.25],[4.38,-61.75],[-0.75,-60.12],[-3.0,-60.88],[-3.88,-61.75],[-3.88,-62.25],[-3.0,-63.12],[-1.0,-63.62]]]}},{"type":"Feature","properties":{"kind":"blob","cls":0,"id":3},"geometry":{"type":"Polygon","coordinates":[[[146.75,23.88],[147.62,24.75],[147.62,26.25],[146.75,27.12],[145.25,27.38],[143.62,26.25],[143.62,24.75],[144.5,23.88],[146.75,23.88]],[[144.38,24.75],[144.38,25.25],[145.0,25.38],[145.12,24.75],[144.38,24.75]]]}},{"type":"Feature","properties":{"kind":"blob","cls":2,"id":4},"geometry":{"type":"Polygon","coordinates":[[[-136.25,-74.62],[-131.75,-73.88],[-129.25,-72.88],[-128.62,-72.25],[-128.62,-71.25],[-131.25,-70.12],[-136.5,-69.88],[-139.5,-70.38],[-138.5,-70.62],[-138.38,-71.0],[-139.75,-71.62],[-143.25,-71.88],[-144.0,-72.12],[-144.38,-72.75],[-143.25,-73.88],[-136.25,-74.62]]]}},{"type":"Feature","properties":{"kind":"blob","cls":4,"id":5},"geometry":{"type":"Polygon","coordinates":[[[133.5,-59.88],[137.25,-59.88],[139.12,-58.5],[139.12,-57.5],[138.25,-56.62],[136.25,-55.62],[132.25,-55.62],[130.88,-56.5],[130.62,-58.0],[131.75,-59.38],[133.5,-59.88]]]}},{"type":"Feature","properties":{"kind":"blob","cls":4,"id":6},"geometry":{"type":"Polygon","coordinates":[[[87.25,-55.88],[89.25,-55.12],[89.88,-54.25],[89.62,-53.0],[86.75,-51.62],[85.25,-51.62],[83.25,-52.38],[82.62,-53.5],[82.88,-54.5],[84.5,-55.62],[87.25,-55.88]]]}},{"type":"Feature","properties":{"kind":"blob","cls":3,"id":7},"geometry":{"type":"Polygon","coordinates":[[[-135.0,-60.62],[-133.0,-59.88],[-131.88,-58.5],[-132.12,-57.0],[-134.5,-55.88],[-136.25,-55.88],[-138.25,-56.62],[-139.62,-58.0],[-139.62,-59.0],[-138.75,-59.88],[-135.0,-60.62]]]}},{"type":"Feature","properties":{"kind":"blob","cls":2,"id":8},"geometry":{"type":"Polygon","coordinates":[[[-129.75,-65.62],[-127.88,-64.25],[-127.88,-63.75],[-130.25,-62.12],[-132.25,-61.62],[-135.25,-61.88],[-137.12,-63.0],[-137.38,-63.5],[-136.25,-64.88],[-134.5,-65.62],[-129.75,-65.62]]]}},{"type":"Feature","properties":{"kind":"blob","cls":4,"id":9},"geometry":{"type":"Polygon","coordinates":[[[179.75,-82.88],[180.0,-80.12],[172.0,-80.62],[168.38,-81.5],[172.5,-82.38],[179.75,-82.88]]]}},{"type":"Feature","properties":{"kind":"blob","cls":4,"id":9},"geometry":{"type":"Polygon","coordinates":[[[-179.75,-80.12],[-180.0,-82.88],[-167.75,-83.38],[-159.12,-83.0],[-159.25,-82.38],[-161.25,-81.62],[-166.75,-80.62],[-179.75,-80.12]]]}},{"type":"Feature","properties":{"kind":"blob","cls":6,"id":10},"geometry":{"type":"Polygon","coordinates":[[[162.5,-79.38],[164.5,-79.62],[168.75,-79.12],[170.75,-78.38],[171.12,-77.5],[167.25,-75.38],[164.75,-74.88],[162.62,-77.0],[164.12,-78.0],[164.0,-78.38],[165.12,-78.5],[162.0,-78.62],[162.5,-79.38]],[[166.62,-77.5],[169.12,-77.5],[169.0,-77.62],[166.62,-77.5]]]}},{"type":"Feature","properties":{"kind":"blob","cls":0,"id":11},"geometry":{"type":"Polygon","coordinates":[[[178.75,23.62],[179.62,24.5],[179.62,26.0],[178.0,27.12],[176.75,26.88],[175.88,26.0],[175.88,24.5],[176.75,23.62],[178.75,23.62]]]}},{"type":"Feature","properties":{"kind":"blob","cls":4,"id":12},"geometry":{"type":"Polygon","coordinates":[[[-106.25,-64.12],[-103.5,-63.12],[-101.88,-61.5],[-101.62,-59.5],[-102.75,-58.38],[-104.5,-57.88],[-107.0,-58.12],[-109.25,-59.12],[-110.62,-60.75],[-110.88,-62.5],[-109.75,-63.62],[-106.25,-64.12]]]}},{"type":"Feature","properties":{"kind":"blob","cls":4,"id":13},"geometry":{"type":"Polygon","coordinates":[[[162.0,-71.38],[162.5,-70.38],[163.5,-70.88],[164.88,-69.5],[165.12,-69.0],[164.25,-67.88],[160.75,-66.88],[154.75,-66.38],[151.75,-67.12],[150.62,-68.25],[154.0,-69.12],[159.5,-69.62],[162.0,-71.38]]]}},{"type":"Feature","properties":{"kind":"blob","cls":3,"id":14},"geometry":{"type":"Polygon","coordinates":[[[10.0,68.62],[13.5,69.12],[15.25,69.62],[16.38,71.0],[15.75,71.88],[14.0,72.62],[9.25,73.12],[8.0,72.12],[5.5,72.12],[4.75,72.88],[3.75,72.62],[2.75,72.12],[1.88,71.0],[3.0,69.62],[10.0,68.62]]]}},{"type":"Feature","properties":{"kind":"blob","cls":3,"id":15},"geometry":{"type":"Polygon","coordinates":[[[83.25,-62.12],[84.88,-61.0],[84.88,-60.0],[83.25,-58.88],[82.0,-58.62],[80.25,-58.62],[78.0,-59.38],[77.38,-60.0],[77.38,-61.0],[79.0,-62.12],[83.25,-62.12]]]}},{"type":"Feature","properties":{"kind":"blob","cls":0,"id":16},"geometry":{"type":"Polygon","coordinates":[[[-114.5,18.62],[-113.5,18.62],[-112.88,19.25],[-112.62,20.75],[-113.5,21.88],[-114.75,22.12],[-116.12,21.25],[-116.38,19.75],[-116.0,19.38],[-115.5,19.88],[-114.5,19.88],[-114.12,19.0],[-114.5,18.62]]]}},{"type":"Feature","properties":{"kind":"blob","cls":1,"id":17},"geometry":{"type":"Polygon","coordinates":[[[-161.75,54.12],[-160.0,54.62],[-159.12,55.5],[-159.12,56.0],[-159.62,56.25],[-159.12,56.75],[-160.5,57.88],[-163.0,58.12],[-164.75,57.62],[-165.88,56.5],[-165.88,55.5],[-164.5,54.38],[-161.75,54.12]]]}},{"type":"Feature","properties":{"kind":"blob","cls":3,"id":18},"geometry":{"type":"Polygon","coordinates":[[[44.75,78.38],[50.0,78.88],[53.5,79.62],[54.88,80.5],[54.88,81.25],[52.5,82.38],[50.25,82.88],[40.25,83.88],[28.5,83.62],[25.0,83.12],[21.88,82.0],[25.75,81.62],[25.5,80.88],[24.38,80.5],[25.0,80.12],[32.75,78.88],[44.75,78.38]]]}},{"type":"Feature","properties":{"kind":"blob","cls":4,"id":19},"geometry":{"type":"Polygon","coordinates":[[[-10.0,61.12],[-7.0,61.88],[-5.88,62.75],[-5.88,63.75],[-8.25,65.12],[-13.0,65.38],[-15.0,64.88],[-16.62,63.75],[-16.62,62.75],[-16.0,62.12],[-10.0,61.12]]]}},{"type":"Feature","properties":{"kind":"blob","cls":4,"id":20},"geometry":{"type":"Polygon","coordinates":[[[59.25,-67.62],[59.88,-66.5],[58.5,-65.38],[56.25,-64.88],[52.5,-65.12],[51.25,-65.62],[50.38,-66.5],[50.75,-67.38],[51.5,-67.38],[51.5,-66.38],[55.0,-66.12],[55.88,-66.5],[55.75,-67.12],[59.25,-67.62]]]}},{"type":"Feature","properties":{"kind":"blob","cls":4,"id":21},"geometry":{"type":"Polygon","coordinates":[[[-111.0,-49.62],[-109.75,-49.12],[-108.88,-48.25],[-108.88,-47.25],[-110.0,-46.12],[-111.25,-45.62],[-113.5,-46.12],[-114.38,-47.0],[-114.38,-48.0],[-113.25,-49.12],[-111.0,-49.62]]]}},{"type":"Feature","properties":{"kind":"blob","cls":4,"id":22},"geometry":{"type":"MultiPolygon","coordinates":[[[[63.5,53.62],[65.25,54.12],[66.38,55.25],[66.38,56.0],[65.25,55.62],[64.62,56.25],[66.12,56.75],[64.5,57.88],[63.25,58.12],[61.0,57.88],[60.0,57.38],[58.88,56.25],[58.88,55.25],[60.0,54.12],[63.5,53.62]]],[[[66.25,56.62],[66.12,56.5],[66.25,56.38],[66.25,56.62]]]]}},{"type":"Feature","properties":{"kind":"blob","cls":1,"id":23},"geometry":{"type":"Polygon","coordinates":[[[-79.0,50.12],[-77.5,50.62],[-76.38,51.75],[-76.38,52.75],[-77.25,53.62],[-78.75,54.12],[-81.75,53.62],[-82.62,52.75],[-82.62,51.75],[-81.5,50.62],[-79.0,50.12]]]}},{"type":"Feature","properties":{"kind":"blob","cls":3,"id":24},"geometry":{"type":"Polygon","coordinates":[[[-42.5,-42.88],[-41.12,-41.5],[-41.12,-40.0],[-42.5,-38.62],[-45.0,-38.62],[-46.38,-40.0],[-46.38,-41.5],[-45.0,-42.88],[-42.5,-42.88]]]}},{"type":"Feature","properties":{"kind":"blob","cls":3,"id":25},"geometry":{"type":"Polygon","coordinates":[[[-120.25,63.88],[-118.0,64.38],[-116.62,65.5],[-116.88,66.75],[-120.75,68.62],[-125.5,69.62],[-129.5,69.38],[-132.38,68.0],[-132.38,67.0],[-130.5,65.88],[-126.75,65.38],[-124.25,64.12],[-120.25,63.88]]]}},{"type":"Feature","properties":{"kind":"blob","cls":1,"id":26},"geometry":{"type":"Polygon","coordinates":[[[-59.0,68.38],[-54.0,68.38],[-52.0,69.12],[-51.38,70.0],[-53.0,71.62],[-55.75,72.12],[-61.25,71.88],[-63.25,71.12],[-63.88,70.5],[-63.25,69.38],[-62.25,68.88],[-59.0,68.38]],[[-53.5,69.62],[-53.88,70.0],[-52.62,69.75],[-53.5,69.62]],[[-53.12,70.5],[-52.12,70.5],[-52.25,70.38],[-53.12,70.5]]]}},{"type":"Feature","properties":{"kind":"blob","cls":4,"id":27},"geometry":{"type":"Polygon","coordinates":[[[82.75,57.38],[84.5,57.88],[85.62,59.25],[84.25,60.88],[80.5,62.12],[78.0,62.12],[75.38,61.0],[75.12,59.75],[76.25,58.62],[79.75,57.62],[82.75,57.38]]]}},{"type":"Feature","properties":{"kind":"blob","cls":4,"id":28},"geometry":{"type":"Polygon","coordinates":[[[-57.0,-80.88],[-52.25,-80.38],[-50.0,-79.62],[-49.38,-78.5],[-51.0,-77.62],[-53.5,-77.12],[-62.75,-76.88],[-68.5,-77.62],[-71.12,-78.75],[-70.75,-79.62],[-69.5,-80.12],[-57.0,-80.88]]]}},{"type":"Feature","properties":{"kind":"blob","cls":3,"id":29},"geometry":{"type":"Polygon","coordinates":[[[-34.25,62.38],[-32.38,63.75],[-32.12,65.0],[-33.0,66.12],[-35.0,66.62],[-36.75,66.12],[-40.0,64.38],[-41.62,64.25],[-41.38,63.5],[-40.5,62.88],[-39.5,62.38],[-34.25,62.38]]]}},{"type":"Feature","properties":{"kind":"blob","cls":1,"id":30},"geometry":{"type":"Polygon","coordinates":[[[-87.5,-40.12],[-86.38,-38.75],[-86.62,-37.75],[-88.0,-36.38],[-90.75,-36.38],[-92.12,-38.0],[-91.88,-39.0],[-91.0,-39.88],[-87.5,-40.12]]]}},{"type":"Feature","properties":{"kind":"blob","cls":6,"id":31},"geometry":{"type":"Polygon","coordinates":[[[-62.0,-54.38],[-61.12,-54.5],[-62.12,-53.25],[-61.88,-52.5],[-61.25,-52.12],[-58.75,-52.12],[-57.25,-52.88],[-55.75,-54.38],[-54.88,-53.5],[-54.88,-52.5],[-55.75,-51.62],[-57.5,-50.88],[-59.5,-50.38],[-61.5,-50.62],[-62.75,-51.12],[-63.62,-52.0],[-63.62,-53.0],[-62.0,-54.38]]]}},{"type":"Feature","properties":{"kind":"blob","cls":4,"id":32},"geometry":{"type":"Polygon","coordinates":[[[129.25,38.62],[130.38,39.75],[130.5,40.88],[131.75,40.62],[133.0,41.12],[133.62,42.0],[133.38,43.5],[131.75,44.38],[129.5,43.88],[128.88,43.0],[128.88,42.0],[129.62,42.0],[129.12,41.0],[127.25,40.12],[126.62,40.25],[126.62,40.75],[127.0,41.38],[127.62,41.5],[127.62,42.0],[126.75,41.88],[125.62,40.75],[125.62,39.75],[126.75,38.62],[129.25,38.62]]]}},{"type":"Feature","properties":{"kind":"blob","cls":4,"id":33},"geometry":{"type":"Polygon","coordinates":[[[-57.88,74.5],[-60.25,76.38],[-65.75,76.62],[-66.12,76.25],[-64.75,75.12],[-57.88,74.5]]]}},{"type":"Feature","properties":{"kind":"blob","cls":4,"id":34},"geometry":{"type":"Polygon","coordinates":[[[-61.25,-20.62],[-60.38,-19.5],[-60.38,-18.5],[-61.75,-16.88],[-63.0,-16.62],[-64.38,-17.5],[-63.38,-18.25],[-63.88,-19.0],[-63.12,-19.5],[-63.38,-20.5],[-61.25,-20.62]]]}},{"type":"Feature","properties":{"kind":"blob","cls":1,"id":35},"geometry":{"type":"Polygon","coordinates":[[[-60.88,-54.75],[-60.75,-54.88],[-60.62,-54.75],[-60.88,-54.75]]]}},{"type":"Feature","properties":{"kind":"blob","cls":5,"id":36},"geometry":{"type":"Polygon","coordinates":[[[-65.25,-16.62],[-64.62,-16.0],[-64.62,-13.5],[-66.0,-12.12],[-66.75,-11.88],[-68.75,-12.12],[-69.62,-13.5],[-68.5,-13.88],[-67.88,-15.25],[-65.25,-16.62]]]}},{"type":"Feature","properties":{"kind":"blob","cls":4,"id":37},"geometry":{"type":"MultiPolygon","coordinates":[[[[-65.0,-25.88],[-64.75,-26.38],[-64.0,-26.12],[-63.12,-25.25],[-63.12,-23.75],[-64.0,-22.88],[-64.62,-23.75],[-64.12,-24.25],[-65.0,-25.88]]],[[[-64.75,-24.38],[-64.88,-24.5],[-64.75,-24.62],[-64.75,-24.38]]]]}},{"type":"Feature","properties":{"kind":"blob","cls":1,"id":38},"geometry":{"type":"Polygon","coordinates":[[[-73.25,-12.12],[-72.75,-12.38],[-72.5,-11.88],[-72.0,-12.12],[-71.62,-11.75],[-71.38,-10.25],[-73.0,-7.62],[-74.0,-7.62],[-75.62,-8.5],[-75.62,-9.75],[-75.0,-10.62],[-74.5,-10.12],[-74.12,-10.25],[-73.25,-12.12]]]}},{"type":"Feature","properties":{"kind":"blob","cls":4,"id":39},"geometry":{"type":"Polygon","coordinates":[[[73.75,29.38],[75.0,29.88],[75.62,30.75],[75.62,31.75],[75.0,32.38],[72.25,32.38],[70.5,31.88],[70.12,31.5],[70.12,30.0],[73.75,29.38]]]}},{"type":"Feature","properties":{"kind":"blob","cls":4,"id":40},"geometry":{"type":"Polygon","coordinates":[[[-110.25,48.62],[-109.12,49.25],[-110.5,49.38],[-110.5,49.88],[-108.38,50.0],[-108.38,51.75],[-109.25,52.62],[-111.5,53.38],[-114.0,52.88],[-114.38,52.25],[-112.88,50.5],[-112.88,50.0],[-111.75,49.12],[-110.25,48.62]]]}},{"type":"Feature","properties":{"kind":"blob","cls":4,"id":41},"geometry":{"type":"Polygon","coordinates":[[[-66.25,-33.38],[-66.25,-32.62],[-65.75,-32.38],[-65.5,-32.88],[-65.12,-32.25],[-65.38,-30.75],[-64.12,-29.75],[-63.88,-28.75],[-65.25,-26.88],[-65.88,-27.25],[-65.5,-28.62],[-65.75,-28.38],[-66.38,-28.75],[-66.25,-27.62],[-67.12,-28.25],[-66.62,-29.0],[-67.38,-29.75],[-67.38,-31.25],[-68.12,-31.5],[-67.62,-31.0],[-68.25,-29.88],[-68.62,-30.5],[-68.88,-33.0],[-66.25,-33.38]],[[-66.62,-31.0],[-66.5,-30.62],[-66.38,-30.75],[-66.62,-31.0]]]}},{"type":"Feature","properties":{"kind":"blob","cls":5,"id":42},"geometry":{"type":"MultiPolygon","coordinates":[[[[-114.25,29.38],[-112.0,29.38],[-110.88,30.75],[-111.62,31.5],[-111.38,32.0],[-112.25,33.12],[-113.5,34.12],[-115.0,34.38],[-116.25,33.88],[-116.62,33.25],[-115.12,30.75],[-115.25,30.38],[-115.75,31.38],[-115.88,30.5],[-114.25,29.38]]],[[[-116.88,32.75],[-116.75,32.62],[-116.62,33.0],[-116.88,32.75]]]]}},{"type":"Feature","properties":{"kind":"blob","cls":4,"id":43},"geometry":{"type":"Polygon","coordinates":[[[-65.38,-26.25],[-65.25,-26.38],[-65.12,-26.25],[-65.38,-26.25]]]}},{"type":"Feature","properties":{"kind":"blob","cls":1,"id":44},"geometry":{"type":"Polygon","coordinates":[[[-74.0,-12.38],[-74.0,-11.62],[-74.12,-11.75],[-74.0,-12.38]]]}},{"type":"Feature","properties":{"kind":"blob","cls":3,"id":45},"geometry":{"type":"Polygon","coordinates":[[[-85.75,29.12],[-84.62,30.25],[-84.62,31.25],[-85.25,32.12],[-87.0,32.62],[-88.25,32.12],[-88.88,31.25],[-88.88,30.25],[-88.38,29.5],[-85.75,29.12]]]}},{"type":"Feature","properties":{"kind":"blob","cls":1,"id":46},"geometry":{"type":"MultiPolygon","coordinates":[[[[-74.5,-11.12],[-74.62,-11.25],[-74.25,-11.38],[-74.5,-11.12]]],[[[-74.75,-10.88],[-74.88,-11.0],[-74.75,-11.12],[-74.75,-10.88]]]]}},{"type":"Feature","properties":{"kind":"blob","cls":3,"id":47},"geometry":{"type":"Polygon","coordinates":[[[51.25,28.38],[52.12,29.25],[49.75,31.62],[49.25,31.62],[48.38,30.75],[48.12,29.75],[49.25,28.38],[51.25,28.38]]]}},{"type":"Feature","properties":{"kind":"blob","cls":3,"id":48},"geometry":{"type":"Polygon","coordinates":[[[62.12,32.25],[62.0,32.88],[61.88,32.5],[62.12,32.25]]]}},{"type":"Feature","properties":{"kind":"blob","cls":3,"id":49},"geometry":{"type":"Polygon","coordinates":[[[61.62,31.0],[61.75,30.88],[61.88,31.0],[61.62,31.0]]]}},{"type":"Feature","properties":{"kind":"blob","cls":3,"id":50},"geometry":{"type":"MultiPolygon","coordinates":[[[[63.0,29.62],[63.12,30.0],[62.5,30.12],[63.0,29.62]]],[[[62.38,30.25],[62.25,30.38],[62.12,30.25],[62.38,30.25]]],[[[62.12,30.5],[62.0,30.62],[61.88,30.5],[62.12,30.5]]]]}},{"type":"Feature","properties":{"kind":"blob","cls":1,"id":51},"geometry":{"type":"Polygon","coordinates":[[[172.25,-43.88],[174.5,-43.88],[175.62,-42.75],[174.0,-42.12],[172.5,-42.38],[172.75,-41.88],[173.38,-41.75],[171.75,-40.62],[170.88,-41.25],[170.62,-42.75],[171.0,-43.12],[171.5,-42.88],[171.12,-43.25],[172.25,-43.88]],[[172.0,-42.88],[171.88,-42.75],[172.0,-42.62],[172.0,-42.88]]]}},{"type":"Feature","properties":{"kind":"center","id":1,"lat":-63.5,"lon":9.5,"mslp":936.2,"hvtl":223.8,"hvtu":-17.8,"hb":-17.9,"idx":1.8,"cls":1,"psfc":936.2,"terrain":false,"radius_km":200,"name":"sym shallow warm","track":"T03"},"geometry":{"type":"Point","coordinates":[9.5,-63.5]}},{"type":"Feature","properties":{"kind":"center","id":2,"lat":-62.0,"lon":0.25,"mslp":937.8,"hvtl":280.0,"hvtu":-121.2,"hb":14.1,"idx":1.1,"cls":3,"psfc":937.8,"terrain":false,"radius_km":200,"name":"asym shallow warm","track":"T04"},"geometry":{"type":"Point","coordinates":[0.25,-62.0]}},{"type":"Feature","properties":{"kind":"center","id":3,"lat":25.5,"lon":145.5,"mslp":940.3,"hvtl":160.5,"hvtu":256.3,"hb":-5.7,"idx":2.8,"cls":0,"psfc":940.3,"terrain":false,"radius_km":200,"name":"sym deep warm","track":"T07"},"geometry":{"type":"Point","coordinates":[145.5,25.5]}},{"type":"Feature","properties":{"kind":"center","id":4,"lat":-72.25,"lon":-137.0,"mslp":946.3,"hvtl":65.0,"hvtu":25.6,"hb":47.7,"idx":1.4,"cls":2,"psfc":946.2,"terrain":false,"radius_km":200,"name":"asym deep warm","track":"T05"},"geometry":{"type":"Point","coordinates":[-137.0,-72.25]}},{"type":"Feature","properties":{"kind":"center","id":5,"lat":-57.5,"lon":134.5,"mslp":949.1,"hvtl":-79.0,"hvtu":-241.0,"hb":52.7,"idx":-2.3,"cls":4,"psfc":949.1,"terrain":false,"radius_km":200,"name":"asym cold","track":"T06"},"geometry":{"type":"Point","coordinates":[134.5,-57.5]}},{"type":"Feature","properties":{"kind":"center","id":6,"lat":-53.75,"lon":86.25,"mslp":955.3,"hvtl":-50.4,"hvtu":-273.9,"hb":37.8,"idx":-1.9,"cls":4,"psfc":955.3,"terrain":false,"radius_km":200,"name":"asym cold","track":"T12"},"geometry":{"type":"Point","coordinates":[86.25,-53.75]}},{"type":"Feature","properties":{"kind":"center","id":7,"lat":-58.5,"lon":-136.0,"mslp":956.1,"hvtl":136.2,"hvtu":-23.2,"hb":38.0,"idx":1.5,"cls":3,"psfc":956.1,"terrain":false,"radius_km":200,"name":"asym shallow warm","track":"T18"},"geometry":{"type":"Point","coordinates":[-136.0,-58.5]}},{"type":"Feature","properties":{"kind":"center","id":8,"lat":-62.0,"lon":-135.25,"mslp":960.5,"hvtl":92.0,"hvtu":48.9,"hb":71.7,"idx":1.9,"cls":2,"psfc":960.5,"terrain":false,"radius_km":200,"name":"asym deep warm","track":"T10"},"geometry":{"type":"Point","coordinates":[-135.25,-62.0]}},{"type":"Feature","properties":{"kind":"center","id":9,"lat":-82.25,"lon":-176.25,"mslp":967.1,"hvtl":-335.0,"hvtu":-18.6,"hb":40.7,"idx":-2.2,"cls":4,"psfc":960.9,"terrain":false,"radius_km":200,"name":"asym cold","track":"T25"},"geometry":{"type":"Point","coordinates":[-176.25,-82.25]}},{"type":"Feature","properties":{"kind":"center","id":10,"lat":-77.5,"lon":166.0,"mslp":967.8,"hvtl":-346.9,"hvtu":34.8,"hb":58.5,"idx":-1.7,"cls":6,"psfc":964.0,"terrain":false,"radius_km":200,"name":"shallow cold","track":"T13"},"geometry":{"type":"Point","coordinates":[166.0,-77.5]}},{"type":"Feature","properties":{"kind":"center","id":11,"lat":25.25,"lon":177.75,"mslp":970.4,"hvtl":77.1,"hvtu":331.2,"hb":-0.7,"idx":2.3,"cls":0,"psfc":970.4,"terrain":false,"radius_km":200,"name":"sym deep warm","track":"T40"},"geometry":{"type":"Point","coordinates":[177.75,25.25]}},{"type":"Feature","properties":{"kind":"center","id":12,"lat":-60.75,"lon":-106.25,"mslp":972.6,"hvtl":-150.6,"hvtu":-186.5,"hb":60.7,"idx":-2.8,"cls":4,"psfc":972.6,"terrain":false,"radius_km":200,"name":"asym cold","track":"T34"},"geometry":{"type":"Point","coordinates":[-106.25,-60.75]}},{"type":"Feature","properties":{"kind":"center","id":13,"lat":-69.0,"lon":159.5,"mslp":973.0,"hvtl":-473.5,"hvtu":-319.5,"hb":103.9,"idx":-3.0,"cls":4,"psfc":973.0,"terrain":false,"radius_km":200,"name":"asym cold","track":"T29"},"geometry":{"type":"Point","coordinates":[159.5,-69.0]}},{"type":"Feature","properties":{"kind":"center","id":14,"lat":71.0,"lon":8.75,"mslp":977.0,"hvtl":32.6,"hvtu":-94.5,"hb":16.6,"idx":-0.1,"cls":3,"psfc":977.0,"terrain":false,"radius_km":200,"name":"asym shallow warm","track":"T41"},"geometry":{"type":"Point","coordinates":[8.75,71.0]}},{"type":"Feature","properties":{"kind":"center","id":15,"lat":-60.75,"lon":82.5,"mslp":979.3,"hvtl":37.6,"hvtu":-107.5,"hb":58.2,"idx":-0.1,"cls":3,"psfc":979.3,"terrain":false,"radius_km":200,"name":"asym shallow warm","track":"T52"},"geometry":{"type":"Point","coordinates":[82.5,-60.75]}},{"type":"Feature","properties":{"kind":"center","id":16,"lat":20.25,"lon":-114.5,"mslp":980.0,"hvtl":84.8,"hvtu":172.5,"hb":3.4,"idx":2.3,"cls":0,"psfc":980.0,"terrain":false,"radius_km":200,"name":"sym deep warm","track":"T48"},"geometry":{"type":"Point","coordinates":[-114.5,20.25]}},{"type":"Feature","properties":{"kind":"center","id":17,"lat":56.0,"lon":-162.5,"mslp":980.2,"hvtl":7.7,"hvtu":-106.7,"hb":8.4,"idx":-0.6,"cls":1,"psfc":980.2,"terrain":false,"radius_km":200,"name":"sym shallow warm","track":"T35"},"geometry":{"type":"Point","coordinates":[-162.5,56.0]}},{"type":"Feature","properties":{"kind":"center","id":18,"lat":81.0,"lon":39.25,"mslp":981.3,"hvtl":54.6,"hvtu":-195.3,"hb":25.3,"idx":0.0,"cls":3,"psfc":981.3,"terrain":false,"radius_km":200,"name":"asym shallow warm","track":"T61"},"geometry":{"type":"Point","coordinates":[39.25,81.0]}},{"type":"Feature","properties":{"kind":"center","id":19,"lat":63.25,"lon":-11.25,"mslp":981.6,"hvtl":-141.2,"hvtu":-390.1,"hb":38.5,"idx":-2.8,"cls":4,"psfc":981.6,"terrain":false,"radius_km":200,"name":"asym cold","track":"T55"},"geometry":{"type":"Point","coordinates":[-11.25,63.25]}},{"type":"Feature","properties":{"kind":"center","id":20,"lat":-66.0,"lon":54.25,"mslp":990.3,"hvtl":-219.1,"hvtu":-304.7,"hb":57.3,"idx":-2.9,"cls":4,"psfc":939.9,"terrain":false,"radius_km":200,"name":"asym cold"},"geometry":{"type":"Point","coordinates":[54.25,-66.0]}},{"type":"Feature","properties":{"kind":"center","id":21,"lat":-48.75,"lon":-110.5,"mslp":990.4,"hvtl":-158.8,"hvtu":-227.3,"hb":36.7,"idx":-2.8,"cls":4,"psfc":990.4,"terrain":false,"radius_km":200,"name":"asym cold","track":"T65"},"geometry":{"type":"Point","coordinates":[-110.5,-48.75]}},{"type":"Feature","properties":{"kind":"center","id":22,"lat":55.75,"lon":62.5,"mslp":993.3,"hvtl":-89.8,"hvtu":-114.8,"hb":25.8,"idx":-2.2,"cls":4,"psfc":974.0,"terrain":false,"radius_km":200,"name":"asym cold","track":"T77"},"geometry":{"type":"Point","coordinates":[62.5,55.75]}},{"type":"Feature","properties":{"kind":"center","id":23,"lat":52.25,"lon":-79.5,"mslp":994.0,"hvtl":151.9,"hvtu":-95.4,"hb":-6.4,"idx":1.1,"cls":1,"psfc":994.0,"terrain":false,"radius_km":200,"name":"sym shallow warm","track":"T57"},"geometry":{"type":"Point","coordinates":[-79.5,52.25]}},{"type":"Feature","properties":{"kind":"center","id":24,"lat":-40.5,"lon":-43.75,"mslp":994.6,"hvtl":4.5,"hvtu":-310.3,"hb":56.5,"idx":-0.9,"cls":3,"psfc":994.6,"terrain":false,"radius_km":200,"name":"asym shallow warm","track":"T16"},"geometry":{"type":"Point","coordinates":[-43.75,-40.5]}},{"type":"Feature","properties":{"kind":"center","id":25,"lat":66.5,"lon":-122.75,"mslp":996.3,"hvtl":53.7,"hvtu":-157.1,"hb":43.0,"idx":0.1,"cls":3,"psfc":974.3,"terrain":false,"radius_km":200,"name":"asym shallow warm","track":"T85"},"geometry":{"type":"Point","coordinates":[-122.75,66.5]}},{"type":"Feature","properties":{"kind":"center","id":26,"lat":70.25,"lon":-57.5,"mslp":997.1,"hvtl":12.3,"hvtu":-71.1,"hb":2.2,"idx":-0.4,"cls":1,"psfc":997.1,"terrain":false,"radius_km":200,"name":"sym shallow warm","track":"T69"},"geometry":{"type":"Point","coordinates":[-57.5,70.25]}},{"type":"Feature","properties":{"kind":"center","id":27,"lat":59.75,"lon":80.25,"mslp":997.2,"hvtl":-98.5,"hvtu":-334.4,"hb":49.1,"idx":-2.5,"cls":4,"psfc":990.1,"terrain":false,"radius_km":200,"name":"asym cold","track":"T91"},"geometry":{"type":"Point","coordinates":[80.25,59.75]}},{"type":"Feature","properties":{"kind":"center","id":28,"lat":-79.0,"lon":-60.25,"mslp":997.7,"hvtl":-265.0,"hvtu":-124.9,"hb":70.2,"idx":-2.8,"cls":4,"psfc":989.3,"terrain":false,"radius_km":200,"name":"asym cold"},"geometry":{"type":"Point","coordinates":[-60.25,-79.0]}},{"type":"Feature","properties":{"kind":"center","id":29,"lat":63.5,"lon":-35.75,"mslp":997.9,"hvtl":5.5,"hvtu":-63.1,"hb":13.5,"idx":-0.4,"cls":3,"psfc":997.9,"terrain":false,"radius_km":200,"name":"asym shallow warm","track":"T78"},"geometry":{"type":"Point","coordinates":[-35.75,63.5]}},{"type":"Feature","properties":{"kind":"center","id":30,"lat":-38.25,"lon":-89.5,"mslp":998.2,"hvtl":76.8,"hvtu":-165.9,"hb":-7.6,"idx":0.4,"cls":1,"psfc":998.2,"terrain":false,"radius_km":200,"name":"sym shallow warm","track":"T92"},"geometry":{"type":"Point","coordinates":[-89.5,-38.25]}},{"type":"Feature","properties":{"kind":"center","id":31,"lat":-52.0,"lon":-59.5,"mslp":998.6,"hvtl":-45.7,"hvtu":28.5,"hb":20.3,"idx":-0.6,"cls":6,"psfc":994.9,"terrain":false,"radius_km":200,"name":"shallow cold","track":"T86"},"geometry":{"type":"Point","coordinates":[-59.5,-52.0]}},{"type":"Feature","properties":{"kind":"center","id":32,"lat":42.5,"lon":131.25,"mslp":1000.5,"hvtl":-5.4,"hvtu":-372.7,"hb":53.7,"idx":-1.1,"cls":4,"psfc":1000.3,"terrain":false,"radius_km":200,"name":"asym cold","track":"T26"},"geometry":{"type":"Point","coordinates":[131.25,42.5]}},{"type":"Feature","properties":{"kind":"center","id":33,"lat":74.5,"lon":-58.0,"mslp":1001.6,"hvtl":-65.8,"hvtu":-37.0,"hb":51.0,"idx":-1.5,"cls":4,"psfc":1001.6,"terrain":false,"radius_km":200,"name":"asym cold","track":"T75"},"geometry":{"type":"Point","coordinates":[-58.0,74.5]}},{"type":"Feature","properties":{"kind":"center","id":34,"lat":-19.0,"lon":-62.25,"mslp":1002.3,"hvtl":-93.5,"hvtu":-53.4,"hb":31.4,"idx":-2.0,"cls":4,"psfc":963.2,"terrain":false,"radius_km":200,"name":"asym cold","track":"T87"},"geometry":{"type":"Point","coordinates":[-62.25,-19.0]}},{"type":"Feature","properties":{"kind":"center","id":35,"lat":-54.75,"lon":-60.75,"mslp":1002.8,"hvtl":117.1,"hvtu":-16.4,"hb":-32.1,"idx":1.5,"cls":1,"psfc":1002.8,"terrain":false,"radius_km":200,"name":"sym shallow warm"},"geometry":{"type":"Point","coordinates":[-60.75,-54.75]}},{"type":"Feature","properties":{"kind":"center","id":36,"lat":-14.25,"lon":-67.25,"mslp":1004.3,"hvtl":-61.4,"hvtu":-136.1,"hb":1.2,"idx":-2.0,"cls":5,"psfc":983.6,"terrain":false,"radius_km":200,"name":"sym cold"},"geometry":{"type":"Point","coordinates":[-67.25,-14.25]}},{"type":"Feature","properties":{"kind":"center","id":37,"lat":-23.25,"lon":-64.0,"mslp":1006.4,"hvtl":-178.1,"hvtu":-61.6,"hb":50.7,"idx":-2.4,"cls":4,"psfc":973.1,"terrain":false,"radius_km":200,"name":"asym cold","track":"T98"},"geometry":{"type":"Point","coordinates":[-64.0,-23.25]}},{"type":"Feature","properties":{"kind":"center","id":38,"lat":-9.5,"lon":-74.0,"mslp":1006.5,"hvtl":54.7,"hvtu":-21.9,"hb":-2.9,"idx":0.8,"cls":1,"psfc":984.6,"terrain":false,"radius_km":200,"name":"sym shallow warm"},"geometry":{"type":"Point","coordinates":[-74.0,-9.5]}},{"type":"Feature","properties":{"kind":"center","id":39,"lat":31.0,"lon":72.25,"mslp":1006.8,"hvtl":-10.8,"hvtu":-83.4,"hb":12.6,"idx":-0.9,"cls":4,"psfc":989.9,"terrain":false,"radius_km":200,"name":"asym cold","track":"T105"},"geometry":{"type":"Point","coordinates":[72.25,31.0]}},{"type":"Feature","properties":{"kind":"center","id":40,"lat":50.75,"lon":-112.25,"mslp":1006.8,"hvtl":-181.5,"hvtu":-68.3,"hb":45.1,"idx":-2.5,"cls":4,"psfc":919.2,"terrain":false,"radius_km":200,"name":"asym cold"},"geometry":{"type":"Point","coordinates":[-112.25,50.75]}},{"type":"Feature","properties":{"kind":"center","id":41,"lat":-28.5,"lon":-66.5,"mslp":1008.4,"hvtl":-50.3,"hvtu":-275.3,"hb":34.1,"idx":-1.9,"cls":4,"psfc":925.5,"terrain":false,"radius_km":200,"name":"asym cold","track":"T93"},"geometry":{"type":"Point","coordinates":[-66.5,-28.5]}},{"type":"Feature","properties":{"kind":"center","id":42,"lat":32.0,"lon":-115.0,"mslp":1008.9,"hvtl":-24.4,"hvtu":-93.3,"hb":1.8,"idx":-1.2,"cls":5,"psfc":1008.3,"terrain":false,"radius_km":200,"name":"sym cold"},"geometry":{"type":"Point","coordinates":[-115.0,32.0]}},{"type":"Feature","properties":{"kind":"center","id":43,"lat":-26.25,"lon":-65.25,"mslp":1009.1,"hvtl":-67.1,"hvtu":-211.3,"hb":44.2,"idx":-2.1,"cls":4,"psfc":914.1,"terrain":true,"radius_km":200,"name":"asym cold"},"geometry":{"type":"Point","coordinates":[-65.25,-26.25]}},{"type":"Feature","properties":{"kind":"center","id":44,"lat":-11.75,"lon":-74.0,"mslp":1009.8,"hvtl":71.4,"hvtu":-68.4,"hb":-3.1,"idx":0.6,"cls":1,"psfc":935.5,"terrain":false,"radius_km":200,"name":"sym shallow warm"},"geometry":{"type":"Point","coordinates":[-74.0,-11.75]}},{"type":"Feature","properties":{"kind":"center","id":45,"lat":30.75,"lon":-86.75,"mslp":1010.1,"hvtl":43.3,"hvtu":-134.7,"hb":17.4,"idx":-0.1,"cls":3,"psfc":1004.4,"terrain":false,"radius_km":200,"name":"asym shallow warm"},"geometry":{"type":"Point","coordinates":[-86.75,30.75]}},{"type":"Feature","properties":{"kind":"center","id":46,"lat":-11.25,"lon":-74.25,"mslp":1010.5,"hvtl":54.7,"hvtu":-57.8,"hb":-4.1,"idx":0.5,"cls":1,"psfc":903.4,"terrain":true,"radius_km":200,"name":"sym shallow warm"},"geometry":{"type":"Point","coordinates":[-74.25,-11.25]}},{"type":"Feature","properties":{"kind":"center","id":47,"lat":29.5,"lon":50.75,"mslp":1011.3,"hvtl":36.6,"hvtu":-116.8,"hb":11.2,"idx":-0.1,"cls":3,"psfc":1008.9,"terrain":false,"radius_km":200,"name":"asym shallow warm"},"geometry":{"type":"Point","coordinates":[50.75,29.5]}},{"type":"Feature","properties":{"kind":"center","id":48,"lat":32.25,"lon":62.0,"mslp":1015.3,"hvtl":225.6,"hvtu":-125.5,"hb":92.8,"idx":1.1,"cls":3,"psfc":943.6,"terrain":false,"radius_km":200,"name":"asym shallow warm","track":"T125"},"geometry":{"type":"Point","coordinates":[62.0,32.25]}},{"type":"Feature","properties":{"kind":"center","id":49,"lat":31.0,"lon":61.75,"mslp":1016.2,"hvtl":193.4,"hvtu":-92.6,"hb":37.5,"idx":1.2,"cls":3,"psfc":960.4,"terrain":false,"radius_km":200,"name":"asym shallow warm","track":"T126"},"geometry":{"type":"Point","coordinates":[61.75,31.0]}},{"type":"Feature","properties":{"kind":"center","id":50,"lat":30.0,"lon":63.0,"mslp":1016.3,"hvtl":156.9,"hvtu":-76.7,"hb":13.8,"idx":1.2,"cls":3,"psfc":943.3,"terrain":false,"radius_km":200,"name":"asym shallow warm","track":"T109"},"geometry":{"type":"Point","coordinates":[63.0,30.0]}},{"type":"Feature","properties":{"kind":"center","id":51,"lat":-42.25,"lon":173.25,"mslp":1023.1,"hvtl":11.6,"hvtu":-23.0,"hb":-2.6,"idx":0.0,"cls":1,"psfc":902.2,"terrain":true,"radius_km":200,"name":"sym shallow warm"},"geometry":{"type":"Point","coordinates":[173.25,-42.25]}}]}