{"type":"FeatureCollection","features":[{"type":"Feature","properties":{"kind":"blob","cls":4,"id":1},"geometry":{"type":"Polygon","coordinates":[[[-125.25,-67.12],[-122.5,-66.38],[-120.12,-64.0],[-120.38,-63.0],[-121.5,-62.12],[-123.5,-61.62],[-125.75,-61.62],[-128.25,-62.38],[-129.88,-63.75],[-130.38,-65.25],[-129.0,-66.62],[-125.25,-67.12]]]}},{"type":"Feature","properties":{"kind":"blob","cls":3,"id":2},"geometry":{"type":"Polygon","coordinates":[[[-1.0,-60.62],[1.5,-59.62],[2.12,-59.0],[2.12,-56.75],[1.12,-55.0],[-0.25,-53.62],[-2.25,-52.88],[-3.75,-52.88],[-6.12,-54.0],[-6.38,-55.5],[-7.12,-56.75],[-6.38,-58.5],[-5.5,-59.38],[-3.5,-60.38],[-1.0,-60.62]]]}},{"type":"Feature","properties":{"kind":"blob","cls":4,"id":3},"geometry":{"type":"Polygon","coordinates":[[[-134.0,-73.12],[-131.0,-72.62],[-129.0,-71.88],[-128.38,-71.0],[-129.5,-69.62],[-131.0,-69.12],[-136.5,-68.62],[-141.0,-69.62],[-142.38,-71.0],[-141.75,-71.88],[-140.0,-72.62],[-134.0,-73.12]]]}},{"type":"Feature","properties":{"kind":"blob","cls":4,"id":4},"geometry":{"type":"Polygon","coordinates":[[[-148.5,-62.88],[-146.25,-62.38],[-144.62,-61.25],[-144.62,-60.25],[-146.25,-59.12],[-147.5,-58.88],[-154.0,-58.88],[-155.25,-59.12],[-156.88,-60.25],[-156.88,-61.25],[-156.25,-61.88],[-154.5,-62.62],[-148.5,-62.88]]]}},{"type":"Feature","properties":{"kind":"blob","cls":0,"id":5},"geometry":{"type":"Polygon","coordinates":[[[148.0,21.12],[148.88,22.0],[148.88,23.5],[148.0,24.38],[146.5,24.62],[144.88,23.5],[144.88,22.0],[145.75,21.12],[148.0,21.12]],[[146.25,22.38],[145.62,22.75],[146.0,23.38],[146.62,23.0],[146.25,22.38]]]}},{"type":"Feature","properties":{"kind":"blob","cls":4,"id":6},"geometry":{"type":"Polygon","coordinates":[[[179.88,-81.75],[179.75,-80.12],[175.75,-79.38],[170.25,-78.88],[163.0,-78.88],[162.38,-79.25],[166.5,-81.12],[172.75,-82.38],[175.75,-82.62],[179.88,-81.75]]]}},{"type":"Feature","properties":{"kind":"blob","cls":4,"id":6},"geometry":{"type":"Polygon","coordinates":[[[-179.75,-80.38],[-180.0,-81.62],[-179.5,-81.62],[-179.12,-80.75],[-179.75,-80.38]]]}},{"type":"Feature","properties":{"kind":"blob","cls":4,"id":7},"geometry":{"type":"Polygon","coordinates":[[[136.5,-65.62],[138.38,-64.25],[138.38,-63.5],[137.0,-62.12],[134.0,-61.38],[130.5,-61.62],[128.12,-63.0],[127.88,-63.5],[129.0,-64.88],[131.0,-65.62],[136.5,-65.62]]]}},{"type":"Feature","properties":{"kind":"blob","cls":4,"id":8},"geometry":{"type":"Polygon","coordinates":[[[107.25,-65.62],[109.12,-64.25],[108.75,-63.88],[104.38,-63.0],[104.75,-62.38],[107.88,-62.25],[107.0,-61.88],[102.0,-61.88],[100.75,-62.38],[99.62,-63.5],[99.62,-64.25],[101.5,-65.62],[107.25,-65.62]]]}},{"type":"Feature","properties":{"kind":"blob","cls":4,"id":9},"geometry":{"type":"Polygon","coordinates":[[[111.75,-53.38],[113.38,-52.0],[113.38,-50.75],[112.5,-49.88],[111.0,-49.38],[108.75,-49.38],[107.0,-49.88],[105.62,-51.0],[105.62,-52.0],[106.75,-53.12],[111.75,-53.38]]]}},{"type":"Feature","properties":{"kind":"blob","cls":4,"id":10},"geometry":{"type":"MultiPolygon","coordinates":[[[[176.5,-74.12],[178.5,-73.38],[179.12,-72.75],[179.12,-72.0],[177.25,-70.88],[171.0,-69.88],[167.25,-69.88],[164.38,-70.5],[170.5,-71.62],[169.88,-72.25],[170.38,-72.5],[169.5,-73.12],[168.5,-72.88],[166.88,-73.25],[169.0,-74.12],[176.5,-74.12]],[[169.88,-73.5],[169.75,-73.62],[169.62,-73.5],[169.88,-73.5]]],[[[163.75,-70.62],[163.75,-71.12],[164.62,-71.0],[164.25,-70.62],[163.75,-70.62]]]]}},{"type":"Feature","properties":{"kind":"blob","cls":5,"id":11},"geometry":{"type":"Polygon","coordinates":[[[-15.75,-71.12],[-13.25,-70.62],[-11.25,-69.62],[-10.12,-68.5],[-9.88,-67.0],[-12.0,-65.88],[-15.75,-65.62],[-18.0,-66.12],[-19.5,-67.12],[-21.25,-67.38],[-23.38,-69.0],[-22.75,-70.12],[-21.75,-70.62],[-15.75,-71.12]],[[-16.25,-69.12],[-16.88,-68.5],[-16.25,-67.88],[-14.5,-67.12],[-13.62,-67.5],[-13.62,-68.0],[-14.75,-68.88],[-16.25,-69.12]]]}},{"type":"Feature","properties":{"kind":"blob","cls":4,"id":12},"geometry":{"type":"Polygon","coordinates":[[[101.0,-57.38],[102.38,-56.25],[102.38,-55.25],[101.25,-54.12],[99.5,-53.62],[96.75,-54.12],[95.62,-55.25],[95.62,-56.25],[97.0,-57.38],[101.0,-57.38]]]}},{"type":"Feature","properties":{"kind":"blob","cls":0,"id":13},"geometry":{"type":"Polygon","coordinates":[[[-174.75,21.62],[-173.88,22.5],[-173.88,24.0],[-175.5,25.12],[-176.75,24.88],[-177.62,24.0],[-177.62,22.5],[-176.75,21.62],[-174.75,21.62]]]}},{"type":"Feature","properties":{"kind":"blob","cls":5,"id":14},"geometry":{"type":"Polygon","coordinates":[[[-175.0,51.88],[-173.0,52.62],[-172.38,53.5],[-172.62,54.75],[-175.0,55.88],[-176.75,55.88],[-178.75,55.12],[-179.38,54.25],[-179.12,53.25],[-177.5,52.12],[-175.0,51.88]]]}},{"type":"Feature","properties":{"kind":"blob","cls":4,"id":15},"geometry":{"type":"Polygon","coordinates":[[[76.75,-68.62],[78.25,-68.88],[79.75,-68.12],[86.38,-67.25],[85.25,-66.62],[76.75,-68.62]]]}},{"type":"Feature","properties":{"kind":"blob","cls":0,"id":16},"geometry":{"type":"Polygon","coordinates":[[[-113.38,18.5],[-113.25,18.12],[-112.5,18.12],[-111.12,19.0],[-110.88,20.5],[-111.75,21.62],[-113.25,21.88],[-114.62,21.0],[-114.75,19.38],[-113.5,20.12],[-112.38,19.75],[-112.38,19.25],[-113.38,18.5]]]}},{"type":"Feature","properties":{"kind":"blob","cls":1,"id":17},"geometry":{"type":"Polygon","coordinates":[[[78.62,-66.5],[78.75,-66.62],[78.88,-66.5],[78.62,-66.5]]]}},{"type":"Feature","properties":{"kind":"blob","cls":1,"id":18},"geometry":{"type":"Polygon","coordinates":[[[80.12,-66.25],[80.25,-66.38],[80.38,-66.25],[80.12,-66.25]]]}},{"type":"Feature","properties":{"kind":"blob","cls":3,"id":19},"geometry":{"type":"Polygon","coordinates":[[[-14.5,65.12],[-9.0,65.12],[-7.75,65.62],[-6.62,66.75],[-6.62,67.25],[-7.25,68.38],[-9.25,69.38],[-11.5,69.88],[-14.75,69.88],[-14.88,68.75],[-15.75,68.12],[-19.88,67.5],[-19.88,67.0],[-18.25,65.62],[-14.5,65.12]]]}},{"type":"Feature","properties":{"kind":"blob","cls":6,"id":20},"geometry":{"type":"Polygon","coordinates":[[[59.0,-63.12],[62.0,-63.12],[63.62,-62.0],[63.62,-61.0],[62.38,-60.0],[64.75,-59.12],[65.38,-58.5],[65.62,-57.5],[64.75,-56.38],[62.0,-55.38],[60.0,-55.38],[57.62,-56.5],[57.62,-58.5],[59.12,-59.75],[57.0,-60.38],[56.12,-61.5],[57.0,-62.62],[59.0,-63.12]]]}},{"type":"Feature","properties":{"kind":"blob","cls":4,"id":21},"geometry":{"type":"Polygon","coordinates":[[[63.75,-67.88],[63.88,-67.0],[61.75,-65.88],[58.0,-65.62],[55.5,-64.88],[51.25,-65.12],[50.0,-65.62],[49.12,-66.5],[49.5,-67.38],[51.25,-67.38],[51.62,-67.0],[51.12,-66.75],[51.25,-66.38],[55.25,-66.12],[55.88,-66.5],[56.0,-67.12],[63.75,-67.88]]]}},{"type":"Feature","properties":{"kind":"blob","cls":5,"id":22},"geometry":{"type":"Polygon","coordinates":[[[116.5,68.38],[119.25,68.88],[120.75,69.62],[121.38,70.5],[120.25,71.88],[116.75,72.62],[112.0,72.38],[110.25,71.88],[109.38,71.0],[109.38,70.5],[110.25,69.62],[111.75,68.88],[116.5,68.38]]]}},{"type":"Feature","properties":{"kind":"blob","cls":4,"id":23},"geometry":{"type":"Polygon","coordinates":[[[20.0,-70.38],[26.25,-70.62],[27.12,-70.25],[21.75,-70.12],[20.0,-70.38]]]}},{"type":"Feature","properties":{"kind":"blob","cls":5,"id":24},"geometry":{"type":"Polygon","coordinates":[[[19.0,-70.88],[19.38,-70.75],[19.25,-70.62],[19.0,-70.88]]]}},{"type":"Feature","properties":{"kind":"blob","cls":4,"id":25},"geometry":{"type":"Polygon","coordinates":[[[-101.75,-53.12],[-100.25,-52.62],[-98.88,-51.0],[-99.12,-50.0],[-100.0,-49.12],[-101.5,-48.62],[-102.75,-48.62],[-104.75,-49.38],[-105.62,-50.5],[-105.62,-51.75],[-104.75,-52.62],[-101.75,-53.12]]]}},{"type":"Feature","properties":{"kind":"blob","cls":4,"id":26},"geometry":{"type":"Polygon","coordinates":[[[32.0,-70.12],[32.38,-70.0],[32.25,-69.88],[32.0,-70.12]]]}},{"type":"Feature","properties":{"kind":"blob","cls":4,"id":27},"geometry":{"type":"Polygon","coordinates":[[[33.62,-69.75],[33.75,-69.88],[33.88,-69.75],[33.62,-69.75]]]}},{"type":"Feature","properties":{"kind":"blob","cls":3,"id":28},"geometry":{"type":"Polygon","coordinates":[[[-54.5,65.88],[-52.38,67.0],[-52.38,68.25],[-54.5,69.38],[-59.5,69.62],[-61.75,69.12],[-63.12,68.25],[-63.12,67.0],[-62.75,66.62],[-61.0,65.88],[-54.5,65.88]]]}},{"type":"Feature","properties":{"kind":"blob","cls":4,"id":29},"geometry":{"type":"Polygon","coordinates":[[[-150.0,54.62],[-146.5,55.62],[-145.12,57.0],[-145.38,58.5],[-146.0,59.12],[-148.5,60.12],[-149.75,60.12],[-150.5,59.62],[-150.5,60.12],[-152.0,60.12],[-154.0,59.38],[-154.62,58.75],[-154.38,56.25],[-153.25,55.12],[-150.0,54.62]]]}},{"type":"Feature","properties":{"kind":"blob","cls":1,"id":30},"geometry":{"type":"Polygon","coordinates":[[[-39.5,58.62],[-36.75,59.62],[-35.88,60.5],[-35.88,61.75],[-36.62,62.5],[-33.0,63.88],[-32.38,65.0],[-32.62,65.75],[-33.75,66.62],[-36.0,66.38],[-41.75,63.88],[-42.5,62.88],[-43.0,62.88],[-42.88,61.75],[-43.62,61.0],[-43.75,60.12],[-45.38,61.25],[-45.38,60.25],[-44.5,59.38],[-39.5,58.62]]]}},{"type":"Feature","properties":{"kind":"blob","cls":4,"id":31},"geometry":{"type":"Polygon","coordinates":[[[23.25,72.12],[27.25,73.38],[27.88,74.5],[27.25,75.12],[24.75,75.88],[18.0,76.12],[13.0,75.12],[11.62,74.0],[13.25,72.62],[15.0,72.12],[23.25,72.12]]]}},{"type":"Feature","properties":{"kind":"blob","cls":4,"id":32},"geometry":{"type":"Polygon","coordinates":[[[-60.5,-81.62],[-49.12,-81.5],[-51.5,-81.12],[-60.5,-81.62]]]}},{"type":"Feature","properties":{"kind":"blob","cls":4,"id":33},"geometry":{"type":"Polygon","coordinates":[[[-34.25,53.88],[-32.25,54.38],[-30.62,55.75],[-30.62,56.75],[-31.5,57.62],[-33.25,58.12],[-37.0,57.88],[-38.88,56.25],[-38.88,55.25],[-37.5,54.12],[-34.25,53.88]]]}},{"type":"Feature","properties":{"kind":"blob","cls":1,"id":34},"geometry":{"type":"Polygon","coordinates":[[[-61.25,-52.38],[-59.5,-51.88],[-58.0,-50.88],[-57.12,-49.5],[-57.88,-48.0],[-58.75,-47.38],[-61.25,-47.12],[-63.5,-48.12],[-65.12,-49.75],[-65.38,-50.75],[-64.5,-51.88],[-61.25,-52.38]]]}},{"type":"Feature","properties":{"kind":"blob","cls":4,"id":35},"geometry":{"type":"Polygon","coordinates":[[[-54.25,71.88],[-53.88,72.5],[-58.5,74.62],[-60.25,76.12],[-60.62,75.75],[-60.12,73.5],[-59.5,72.88],[-57.25,72.12],[-54.25,71.88]]]}},{"type":"Feature","properties":{"kind":"blob","cls":4,"id":36},"geometry":{"type":"Polygon","coordinates":[[[147.5,74.62],[149.75,75.12],[151.12,76.25],[150.75,76.88],[148.5,77.88],[143.0,78.62],[135.5,78.38],[133.25,77.88],[131.88,77.0],[132.25,76.12],[133.25,75.62],[138.25,74.62],[147.5,74.62]]]}},{"type":"Feature","properties":{"kind":"blob","cls":4,"id":37},"geometry":{"type":"Polygon","coordinates":[[[-60.75,-23.12],[-59.5,-22.62],[-58.62,-21.5],[-58.62,-20.25],[-59.5,-19.12],[-60.38,-18.75],[-61.5,-17.12],[-63.0,-16.88],[-64.12,-17.5],[-63.38,-18.25],[-63.88,-19.0],[-63.12,-19.5],[-63.38,-20.75],[-63.88,-21.25],[-62.5,-22.88],[-60.75,-23.12]]]}},{"type":"Feature","properties":{"kind":"blob","cls":4,"id":38},"geometry":{"type":"Polygon","coordinates":[[[69.5,53.38],[71.25,53.88],[72.12,54.75],[72.12,56.0],[70.0,57.88],[67.75,58.12],[66.0,57.62],[65.12,56.75],[65.12,55.25],[66.5,53.88],[69.5,53.38]]]}},{"type":"Feature","properties":{"kind":"blob","cls":4,"id":39},"geometry":{"type":"Polygon","coordinates":[[[-49.5,-34.62],[-47.88,-33.75],[-47.62,-32.25],[-48.25,-31.38],[-50.5,-30.62],[-52.12,-31.5],[-52.38,-33.25],[-51.75,-34.12],[-49.5,-34.62]]]}},{"type":"Feature","properties":{"kind":"blob","cls":4,"id":40},"geometry":{"type":"Polygon","coordinates":[[[-95.0,-37.12],[-93.12,-36.0],[-92.88,-34.5],[-93.5,-33.62],[-96.0,-33.12],[-97.62,-34.0],[-97.62,-36.0],[-97.0,-36.62],[-95.0,-37.12]]]}},{"type":"Feature","properties":{"kind":"blob","cls":4,"id":41},"geometry":{"type":"Polygon","coordinates":[[[-67.5,-33.38],[-65.75,-33.38],[-66.38,-33.0],[-66.0,-32.38],[-65.5,-33.12],[-65.12,-33.0],[-65.38,-31.25],[-64.88,-30.75],[-65.62,-30.25],[-64.38,-28.75],[-64.38,-27.5],[-65.25,-26.38],[-65.88,-27.25],[-65.5,-28.62],[-65.75,-28.38],[-66.25,-28.88],[-66.12,-28.0],[-66.5,-27.62],[-66.88,-28.0],[-66.62,-29.0],[-67.38,-29.75],[-67.38,-31.25],[-68.0,-31.62],[-68.12,-31.25],[-67.62,-31.0],[-67.88,-30.5],[-68.62,-30.5],[-68.88,-32.75],[-67.5,-33.38]],[[-66.62,-31.0],[-66.5,-30.62],[-66.38,-30.75],[-66.62,-31.0]]]}},{"type":"Feature","properties":{"kind":"blob","cls":4,"id":42},"geometry":{"type":"Polygon","coordinates":[[[57.75,55.38],[60.0,56.38],[60.62,57.25],[60.38,58.25],[58.0,59.38],[55.75,59.38],[53.25,58.38],[52.62,57.5],[52.62,56.75],[53.75,55.62],[57.75,55.38]]]}},{"type":"Feature","properties":{"kind":"blob","cls":3,"id":43},"geometry":{"type":"Polygon","coordinates":[[[72.75,29.62],[74.0,30.12],[74.62,31.0],[74.62,32.0],[74.25,32.38],[72.25,32.38],[70.5,31.88],[70.62,30.5],[72.75,29.62]]]}},{"type":"Feature","properties":{"kind":"blob","cls":4,"id":44},"geometry":{"type":"Polygon","coordinates":[[[-86.5,47.62],[-84.25,48.62],[-83.62,49.5],[-83.88,50.75],[-84.75,51.62],[-86.75,52.38],[-88.75,52.12],[-90.25,51.38],[-91.12,50.25],[-90.88,49.25],[-89.25,48.12],[-86.5,47.62]]]}},{"type":"Feature","properties":{"kind":"blob","cls":5,"id":45},"geometry":{"type":"Polygon","coordinates":[[[-148.75,74.12],[-145.75,75.12],[-145.38,76.25],[-146.75,77.38],[-151.5,78.12],[-159.25,77.88],[-162.62,76.75],[-155.5,76.88],[-153.62,76.0],[-154.75,75.38],[-160.0,75.12],[-160.62,74.75],[-158.5,74.12],[-148.75,74.12]]]}},{"type":"Feature","properties":{"kind":"blob","cls":4,"id":46},"geometry":{"type":"Polygon","coordinates":[[[-121.0,36.62],[-119.88,37.25],[-120.88,39.25],[-121.88,40.25],[-122.0,41.12],[-123.62,40.75],[-122.88,40.5],[-122.75,39.38],[-123.75,40.62],[-124.38,39.75],[-124.12,38.0],[-123.0,36.88],[-121.0,36.62]]]}},{"type":"Feature","properties":{"kind":"blob","cls":3,"id":47},"geometry":{"type":"Polygon","coordinates":[[[123.5,37.88],[124.75,38.38],[125.88,39.5],[125.88,40.5],[124.75,41.62],[123.0,42.38],[120.75,42.12],[119.62,41.0],[119.62,39.75],[120.75,38.62],[123.5,37.88]]]}},{"type":"Feature","properties":{"kind":"blob","cls":4,"id":48},"geometry":{"type":"Polygon","coordinates":[[[71.75,42.88],[75.0,42.88],[74.38,43.5],[74.75,43.88],[75.0,43.38],[76.25,43.12],[77.5,43.38],[77.88,44.25],[77.0,45.62],[74.75,46.12],[72.25,44.62],[71.75,42.88]]]}},{"type":"Feature","properties":{"kind":"blob","cls":3,"id":49},"geometry":{"type":"Polygon","coordinates":[[[63.12,30.0],[61.88,30.75],[61.5,31.62],[60.75,31.88],[60.88,30.75],[63.12,30.0]]]}},{"type":"Feature","properties":{"kind":"blob","cls":3,"id":50},"geometry":{"type":"Polygon","coordinates":[[[61.0,32.38],[62.0,32.12],[62.12,32.75],[61.25,33.12],[61.0,32.38]]]}},{"type":"Feature","properties":{"kind":"blob","cls":3,"id":51},"geometry":{"type":"Polygon","coordinates":[[[154.75,-40.88],[156.12,-39.5],[156.38,-38.25],[155.25,-36.88],[152.75,-36.62],[151.12,-37.75],[150.62,-39.5],[151.75,-40.88],[154.75,-40.88]]]}},{"type":"Feature","properties":{"kind":"blob","cls":4,"id":52},"geometry":{"type":"Polygon","coordinates":[[[64.25,35.88],[65.0,35.88],[68.38,38.5],[68.0,38.62],[66.5,37.62],[66.38,38.25],[67.0,39.12],[65.75,39.12],[64.75,38.62],[63.88,37.25],[64.25,35.88]]]}},{"type":"Feature","properties":{"kind":"blob","cls":3,"id":53},"geometry":{"type":"Polygon","coordinates":[[[153.75,-47.62],[155.12,-46.25],[154.88,-44.25],[154.0,-43.38],[152.25,-42.62],[150.0,-43.12],[148.88,-44.5],[149.38,-46.25],[150.5,-47.38],[153.75,-47.62]]]}},{"type":"Feature","properties":{"kind":"blob","cls":4,"id":54},"geometry":{"type":"MultiPolygon","coordinates":[[[[69.5,39.88],[70.88,40.75],[69.75,40.38],[69.88,41.0],[69.5,41.12],[69.5,39.88]]],[[[71.0,41.12],[70.88,41.0],[71.0,40.88],[71.0,41.12]]]]}},{"type":"Feature","properties":{"kind":"blob","cls":4,"id":55},"geometry":{"type":"Polygon","coordinates":[[[57.75,33.88],[58.0,34.62],[58.75,34.38],[58.88,35.0],[58.0,35.38],[57.0,35.12],[56.62,35.5],[57.38,36.0],[56.62,36.5],[56.88,37.0],[56.5,37.12],[55.75,35.62],[54.62,35.25],[57.75,33.88]],[[57.25,34.62],[57.12,34.75],[57.25,34.88],[57.25,34.62]]]}},{"type":"Feature","properties":{"kind":"blob","cls":3,"id":56},"geometry":{"type":"Polygon","coordinates":[[[67.25,-30.88],[68.75,-30.62],[69.88,-29.25],[69.62,-28.0],[67.75,-26.62],[66.25,-26.88],[65.12,-28.25],[65.38,-29.75],[65.75,-30.12],[66.5,-29.88],[67.25,-30.88]]]}},{"type":"Feature","properties":{"kind":"blob","cls":4,"id":57},"geometry":{"type":"Polygon","coordinates":[[[54.5,35.88],[54.88,36.0],[54.75,36.12],[54.5,35.88]]]}},{"type":"Feature","properties":{"kind":"blob","cls":4,"id":58},"geometry":{"type":"MultiPolygon","coordinates":[[[[54.62,37.0],[55.38,37.0],[55.25,37.12],[54.62,37.0]]],[[[55.5,37.38],[55.38,37.25],[55.5,37.12],[55.5,37.38]]]]}},{"type":"Feature","properties":{"kind":"blob","cls":4,"id":59},"geometry":{"type":"MultiPolygon","coordinates":[[[[53.0,36.38],[52.88,36.25],[53.25,36.12],[53.0,36.38]]],[[[53.5,36.62],[53.38,36.5],[53.5,36.38],[53.5,36.62]]]]}},{"type":"Feature","properties":{"kind":"blob","cls":4,"id":60},"geometry":{"type":"Polygon","coordinates":[[[54.0,36.62],[54.38,36.75],[54.25,36.88],[54.0,36.62]]]}},{"type":"Feature","properties":{"kind":"center","id":1,"lat":-63.75,"lon":-124.75,"mslp":938.7,"hvtl":-33.0,"hvtu":-74.7,"hb":68.0,"idx":-1.3,"cls":4,"psfc":938.7,"terrain":false,"radius_km":200,"name":"asym cold","track":"T05"},"geometry":{"type":"Point","coordinates":[-124.75,-63.75]}},{"type":"Feature","properties":{"kind":"center","id":2,"lat":-57.0,"lon":-2.75,"mslp":945.5,"hvtl":187.1,"hvtu":-35.4,"hb":75.7,"idx":1.6,"cls":3,"psfc":945.5,"terrain":false,"radius_km":200,"name":"asym shallow warm","track":"T04"},"geometry":{"type":"Point","coordinates":[-2.75,-57.0]}},{"type":"Feature","properties":{"kind":"center","id":3,"lat":-70.75,"lon":-135.5,"mslp":946.6,"hvtl":-28.0,"hvtu":-56.9,"hb":48.8,"idx":-1.1,"cls":4,"psfc":946.6,"terrain":false,"radius_km":200,"name":"asym cold","track":"T09"},"geometry":{"type":"Point","coordinates":[-135.5,-70.75]}},{"type":"Feature","properties":{"kind":"center","id":4,"lat":-61.0,"lon":-151.0,"mslp":947.3,"hvtl":-3.2,"hvtu":-84.2,"hb":46.0,"idx":-0.8,"cls":4,"psfc":947.3,"terrain":false,"radius_km":200,"name":"asym cold","track":"T10"},"geometry":{"type":"Point","coordinates":[-151.0,-61.0]}},{"type":"Feature","properties":{"kind":"center","id":5,"lat":22.75,"lon":147.0,"mslp":952.4,"hvtl":136.0,"hvtu":191.2,"hb":-1.0,"idx":2.7,"cls":0,"psfc":952.4,"terrain":false,"radius_km":200,"name":"sym deep warm","track":"T07"},"geometry":{"type":"Point","coordinates":[147.0,22.75]}},{"type":"Feature","properties":{"kind":"center","id":6,"lat":-81.0,"lon":167.25,"mslp":954.1,"hvtl":-217.5,"hvtu":-10.5,"hb":55.7,"idx":-2.1,"cls":4,"psfc":948.0,"terrain":false,"radius_km":200,"name":"asym cold","track":"T13"},"geometry":{"type":"Point","coordinates":[167.25,-81.0]}},{"type":"Feature","properties":{"kind":"center","id":7,"lat":-63.5,"lon":132.5,"mslp":960.5,"hvtl":-97.7,"hvtu":-353.0,"hb":51.3,"idx":-2.5,"cls":4,"psfc":960.5,"terrain":false,"radius_km":200,"name":"asym cold","track":"T27"},"geometry":{"type":"Point","coordinates":[132.5,-63.5]}},{"type":"Feature","properties":{"kind":"center","id":8,"lat":-63.75,"lon":104.25,"mslp":961.3,"hvtl":-14.1,"hvtu":-46.0,"hb":18.5,"idx":-0.7,"cls":4,"psfc":961.3,"terrain":false,"radius_km":200,"name":"asym cold","track":"T21"},"geometry":{"type":"Point","coordinates":[104.25,-63.75]}},{"type":"Feature","properties":{"kind":"center","id":9,"lat":-51.5,"lon":109.5,"mslp":963.0,"hvtl":-126.1,"hvtu":-250.0,"hb":40.4,"idx":-2.7,"cls":4,"psfc":963.0,"terrain":false,"radius_km":200,"name":"asym cold"},"geometry":{"type":"Point","coordinates":[109.5,-51.5]}},{"type":"Feature","properties":{"kind":"center","id":10,"lat":-72.5,"lon":173.0,"mslp":964.3,"hvtl":-32.9,"hvtu":-22.6,"hb":22.6,"idx":-0.9,"cls":4,"psfc":964.3,"terrain":false,"radius_km":200,"name":"asym cold","track":"T29"},"geometry":{"type":"Point","coordinates":[173.0,-72.5]}},{"type":"Feature","properties":{"kind":"center","id":11,"lat":-68.75,"lon":-17.25,"mslp":967.7,"hvtl":-101.6,"hvtu":-40.2,"hb":-34.8,"idx":-1.9,"cls":5,"psfc":967.7,"terrain":false,"radius_km":200,"name":"sym cold"},"geometry":{"type":"Point","coordinates":[-17.25,-68.75]}},{"type":"Feature","properties":{"kind":"center","id":12,"lat":-55.75,"lon":99.25,"mslp":968.8,"hvtl":-295.8,"hvtu":-203.2,"hb":67.3,"idx":-3.0,"cls":4,"psfc":968.8,"terrain":false,"radius_km":200,"name":"asym cold"},"geometry":{"type":"Point","coordinates":[99.25,-55.75]}},{"type":"Feature","properties":{"kind":"center","id":13,"lat":23.25,"lon":-175.75,"mslp":969.8,"hvtl":87.0,"hvtu":330.1,"hb":-3.5,"idx":2.4,"cls":0,"psfc":969.8,"terrain":false,"radius_km":200,"name":"sym deep warm","track":"T40"},"geometry":{"type":"Point","coordinates":[-175.75,23.25]}},{"type":"Feature","properties":{"kind":"center","id":14,"lat":53.75,"lon":-175.75,"mslp":971.2,"hvtl":-3.9,"hvtu":-190.4,"hb":1.6,"idx":-1.0,"cls":5,"psfc":971.2,"terrain":false,"radius_km":200,"name":"sym cold","track":"T35"},"geometry":{"type":"Point","coordinates":[-175.75,53.75]}},{"type":"Feature","properties":{"kind":"center","id":15,"lat":-67.5,"lon":84.25,"mslp":974.2,"hvtl":-125.8,"hvtu":-53.6,"hb":17.6,"idx":-2.2,"cls":4,"psfc":906.5,"terrain":false,"radius_km":200,"name":"asym cold"},"geometry":{"type":"Point","coordinates":[84.25,-67.5]}},{"type":"Feature","properties":{"kind":"center","id":16,"lat":20.0,"lon":-112.75,"mslp":977.0,"hvtl":74.0,"hvtu":213.9,"hb":7.2,"idx":2.2,"cls":0,"psfc":977.0,"terrain":false,"radius_km":200,"name":"sym deep warm","track":"T48"},"geometry":{"type":"Point","coordinates":[-112.75,20.0]}},{"type":"Feature","properties":{"kind":"center","id":17,"lat":-66.5,"lon":78.75,"mslp":977.2,"hvtl":2.7,"hvtu":-103.7,"hb":-3.6,"idx":-0.7,"cls":1,"psfc":977.2,"terrain":false,"radius_km":200,"name":"sym shallow warm","track":"T52"},"geometry":{"type":"Point","coordinates":[78.75,-66.5]}},{"type":"Feature","properties":{"kind":"center","id":18,"lat":-66.25,"lon":80.25,"mslp":977.3,"hvtl":10.8,"hvtu":-117.6,"hb":-6.0,"idx":-0.6,"cls":1,"psfc":977.3,"terrain":false,"radius_km":200,"name":"sym shallow warm"},"geometry":{"type":"Point","coordinates":[80.25,-66.25]}},{"type":"Feature","properties":{"kind":"center","id":19,"lat":67.5,"lon":-13.75,"mslp":978.0,"hvtl":175.6,"hvtu":-116.5,"hb":29.6,"idx":1.1,"cls":3,"psfc":978.0,"terrain":false,"radius_km":200,"name":"asym shallow warm","track":"T41"},"geometry":{"type":"Point","coordinates":[-13.75,67.5]}},{"type":"Feature","properties":{"kind":"center","id":20,"lat":-61.5,"lon":60.0,"mslp":978.2,"hvtl":-212.4,"hvtu":5.5,"hb":49.6,"idx":-1.9,"cls":6,"psfc":978.2,"terrain":false,"radius_km":200,"name":"shallow cold","track":"T49"},"geometry":{"type":"Point","coordinates":[60.0,-61.5]}},{"type":"Feature","properties":{"kind":"center","id":21,"lat":-67.5,"lon":63.25,"mslp":981.6,"hvtl":-75.1,"hvtu":-94.8,"hb":15.6,"idx":-2.0,"cls":4,"psfc":967.1,"terrain":false,"radius_km":200,"name":"asym cold"},"geometry":{"type":"Point","coordinates":[63.25,-67.5]}},{"type":"Feature","properties":{"kind":"center","id":22,"lat":70.5,"lon":115.5,"mslp":984.6,"hvtl":-85.9,"hvtu":-1.4,"hb":-6.1,"idx":-1.4,"cls":5,"psfc":966.8,"terrain":false,"radius_km":200,"name":"sym cold","track":"T56"},"geometry":{"type":"Point","coordinates":[115.5,70.5]}},{"type":"Feature","properties":{"kind":"center","id":23,"lat":-70.5,"lon":20.0,"mslp":987.9,"hvtl":-48.4,"hvtu":-256.4,"hb":10.3,"idx":-1.9,"cls":4,"psfc":980.7,"terrain":false,"radius_km":200,"name":"asym cold"},"geometry":{"type":"Point","coordinates":[20.0,-70.5]}},{"type":"Feature","properties":{"kind":"center","id":24,"lat":-70.75,"lon":19.0,"mslp":987.9,"hvtl":-34.5,"hvtu":-254.3,"hb":9.1,"idx":-1.7,"cls":5,"psfc":964.2,"terrain":false,"radius_km":200,"name":"sym cold"},"geometry":{"type":"Point","coordinates":[19.0,-70.75]}},{"type":"Feature","properties":{"kind":"center","id":25,"lat":-50.75,"lon":-102.25,"mslp":988.5,"hvtl":-93.5,"hvtu":-21.8,"hb":23.8,"idx":-1.7,"cls":4,"psfc":988.5,"terrain":false,"radius_km":200,"name":"asym cold","track":"T71"},"geometry":{"type":"Point","coordinates":[-102.25,-50.75]}},{"type":"Feature","properties":{"kind":"center","id":26,"lat":-70.0,"lon":32.25,"mslp":989.2,"hvtl":-33.4,"hvtu":-243.8,"hb":20.4,"idx":-1.6,"cls":4,"psfc":983.7,"terrain":false,"radius_km":200,"name":"asym cold"},"geometry":{"type":"Point","coordinates":[32.25,-70.0]}},{"type":"Feature","properties":{"kind":"center","id":27,"lat":-69.75,"lon":33.75,"mslp":989.5,"hvtl":-23.8,"hvtu":-230.4,"hb":21.5,"idx":-1.4,"cls":4,"psfc":908.9,"terrain":false,"radius_km":200,"name":"asym cold"},"geometry":{"type":"Point","coordinates":[33.75,-69.75]}},{"type":"Feature","properties":{"kind":"center","id":28,"lat":67.5,"lon":-57.5,"mslp":991.0,"hvtl":18.0,"hvtu":-22.1,"hb":15.7,"idx":0.1,"cls":3,"psfc":991.0,"terrain":false,"radius_km":200,"name":"asym shallow warm","track":"T69"},"geometry":{"type":"Point","coordinates":[-57.5,67.5]}},{"type":"Feature","properties":{"kind":"center","id":29,"lat":57.75,"lon":-150.25,"mslp":991.4,"hvtl":-76.1,"hvtu":-129.2,"hb":22.4,"idx":-2.1,"cls":4,"psfc":991.4,"terrain":false,"radius_km":200,"name":"asym cold","track":"T74"},"geometry":{"type":"Point","coordinates":[-150.25,57.75]}},{"type":"Feature","properties":{"kind":"center","id":30,"lat":61.25,"lon":-40.5,"mslp":992.2,"hvtl":6.7,"hvtu":-294.6,"hb":2.4,"idx":-0.9,"cls":1,"psfc":992.2,"terrain":false,"radius_km":200,"name":"sym shallow warm","track":"T78"},"geometry":{"type":"Point","coordinates":[-40.5,61.25]}},{"type":"Feature","properties":{"kind":"center","id":31,"lat":75.25,"lon":18.25,"mslp":993.7,"hvtl":-150.5,"hvtu":-151.2,"hb":40.5,"idx":-2.7,"cls":4,"psfc":993.7,"terrain":false,"radius_km":200,"name":"asym cold","track":"T61"},"geometry":{"type":"Point","coordinates":[18.25,75.25]}},{"type":"Feature","properties":{"kind":"center","id":32,"lat":-81.5,"lon":-60.5,"mslp":996.7,"hvtl":-338.4,"hvtu":-160.4,"hb":61.7,"idx":-2.9,"cls":4,"psfc":980.4,"terrain":false,"radius_km":200,"name":"asym cold","track":"T25"},"geometry":{"type":"Point","coordinates":[-60.5,-81.5]}},{"type":"Feature","properties":{"kind":"center","id":33,"lat":56.25,"lon":-35.0,"mslp":997.2,"hvtl":-401.6,"hvtu":-446.0,"hb":104.5,"idx":-3.0,"cls":4,"psfc":997.2,"terrain":false,"radius_km":200,"name":"asym cold","track":"T55"},"geometry":{"type":"Point","coordinates":[-35.0,56.25]}},{"type":"Feature","properties":{"kind":"center","id":34,"lat":-49.25,"lon":-61.0,"mslp":997.5,"hvtl":80.7,"hvtu":-66.9,"hb":-2.5,"idx":0.8,"cls":1,"psfc":997.5,"terrain":false,"radius_km":200,"name":"sym shallow warm","track":"T86"},"geometry":{"type":"Point","coordinates":[-61.0,-49.25]}},{"type":"Feature","properties":{"kind":"center","id":35,"lat":72.25,"lon":-56.25,"mslp":997.5,"hvtl":-167.8,"hvtu":-55.1,"hb":49.1,"idx":-2.4,"cls":4,"psfc":997.5,"terrain":false,"radius_km":200,"name":"asym cold","track":"T75"},"geometry":{"type":"Point","coordinates":[-56.25,72.25]}},{"type":"Feature","properties":{"kind":"center","id":36,"lat":76.25,"lon":142.5,"mslp":997.9,"hvtl":-36.9,"hvtu":-123.4,"hb":20.0,"idx":-1.6,"cls":4,"psfc":997.9,"terrain":false,"radius_km":200,"name":"asym cold","track":"T82"},"geometry":{"type":"Point","coordinates":[142.5,76.25]}},{"type":"Feature","properties":{"kind":"center","id":37,"lat":-20.75,"lon":-60.5,"mslp":1000.4,"hvtl":-33.3,"hvtu":-102.7,"hb":24.1,"idx":-1.4,"cls":4,"psfc":981.7,"terrain":false,"radius_km":200,"name":"asym cold"},"geometry":{"type":"Point","coordinates":[-60.5,-20.75]}},{"type":"Feature","properties":{"kind":"center","id":38,"lat":55.75,"lon":68.5,"mslp":1001.0,"hvtl":-200.9,"hvtu":-322.9,"hb":78.7,"idx":-2.9,"cls":4,"psfc":985.3,"terrain":false,"radius_km":200,"name":"asym cold","track":"T77"},"geometry":{"type":"Point","coordinates":[68.5,55.75]}},{"type":"Feature","properties":{"kind":"center","id":39,"lat":-32.75,"lon":-50.0,"mslp":1003.7,"hvtl":-54.0,"hvtu":-165.3,"hb":33.6,"idx":-1.9,"cls":4,"psfc":1003.7,"terrain":false,"radius_km":200,"name":"asym cold","track":"T16"},"geometry":{"type":"Point","coordinates":[-50.0,-32.75]}},{"type":"Feature","properties":{"kind":"center","id":40,"lat":-35.0,"lon":-95.5,"mslp":1004.8,"hvtl":-158.2,"hvtu":-330.8,"hb":31.4,"idx":-2.8,"cls":4,"psfc":1004.8,"terrain":false,"radius_km":200,"name":"asym cold","track":"T92"},"geometry":{"type":"Point","coordinates":[-95.5,-35.0]}},{"type":"Feature","properties":{"kind":"center","id":41,"lat":-28.5,"lon":-66.5,"mslp":1006.0,"hvtl":-40.0,"hvtu":-291.6,"hb":27.5,"idx":-1.8,"cls":4,"psfc":923.6,"terrain":false,"radius_km":200,"name":"asym cold","track":"T93"},"geometry":{"type":"Point","coordinates":[-66.5,-28.5]}},{"type":"Feature","properties":{"kind":"center","id":42,"lat":57.0,"lon":57.25,"mslp":1006.6,"hvtl":-137.1,"hvtu":-95.6,"hb":40.6,"idx":-2.5,"cls":4,"psfc":973.7,"terrain":false,"radius_km":200,"name":"asym cold"},"geometry":{"type":"Point","coordinates":[57.25,57.0]}},{"type":"Feature","properties":{"kind":"center","id":43,"lat":30.5,"lon":71.75,"mslp":1008.1,"hvtl":2.1,"hvtu":-93.1,"hb":16.5,"idx":-0.7,"cls":3,"psfc":993.1,"terrain":false,"radius_km":200,"name":"asym shallow warm","track":"T111"},"geometry":{"type":"Point","coordinates":[71.75,30.5]}},{"type":"Feature","properties":{"kind":"center","id":44,"lat":50.0,"lon":-87.25,"mslp":1008.3,"hvtl":-99.5,"hvtu":-271.7,"hb":42.5,"idx":-2.5,"cls":4,"psfc":967.3,"terrain":false,"radius_km":200,"name":"asym cold","track":"T57"},"geometry":{"type":"Point","coordinates":[-87.25,50.0]}},{"type":"Feature","properties":{"kind":"center","id":45,"lat":76.25,"lon":-153.75,"mslp":1008.4,"hvtl":-82.5,"hvtu":-8.8,"hb":-3.6,"idx":-1.4,"cls":5,"psfc":1008.4,"terrain":false,"radius_km":200,"name":"sym cold","track":"T117"},"geometry":{"type":"Point","coordinates":[-153.75,76.25]}},{"type":"Feature","properties":{"kind":"center","id":46,"lat":38.75,"lon":-121.75,"mslp":1008.8,"hvtl":-92.6,"hvtu":-112.0,"hb":24.9,"idx":-2.3,"cls":4,"psfc":1007.4,"terrain":false,"radius_km":200,"name":"asym cold"},"geometry":{"type":"Point","coordinates":[-121.75,38.75]}},{"type":"Feature","properties":{"kind":"center","id":47,"lat":40.5,"lon":122.0,"mslp":1010.9,"hvtl":15.1,"hvtu":-365.1,"hb":39.0,"idx":-0.7,"cls":3,"psfc":1010.8,"terrain":false,"radius_km":200,"name":"asym shallow warm","track":"T26"},"geometry":{"type":"Point","coordinates":[122.0,40.5]}},{"type":"Feature","properties":{"kind":"center","id":48,"lat":43.0,"lon":74.25,"mslp":1010.9,"hvtl":-390.7,"hvtu":-106.2,"hb":51.5,"idx":-2.8,"cls":4,"psfc":939.3,"terrain":false,"radius_km":200,"name":"asym cold"},"geometry":{"type":"Point","coordinates":[74.25,43.0]}},{"type":"Feature","properties":{"kind":"center","id":49,"lat":31.5,"lon":61.5,"mslp":1011.8,"hvtl":37.1,"hvtu":-94.9,"hb":23.6,"idx":-0.0,"cls":3,"psfc":957.6,"terrain":false,"radius_km":200,"name":"asym shallow warm","track":"T126"},"geometry":{"type":"Point","coordinates":[61.5,31.5]}},{"type":"Feature","properties":{"kind":"center","id":50,"lat":32.25,"lon":61.75,"mslp":1012.0,"hvtl":15.5,"hvtu":-104.3,"hb":46.6,"idx":-0.5,"cls":3,"psfc":943.6,"terrain":false,"radius_km":200,"name":"asym shallow warm","track":"T109"},"geometry":{"type":"Point","coordinates":[61.75,32.25]}},{"type":"Feature","properties":{"kind":"center","id":51,"lat":-38.75,"lon":153.5,"mslp":1012.1,"hvtl":2.7,"hvtu":-34.0,"hb":13.5,"idx":-0.3,"cls":3,"psfc":1012.1,"terrain":false,"radius_km":200,"name":"asym shallow warm"},"geometry":{"type":"Point","coordinates":[153.5,-38.75]}},{"type":"Feature","properties":{"kind":"center","id":52,"lat":37.0,"lon":66.5,"mslp":1012.5,"hvtl":-123.5,"hvtu":-139.5,"hb":57.2,"idx":-2.6,"cls":4,"psfc":978.8,"terrain":false,"radius_km":200,"name":"asym cold","track":"T128"},"geometry":{"type":"Point","coordinates":[66.5,37.0]}},{"type":"Feature","properties":{"kind":"center","id":53,"lat":-45.25,"lon":152.0,"mslp":1012.6,"hvtl":1.6,"hvtu":-94.0,"hb":26.7,"idx":-0.7,"cls":3,"psfc":1012.6,"terrain":false,"radius_km":200,"name":"asym shallow warm","track":"T127"},"geometry":{"type":"Point","coordinates":[152.0,-45.25]}},{"type":"Feature","properties":{"kind":"center","id":54,"lat":40.5,"lon":69.5,"mslp":1014.2,"hvtl":-377.6,"hvtu":-133.9,"hb":83.6,"idx":-2.9,"cls":4,"psfc":925.4,"terrain":false,"radius_km":200,"name":"asym cold"},"geometry":{"type":"Point","coordinates":[69.5,40.5]}},{"type":"Feature","properties":{"kind":"center","id":55,"lat":34.75,"lon":58.75,"mslp":1015.1,"hvtl":-10.1,"hvtu":-178.4,"hb":100.4,"idx":-1.1,"cls":4,"psfc":919.8,"terrain":true,"radius_km":200,"name":"asym cold"},"geometry":{"type":"Point","coordinates":[58.75,34.75]}},{"type":"Feature","properties":{"kind":"center","id":56,"lat":-28.75,"lon":67.5,"mslp":1016.5,"hvtl":11.5,"hvtu":-176.3,"hb":23.8,"idx":-0.7,"cls":3,"psfc":1016.5,"terrain":false,"radius_km":200,"name":"asym shallow warm"},"geometry":{"type":"Point","coordinates":[67.5,-28.75]}},{"type":"Feature","properties":{"kind":"center","id":57,"lat":36.0,"lon":54.75,"mslp":1018.5,"hvtl":-168.5,"hvtu":-257.0,"hb":150.0,"idx":-2.9,"cls":4,"psfc":900.4,"terrain":true,"radius_km":200,"name":"asym cold"},"geometry":{"type":"Point","coordinates":[54.75,36.0]}},{"type":"Feature","properties":{"kind":"center","id":58,"lat":37.0,"lon":54.75,"mslp":1025.1,"hvtl":-230.7,"hvtu":-242.3,"hb":144.6,"idx":-2.9,"cls":4,"psfc":1017.8,"terrain":false,"radius_km":200,"name":"asym cold"},"geometry":{"type":"Point","coordinates":[54.75,37.0]}},{"type":"Feature","properties":{"kind":"center","id":59,"lat":36.25,"lon":53.25,"mslp":1025.1,"hvtl":-145.2,"hvtu":-242.9,"hb":155.1,"idx":-2.8,"cls":4,"psfc":923.8,"terrain":true,"radius_km":200,"name":"asym cold"},"geometry":{"type":"Point","coordinates":[53.25,36.25]}},{"type":"Feature","properties":{"kind":"center","id":60,"lat":36.75,"lon":54.25,"mslp":1025.5,"hvtl":-213.3,"hvtu":-238.5,"hb":151.4,"idx":-2.9,"cls":4,"psfc":938.6,"terrain":false,"radius_km":200,"name":"asym cold"},"geometry":{"type":"Point","coordinates":[54.25,36.75]}}]}