{"type":"FeatureCollection","features":[{"type":"Feature","properties":{"kind":"blob","cls":3,"id":1},"geometry":{"type":"Polygon","coordinates":[[[111.0,-66.62],[111.25,-66.12],[113.25,-65.88],[114.25,-66.62],[117.75,-66.62],[118.88,-65.75],[119.12,-65.0],[118.25,-63.88],[117.0,-63.38],[112.75,-63.12],[110.5,-63.62],[109.62,-64.25],[109.88,-65.0],[109.38,-65.5],[111.0,-66.62]]]}},{"type":"Feature","properties":{"kind":"blob","cls":1,"id":2},"geometry":{"type":"Polygon","coordinates":[[[-99.5,-66.12],[-97.62,-65.0],[-97.62,-64.0],[-98.0,-63.38],[-99.5,-62.62],[-101.0,-62.38],[-105.75,-62.62],[-107.38,-63.5],[-107.62,-65.0],[-107.25,-65.38],[-105.75,-66.12],[-99.5,-66.12]]]}},{"type":"Feature","properties":{"kind":"blob","cls":1,"id":3},"geometry":{"type":"Polygon","coordinates":[[[-174.5,-67.12],[-173.75,-66.12],[-173.0,-65.88],[-171.0,-66.12],[-170.25,-66.62],[-168.0,-66.12],[-166.88,-65.25],[-166.88,-64.25],[-169.0,-62.88],[-172.75,-62.62],[-176.25,-63.12],[-178.12,-64.25],[-178.38,-65.0],[-177.25,-66.38],[-174.5,-67.12]]]}},{"type":"Feature","properties":{"kind":"blob","cls":3,"id":4},"geometry":{"type":"Polygon","coordinates":[[[42.25,-60.38],[46.25,-60.38],[48.12,-59.0],[48.12,-58.0],[47.0,-56.88],[45.0,-56.12],[41.0,-56.38],[39.38,-57.5],[39.38,-58.75],[40.5,-59.88],[42.25,-60.38]]]}},{"type":"Feature","properties":{"kind":"blob","cls":3,"id":5},"geometry":{"type":"Polygon","coordinates":[[[-7.0,68.88],[-1.5,68.88],[0.5,69.62],[1.12,70.75],[0.0,71.88],[-4.5,72.88],[-10.0,72.62],[-12.0,71.88],[-12.62,71.0],[-12.62,70.5],[-11.75,69.62],[-7.0,68.88]]]}},{"type":"Feature","properties":{"kind":"blob","cls":4,"id":6},"geometry":{"type":"Polygon","coordinates":[[[112.75,-54.12],[114.25,-53.62],[115.12,-52.75],[115.12,-51.25],[114.25,-50.38],[112.75,-49.88],[111.0,-49.88],[109.5,-50.38],[108.62,-51.25],[108.62,-52.5],[109.75,-53.62],[112.75,-54.12]]]}},{"type":"Feature","properties":{"kind":"blob","cls":3,"id":7},"geometry":{"type":"Polygon","coordinates":[[[6.5,-62.88],[10.5,-62.88],[12.38,-61.75],[13.38,-60.5],[13.38,-59.5],[12.25,-58.38],[10.5,-57.88],[7.25,-58.38],[3.88,-60.75],[3.88,-61.75],[4.5,-62.38],[6.5,-62.88]]]}},{"type":"Feature","properties":{"kind":"blob","cls":5,"id":8},"geometry":{"type":"Polygon","coordinates":[[[102.25,-53.88],[104.25,-53.12],[105.12,-52.25],[105.12,-51.0],[104.25,-50.12],[102.75,-49.62],[100.75,-49.62],[99.25,-50.12],[98.38,-51.0],[98.38,-52.25],[99.5,-53.38],[102.25,-53.88]]]}},{"type":"Feature","properties":{"kind":"blob","cls":1,"id":9},"geometry":{"type":"Polygon","coordinates":[[[-119.0,-64.62],[-113.0,-64.88],[-111.62,-63.5],[-113.0,-62.12],[-116.75,-61.62],[-118.75,-62.12],[-119.88,-63.0],[-119.88,-64.0],[-119.0,-64.62]]]}},{"type":"Feature","properties":{"kind":"blob","cls":3,"id":10},"geometry":{"type":"Polygon","coordinates":[[[-157.75,48.12],[-156.25,48.62],[-155.38,49.75],[-155.62,50.75],[-156.25,51.38],[-157.75,51.88],[-160.75,51.38],[-161.38,50.75],[-161.62,49.75],[-160.75,48.62],[-157.75,48.12]],[[-157.62,49.25],[-158.38,49.75],[-157.5,49.88],[-157.12,49.5],[-157.62,49.25]]]}},{"type":"Feature","properties":{"kind":"blob","cls":4,"id":11},"geometry":{"type":"Polygon","coordinates":[[[26.0,-54.12],[27.38,-53.0],[27.38,-52.0],[25.75,-50.62],[22.25,-50.62],[20.88,-51.75],[20.88,-53.0],[21.75,-53.88],[26.0,-54.12]]]}},{"type":"Feature","properties":{"kind":"blob","cls":0,"id":12},"geometry":{"type":"Polygon","coordinates":[[[150.25,54.62],[151.62,55.75],[151.62,56.75],[150.75,57.62],[149.0,58.12],[146.0,57.88],[144.62,56.75],[144.62,55.75],[146.0,54.62],[150.25,54.62]],[[146.38,56.25],[146.75,56.88],[147.75,56.88],[148.12,56.5],[147.75,55.88],[146.38,56.25]]]}},{"type":"Feature","properties":{"kind":"blob","cls":5,"id":13},"geometry":{"type":"Polygon","coordinates":[[[-154.0,-83.12],[-147.0,-82.62],[-140.75,-81.88],[-138.75,-81.38],[-138.62,-81.0],[-139.25,-80.38],[-140.75,-79.88],[-152.0,-79.62],[-161.0,-80.62],[-162.75,-81.12],[-163.38,-81.75],[-162.0,-82.62],[-154.0,-83.12]],[[-149.38,-81.75],[-149.0,-81.38],[-146.12,-81.75],[-146.25,-81.88],[-149.38,-81.75]]]}},{"type":"Feature","properties":{"kind":"blob","cls":1,"id":14},"geometry":{"type":"Polygon","coordinates":[[[98.0,-62.12],[99.75,-61.62],[100.62,-61.0],[100.88,-60.0],[100.25,-59.12],[98.0,-58.38],[96.5,-58.38],[94.25,-59.12],[93.62,-60.0],[93.88,-61.0],[94.75,-61.62],[98.0,-62.12]]]}},{"type":"Feature","properties":{"kind":"blob","cls":5,"id":15},"geometry":{"type":"Polygon","coordinates":[[[-116.25,-74.62],[-113.75,-74.88],[-110.62,-74.5],[-114.0,-74.38],[-116.25,-74.62]]]}},{"type":"Feature","properties":{"kind":"blob","cls":1,"id":16},"geometry":{"type":"Polygon","coordinates":[[[-83.25,-73.88],[-78.25,-73.12],[-76.25,-72.38],[-75.62,-71.25],[-76.25,-70.62],[-78.25,-69.88],[-79.75,-69.88],[-84.0,-68.88],[-86.75,-68.88],[-91.75,-69.88],[-94.12,-71.25],[-93.75,-72.38],[-92.25,-73.12],[-90.25,-73.62],[-83.25,-73.88]]]}},{"type":"Feature","properties":{"kind":"blob","cls":3,"id":17},"geometry":{"type":"Polygon","coordinates":[[[-51.5,51.12],[-49.5,51.88],[-48.38,53.25],[-48.88,54.75],[-49.5,55.38],[-52.0,56.38],[-55.0,56.38],[-57.0,55.62],[-57.38,55.25],[-56.88,53.25],[-57.25,53.12],[-58.0,53.88],[-58.12,53.5],[-57.5,52.38],[-55.75,51.38],[-51.5,51.12]]]}},{"type":"Feature","properties":{"kind":"blob","cls":4,"id":18},"geometry":{"type":"Polygon","coordinates":[[[-46.0,-76.12],[-37.75,-76.12],[-34.5,-75.12],[-33.88,-74.0],[-35.0,-72.88],[-37.25,-72.12],[-40.5,-71.62],[-45.25,-71.62],[-49.25,-72.38],[-51.0,-73.38],[-51.38,-74.0],[-50.75,-75.12],[-49.75,-75.62],[-46.0,-76.12]]]}},{"type":"Feature","properties":{"kind":"blob","cls":5,"id":19},"geometry":{"type":"Polygon","coordinates":[[[179.75,82.38],[180.0,85.62],[177.25,85.38],[174.38,84.25],[174.38,83.75],[175.0,83.38],[179.75,82.38]]]}},{"type":"Feature","properties":{"kind":"blob","cls":5,"id":19},"geometry":{"type":"Polygon","coordinates":[[[-179.75,85.62],[-180.0,82.38],[-179.5,82.12],[-171.75,81.62],[-161.25,81.62],[-146.25,82.62],[-135.25,83.88],[-133.75,84.38],[-133.12,85.0],[-134.0,85.62],[-136.75,86.12],[-149.25,86.88],[-168.0,86.62],[-179.75,85.62]]]}},{"type":"Feature","properties":{"kind":"blob","cls":4,"id":20},"geometry":{"type":"Polygon","coordinates":[[[-167.5,-53.12],[-166.0,-52.62],[-165.12,-51.75],[-165.38,-50.25],[-167.0,-49.12],[-168.75,-48.62],[-170.5,-48.62],[-172.0,-49.12],[-172.88,-50.25],[-172.62,-51.25],[-170.75,-52.62],[-167.5,-53.12]]]}},{"type":"Feature","properties":{"kind":"blob","cls":4,"id":21},"geometry":{"type":"Polygon","coordinates":[[[118.5,80.38],[124.25,81.38],[125.62,82.25],[124.25,83.12],[120.5,83.88],[111.0,84.62],[91.0,84.38],[87.0,83.88],[84.62,83.0],[84.62,82.5],[85.25,82.12],[89.25,81.12],[94.25,80.38],[118.5,80.38]]]}},{"type":"Feature","properties":{"kind":"blob","cls":4,"id":22},"geometry":{"type":"Polygon","coordinates":[[[158.0,-69.38],[159.38,-68.0],[158.75,-67.12],[157.0,-66.38],[153.38,-66.0],[156.5,-65.62],[158.5,-64.88],[159.38,-64.0],[159.38,-63.5],[158.0,-62.38],[156.0,-61.88],[152.25,-61.88],[150.25,-62.38],[144.75,-62.38],[143.25,-62.62],[141.75,-63.38],[141.38,-64.0],[141.75,-65.12],[144.25,-66.12],[151.75,-66.12],[148.0,-67.12],[147.38,-67.75],[147.75,-68.12],[150.5,-68.62],[158.0,-69.38]]]}},{"type":"Feature","properties":{"kind":"blob","cls":4,"id":23},"geometry":{"type":"Polygon","coordinates":[[[5.5,-46.88],[7.5,-46.88],[8.88,-45.75],[9.12,-44.5],[8.25,-43.38],[7.0,-42.88],[5.25,-42.88],[3.38,-44.0],[3.38,-45.75],[4.0,-46.38],[5.5,-46.88]]]}},{"type":"Feature","properties":{"kind":"blob","cls":4,"id":24},"geometry":{"type":"Polygon","coordinates":[[[-27.75,63.62],[-24.75,64.38],[-22.88,65.75],[-22.88,66.75],[-25.25,68.12],[-30.25,68.62],[-35.62,66.25],[-35.38,65.25],[-34.5,64.62],[-32.25,63.88],[-27.75,63.62]]]}},{"type":"Feature","properties":{"kind":"blob","cls":4,"id":25},"geometry":{"type":"Polygon","coordinates":[[[70.0,-68.88],[76.88,-69.0],[76.5,-68.62],[74.75,-68.38],[70.0,-68.88]]]}},{"type":"Feature","properties":{"kind":"blob","cls":3,"id":26},"geometry":{"type":"Polygon","coordinates":[[[-56.75,66.88],[-53.75,67.88],[-53.12,69.0],[-53.75,69.88],[-55.0,70.62],[-57.5,71.12],[-63.75,70.88],[-65.5,70.12],[-66.38,69.25],[-66.38,68.25],[-66.0,67.88],[-63.0,66.88],[-56.75,66.88]]]}},{"type":"Feature","properties":{"kind":"blob","cls":4,"id":27},"geometry":{"type":"Polygon","coordinates":[[[174.75,43.62],[176.0,44.12],[177.12,45.5],[176.88,46.5],[176.0,47.38],[174.75,47.88],[172.25,47.38],[171.38,46.5],[171.12,45.5],[172.25,44.12],[174.75,43.62]]]}},{"type":"Feature","properties":{"kind":"blob","cls":6,"id":28},"geometry":{"type":"Polygon","coordinates":[[[-81.75,68.12],[-76.5,68.12],[-75.0,68.62],[-74.12,69.5],[-74.12,70.0],[-74.75,70.88],[-75.5,71.12],[-77.5,69.12],[-78.5,68.62],[-81.25,68.38],[-82.12,69.25],[-81.12,71.25],[-81.25,71.88],[-84.25,71.38],[-85.62,70.5],[-85.88,70.0],[-84.75,68.62],[-81.75,68.12]]]}},{"type":"Feature","properties":{"kind":"blob","cls":1,"id":29},"geometry":{"type":"Polygon","coordinates":[[[-85.5,63.88],[-81.75,63.88],[-80.5,64.38],[-79.62,65.25],[-79.62,65.75],[-80.5,66.62],[-81.75,67.12],[-85.25,67.38],[-87.5,66.88],[-88.88,65.75],[-88.88,65.25],[-88.0,64.38],[-85.5,63.88]]]}},{"type":"Feature","properties":{"kind":"blob","cls":6,"id":30},"geometry":{"type":"Polygon","coordinates":[[[151.5,9.88],[153.0,10.38],[153.62,11.25],[153.38,12.75],[152.0,13.62],[150.75,13.38],[149.88,12.25],[150.12,10.75],[151.5,9.88]]]}},{"type":"Feature","properties":{"kind":"blob","cls":0,"id":31},"geometry":{"type":"Polygon","coordinates":[[[-99.0,9.38],[-97.5,9.38],[-96.62,10.5],[-96.62,11.5],[-97.0,11.62],[-98.5,10.38],[-100.12,10.0],[-99.0,9.38]]]}},{"type":"Feature","properties":{"kind":"blob","cls":0,"id":32},"geometry":{"type":"Polygon","coordinates":[[[-168.88,-13.5],[-168.5,-13.88],[-167.62,-12.75],[-167.88,-11.25],[-169.25,-10.38],[-170.5,-10.62],[-171.12,-11.25],[-169.12,-11.75],[-168.88,-13.5]]]}},{"type":"Feature","properties":{"kind":"blob","cls":3,"id":33},"geometry":{"type":"Polygon","coordinates":[[[-95.75,51.62],[-93.75,52.38],[-92.12,53.5],[-92.12,55.0],[-95.25,56.38],[-97.0,56.38],[-99.5,55.38],[-100.38,54.25],[-100.12,53.0],[-98.5,51.88],[-95.75,51.62]]]}},{"type":"Feature","properties":{"kind":"blob","cls":4,"id":34},"geometry":{"type":"Polygon","coordinates":[[[70.0,25.12],[71.38,26.5],[71.62,27.5],[70.5,28.88],[69.0,29.12],[67.12,28.0],[66.62,26.75],[66.88,26.0],[67.75,25.12],[70.0,25.12]]]}},{"type":"Feature","properties":{"kind":"blob","cls":5,"id":35},"geometry":{"type":"Polygon","coordinates":[[[-103.25,-37.88],[-101.75,-38.12],[-100.12,-37.0],[-100.12,-35.25],[-100.75,-34.62],[-101.75,-34.12],[-103.0,-34.12],[-104.62,-35.25],[-104.62,-37.0],[-103.25,-37.88]]]}},{"type":"Feature","properties":{"kind":"blob","cls":3,"id":36},"geometry":{"type":"Polygon","coordinates":[[[-70.12,-13.5],[-70.0,-13.62],[-69.88,-13.5],[-70.12,-13.5]]]}},{"type":"Feature","properties":{"kind":"blob","cls":0,"id":37},"geometry":{"type":"MultiPolygon","coordinates":[[[[-100.38,11.25],[-100.25,11.12],[-100.12,11.5],[-100.38,11.25]]],[[[-100.0,11.62],[-98.88,12.5],[-99.5,12.62],[-100.0,11.62]]],[[[-98.75,12.88],[-98.88,12.75],[-98.5,12.62],[-98.75,12.88]]]]}},{"type":"Feature","properties":{"kind":"blob","cls":3,"id":38},"geometry":{"type":"Polygon","coordinates":[[[34.5,41.38],[35.75,41.12],[37.62,42.25],[37.88,43.75],[37.0,44.88],[34.5,45.38],[32.62,44.25],[32.88,42.0],[33.25,41.62],[34.5,41.88],[34.5,41.38]]]}},{"type":"Feature","properties":{"kind":"blob","cls":4,"id":39},"geometry":{"type":"Polygon","coordinates":[[[171.0,-38.38],[172.75,-38.62],[173.75,-38.12],[174.38,-37.5],[174.38,-35.75],[172.75,-34.62],[171.25,-34.62],[170.25,-35.12],[169.62,-35.75],[169.62,-37.5],[171.0,-38.38]]]}},{"type":"Feature","properties":{"kind":"blob","cls":3,"id":40},"geometry":{"type":"Polygon","coordinates":[[[37.75,0.62],[38.38,1.75],[38.12,3.0],[36.75,4.12],[35.25,3.62],[35.5,3.12],[36.0,3.62],[36.38,3.25],[37.38,1.75],[37.75,0.62]]]}},{"type":"Feature","properties":{"kind":"blob","cls":4,"id":41},"geometry":{"type":"Polygon","coordinates":[[[-63.88,-17.5],[-65.25,-15.88],[-66.62,-15.75],[-65.5,-17.12],[-63.88,-17.5]]]}},{"type":"Feature","properties":{"kind":"blob","cls":4,"id":42},"geometry":{"type":"MultiPolygon","coordinates":[[[[96.25,24.88],[96.12,24.75],[96.25,24.62],[96.25,24.88]]],[[[95.12,25.25],[95.5,24.88],[96.12,25.0],[95.5,25.62],[95.12,25.25]]]]}},{"type":"Feature","properties":{"kind":"blob","cls":4,"id":43},"geometry":{"type":"Polygon","coordinates":[[[-64.38,-22.5],[-64.25,-22.88],[-63.38,-22.0],[-63.38,-21.0],[-64.0,-20.62],[-64.12,-21.25],[-63.62,-21.75],[-64.38,-22.5]]]}},{"type":"Feature","properties":{"kind":"blob","cls":4,"id":44},"geometry":{"type":"MultiPolygon","coordinates":[[[[61.75,30.62],[61.62,30.5],[61.75,30.38],[61.75,30.62]]],[[[60.88,31.0],[61.25,30.62],[61.62,30.75],[61.25,31.12],[60.88,31.0]]]]}},{"type":"Feature","properties":{"kind":"blob","cls":4,"id":45},"geometry":{"type":"Polygon","coordinates":[[[83.0,44.38],[83.62,45.0],[82.38,45.75],[82.75,46.38],[81.5,46.88],[79.5,46.62],[78.12,45.25],[78.25,44.62],[79.25,45.38],[81.75,45.88],[82.38,45.25],[81.62,45.0],[83.0,44.38]]]}},{"type":"Feature","properties":{"kind":"blob","cls":3,"id":46},"geometry":{"type":"Polygon","coordinates":[[[-68.75,-32.62],[-68.0,-32.38],[-67.38,-31.5],[-68.12,-31.5],[-67.62,-31.0],[-68.25,-29.88],[-68.62,-30.5],[-68.75,-32.62]]]}},{"type":"Feature","properties":{"kind":"blob","cls":4,"id":47},"geometry":{"type":"MultiPolygon","coordinates":[[[[-64.75,-26.38],[-64.38,-26.0],[-64.5,-24.62],[-65.12,-25.75],[-64.75,-26.38]]],[[[-64.88,-25.0],[-65.0,-24.88],[-65.12,-25.0],[-64.88,-25.0]]],[[[-64.88,-24.25],[-64.75,-24.62],[-64.62,-24.5],[-64.88,-24.25]]]]}},{"type":"Feature","properties":{"kind":"blob","cls":4,"id":48},"geometry":{"type":"Polygon","coordinates":[[[79.75,44.12],[80.88,44.25],[80.75,44.38],[79.75,44.12]]]}},{"type":"Feature","properties":{"kind":"blob","cls":4,"id":49},"geometry":{"type":"Polygon","coordinates":[[[61.0,33.12],[61.25,32.88],[61.62,33.5],[61.5,33.62],[61.0,33.12]]]}},{"type":"Feature","properties":{"kind":"blob","cls":3,"id":50},"geometry":{"type":"Polygon","coordinates":[[[-71.5,-31.62],[-70.88,-31.75],[-71.0,-29.62],[-71.62,-30.5],[-71.5,-31.62]]]}},{"type":"Feature","properties":{"kind":"blob","cls":3,"id":51},"geometry":{"type":"Polygon","coordinates":[[[-67.62,-30.5],[-67.5,-30.62],[-67.38,-30.5],[-67.62,-30.5]]]}},{"type":"Feature","properties":{"kind":"blob","cls":4,"id":52},"geometry":{"type":"Polygon","coordinates":[[[-65.25,-26.88],[-65.25,-26.12],[-65.38,-26.25],[-65.25,-26.88]]]}},{"type":"Feature","properties":{"kind":"blob","cls":3,"id":53},"geometry":{"type":"Polygon","coordinates":[[[-71.12,-32.25],[-71.0,-32.38],[-70.88,-32.25],[-71.12,-32.25]]]}},{"type":"Feature","properties":{"kind":"center","id":1,"lat":-65.0,"lon":114.0,"mslp":952.1,"hvtl":121.1,"hvtu":-128.0,"hb":21.7,"idx":0.8,"cls":3,"psfc":952.1,"terrain":false,"radius_km":200,"name":"asym shallow warm","track":"T07"},"geometry":{"type":"Point","coordinates":[114.0,-65.0]}},{"type":"Feature","properties":{"kind":"center","id":2,"lat":-64.25,"lon":-103.0,"mslp":954.7,"hvtl":87.8,"hvtu":-103.8,"hb":7.0,"idx":0.6,"cls":1,"psfc":954.7,"terrain":false,"radius_km":200,"name":"sym shallow warm","track":"T16"},"geometry":{"type":"Point","coordinates":[-103.0,-64.25]}},{"type":"Feature","properties":{"kind":"center","id":3,"lat":-65.0,"lon":-173.5,"mslp":955.0,"hvtl":267.3,"hvtu":-72.2,"hb":-27.4,"idx":1.4,"cls":1,"psfc":955.0,"terrain":false,"radius_km":200,"name":"sym shallow warm","track":"T18"},"geometry":{"type":"Point","coordinates":[-173.5,-65.0]}},{"type":"Feature","properties":{"kind":"center","id":4,"lat":-58.5,"lon":43.5,"mslp":956.5,"hvtl":79.0,"hvtu":-367.0,"hb":72.1,"idx":0.3,"cls":3,"psfc":956.5,"terrain":false,"radius_km":200,"name":"asym shallow warm","track":"T05"},"geometry":{"type":"Point","coordinates":[43.5,-58.5]}},{"type":"Feature","properties":{"kind":"center","id":5,"lat":70.75,"lon":-5.75,"mslp":960.5,"hvtl":48.2,"hvtu":-4.8,"hb":16.1,"idx":0.8,"cls":3,"psfc":960.5,"terrain":false,"radius_km":200,"name":"asym shallow warm","track":"T02"},"geometry":{"type":"Point","coordinates":[-5.75,70.75]}},{"type":"Feature","properties":{"kind":"center","id":6,"lat":-52.0,"lon":111.75,"mslp":960.8,"hvtl":-82.7,"hvtu":-200.4,"hb":47.4,"idx":-2.3,"cls":4,"psfc":960.8,"terrain":false,"radius_km":200,"name":"asym cold","track":"T20"},"geometry":{"type":"Point","coordinates":[111.75,-52.0]}},{"type":"Feature","properties":{"kind":"center","id":7,"lat":-61.0,"lon":8.75,"mslp":961.1,"hvtl":36.5,"hvtu":-131.3,"hb":11.3,"idx":-0.2,"cls":3,"psfc":961.1,"terrain":false,"radius_km":200,"name":"asym shallow warm","track":"T23"},"geometry":{"type":"Point","coordinates":[8.75,-61.0]}},{"type":"Feature","properties":{"kind":"center","id":8,"lat":-51.75,"lon":101.75,"mslp":962.2,"hvtl":-5.7,"hvtu":-47.2,"hb":7.6,"idx":-0.6,"cls":5,"psfc":962.2,"terrain":false,"radius_km":200,"name":"sym cold","track":"T13"},"geometry":{"type":"Point","coordinates":[101.75,-51.75]}},{"type":"Feature","properties":{"kind":"center","id":9,"lat":-63.5,"lon":-115.75,"mslp":963.1,"hvtl":75.3,"hvtu":-137.2,"hb":3.9,"idx":0.4,"cls":1,"psfc":963.0,"terrain":false,"radius_km":200,"name":"sym shallow warm"},"geometry":{"type":"Point","coordinates":[-115.75,-63.5]}},{"type":"Feature","properties":{"kind":"center","id":10,"lat":50.0,"lon":-158.5,"mslp":966.7,"hvtl":157.9,"hvtu":-40.4,"hb":27.8,"idx":1.5,"cls":3,"psfc":966.7,"terrain":false,"radius_km":200,"name":"asym shallow warm","track":"T34"},"geometry":{"type":"Point","coordinates":[-158.5,50.0]}},{"type":"Feature","properties":{"kind":"center","id":11,"lat":-52.5,"lon":24.0,"mslp":967.0,"hvtl":-177.6,"hvtu":-377.1,"hb":66.8,"idx":-2.9,"cls":4,"psfc":967.0,"terrain":false,"radius_km":200,"name":"asym cold","track":"T21"},"geometry":{"type":"Point","coordinates":[24.0,-52.5]}},{"type":"Feature","properties":{"kind":"center","id":12,"lat":56.25,"lon":148.25,"mslp":967.3,"hvtl":90.3,"hvtu":45.7,"hb":-1.3,"idx":1.9,"cls":0,"psfc":967.3,"terrain":false,"radius_km":200,"name":"sym deep warm","track":"T30"},"geometry":{"type":"Point","coordinates":[148.25,56.25]}},{"type":"Feature","properties":{"kind":"center","id":13,"lat":-81.75,"lon":-149.5,"mslp":969.2,"hvtl":-109.2,"hvtu":-125.4,"hb":3.1,"idx":-2.4,"cls":5,"psfc":901.0,"terrain":false,"radius_km":200,"name":"sym cold","track":"T36"},"geometry":{"type":"Point","coordinates":[-149.5,-81.75]}},{"type":"Feature","properties":{"kind":"center","id":14,"lat":-60.25,"lon":97.5,"mslp":969.6,"hvtl":39.9,"hvtu":-107.8,"hb":-43.8,"idx":-0.0,"cls":1,"psfc":969.6,"terrain":false,"radius_km":200,"name":"sym shallow warm"},"geometry":{"type":"Point","coordinates":[97.5,-60.25]}},{"type":"Feature","properties":{"kind":"center","id":15,"lat":-74.5,"lon":-110.75,"mslp":972.7,"hvtl":-164.1,"hvtu":-10.6,"hb":8.5,"idx":-2.0,"cls":5,"psfc":924.4,"terrain":false,"radius_km":200,"name":"sym cold","track":"T11"},"geometry":{"type":"Point","coordinates":[-110.75,-74.5]}},{"type":"Feature","properties":{"kind":"center","id":16,"lat":-71.5,"lon":-86.0,"mslp":974.7,"hvtl":34.7,"hvtu":-158.9,"hb":7.0,"idx":-0.3,"cls":1,"psfc":974.7,"terrain":false,"radius_km":200,"name":"sym shallow warm","track":"T39"},"geometry":{"type":"Point","coordinates":[-86.0,-71.5]}},{"type":"Feature","properties":{"kind":"center","id":17,"lat":54.0,"lon":-54.25,"mslp":977.3,"hvtl":131.0,"hvtu":-91.4,"hb":91.4,"idx":1.0,"cls":3,"psfc":977.3,"terrain":false,"radius_km":200,"name":"asym shallow warm","track":"T44"},"geometry":{"type":"Point","coordinates":[-54.25,54.0]}},{"type":"Feature","properties":{"kind":"center","id":18,"lat":-74.25,"lon":-43.25,"mslp":979.0,"hvtl":-7.7,"hvtu":-77.6,"hb":38.2,"idx":-0.8,"cls":4,"psfc":979.0,"terrain":false,"radius_km":200,"name":"asym cold","track":"T43"},"geometry":{"type":"Point","coordinates":[-43.25,-74.25]}},{"type":"Feature","properties":{"kind":"center","id":19,"lat":83.75,"lon":-165.0,"mslp":982.8,"hvtl":-77.8,"hvtu":-91.8,"hb":-11.3,"idx":-2.0,"cls":5,"psfc":982.8,"terrain":false,"radius_km":200,"name":"sym cold","track":"T59"},"geometry":{"type":"Point","coordinates":[-165.0,83.75]}},{"type":"Feature","properties":{"kind":"center","id":20,"lat":-51.0,"lon":-168.75,"mslp":983.4,"hvtl":-345.0,"hvtu":-362.7,"hb":99.9,"idx":-3.0,"cls":4,"psfc":983.4,"terrain":false,"radius_km":200,"name":"asym cold","track":"T01"},"geometry":{"type":"Point","coordinates":[-168.75,-51.0]}},{"type":"Feature","properties":{"kind":"center","id":21,"lat":82.5,"lon":104.5,"mslp":984.2,"hvtl":-114.4,"hvtu":-162.5,"hb":45.2,"idx":-2.6,"cls":4,"psfc":984.2,"terrain":false,"radius_km":200,"name":"asym cold","track":"T58"},"geometry":{"type":"Point","coordinates":[104.5,82.5]}},{"type":"Feature","properties":{"kind":"center","id":22,"lat":-64.0,"lon":153.75,"mslp":986.0,"hvtl":-592.9,"hvtu":-184.7,"hb":117.7,"idx":-3.0,"cls":4,"psfc":986.0,"terrain":false,"radius_km":200,"name":"asym cold"},"geometry":{"type":"Point","coordinates":[153.75,-64.0]}},{"type":"Feature","properties":{"kind":"center","id":23,"lat":-45.0,"lon":6.0,"mslp":986.7,"hvtl":-308.2,"hvtu":-409.1,"hb":63.8,"idx":-3.0,"cls":4,"psfc":986.7,"terrain":false,"radius_km":200,"name":"asym cold","track":"T31"},"geometry":{"type":"Point","coordinates":[6.0,-45.0]}},{"type":"Feature","properties":{"kind":"center","id":24,"lat":66.5,"lon":-28.5,"mslp":989.2,"hvtl":-191.2,"hvtu":-174.5,"hb":57.2,"idx":-2.9,"cls":4,"psfc":989.2,"terrain":false,"radius_km":200,"name":"asym cold","track":"T51"},"geometry":{"type":"Point","coordinates":[-28.5,66.5]}},{"type":"Feature","properties":{"kind":"center","id":25,"lat":-69.0,"lon":76.75,"mslp":989.6,"hvtl":-183.4,"hvtu":-128.9,"hb":48.8,"idx":-2.8,"cls":4,"psfc":989.6,"terrain":false,"radius_km":200,"name":"asym cold"},"geometry":{"type":"Point","coordinates":[76.75,-69.0]}},{"type":"Feature","properties":{"kind":"center","id":26,"lat":69.0,"lon":-59.5,"mslp":993.4,"hvtl":39.2,"hvtu":-177.9,"hb":11.1,"idx":-0.2,"cls":3,"psfc":993.4,"terrain":false,"radius_km":200,"name":"asym shallow warm","track":"T73"},"geometry":{"type":"Point","coordinates":[-59.5,69.0]}},{"type":"Feature","properties":{"kind":"center","id":27,"lat":45.75,"lon":174.25,"mslp":996.4,"hvtl":-71.6,"hvtu":-73.3,"hb":70.0,"idx":-1.9,"cls":4,"psfc":996.4,"terrain":false,"radius_km":200,"name":"asym cold","track":"T09"},"geometry":{"type":"Point","coordinates":[174.25,45.75]}},{"type":"Feature","properties":{"kind":"center","id":28,"lat":69.5,"lon":-77.0,"mslp":997.5,"hvtl":-69.1,"hvtu":54.7,"hb":39.9,"idx":-0.7,"cls":6,"psfc":997.2,"terrain":false,"radius_km":200,"name":"shallow cold","track":"T70"},"geometry":{"type":"Point","coordinates":[-77.0,69.5]}},{"type":"Feature","properties":{"kind":"center","id":29,"lat":65.5,"lon":-83.75,"mslp":998.9,"hvtl":8.4,"hvtu":-110.8,"hb":-6.8,"idx":-0.6,"cls":1,"psfc":998.9,"terrain":false,"radius_km":200,"name":"sym shallow warm","track":"T71"},"geometry":{"type":"Point","coordinates":[-83.75,65.5]}},{"type":"Feature","properties":{"kind":"center","id":30,"lat":11.75,"lon":151.75,"mslp":1000.3,"hvtl":-45.9,"hvtu":53.4,"hb":9.3,"idx":-0.4,"cls":6,"psfc":1000.3,"terrain":false,"radius_km":200,"name":"shallow cold","track":"T50"},"geometry":{"type":"Point","coordinates":[151.75,11.75]}},{"type":"Feature","properties":{"kind":"center","id":31,"lat":10.75,"lon":-97.75,"mslp":1001.0,"hvtl":36.7,"hvtu":75.8,"hb":-1.0,"idx":1.3,"cls":0,"psfc":1001.0,"terrain":false,"radius_km":200,"name":"sym deep warm","track":"T24"},"geometry":{"type":"Point","coordinates":[-97.75,10.75]}},{"type":"Feature","properties":{"kind":"center","id":32,"lat":-12.0,"lon":-169.0,"mslp":1004.0,"hvtl":76.2,"hvtu":27.3,"hb":7.8,"idx":1.6,"cls":0,"psfc":1004.0,"terrain":false,"radius_km":200,"name":"sym deep warm","track":"T88"},"geometry":{"type":"Point","coordinates":[-169.0,-12.0]}},{"type":"Feature","properties":{"kind":"center","id":33,"lat":53.75,"lon":-96.75,"mslp":1004.4,"hvtl":72.3,"hvtu":-340.0,"hb":70.9,"idx":0.2,"cls":3,"psfc":975.2,"terrain":false,"radius_km":200,"name":"asym shallow warm","track":"T84"},"geometry":{"type":"Point","coordinates":[-96.75,53.75]}},{"type":"Feature","properties":{"kind":"center","id":34,"lat":27.0,"lon":69.0,"mslp":1004.5,"hvtl":-37.0,"hvtu":-201.0,"hb":10.4,"idx":-1.7,"cls":4,"psfc":998.0,"terrain":false,"radius_km":200,"name":"asym cold"},"geometry":{"type":"Point","coordinates":[69.0,27.0]}},{"type":"Feature","properties":{"kind":"center","id":35,"lat":-36.0,"lon":-102.25,"mslp":1004.6,"hvtl":-24.5,"hvtu":-58.3,"hb":-3.8,"idx":-1.0,"cls":5,"psfc":1004.6,"terrain":false,"radius_km":200,"name":"sym cold","track":"T90"},"geometry":{"type":"Point","coordinates":[-102.25,-36.0]}},{"type":"Feature","properties":{"kind":"center","id":36,"lat":-13.5,"lon":-70.0,"mslp":1007.0,"hvtl":88.9,"hvtu":-8.0,"hb":50.3,"idx":1.3,"cls":3,"psfc":906.4,"terrain":true,"radius_km":200,"name":"asym shallow warm"},"geometry":{"type":"Point","coordinates":[-70.0,-13.5]}},{"type":"Feature","properties":{"kind":"center","id":37,"lat":12.75,"lon":-98.5,"mslp":1007.2,"hvtl":21.2,"hvtu":75.0,"hb":8.1,"idx":1.1,"cls":0,"psfc":1007.2,"terrain":false,"radius_km":200,"name":"sym deep warm"},"geometry":{"type":"Point","coordinates":[-98.5,12.75]}},{"type":"Feature","properties":{"kind":"center","id":38,"lat":43.25,"lon":35.25,"mslp":1007.3,"hvtl":13.1,"hvtu":-155.9,"hb":24.3,"idx":-0.7,"cls":3,"psfc":1007.2,"terrain":false,"radius_km":200,"name":"asym shallow warm","track":"T98"},"geometry":{"type":"Point","coordinates":[35.25,43.25]}},{"type":"Feature","properties":{"kind":"center","id":39,"lat":-36.75,"lon":172.25,"mslp":1007.4,"hvtl":-90.0,"hvtu":-306.2,"hb":18.7,"idx":-2.4,"cls":4,"psfc":1007.4,"terrain":false,"radius_km":200,"name":"asym cold","track":"T55"},"geometry":{"type":"Point","coordinates":[172.25,-36.75]}},{"type":"Feature","properties":{"kind":"center","id":40,"lat":3.75,"lon":36.0,"mslp":1008.6,"hvtl":92.6,"hvtu":-0.8,"hb":10.0,"idx":1.4,"cls":3,"psfc":967.7,"terrain":false,"radius_km":200,"name":"asym shallow warm"},"geometry":{"type":"Point","coordinates":[36.0,3.75]}},{"type":"Feature","properties":{"kind":"center","id":41,"lat":-16.0,"lon":-65.25,"mslp":1009.3,"hvtl":-99.5,"hvtu":-119.3,"hb":54.5,"idx":-2.4,"cls":4,"psfc":988.7,"terrain":false,"radius_km":200,"name":"asym cold","track":"T92"},"geometry":{"type":"Point","coordinates":[-65.25,-16.0]}},{"type":"Feature","properties":{"kind":"center","id":42,"lat":25.25,"lon":95.25,"mslp":1010.8,"hvtl":-19.0,"hvtu":-128.3,"hb":12.2,"idx":-1.2,"cls":4,"psfc":986.2,"terrain":false,"radius_km":200,"name":"asym cold","track":"T108"},"geometry":{"type":"Point","coordinates":[95.25,25.25]}},{"type":"Feature","properties":{"kind":"center","id":43,"lat":-21.0,"lon":-64.0,"mslp":1012.4,"hvtl":-122.2,"hvtu":-273.8,"hb":38.9,"idx":-2.7,"cls":4,"psfc":921.2,"terrain":true,"radius_km":200,"name":"asym cold"},"geometry":{"type":"Point","coordinates":[-64.0,-21.0]}},{"type":"Feature","properties":{"kind":"center","id":44,"lat":31.0,"lon":61.25,"mslp":1012.8,"hvtl":-46.1,"hvtu":-104.4,"hb":29.4,"idx":-1.6,"cls":4,"psfc":958.1,"terrain":false,"radius_km":200,"name":"asym cold"},"geometry":{"type":"Point","coordinates":[61.25,31.0]}},{"type":"Feature","properties":{"kind":"center","id":45,"lat":45.0,"lon":83.25,"mslp":1013.7,"hvtl":-83.0,"hvtu":-279.2,"hb":115.4,"idx":-2.4,"cls":4,"psfc":973.6,"terrain":false,"radius_km":200,"name":"asym cold"},"geometry":{"type":"Point","coordinates":[83.25,45.0]}},{"type":"Feature","properties":{"kind":"center","id":46,"lat":-30.25,"lon":-68.25,"mslp":1013.9,"hvtl":12.5,"hvtu":-241.7,"hb":14.1,"idx":-0.7,"cls":3,"psfc":921.0,"terrain":true,"radius_km":200,"name":"asym shallow warm"},"geometry":{"type":"Point","coordinates":[-68.25,-30.25]}},{"type":"Feature","properties":{"kind":"center","id":47,"lat":-24.25,"lon":-64.75,"mslp":1014.6,"hvtl":-87.9,"hvtu":-315.2,"hb":22.1,"idx":-2.4,"cls":4,"psfc":949.7,"terrain":false,"radius_km":200,"name":"asym cold"},"geometry":{"type":"Point","coordinates":[-64.75,-24.25]}},{"type":"Feature","properties":{"kind":"center","id":48,"lat":44.25,"lon":80.0,"mslp":1014.7,"hvtl":-83.0,"hvtu":-272.1,"hb":99.0,"idx":-2.4,"cls":4,"psfc":917.7,"terrain":true,"radius_km":200,"name":"asym cold"},"geometry":{"type":"Point","coordinates":[80.0,44.25]}},{"type":"Feature","properties":{"kind":"center","id":49,"lat":33.0,"lon":61.25,"mslp":1015.3,"hvtl":-34.9,"hvtu":-92.7,"hb":46.8,"idx":-1.4,"cls":4,"psfc":912.7,"terrain":true,"radius_km":200,"name":"asym cold"},"geometry":{"type":"Point","coordinates":[61.25,33.0]}},{"type":"Feature","properties":{"kind":"center","id":50,"lat":-30.25,"lon":-71.0,"mslp":1015.3,"hvtl":44.4,"hvtu":-264.9,"hb":18.5,"idx":-0.2,"cls":3,"psfc":901.8,"terrain":true,"radius_km":200,"name":"asym shallow warm"},"geometry":{"type":"Point","coordinates":[-71.0,-30.25]}},{"type":"Feature","properties":{"kind":"center","id":51,"lat":-30.5,"lon":-67.5,"mslp":1015.6,"hvtl":22.8,"hvtu":-244.6,"hb":14.1,"idx":-0.5,"cls":3,"psfc":903.0,"terrain":true,"radius_km":200,"name":"asym shallow warm"},"geometry":{"type":"Point","coordinates":[-67.5,-30.5]}},{"type":"Feature","properties":{"kind":"center","id":52,"lat":-26.25,"lon":-65.25,"mslp":1017.0,"hvtl":-83.1,"hvtu":-299.5,"hb":16.8,"idx":-2.4,"cls":4,"psfc":920.5,"terrain":true,"radius_km":200,"name":"asym cold"},"geometry":{"type":"Point","coordinates":[-65.25,-26.25]}},{"type":"Feature","properties":{"kind":"center","id":53,"lat":-32.25,"lon":-71.0,"mslp":1017.2,"hvtl":25.8,"hvtu":-186.9,"hb":23.0,"idx":-0.4,"cls":3,"psfc":913.4,"terrain":true,"radius_km":200,"name":"asym shallow warm"},"geometry":{"type":"Point","coordinates":[-71.0,-32.25]}}]}