{"type":"FeatureCollection","features":[{"type":"Feature","properties":{"kind":"blob","cls":5,"id":1},"geometry":{"type":"Polygon","coordinates":[[[-134.25,-66.38],[-131.75,-65.88],[-130.12,-65.0],[-129.88,-64.0],[-130.25,-63.38],[-132.5,-62.38],[-133.25,-62.38],[-134.0,-63.12],[-135.5,-63.12],[-135.5,-62.38],[-134.38,-62.0],[-135.5,-61.62],[-139.5,-61.88],[-141.38,-63.0],[-141.62,-64.0],[-140.75,-64.88],[-138.0,-66.12],[-134.25,-66.38]]]}},{"type":"Feature","properties":{"kind":"blob","cls":0,"id":2},"geometry":{"type":"Polygon","coordinates":[[[127.25,-58.38],[129.25,-56.88],[130.75,-58.38],[133.5,-58.62],[135.25,-58.12],[136.38,-56.75],[134.75,-55.12],[132.0,-54.88],[130.25,-55.38],[129.25,-54.12],[126.0,-53.62],[122.5,-54.38],[121.12,-55.5],[121.12,-57.0],[122.25,-58.12],[127.25,-58.38]],[[124.75,-57.38],[124.38,-57.0],[125.25,-56.38],[127.75,-56.38],[128.12,-56.75],[127.25,-57.38],[124.75,-57.38]]]}},{"type":"Feature","properties":{"kind":"blob","cls":3,"id":3},"geometry":{"type":"Polygon","coordinates":[[[45.25,-66.62],[49.5,-66.62],[50.75,-66.12],[51.62,-65.0],[50.75,-63.88],[48.0,-63.12],[44.0,-63.38],[42.12,-64.5],[41.88,-65.0],[42.75,-66.12],[45.25,-66.62]]]}},{"type":"Feature","properties":{"kind":"blob","cls":4,"id":4},"geometry":{"type":"Polygon","coordinates":[[[151.25,-63.62],[154.75,-63.62],[156.62,-62.25],[156.62,-61.75],[153.75,-59.38],[151.0,-58.38],[148.0,-58.62],[146.75,-59.12],[145.88,-60.0],[145.88,-61.25],[146.5,-61.88],[148.75,-63.12],[151.25,-63.62]]]}},{"type":"Feature","properties":{"kind":"blob","cls":4,"id":5},"geometry":{"type":"Polygon","coordinates":[[[60.5,-66.62],[62.75,-66.12],[63.88,-65.25],[63.88,-64.25],[62.0,-63.12],[58.25,-62.88],[56.0,-63.38],[54.88,-64.25],[54.88,-65.25],[55.25,-65.62],[56.75,-66.38],[60.5,-66.62]]]}},{"type":"Feature","properties":{"kind":"blob","cls":1,"id":6},"geometry":{"type":"Polygon","coordinates":[[[179.88,56.5],[180.0,59.12],[179.0,59.62],[178.0,59.38],[177.5,59.88],[174.25,59.88],[171.75,58.88],[170.88,58.0],[169.38,56.0],[169.38,55.0],[171.0,53.88],[173.5,53.62],[175.25,54.12],[176.25,55.12],[179.88,56.5]]]}},{"type":"Feature","properties":{"kind":"blob","cls":1,"id":6},"geometry":{"type":"Polygon","coordinates":[[[-179.88,59.0],[-180.0,56.62],[-179.75,56.62],[-179.12,58.0],[-179.88,59.0]]]}},{"type":"Feature","properties":{"kind":"blob","cls":3,"id":7},"geometry":{"type":"Polygon","coordinates":[[[75.5,-67.38],[76.75,-66.88],[77.62,-66.0],[77.62,-65.25],[76.0,-63.88],[71.5,-62.62],[67.5,-62.88],[65.62,-64.0],[65.62,-65.25],[66.5,-66.12],[69.5,-67.38],[75.5,-67.38]]]}},{"type":"Feature","properties":{"kind":"blob","cls":1,"id":8},"geometry":{"type":"MultiPolygon","coordinates":[[[[-7.12,-71.75],[-6.75,-71.88],[-5.0,-71.38],[-1.75,-71.62],[3.5,-70.88],[28.5,-70.38],[32.12,-69.75],[30.75,-68.62],[27.5,-67.88],[23.5,-68.12],[21.75,-68.88],[19.75,-67.88],[18.0,-67.62],[12.75,-67.62],[9.25,-68.38],[5.75,-67.62],[-0.75,-67.62],[-4.75,-68.12],[-7.5,-69.12],[-8.12,-70.0],[-7.12,-71.75]]],[[[32.5,-69.88],[33.5,-69.88],[33.75,-69.38],[35.5,-69.62],[41.75,-68.62],[43.38,-68.0],[40.25,-66.88],[35.75,-66.62],[32.75,-67.38],[31.88,-68.25],[32.5,-69.88]]]]}},{"type":"Feature","properties":{"kind":"blob","cls":4,"id":9},"geometry":{"type":"Polygon","coordinates":[[[-40.0,-74.12],[-36.25,-73.38],[-34.12,-72.25],[-33.88,-71.0],[-34.5,-70.38],[-36.5,-69.62],[-41.0,-69.38],[-45.75,-70.12],[-47.62,-71.25],[-47.88,-72.5],[-47.25,-73.12],[-45.0,-73.88],[-40.0,-74.12]]]}},{"type":"Feature","properties":{"kind":"blob","cls":4,"id":10},"geometry":{"type":"MultiPolygon","coordinates":[[[[-20.12,-74.75],[-14.62,-73.75],[-16.5,-73.38],[-18.5,-73.88],[-20.12,-74.75]]],[[[-15.62,-73.25],[-11.75,-73.38],[-11.12,-73.0],[-13.25,-72.88],[-15.62,-73.25]]]]}},{"type":"Feature","properties":{"kind":"blob","cls":4,"id":11},"geometry":{"type":"Polygon","coordinates":[[[-94.75,-58.12],[-92.38,-56.25],[-92.38,-54.5],[-93.25,-53.38],[-96.25,-52.62],[-98.75,-53.62],[-100.12,-55.0],[-100.12,-56.5],[-98.75,-57.88],[-94.75,-58.12]]]}},{"type":"Feature","properties":{"kind":"blob","cls":4,"id":12},"geometry":{"type":"Polygon","coordinates":[[[-33.5,-79.12],[-32.38,-79.0],[-32.5,-78.88],[-33.5,-79.12]]]}},{"type":"Feature","properties":{"kind":"blob","cls":1,"id":13},"geometry":{"type":"MultiPolygon","coordinates":[[[[1.5,62.62],[3.5,63.62],[3.88,64.0],[3.88,65.0],[4.62,65.75],[4.62,66.75],[1.25,68.38],[-5.0,68.62],[-7.25,68.12],[-8.75,66.88],[-10.75,67.88],[-14.75,68.12],[-16.75,67.62],[-18.12,66.75],[-18.12,65.75],[-17.75,65.38],[-15.25,64.88],[-14.75,64.38],[-10.75,64.62],[-9.0,65.38],[-8.5,66.38],[-8.0,65.88],[-7.5,66.38],[-6.25,66.62],[-4.5,66.38],[-3.88,66.0],[-5.0,65.38],[-7.62,65.5],[-5.5,64.62],[-4.75,63.38],[-3.25,62.62],[1.5,62.62]]],[[[-7.75,65.88],[-7.88,65.75],[-7.75,65.62],[-7.75,65.88]]]]}},{"type":"Feature","properties":{"kind":"blob","cls":4,"id":14},"geometry":{"type":"Polygon","coordinates":[[[-61.25,-69.12],[-59.0,-68.62],[-57.62,-67.5],[-57.62,-66.75],[-59.0,-65.62],[-62.25,-65.12],[-63.0,-66.12],[-63.75,-66.12],[-65.62,-67.5],[-65.62,-68.5],[-65.25,-68.88],[-61.25,-69.12]]]}},{"type":"Feature","properties":{"kind":"blob","cls":4,"id":15},"geometry":{"type":"Polygon","coordinates":[[[-38.0,-79.88],[-37.5,-80.12],[-33.88,-79.25],[-35.5,-79.12],[-38.0,-79.88]]]}},{"type":"Feature","properties":{"kind":"blob","cls":4,"id":16},"geometry":{"type":"Polygon","coordinates":[[[-63.0,-81.12],[-47.5,-81.38],[-39.75,-80.62],[-39.38,-80.25],[-52.5,-80.12],[-63.0,-81.12]]]}},{"type":"Feature","properties":{"kind":"blob","cls":4,"id":17},"geometry":{"type":"Polygon","coordinates":[[[-38.62,-80.25],[-38.5,-80.38],[-38.38,-80.25],[-38.62,-80.25]]]}},{"type":"Feature","properties":{"kind":"blob","cls":4,"id":18},"geometry":{"type":"Polygon","coordinates":[[[-66.75,-67.88],[-66.0,-66.62],[-64.5,-66.12],[-63.38,-65.25],[-65.5,-65.38],[-66.75,-65.88],[-67.62,-66.75],[-66.75,-67.88]]]}},{"type":"Feature","properties":{"kind":"blob","cls":0,"id":19},"geometry":{"type":"Polygon","coordinates":[[[160.5,12.88],[162.0,12.88],[162.88,14.0],[162.62,15.5],[161.25,16.38],[160.0,16.12],[159.12,15.0],[159.38,13.5],[160.5,12.88]],[[159.62,14.25],[159.62,14.75],[160.25,15.12],[161.38,14.75],[161.0,14.12],[159.62,14.25]]]}},{"type":"Feature","properties":{"kind":"blob","cls":0,"id":20},"geometry":{"type":"Polygon","coordinates":[[[144.5,15.38],[145.12,16.0],[145.38,17.5],[144.5,18.62],[143.25,18.88],[141.88,18.0],[141.62,16.5],[144.5,15.38]]]}},{"type":"Feature","properties":{"kind":"blob","cls":4,"id":21},"geometry":{"type":"Polygon","coordinates":[[[164.5,-75.38],[165.75,-75.38],[167.5,-74.88],[168.62,-74.0],[168.62,-73.5],[168.25,-73.12],[166.75,-73.12],[165.75,-73.88],[165.0,-73.62],[164.5,-75.38]]]}},{"type":"Feature","properties":{"kind":"blob","cls":4,"id":22},"geometry":{"type":"Polygon","coordinates":[[[169.5,-78.62],[170.5,-78.62],[170.88,-77.75],[168.25,-76.62],[165.12,-76.5],[166.75,-77.38],[169.0,-77.38],[167.62,-77.75],[169.5,-78.62]]]}},{"type":"Feature","properties":{"kind":"blob","cls":4,"id":23},"geometry":{"type":"Polygon","coordinates":[[[-2.75,83.38],[17.0,83.38],[27.25,84.38],[29.0,84.88],[29.38,85.5],[27.25,86.38],[19.0,87.12],[-7.25,87.38],[-21.25,86.62],[-24.0,86.12],[-25.12,85.5],[-23.0,84.62],[-16.75,83.88],[-2.75,83.38]]]}},{"type":"Feature","properties":{"kind":"blob","cls":5,"id":24},"geometry":{"type":"Polygon","coordinates":[[[33.75,53.62],[36.0,54.38],[36.88,55.25],[36.88,56.5],[35.75,57.62],[34.0,58.12],[30.75,57.62],[29.62,56.5],[29.62,55.25],[31.0,54.12],[33.75,53.62]]]}},{"type":"Feature","properties":{"kind":"blob","cls":4,"id":25},"geometry":{"type":"Polygon","coordinates":[[[31.75,59.12],[33.0,59.38],[38.0,61.12],[39.38,62.5],[39.38,63.5],[37.5,64.62],[34.25,64.88],[31.5,64.12],[30.5,63.38],[29.5,63.38],[30.12,61.5],[31.75,59.12]]]}},{"type":"Feature","properties":{"kind":"blob","cls":4,"id":26},"geometry":{"type":"Polygon","coordinates":[[[58.0,75.38],[62.0,75.88],[64.5,76.62],[66.12,78.25],[64.5,79.38],[58.0,80.38],[46.25,80.12],[43.0,79.38],[41.88,78.5],[43.25,77.38],[45.25,76.62],[48.5,75.88],[58.0,75.38]]]}},{"type":"Feature","properties":{"kind":"blob","cls":2,"id":27},"geometry":{"type":"Polygon","coordinates":[[[-125.5,21.12],[-124.38,22.25],[-124.38,24.0],[-125.25,24.88],[-125.75,24.88],[-127.25,23.38],[-127.88,23.5],[-128.0,24.62],[-128.88,23.75],[-128.88,22.0],[-128.0,21.12],[-125.5,21.12]]]}},{"type":"Feature","properties":{"kind":"blob","cls":5,"id":28},"geometry":{"type":"Polygon","coordinates":[[[29.12,59.5],[26.62,60.75],[27.25,59.88],[29.12,59.5]]]}},{"type":"Feature","properties":{"kind":"blob","cls":5,"id":29},"geometry":{"type":"Polygon","coordinates":[[[29.38,59.25],[29.5,59.12],[29.62,59.25],[29.38,59.25]]]}},{"type":"Feature","properties":{"kind":"blob","cls":4,"id":30},"geometry":{"type":"Polygon","coordinates":[[[12.75,56.12],[16.0,56.12],[17.38,57.0],[17.62,58.5],[16.75,59.38],[14.75,60.12],[12.75,60.12],[10.75,59.38],[10.12,58.75],[10.12,57.5],[11.0,56.62],[12.75,56.12]]]}},{"type":"Feature","properties":{"kind":"blob","cls":0,"id":31},"geometry":{"type":"Polygon","coordinates":[[[-95.25,17.38],[-93.75,17.38],[-92.88,18.5],[-93.12,20.0],[-94.5,20.88],[-95.75,20.62],[-96.62,19.5],[-96.38,18.0],[-95.25,17.38]]]}},{"type":"Feature","properties":{"kind":"blob","cls":4,"id":32},"geometry":{"type":"Polygon","coordinates":[[[-113.38,51.75],[-113.25,51.62],[-113.12,51.75],[-113.38,51.75]]]}},{"type":"Feature","properties":{"kind":"blob","cls":4,"id":33},"geometry":{"type":"MultiPolygon","coordinates":[[[[-113.12,52.25],[-113.12,52.75],[-114.0,53.62],[-115.25,54.38],[-116.38,54.25],[-115.88,54.0],[-116.0,53.62],[-114.25,53.12],[-113.12,52.25]]],[[[-116.5,54.38],[-116.38,54.75],[-118.0,55.38],[-119.88,55.25],[-118.75,54.62],[-116.5,54.38]]]]}},{"type":"Feature","properties":{"kind":"blob","cls":4,"id":34},"geometry":{"type":"MultiPolygon","coordinates":[[[[-123.25,37.88],[-121.5,37.62],[-120.38,38.25],[-121.88,40.25],[-122.0,41.12],[-122.88,40.5],[-122.62,39.25],[-123.12,39.5],[-123.62,40.5],[-123.38,41.5],[-124.0,41.88],[-124.88,41.0],[-124.88,39.5],[-123.25,37.88]]],[[[-123.75,42.12],[-123.88,42.0],[-123.75,41.88],[-123.75,42.12]]]]}},{"type":"Feature","properties":{"kind":"blob","cls":3,"id":35},"geometry":{"type":"Polygon","coordinates":[[[-173.5,29.88],[-172.38,30.75],[-172.12,32.25],[-172.75,33.12],[-175.0,33.62],[-176.62,32.75],[-176.62,30.75],[-176.0,30.12],[-173.5,29.88]]]}},{"type":"Feature","properties":{"kind":"blob","cls":4,"id":36},"geometry":{"type":"Polygon","coordinates":[[[-122.62,41.75],[-122.5,41.62],[-122.38,41.75],[-122.62,41.75]]]}},{"type":"Feature","properties":{"kind":"blob","cls":3,"id":37},"geometry":{"type":"Polygon","coordinates":[[[-152.5,75.62],[-150.0,76.12],[-149.0,76.62],[-148.38,77.5],[-149.25,78.38],[-154.25,78.38],[-163.25,77.62],[-167.12,76.75],[-165.0,75.88],[-152.5,75.62]]]}},{"type":"Feature","properties":{"kind":"blob","cls":4,"id":38},"geometry":{"type":"Polygon","coordinates":[[[-118.75,35.38],[-118.62,36.0],[-119.25,36.88],[-119.38,36.0],[-118.75,35.38]]]}},{"type":"Feature","properties":{"kind":"blob","cls":3,"id":39},"geometry":{"type":"Polygon","coordinates":[[[-116.5,34.62],[-115.88,35.25],[-116.5,35.62],[-117.25,35.12],[-116.62,35.75],[-117.75,35.88],[-118.12,35.0],[-116.5,34.62]]]}},{"type":"Feature","properties":{"kind":"blob","cls":4,"id":40},"geometry":{"type":"Polygon","coordinates":[[[-123.0,42.12],[-122.62,42.25],[-122.75,42.38],[-123.0,42.12]]]}},{"type":"Feature","properties":{"kind":"blob","cls":4,"id":41},"geometry":{"type":"Polygon","coordinates":[[[167.5,-36.38],[168.5,-36.38],[169.38,-35.75],[169.62,-34.0],[169.0,-33.12],[167.0,-32.62],[165.38,-33.5],[165.12,-35.25],[166.25,-36.38],[167.0,-35.62],[167.62,-36.0],[167.5,-36.38]]]}},{"type":"Feature","properties":{"kind":"blob","cls":4,"id":42},"geometry":{"type":"Polygon","coordinates":[[[152.75,69.38],[156.0,70.62],[156.62,71.25],[156.62,72.0],[155.25,72.38],[154.62,72.75],[154.75,73.12],[153.25,73.62],[146.5,73.88],[140.75,72.88],[138.62,71.5],[139.25,70.38],[140.25,69.88],[141.75,69.38],[152.75,69.38]]]}},{"type":"Feature","properties":{"kind":"blob","cls":4,"id":43},"geometry":{"type":"Polygon","coordinates":[[[-35.5,59.88],[-32.25,60.88],[-30.38,62.5],[-30.38,63.75],[-31.5,64.88],[-33.0,65.62],[-37.25,65.88],[-40.5,64.38],[-40.62,63.75],[-42.12,62.25],[-42.12,61.5],[-41.25,60.62],[-35.5,59.88]]]}},{"type":"Feature","properties":{"kind":"blob","cls":0,"id":44},"geometry":{"type":"Polygon","coordinates":[[[-73.25,-12.12],[-72.75,-12.38],[-72.12,-11.75],[-72.38,-10.75],[-74.0,-10.62],[-73.88,-11.25],[-73.38,-11.5],[-73.25,-12.12]]]}},{"type":"Feature","properties":{"kind":"blob","cls":1,"id":45},"geometry":{"type":"Polygon","coordinates":[[[-74.0,-12.38],[-74.0,-11.62],[-74.12,-11.75],[-74.0,-12.38]]]}},{"type":"Feature","properties":{"kind":"blob","cls":3,"id":46},"geometry":{"type":"Polygon","coordinates":[[[163.75,32.62],[165.38,33.5],[165.88,35.5],[165.25,36.38],[163.0,36.88],[161.38,36.0],[160.88,34.0],[161.5,33.12],[163.75,32.62]]]}},{"type":"Feature","properties":{"kind":"blob","cls":1,"id":47},"geometry":{"type":"Polygon","coordinates":[[[-66.25,-16.12],[-65.62,-15.25],[-65.88,-13.75],[-67.25,-12.88],[-68.5,-13.12],[-69.12,-13.75],[-68.5,-13.88],[-67.88,-15.25],[-66.25,-16.12]]]}},{"type":"Feature","properties":{"kind":"blob","cls":0,"id":48},"geometry":{"type":"Polygon","coordinates":[[[91.5,61.62],[93.5,62.12],[95.38,63.75],[95.38,64.5],[95.0,65.12],[92.75,66.12],[92.62,64.5],[91.5,63.38],[90.5,63.38],[89.0,64.12],[87.0,66.12],[84.62,65.0],[84.38,64.0],[84.75,63.38],[86.25,62.38],[91.5,61.62]]]}},{"type":"Feature","properties":{"kind":"blob","cls":3,"id":49},"geometry":{"type":"Polygon","coordinates":[[[59.25,28.38],[59.88,29.0],[59.88,30.0],[59.5,30.38],[58.12,29.75],[59.25,28.38]]]}},{"type":"Feature","properties":{"kind":"blob","cls":0,"id":50},"geometry":{"type":"Polygon","coordinates":[[[-74.38,-11.25],[-74.25,-11.38],[-74.12,-11.25],[-74.38,-11.25]]]}},{"type":"Feature","properties":{"kind":"blob","cls":4,"id":51},"geometry":{"type":"Polygon","coordinates":[[[-55.75,34.12],[-54.0,33.88],[-52.38,35.0],[-52.25,36.12],[-50.5,35.88],[-48.5,36.62],[-47.38,38.0],[-47.62,39.0],[-49.25,40.12],[-51.0,40.12],[-52.25,39.62],[-53.12,38.75],[-53.5,37.38],[-54.25,37.88],[-55.5,37.88],[-56.5,37.38],[-57.12,36.75],[-57.12,35.0],[-55.75,34.12]]]}},{"type":"Feature","properties":{"kind":"blob","cls":0,"id":52},"geometry":{"type":"Polygon","coordinates":[[[-75.0,-10.62],[-74.62,-10.5],[-74.75,-10.38],[-75.0,-10.62]]]}},{"type":"Feature","properties":{"kind":"blob","cls":1,"id":53},"geometry":{"type":"Polygon","coordinates":[[[-167.0,78.38],[-166.25,78.12],[-158.5,79.12],[-155.75,79.12],[-155.38,79.5],[-163.25,79.38],[-167.0,78.38]]]}},{"type":"Feature","properties":{"kind":"blob","cls":4,"id":54},"geometry":{"type":"Polygon","coordinates":[[[-76.0,75.12],[-68.75,75.12],[-65.5,76.12],[-65.25,76.62],[-66.88,76.75],[-64.88,77.25],[-65.5,77.88],[-67.75,77.62],[-69.62,78.0],[-68.5,78.62],[-74.5,78.88],[-79.5,78.12],[-81.88,77.0],[-81.5,76.12],[-80.5,75.62],[-76.0,75.12]],[[-71.62,78.25],[-70.12,78.25],[-70.25,78.12],[-71.62,78.25]],[[-68.12,77.0],[-67.38,77.0],[-67.5,76.88],[-68.12,77.0]]]}},{"type":"Feature","properties":{"kind":"blob","cls":5,"id":55},"geometry":{"type":"Polygon","coordinates":[[[58.0,28.12],[58.38,28.25],[57.75,28.88],[58.0,28.12]]]}},{"type":"Feature","properties":{"kind":"blob","cls":4,"id":56},"geometry":{"type":"Polygon","coordinates":[[[62.12,30.0],[61.25,30.62],[60.88,30.5],[61.25,30.12],[62.12,30.0]]]}},{"type":"Feature","properties":{"kind":"blob","cls":4,"id":57},"geometry":{"type":"Polygon","coordinates":[[[62.5,29.62],[63.12,29.75],[63.0,29.88],[62.5,29.62]]]}},{"type":"Feature","properties":{"kind":"blob","cls":3,"id":58},"geometry":{"type":"MultiPolygon","coordinates":[[[[95.0,25.38],[94.88,25.25],[95.0,25.12],[95.0,25.38]]],[[[95.25,25.62],[95.12,25.5],[95.5,25.38],[95.25,25.62]]]]}},{"type":"Feature","properties":{"kind":"blob","cls":5,"id":59},"geometry":{"type":"Polygon","coordinates":[[[94.0,25.62],[94.38,26.25],[93.0,26.88],[92.88,26.25],[94.0,25.62]]]}},{"type":"Feature","properties":{"kind":"blob","cls":4,"id":60},"geometry":{"type":"Polygon","coordinates":[[[-25.5,-33.62],[-24.0,-33.62],[-22.88,-32.75],[-22.62,-31.25],[-23.25,-30.38],[-24.5,-29.88],[-26.0,-29.88],[-27.62,-30.75],[-27.62,-32.75],[-25.5,-33.62]]]}},{"type":"Feature","properties":{"kind":"blob","cls":4,"id":61},"geometry":{"type":"Polygon","coordinates":[[[-64.38,-22.5],[-64.25,-22.88],[-63.38,-22.0],[-63.38,-21.0],[-64.0,-20.62],[-64.12,-21.25],[-63.62,-21.5],[-64.38,-22.5]]]}},{"type":"Feature","properties":{"kind":"blob","cls":4,"id":62},"geometry":{"type":"MultiPolygon","coordinates":[[[[-64.75,-26.38],[-64.38,-26.0],[-64.5,-24.62],[-65.12,-25.75],[-64.75,-26.38]]],[[[-64.88,-25.0],[-65.0,-24.88],[-65.12,-25.0],[-64.88,-25.0]]],[[[-64.88,-24.25],[-64.75,-24.62],[-64.62,-24.5],[-64.88,-24.25]]]]}},{"type":"Feature","properties":{"kind":"blob","cls":4,"id":63},"geometry":{"type":"Polygon","coordinates":[[[-68.75,-33.12],[-68.0,-32.88],[-67.38,-32.0],[-67.5,-31.38],[-68.12,-31.5],[-67.62,-31.0],[-68.25,-29.88],[-68.62,-30.5],[-68.75,-33.12]]]}},{"type":"Feature","properties":{"kind":"blob","cls":4,"id":64},"geometry":{"type":"Polygon","coordinates":[[[-35.25,45.12],[-34.0,45.62],[-33.12,46.5],[-33.12,47.75],[-34.0,48.62],[-35.25,49.12],[-36.75,49.12],[-38.0,48.62],[-38.88,47.75],[-38.88,46.5],[-38.0,45.62],[-35.25,45.12]]]}},{"type":"Feature","properties":{"kind":"blob","cls":4,"id":65},"geometry":{"type":"Polygon","coordinates":[[[-65.25,-26.88],[-65.25,-26.12],[-65.38,-26.25],[-65.25,-26.88]]]}},{"type":"Feature","properties":{"kind":"blob","cls":4,"id":66},"geometry":{"type":"Polygon","coordinates":[[[-71.25,-32.62],[-70.62,-32.75],[-71.12,-32.0],[-71.0,-29.88],[-71.62,-30.75],[-71.25,-32.62]]]}},{"type":"Feature","properties":{"kind":"blob","cls":3,"id":67},"geometry":{"type":"MultiPolygon","coordinates":[[[[103.0,52.38],[102.88,52.25],[103.0,52.12],[103.0,52.38]]],[[[101.75,52.62],[102.25,52.38],[102.88,52.5],[102.25,52.88],[101.75,52.62]]]]}},{"type":"Feature","properties":{"kind":"blob","cls":3,"id":68},"geometry":{"type":"Polygon","coordinates":[[[52.5,36.38],[53.25,36.12],[53.62,36.5],[53.25,36.62],[52.5,36.38]]]}},{"type":"Feature","properties":{"kind":"center","id":1,"lat":-63.5,"lon":-136.5,"mslp":951.2,"hvtl":-46.3,"hvtu":-79.2,"hb":7.2,"idx":-1.5,"cls":5,"psfc":951.2,"terrain":false,"radius_km":200,"name":"sym cold","track":"T14"},"geometry":{"type":"Point","coordinates":[-136.5,-63.5]}},{"type":"Feature","properties":{"kind":"center","id":2,"lat":-56.25,"lon":125.25,"mslp":957.7,"hvtl":166.9,"hvtu":30.4,"hb":-41.4,"idx":2.2,"cls":0,"psfc":957.7,"terrain":false,"radius_km":200,"name":"sym deep warm","track":"T22"},"geometry":{"type":"Point","coordinates":[125.25,-56.25]}},{"type":"Feature","properties":{"kind":"center","id":3,"lat":-65.0,"lon":47.0,"mslp":958.2,"hvtl":151.4,"hvtu":-52.3,"hb":38.7,"idx":1.3,"cls":3,"psfc":958.2,"terrain":false,"radius_km":200,"name":"asym shallow warm","track":"T16"},"geometry":{"type":"Point","coordinates":[47.0,-65.0]}},{"type":"Feature","properties":{"kind":"center","id":4,"lat":-61.0,"lon":150.25,"mslp":958.3,"hvtl":-62.0,"hvtu":-163.8,"hb":57.7,"idx":-2.0,"cls":4,"psfc":958.3,"terrain":false,"radius_km":200,"name":"asym cold","track":"T17"},"geometry":{"type":"Point","coordinates":[150.25,-61.0]}},{"type":"Feature","properties":{"kind":"center","id":5,"lat":-64.75,"lon":59.0,"mslp":967.5,"hvtl":-115.4,"hvtu":-126.5,"hb":62.1,"idx":-2.5,"cls":4,"psfc":967.5,"terrain":false,"radius_km":200,"name":"asym cold"},"geometry":{"type":"Point","coordinates":[59.0,-64.75]}},{"type":"Feature","properties":{"kind":"center","id":6,"lat":57.5,"lon":175.5,"mslp":968.9,"hvtl":17.9,"hvtu":-253.4,"hb":1.6,"idx":-0.6,"cls":1,"psfc":968.9,"terrain":false,"radius_km":200,"name":"sym shallow warm","track":"T07"},"geometry":{"type":"Point","coordinates":[175.5,57.5]}},{"type":"Feature","properties":{"kind":"center","id":7,"lat":-65.5,"lon":71.75,"mslp":969.3,"hvtl":145.2,"hvtu":-196.0,"hb":80.6,"idx":0.8,"cls":3,"psfc":969.3,"terrain":false,"radius_km":200,"name":"asym shallow warm","track":"T20"},"geometry":{"type":"Point","coordinates":[71.75,-65.5]}},{"type":"Feature","properties":{"kind":"center","id":8,"lat":-67.75,"lon":42.5,"mslp":970.1,"hvtl":138.9,"hvtu":-122.0,"hb":5.4,"idx":0.9,"cls":1,"psfc":970.1,"terrain":false,"radius_km":200,"name":"sym shallow warm","track":"T36"},"geometry":{"type":"Point","coordinates":[42.5,-67.75]}},{"type":"Feature","properties":{"kind":"center","id":9,"lat":-71.0,"lon":-38.5,"mslp":974.3,"hvtl":-187.5,"hvtu":-153.4,"hb":31.9,"idx":-2.8,"cls":4,"psfc":974.3,"terrain":false,"radius_km":200,"name":"asym cold","track":"T45"},"geometry":{"type":"Point","coordinates":[-38.5,-71.0]}},{"type":"Feature","properties":{"kind":"center","id":10,"lat":-73.25,"lon":-13.75,"mslp":976.4,"hvtl":-176.8,"hvtu":-83.1,"hb":25.8,"idx":-2.6,"cls":4,"psfc":930.7,"terrain":false,"radius_km":200,"name":"asym cold","track":"T50"},"geometry":{"type":"Point","coordinates":[-13.75,-73.25]}},{"type":"Feature","properties":{"kind":"center","id":11,"lat":-55.75,"lon":-96.25,"mslp":980.0,"hvtl":-47.1,"hvtu":-198.9,"hb":41.9,"idx":-1.8,"cls":4,"psfc":980.0,"terrain":false,"radius_km":200,"name":"asym cold","track":"T39"},"geometry":{"type":"Point","coordinates":[-96.25,-55.75]}},{"type":"Feature","properties":{"kind":"center","id":12,"lat":-79.0,"lon":-32.75,"mslp":980.3,"hvtl":-396.1,"hvtu":-53.4,"hb":50.6,"idx":-2.5,"cls":4,"psfc":939.0,"terrain":false,"radius_km":200,"name":"asym cold","track":"T58"},"geometry":{"type":"Point","coordinates":[-32.75,-79.0]}},{"type":"Feature","properties":{"kind":"center","id":13,"lat":66.25,"lon":-13.25,"mslp":980.3,"hvtl":195.7,"hvtu":-27.6,"hb":-21.6,"idx":1.7,"cls":1,"psfc":980.3,"terrain":false,"radius_km":200,"name":"sym shallow warm","track":"T53"},"geometry":{"type":"Point","coordinates":[-13.25,66.25]}},{"type":"Feature","properties":{"kind":"center","id":14,"lat":-67.25,"lon":-62.5,"mslp":980.5,"hvtl":-241.4,"hvtu":-422.3,"hb":51.2,"idx":-3.0,"cls":4,"psfc":975.5,"terrain":false,"radius_km":200,"name":"asym cold","track":"T32"},"geometry":{"type":"Point","coordinates":[-62.5,-67.25]}},{"type":"Feature","properties":{"kind":"center","id":15,"lat":-79.25,"lon":-35.5,"mslp":980.9,"hvtl":-399.6,"hvtu":-44.1,"hb":51.6,"idx":-2.4,"cls":4,"psfc":965.1,"terrain":false,"radius_km":200,"name":"asym cold"},"geometry":{"type":"Point","coordinates":[-35.5,-79.25]}},{"type":"Feature","properties":{"kind":"center","id":16,"lat":-80.25,"lon":-46.5,"mslp":980.9,"hvtl":-390.0,"hvtu":-21.9,"hb":47.7,"idx":-2.2,"cls":4,"psfc":901.6,"terrain":false,"radius_km":200,"name":"asym cold","track":"T60"},"geometry":{"type":"Point","coordinates":[-46.5,-80.25]}},{"type":"Feature","properties":{"kind":"center","id":17,"lat":-80.25,"lon":-38.5,"mslp":981.1,"hvtl":-397.4,"hvtu":-28.7,"hb":44.6,"idx":-2.3,"cls":4,"psfc":966.6,"terrain":false,"radius_km":200,"name":"asym cold"},"geometry":{"type":"Point","coordinates":[-38.5,-80.25]}},{"type":"Feature","properties":{"kind":"center","id":18,"lat":-67.5,"lon":-67.25,"mslp":981.8,"hvtl":-222.9,"hvtu":-425.9,"hb":39.0,"idx":-3.0,"cls":4,"psfc":919.1,"terrain":false,"radius_km":200,"name":"asym cold"},"geometry":{"type":"Point","coordinates":[-67.25,-67.5]}},{"type":"Feature","properties":{"kind":"center","id":19,"lat":14.25,"lon":161.25,"mslp":982.1,"hvtl":127.5,"hvtu":142.8,"hb":-4.3,"idx":2.6,"cls":0,"psfc":982.1,"terrain":false,"radius_km":200,"name":"sym deep warm","track":"T02"},"geometry":{"type":"Point","coordinates":[161.25,14.25]}},{"type":"Feature","properties":{"kind":"center","id":20,"lat":17.0,"lon":143.5,"mslp":984.4,"hvtl":58.3,"hvtu":148.8,"hb":3.0,"idx":2.0,"cls":0,"psfc":984.4,"terrain":false,"radius_km":200,"name":"sym deep warm","track":"T08"},"geometry":{"type":"Point","coordinates":[143.5,17.0]}},{"type":"Feature","properties":{"kind":"center","id":21,"lat":-74.25,"lon":168.25,"mslp":986.1,"hvtl":-64.8,"hvtu":-157.8,"hb":32.2,"idx":-2.1,"cls":4,"psfc":986.1,"terrain":false,"radius_km":200,"name":"asym cold","track":"T64"},"geometry":{"type":"Point","coordinates":[168.25,-74.25]}},{"type":"Feature","properties":{"kind":"center","id":22,"lat":-77.25,"lon":167.5,"mslp":986.7,"hvtl":-47.6,"hvtu":-41.2,"hb":37.7,"idx":-1.3,"cls":4,"psfc":983.3,"terrain":false,"radius_km":200,"name":"asym cold","track":"T59"},"geometry":{"type":"Point","coordinates":[167.5,-77.25]}},{"type":"Feature","properties":{"kind":"center","id":23,"lat":85.25,"lon":3.5,"mslp":989.4,"hvtl":-45.8,"hvtu":-88.9,"hb":67.7,"idx":-1.6,"cls":4,"psfc":989.4,"terrain":false,"radius_km":200,"name":"asym cold","track":"T73"},"geometry":{"type":"Point","coordinates":[3.5,85.25]}},{"type":"Feature","properties":{"kind":"center","id":24,"lat":55.75,"lon":33.25,"mslp":991.8,"hvtl":-16.0,"hvtu":-152.8,"hb":-11.5,"idx":-1.2,"cls":5,"psfc":963.4,"terrain":false,"radius_km":200,"name":"sym cold","track":"T67"},"geometry":{"type":"Point","coordinates":[33.25,55.75]}},{"type":"Feature","properties":{"kind":"center","id":25,"lat":61.25,"lon":30.75,"mslp":992.4,"hvtl":-25.8,"hvtu":-141.6,"hb":26.9,"idx":-1.4,"cls":4,"psfc":992.2,"terrain":false,"radius_km":200,"name":"asym cold","track":"T70"},"geometry":{"type":"Point","coordinates":[30.75,61.25]}},{"type":"Feature","properties":{"kind":"center","id":26,"lat":78.0,"lon":55.0,"mslp":992.7,"hvtl":-35.5,"hvtu":-10.2,"hb":23.1,"idx":-0.8,"cls":4,"psfc":992.7,"terrain":false,"radius_km":200,"name":"asym cold","track":"T41"},"geometry":{"type":"Point","coordinates":[55.0,78.0]}},{"type":"Feature","properties":{"kind":"center","id":27,"lat":23.0,"lon":-126.75,"mslp":992.8,"hvtl":88.7,"hvtu":76.8,"hb":10.1,"idx":2.1,"cls":2,"psfc":992.8,"terrain":false,"radius_km":200,"name":"asym deep warm","track":"T48"},"geometry":{"type":"Point","coordinates":[-126.75,23.0]}},{"type":"Feature","properties":{"kind":"center","id":28,"lat":59.75,"lon":28.5,"mslp":993.9,"hvtl":-30.0,"hvtu":-144.3,"hb":-19.9,"idx":-1.5,"cls":5,"psfc":989.3,"terrain":false,"radius_km":200,"name":"sym cold"},"geometry":{"type":"Point","coordinates":[28.5,59.75]}},{"type":"Feature","properties":{"kind":"center","id":29,"lat":59.25,"lon":29.5,"mslp":994.6,"hvtl":-17.5,"hvtu":-144.8,"hb":-23.2,"idx":-1.2,"cls":5,"psfc":982.0,"terrain":false,"radius_km":200,"name":"sym cold"},"geometry":{"type":"Point","coordinates":[29.5,59.25]}},{"type":"Feature","properties":{"kind":"center","id":30,"lat":58.0,"lon":13.75,"mslp":996.4,"hvtl":-193.8,"hvtu":-174.1,"hb":45.8,"idx":-2.9,"cls":4,"psfc":966.6,"terrain":false,"radius_km":200,"name":"asym cold","track":"T83"},"geometry":{"type":"Point","coordinates":[13.75,58.0]}},{"type":"Feature","properties":{"kind":"center","id":31,"lat":19.0,"lon":-94.75,"mslp":997.1,"hvtl":58.3,"hvtu":34.2,"hb":6.9,"idx":1.4,"cls":0,"psfc":997.1,"terrain":false,"radius_km":200,"name":"sym deep warm","track":"T90"},"geometry":{"type":"Point","coordinates":[-94.75,19.0]}},{"type":"Feature","properties":{"kind":"center","id":32,"lat":51.75,"lon":-113.25,"mslp":998.5,"hvtl":-72.0,"hvtu":-156.7,"hb":106.1,"idx":-2.2,"cls":4,"psfc":900.5,"terrain":true,"radius_km":200,"name":"asym cold"},"geometry":{"type":"Point","coordinates":[-113.25,51.75]}},{"type":"Feature","properties":{"kind":"center","id":33,"lat":52.25,"lon":-113.25,"mslp":999.0,"hvtl":-36.2,"hvtu":-173.7,"hb":109.3,"idx":-1.6,"cls":4,"psfc":902.4,"terrain":true,"radius_km":200,"name":"asym cold"},"geometry":{"type":"Point","coordinates":[-113.25,52.25]}},{"type":"Feature","properties":{"kind":"center","id":34,"lat":40.25,"lon":-122.25,"mslp":1000.1,"hvtl":-29.7,"hvtu":-96.9,"hb":84.5,"idx":-1.3,"cls":4,"psfc":984.7,"terrain":false,"radius_km":200,"name":"asym cold"},"geometry":{"type":"Point","coordinates":[-122.25,40.25]}},{"type":"Feature","properties":{"kind":"center","id":35,"lat":31.75,"lon":-174.5,"mslp":1000.9,"hvtl":19.4,"hvtu":-211.4,"hb":10.1,"idx":-0.6,"cls":3,"psfc":1000.9,"terrain":false,"radius_km":200,"name":"asym shallow warm","track":"T81"},"geometry":{"type":"Point","coordinates":[-174.5,31.75]}},{"type":"Feature","properties":{"kind":"center","id":36,"lat":41.75,"lon":-122.5,"mslp":1001.1,"hvtl":-18.4,"hvtu":-84.2,"hb":92.9,"idx":-1.1,"cls":4,"psfc":903.3,"terrain":true,"radius_km":200,"name":"asym cold"},"geometry":{"type":"Point","coordinates":[-122.5,41.75]}},{"type":"Feature","properties":{"kind":"center","id":37,"lat":77.5,"lon":-158.5,"mslp":1001.6,"hvtl":101.9,"hvtu":-256.3,"hb":50.7,"idx":0.6,"cls":3,"psfc":1001.6,"terrain":false,"radius_km":200,"name":"asym shallow warm","track":"T101"},"geometry":{"type":"Point","coordinates":[-158.5,77.5]}},{"type":"Feature","properties":{"kind":"center","id":38,"lat":36.5,"lon":-119.25,"mslp":1001.8,"hvtl":-9.7,"hvtu":-174.2,"hb":50.5,"idx":-1.1,"cls":4,"psfc":983.5,"terrain":false,"radius_km":200,"name":"asym cold","track":"T96"},"geometry":{"type":"Point","coordinates":[-119.25,36.5]}},{"type":"Feature","properties":{"kind":"center","id":39,"lat":35.0,"lon":-116.25,"mslp":1001.8,"hvtl":26.7,"hvtu":-173.9,"hb":19.2,"idx":-0.4,"cls":3,"psfc":942.3,"terrain":false,"radius_km":200,"name":"asym shallow warm","track":"T95"},"geometry":{"type":"Point","coordinates":[-116.25,35.0]}},{"type":"Feature","properties":{"kind":"center","id":40,"lat":42.25,"lon":-123.0,"mslp":1004.0,"hvtl":-20.9,"hvtu":-76.4,"hb":92.1,"idx":-1.1,"cls":4,"psfc":921.8,"terrain":false,"radius_km":200,"name":"asym cold"},"geometry":{"type":"Point","coordinates":[-123.0,42.25]}},{"type":"Feature","properties":{"kind":"center","id":41,"lat":-34.5,"lon":167.5,"mslp":1004.1,"hvtl":-43.4,"hvtu":-38.1,"hb":10.2,"idx":-1.2,"cls":4,"psfc":1004.1,"terrain":false,"radius_km":200,"name":"asym cold","track":"T107"},"geometry":{"type":"Point","coordinates":[167.5,-34.5]}},{"type":"Feature","properties":{"kind":"center","id":42,"lat":71.25,"lon":146.75,"mslp":1004.5,"hvtl":-18.7,"hvtu":-61.3,"hb":26.0,"idx":-0.9,"cls":4,"psfc":1002.8,"terrain":false,"radius_km":200,"name":"asym cold","track":"T110"},"geometry":{"type":"Point","coordinates":[146.75,71.25]}},{"type":"Feature","properties":{"kind":"center","id":43,"lat":63.5,"lon":-36.0,"mslp":1004.7,"hvtl":-117.4,"hvtu":-106.4,"hb":24.4,"idx":-2.4,"cls":4,"psfc":1004.7,"terrain":false,"radius_km":200,"name":"asym cold","track":"T62"},"geometry":{"type":"Point","coordinates":[-36.0,63.5]}},{"type":"Feature","properties":{"kind":"center","id":44,"lat":-10.75,"lon":-73.5,"mslp":1005.6,"hvtl":64.7,"hvtu":3.2,"hb":3.1,"idx":1.2,"cls":0,"psfc":972.4,"terrain":false,"radius_km":200,"name":"sym deep warm"},"geometry":{"type":"Point","coordinates":[-73.5,-10.75]}},{"type":"Feature","properties":{"kind":"center","id":45,"lat":-12.0,"lon":-74.0,"mslp":1005.7,"hvtl":73.1,"hvtu":-13.3,"hb":-5.6,"idx":1.1,"cls":1,"psfc":929.7,"terrain":false,"radius_km":200,"name":"sym shallow warm"},"geometry":{"type":"Point","coordinates":[-74.0,-12.0]}},{"type":"Feature","properties":{"kind":"center","id":46,"lat":34.75,"lon":163.25,"mslp":1006.3,"hvtl":159.8,"hvtu":-170.1,"hb":46.1,"idx":0.9,"cls":3,"psfc":1006.3,"terrain":false,"radius_km":200,"name":"asym shallow warm","track":"T40"},"geometry":{"type":"Point","coordinates":[163.25,34.75]}},{"type":"Feature","properties":{"kind":"center","id":47,"lat":-14.75,"lon":-67.5,"mslp":1006.4,"hvtl":22.5,"hvtu":-128.0,"hb":5.8,"idx":-0.4,"cls":1,"psfc":965.9,"terrain":false,"radius_km":200,"name":"sym shallow warm"},"geometry":{"type":"Point","coordinates":[-67.5,-14.75]}},{"type":"Feature","properties":{"kind":"center","id":48,"lat":64.0,"lon":89.25,"mslp":1006.5,"hvtl":53.1,"hvtu":22.8,"hb":-16.0,"idx":1.2,"cls":0,"psfc":966.0,"terrain":false,"radius_km":200,"name":"sym deep warm","track":"T103"},"geometry":{"type":"Point","coordinates":[89.25,64.0]}},{"type":"Feature","properties":{"kind":"center","id":49,"lat":29.75,"lon":58.5,"mslp":1006.9,"hvtl":6.0,"hvtu":-69.4,"hb":20.1,"idx":-0.5,"cls":3,"psfc":968.2,"terrain":false,"radius_km":200,"name":"asym shallow warm","track":"T106"},"geometry":{"type":"Point","coordinates":[58.5,29.75]}},{"type":"Feature","properties":{"kind":"center","id":50,"lat":-11.25,"lon":-74.25,"mslp":1007.7,"hvtl":64.7,"hvtu":1.8,"hb":-9.7,"idx":1.2,"cls":0,"psfc":901.6,"terrain":true,"radius_km":200,"name":"sym deep warm"},"geometry":{"type":"Point","coordinates":[-74.25,-11.25]}},{"type":"Feature","properties":{"kind":"center","id":51,"lat":35.75,"lon":-54.75,"mslp":1007.9,"hvtl":-42.3,"hvtu":-197.5,"hb":28.1,"idx":-1.8,"cls":4,"psfc":1007.9,"terrain":false,"radius_km":200,"name":"asym cold","track":"T113"},"geometry":{"type":"Point","coordinates":[-54.75,35.75]}},{"type":"Feature","properties":{"kind":"center","id":52,"lat":-10.5,"lon":-74.75,"mslp":1008.0,"hvtl":64.7,"hvtu":12.5,"hb":-18.8,"idx":1.3,"cls":0,"psfc":928.4,"terrain":false,"radius_km":200,"name":"sym deep warm"},"geometry":{"type":"Point","coordinates":[-74.75,-10.5]}},{"type":"Feature","properties":{"kind":"center","id":53,"lat":79.0,"lon":-158.75,"mslp":1008.3,"hvtl":69.9,"hvtu":-224.9,"hb":-38.5,"idx":0.2,"cls":1,"psfc":1008.3,"terrain":false,"radius_km":200,"name":"sym shallow warm","track":"T97"},"geometry":{"type":"Point","coordinates":[-158.75,79.0]}},{"type":"Feature","properties":{"kind":"center","id":54,"lat":76.75,"lon":-73.5,"mslp":1009.2,"hvtl":-111.6,"hvtu":-74.3,"hb":43.8,"idx":-2.2,"cls":4,"psfc":1009.1,"terrain":false,"radius_km":200,"name":"asym cold","track":"T115"},"geometry":{"type":"Point","coordinates":[-73.5,76.75]}},{"type":"Feature","properties":{"kind":"center","id":55,"lat":28.5,"lon":57.75,"mslp":1009.3,"hvtl":-31.5,"hvtu":-71.9,"hb":9.2,"idx":-1.2,"cls":5,"psfc":939.7,"terrain":false,"radius_km":200,"name":"sym cold","track":"T112"},"geometry":{"type":"Point","coordinates":[57.75,28.5]}},{"type":"Feature","properties":{"kind":"center","id":56,"lat":30.0,"lon":62.0,"mslp":1009.8,"hvtl":-56.9,"hvtu":-58.2,"hb":15.6,"idx":-1.6,"cls":4,"psfc":951.6,"terrain":false,"radius_km":200,"name":"asym cold","track":"T114"},"geometry":{"type":"Point","coordinates":[62.0,30.0]}},{"type":"Feature","properties":{"kind":"center","id":57,"lat":29.75,"lon":62.5,"mslp":1010.4,"hvtl":-51.4,"hvtu":-55.9,"hb":13.9,"idx":-1.5,"cls":4,"psfc":947.4,"terrain":false,"radius_km":200,"name":"asym cold","track":"T122"},"geometry":{"type":"Point","coordinates":[62.5,29.75]}},{"type":"Feature","properties":{"kind":"center","id":58,"lat":25.5,"lon":95.5,"mslp":1012.6,"hvtl":2.2,"hvtu":-131.7,"hb":13.7,"idx":-0.8,"cls":3,"psfc":988.8,"terrain":false,"radius_km":200,"name":"asym shallow warm","track":"T120"},"geometry":{"type":"Point","coordinates":[95.5,25.5]}},{"type":"Feature","properties":{"kind":"center","id":59,"lat":26.75,"lon":93.0,"mslp":1012.8,"hvtl":-11.8,"hvtu":-131.0,"hb":8.9,"idx":-1.1,"cls":5,"psfc":1003.1,"terrain":false,"radius_km":200,"name":"sym cold"},"geometry":{"type":"Point","coordinates":[93.0,26.75]}},{"type":"Feature","properties":{"kind":"center","id":60,"lat":-31.75,"lon":-25.5,"mslp":1013.9,"hvtl":-236.3,"hvtu":-261.5,"hb":71.3,"idx":-3.0,"cls":4,"psfc":1013.9,"terrain":false,"radius_km":200,"name":"asym cold","track":"T76"},"geometry":{"type":"Point","coordinates":[-25.5,-31.75]}},{"type":"Feature","properties":{"kind":"center","id":61,"lat":-21.0,"lon":-64.0,"mslp":1014.6,"hvtl":-45.2,"hvtu":-254.7,"hb":51.7,"idx":-1.8,"cls":4,"psfc":922.9,"terrain":true,"radius_km":200,"name":"asym cold"},"geometry":{"type":"Point","coordinates":[-64.0,-21.0]}},{"type":"Feature","properties":{"kind":"center","id":62,"lat":-24.25,"lon":-64.75,"mslp":1015.1,"hvtl":-114.2,"hvtu":-210.1,"hb":16.7,"idx":-2.6,"cls":4,"psfc":950.0,"terrain":false,"radius_km":200,"name":"asym cold"},"geometry":{"type":"Point","coordinates":[-64.75,-24.25]}},{"type":"Feature","properties":{"kind":"center","id":63,"lat":-30.0,"lon":-68.25,"mslp":1016.0,"hvtl":-18.5,"hvtu":-204.1,"hb":49.5,"idx":-1.3,"cls":4,"psfc":909.6,"terrain":true,"radius_km":200,"name":"asym cold"},"geometry":{"type":"Point","coordinates":[-68.25,-30.0]}},{"type":"Feature","properties":{"kind":"center","id":64,"lat":47.0,"lon":-36.0,"mslp":1016.1,"hvtl":-61.1,"hvtu":-191.1,"hb":18.4,"idx":-2.0,"cls":4,"psfc":1016.1,"terrain":false,"radius_km":200,"name":"asym cold","track":"T42"},"geometry":{"type":"Point","coordinates":[-36.0,47.0]}},{"type":"Feature","properties":{"kind":"center","id":65,"lat":-26.25,"lon":-65.25,"mslp":1016.3,"hvtl":-125.6,"hvtu":-185.5,"hb":22.4,"idx":-2.7,"cls":4,"psfc":920.3,"terrain":true,"radius_km":200,"name":"asym cold"},"geometry":{"type":"Point","coordinates":[-65.25,-26.25]}},{"type":"Feature","properties":{"kind":"center","id":66,"lat":-30.75,"lon":-71.0,"mslp":1016.4,"hvtl":-43.5,"hvtu":-178.6,"hb":47.7,"idx":-1.8,"cls":4,"psfc":935.6,"terrain":false,"radius_km":200,"name":"asym cold"},"geometry":{"type":"Point","coordinates":[-71.0,-30.75]}},{"type":"Feature","properties":{"kind":"center","id":67,"lat":52.25,"lon":103.0,"mslp":1016.6,"hvtl":46.4,"hvtu":-193.4,"hb":62.8,"idx":-0.1,"cls":3,"psfc":921.4,"terrain":true,"radius_km":200,"name":"asym shallow warm"},"geometry":{"type":"Point","coordinates":[103.0,52.25]}},{"type":"Feature","properties":{"kind":"center","id":68,"lat":36.5,"lon":53.25,"mslp":1019.3,"hvtl":30.6,"hvtu":-238.8,"hb":99.2,"idx":-0.4,"cls":3,"psfc":974.7,"terrain":false,"radius_km":200,"name":"asym shallow warm"},"geometry":{"type":"Point","coordinates":[53.25,36.5]}}]}