{"type":"FeatureCollection","features":[{"type":"Feature","properties":{"kind":"blob","cls":3,"id":1},"geometry":{"type":"Polygon","coordinates":[[[11.5,-64.62],[13.5,-64.12],[14.62,-63.25],[14.62,-62.25],[12.25,-60.62],[6.75,-60.62],[4.25,-59.62],[0.25,-59.88],[0.25,-60.38],[1.62,-60.75],[1.0,-61.12],[-2.5,-61.12],[-3.38,-62.0],[-3.12,-63.25],[-1.5,-64.12],[3.0,-64.38],[5.75,-63.62],[7.25,-64.38],[11.5,-64.62]]]}},{"type":"Feature","properties":{"kind":"blob","cls":0,"id":2},"geometry":{"type":"Polygon","coordinates":[[[147.25,22.88],[148.12,23.75],[148.12,25.25],[146.5,26.38],[145.25,26.12],[144.38,25.25],[144.38,23.75],[145.25,22.88],[147.25,22.88]],[[144.62,24.0],[145.5,24.38],[145.62,23.75],[144.62,24.0]]]}},{"type":"Feature","properties":{"kind":"blob","cls":4,"id":3},"geometry":{"type":"Polygon","coordinates":[[[-126.25,-72.62],[-119.25,-72.62],[-117.25,-71.88],[-116.62,-71.0],[-117.25,-70.12],[-118.75,-69.38],[-126.5,-67.88],[-132.75,-68.62],[-134.0,-69.12],[-134.25,-69.88],[-135.62,-70.25],[-135.0,-71.38],[-134.0,-71.88],[-126.25,-72.62]]]}},{"type":"Feature","properties":{"kind":"blob","cls":6,"id":4},"geometry":{"type":"Polygon","coordinates":[[[-133.25,-64.12],[-131.75,-63.38],[-131.12,-62.5],[-131.5,-61.38],[-135.88,-58.75],[-135.0,-58.38],[-134.12,-57.25],[-134.12,-56.75],[-135.5,-55.38],[-138.5,-54.88],[-141.0,-55.88],[-142.25,-55.38],[-143.75,-55.38],[-146.88,-56.75],[-146.88,-58.5],[-145.5,-59.38],[-143.88,-59.75],[-144.12,-61.25],[-143.5,-61.88],[-139.0,-63.88],[-133.25,-64.12]]]}},{"type":"Feature","properties":{"kind":"blob","cls":4,"id":5},"geometry":{"type":"Polygon","coordinates":[[[131.0,-57.12],[132.75,-56.62],[133.62,-55.75],[133.62,-54.75],[132.25,-53.38],[130.25,-52.62],[128.75,-52.62],[126.75,-53.38],[126.12,-54.25],[126.38,-55.5],[128.0,-56.62],[131.0,-57.12]]]}},{"type":"Feature","properties":{"kind":"blob","cls":4,"id":6},"geometry":{"type":"Polygon","coordinates":[[[134.75,-61.12],[136.5,-60.62],[137.62,-59.25],[136.5,-57.88],[134.75,-57.38],[131.25,-57.88],[130.12,-59.25],[130.38,-59.75],[131.25,-60.62],[134.75,-61.12]]]}},{"type":"Feature","properties":{"kind":"blob","cls":4,"id":7},"geometry":{"type":"Polygon","coordinates":[[[-180.0,-82.88],[-176.75,-83.12],[-155.5,-83.12],[-146.62,-82.25],[-157.0,-81.38],[-167.0,-81.38],[-180.0,-82.88]]]}},{"type":"Feature","properties":{"kind":"blob","cls":6,"id":8},"geometry":{"type":"Polygon","coordinates":[[[164.0,-78.12],[165.25,-78.38],[167.5,-77.88],[166.62,-77.5],[168.5,-77.38],[168.88,-76.5],[167.5,-75.62],[164.75,-75.12],[162.62,-77.0],[164.0,-78.12]]]}},{"type":"Feature","properties":{"kind":"blob","cls":4,"id":9},"geometry":{"type":"Polygon","coordinates":[[[170.25,-73.88],[173.0,-73.38],[174.25,-72.88],[174.88,-71.75],[173.75,-70.62],[170.25,-69.88],[166.25,-69.88],[163.38,-70.5],[163.75,-71.12],[164.5,-71.12],[164.5,-70.62],[166.25,-70.62],[170.62,-71.75],[169.88,-72.25],[170.38,-72.5],[169.5,-73.12],[168.5,-72.88],[166.62,-73.5],[170.25,-73.88]],[[169.75,-73.62],[169.62,-73.5],[169.75,-73.38],[169.75,-73.62]]]}},{"type":"Feature","properties":{"kind":"blob","cls":4,"id":10},"geometry":{"type":"Polygon","coordinates":[[[83.0,-54.88],[84.5,-54.38],[85.38,-53.5],[85.38,-52.25],[84.25,-51.12],[82.75,-50.62],[80.0,-51.12],[78.88,-52.25],[78.88,-53.25],[79.75,-54.12],[83.0,-54.88]]]}},{"type":"Feature","properties":{"kind":"blob","cls":0,"id":11},"geometry":{"type":"Polygon","coordinates":[[[179.75,23.12],[180.0,26.62],[179.0,26.88],[177.38,25.75],[177.38,24.0],[178.25,23.12],[179.75,23.12]]]}},{"type":"Feature","properties":{"kind":"blob","cls":0,"id":11},"geometry":{"type":"Polygon","coordinates":[[[-179.75,26.62],[-180.0,23.12],[-178.88,24.0],[-178.88,25.75],[-179.75,26.62]]]}},{"type":"Feature","properties":{"kind":"blob","cls":4,"id":12},"geometry":{"type":"Polygon","coordinates":[[[162.5,-71.62],[162.62,-71.25],[162.25,-71.12],[162.5,-71.62]]]}},{"type":"Feature","properties":{"kind":"blob","cls":4,"id":13},"geometry":{"type":"Polygon","coordinates":[[[-107.5,-61.62],[-105.75,-61.12],[-104.12,-59.25],[-104.12,-57.75],[-104.75,-57.12],[-106.75,-56.38],[-108.5,-56.38],[-110.5,-57.12],[-112.12,-59.25],[-110.75,-61.12],[-107.5,-61.62]]]}},{"type":"Feature","properties":{"kind":"blob","cls":1,"id":14},"geometry":{"type":"Polygon","coordinates":[[[77.75,-58.12],[79.62,-56.5],[79.62,-55.25],[78.5,-54.12],[76.0,-53.38],[72.75,-53.88],[71.12,-55.25],[71.12,-56.75],[72.25,-57.88],[77.75,-58.12]]]}},{"type":"Feature","properties":{"kind":"blob","cls":1,"id":15},"geometry":{"type":"Polygon","coordinates":[[[-164.25,53.88],[-162.5,54.38],[-161.62,55.25],[-161.62,56.5],[-163.0,57.62],[-167.25,57.38],[-168.12,56.5],[-168.12,55.25],[-166.75,54.12],[-164.25,53.88]]]}},{"type":"Feature","properties":{"kind":"blob","cls":1,"id":16},"geometry":{"type":"Polygon","coordinates":[[[6.0,67.38],[9.75,67.88],[13.0,69.12],[13.62,70.0],[12.75,71.12],[11.5,71.88],[8.0,72.88],[5.5,73.12],[4.5,71.88],[3.0,71.12],[0.25,71.12],[-0.12,71.5],[0.0,72.88],[-2.25,71.88],[-6.0,71.38],[-7.0,70.88],[-7.62,70.0],[-7.0,69.12],[-5.0,68.38],[6.0,67.38]]]}},{"type":"Feature","properties":{"kind":"blob","cls":0,"id":17},"geometry":{"type":"Polygon","coordinates":[[[-114.25,18.62],[-113.0,18.62],[-112.12,19.75],[-112.38,21.25],[-113.75,22.12],[-115.0,21.88],[-115.88,20.75],[-115.5,19.12],[-114.75,20.38],[-113.75,20.38],[-113.38,20.0],[-113.38,19.25],[-114.25,18.62]]]}},{"type":"Feature","properties":{"kind":"blob","cls":4,"id":18},"geometry":{"type":"Polygon","coordinates":[[[-18.5,60.12],[-15.75,60.88],[-14.88,61.5],[-14.62,62.5],[-15.75,63.62],[-17.75,64.12],[-21.75,63.62],[-22.62,63.0],[-23.12,61.75],[-21.25,60.38],[-18.5,60.12]],[[-19.25,63.62],[-19.38,63.75],[-19.25,63.88],[-19.25,63.62]]]}},{"type":"Feature","properties":{"kind":"blob","cls":5,"id":19},"geometry":{"type":"Polygon","coordinates":[[[73.62,-68.5],[74.0,-68.88],[77.5,-67.12],[79.88,-66.5],[76.5,-66.62],[74.5,-67.38],[73.62,-68.5]]]}},{"type":"Feature","properties":{"kind":"blob","cls":3,"id":20},"geometry":{"type":"Polygon","coordinates":[[[40.75,77.38],[46.75,78.12],[49.0,79.12],[49.88,80.0],[49.88,81.0],[47.5,82.12],[44.25,82.62],[32.75,82.88],[25.75,82.12],[22.62,80.75],[23.0,79.88],[25.75,78.62],[30.5,77.62],[40.75,77.38]]]}},{"type":"Feature","properties":{"kind":"blob","cls":5,"id":21},"geometry":{"type":"Polygon","coordinates":[[[-154.5,61.88],[-154.25,62.38],[-153.5,62.38],[-150.75,63.62],[-147.38,64.25],[-150.0,65.12],[-152.75,64.88],[-154.75,64.12],[-155.38,63.5],[-155.38,62.5],[-154.5,61.88]]]}},{"type":"Feature","properties":{"kind":"blob","cls":4,"id":22},"geometry":{"type":"Polygon","coordinates":[[[-152.0,61.38],[-149.25,61.38],[-149.12,61.75],[-149.62,62.0],[-149.38,63.0],[-152.0,62.62],[-152.38,62.0],[-151.88,61.75],[-152.0,61.38]]]}},{"type":"Feature","properties":{"kind":"blob","cls":4,"id":23},"geometry":{"type":"Polygon","coordinates":[[[64.25,55.38],[63.62,56.0],[64.25,56.62],[65.5,56.38],[65.88,57.25],[65.0,58.38],[64.0,58.88],[60.25,58.88],[58.88,58.0],[58.62,56.75],[59.75,55.62],[64.25,55.38]]]}},{"type":"Feature","properties":{"kind":"blob","cls":4,"id":24},"geometry":{"type":"Polygon","coordinates":[[[131.25,65.38],[131.75,65.38],[134.0,65.88],[135.38,67.0],[135.38,67.5],[134.5,68.38],[133.25,68.88],[130.0,69.12],[130.38,68.0],[129.38,66.75],[130.5,66.62],[131.25,65.38]]]}},{"type":"Feature","properties":{"kind":"blob","cls":3,"id":25},"geometry":{"type":"Polygon","coordinates":[[[-79.75,50.88],[-78.25,51.38],[-77.38,52.25],[-77.38,53.5],[-78.25,54.38],[-79.75,54.88],[-82.75,54.38],[-83.62,53.5],[-83.62,52.25],[-82.75,51.38],[-79.75,50.88]]]}},{"type":"Feature","properties":{"kind":"blob","cls":1,"id":26},"geometry":{"type":"Polygon","coordinates":[[[-31.0,59.12],[-29.38,60.25],[-29.38,61.5],[-30.0,62.12],[-32.5,63.12],[-37.25,63.12],[-39.62,61.5],[-39.62,60.5],[-37.5,59.12],[-31.0,59.12]]]}},{"type":"Feature","properties":{"kind":"blob","cls":4,"id":27},"geometry":{"type":"Polygon","coordinates":[[[-124.5,62.12],[-123.5,62.12],[-122.25,62.62],[-121.38,63.5],[-121.38,64.25],[-123.25,65.62],[-129.0,66.88],[-132.25,66.62],[-133.88,65.75],[-133.5,65.38],[-131.75,65.62],[-127.75,65.12],[-126.75,64.62],[-125.75,63.38],[-125.25,63.38],[-125.38,63.0],[-124.5,62.12]]]}},{"type":"Feature","properties":{"kind":"blob","cls":3,"id":28},"geometry":{"type":"Polygon","coordinates":[[[-54.0,67.62],[-52.25,68.38],[-51.62,69.0],[-51.62,69.75],[-52.25,70.38],[-53.12,70.5],[-52.75,70.88],[-56.0,71.62],[-61.0,71.38],[-62.5,70.88],[-63.38,70.0],[-63.38,69.25],[-62.5,68.38],[-60.5,67.62],[-54.0,67.62]],[[-53.5,69.62],[-53.88,70.0],[-52.62,69.75],[-53.5,69.62]]]}},{"type":"Feature","properties":{"kind":"blob","cls":6,"id":29},"geometry":{"type":"Polygon","coordinates":[[[127.88,68.75],[128.0,68.62],[128.12,68.75],[127.88,68.75]]]}},{"type":"Feature","properties":{"kind":"blob","cls":6,"id":30},"geometry":{"type":"Polygon","coordinates":[[[127.12,68.5],[127.25,68.38],[127.38,68.5],[127.12,68.5]]]}},{"type":"Feature","properties":{"kind":"blob","cls":6,"id":31},"geometry":{"type":"MultiPolygon","coordinates":[[[[126.25,67.88],[126.12,67.75],[126.25,67.62],[126.25,67.88]]],[[[126.38,68.0],[126.75,67.88],[126.88,68.25],[126.38,68.0]]]]}},{"type":"Feature","properties":{"kind":"blob","cls":3,"id":32},"geometry":{"type":"Polygon","coordinates":[[[-44.25,-41.12],[-43.12,-39.75],[-43.38,-38.5],[-44.25,-37.62],[-45.5,-37.12],[-47.5,-37.38],[-48.62,-38.75],[-48.62,-39.75],[-47.5,-41.12],[-44.25,-41.12]]]}},{"type":"Feature","properties":{"kind":"blob","cls":4,"id":33},"geometry":{"type":"Polygon","coordinates":[[[-60.75,-80.38],[-57.5,-79.62],[-56.62,-79.0],[-56.62,-78.5],[-58.25,-77.62],[-60.75,-77.12],[-70.75,-76.88],[-75.25,-77.38],[-77.88,-78.5],[-77.5,-79.38],[-76.25,-79.88],[-73.75,-80.38],[-60.75,-80.38]]]}},{"type":"Feature","properties":{"kind":"blob","cls":5,"id":34},"geometry":{"type":"Polygon","coordinates":[[[126.5,66.62],[126.62,67.0],[126.0,67.12],[126.5,66.62]]]}},{"type":"Feature","properties":{"kind":"blob","cls":6,"id":35},"geometry":{"type":"Polygon","coordinates":[[[-58.75,-54.88],[-57.5,-54.62],[-55.62,-53.0],[-55.62,-51.75],[-56.5,-50.88],[-58.0,-50.38],[-61.25,-50.38],[-63.25,-51.12],[-64.12,-52.0],[-64.12,-53.0],[-63.25,-53.88],[-63.38,-52.5],[-62.75,-51.88],[-60.5,-51.88],[-59.38,-52.75],[-58.75,-54.88]]]}},{"type":"Feature","properties":{"kind":"blob","cls":5,"id":36},"geometry":{"type":"Polygon","coordinates":[[[126.75,66.12],[127.38,66.25],[127.25,66.38],[126.75,66.12]]]}},{"type":"Feature","properties":{"kind":"blob","cls":4,"id":37},"geometry":{"type":"Polygon","coordinates":[[[-92.0,-40.88],[-90.5,-39.88],[-87.75,-39.38],[-86.62,-38.25],[-86.62,-36.75],[-88.75,-35.38],[-90.0,-35.38],[-91.75,-36.12],[-92.75,-37.12],[-93.75,-37.38],[-94.88,-38.75],[-94.62,-39.75],[-93.75,-40.62],[-92.0,-40.88]]]}},{"type":"Feature","properties":{"kind":"blob","cls":4,"id":38},"geometry":{"type":"Polygon","coordinates":[[[80.75,55.88],[82.75,56.62],[83.62,57.5],[83.62,59.0],[81.75,60.38],[79.0,61.12],[76.0,60.88],[74.75,60.38],[73.88,59.5],[73.88,58.25],[74.5,57.62],[77.75,56.12],[80.75,55.88]]]}},{"type":"Feature","properties":{"kind":"blob","cls":4,"id":39},"geometry":{"type":"Polygon","coordinates":[[[-122.25,56.12],[-119.25,56.12],[-116.88,57.75],[-116.88,58.75],[-117.5,59.38],[-119.5,60.12],[-121.25,60.12],[-124.25,59.38],[-124.25,58.62],[-121.88,57.25],[-122.38,56.75],[-122.25,56.12]],[[-119.88,56.75],[-118.88,56.75],[-119.0,56.62],[-119.88,56.75]]]}},{"type":"Feature","properties":{"kind":"blob","cls":4,"id":40},"geometry":{"type":"Polygon","coordinates":[[[-58.12,74.5],[-60.25,76.38],[-65.12,76.5],[-63.25,75.12],[-58.12,74.5]]]}},{"type":"Feature","properties":{"kind":"blob","cls":4,"id":41},"geometry":{"type":"Polygon","coordinates":[[[-63.38,-20.5],[-63.0,-20.88],[-61.62,-20.0],[-61.62,-17.75],[-63.0,-16.88],[-63.88,-17.0],[-63.62,-15.5],[-64.5,-14.38],[-66.5,-14.38],[-67.38,-15.5],[-65.5,-17.12],[-64.0,-17.62],[-63.38,-18.25],[-63.88,-19.0],[-63.12,-19.5],[-63.38,-20.5]]]}},{"type":"Feature","properties":{"kind":"blob","cls":4,"id":42},"geometry":{"type":"Polygon","coordinates":[[[132.5,39.38],[134.5,39.38],[135.62,40.5],[135.62,41.5],[134.25,42.88],[131.25,44.12],[130.25,44.12],[128.75,43.38],[128.38,42.5],[128.88,42.5],[128.62,42.25],[129.0,41.88],[129.62,42.0],[129.12,40.75],[132.5,39.38]]]}},{"type":"Feature","properties":{"kind":"blob","cls":1,"id":43},"geometry":{"type":"Polygon","coordinates":[[[68.5,25.12],[69.88,27.0],[69.62,28.25],[68.0,29.38],[67.5,29.38],[67.12,28.75],[66.75,26.88],[65.38,26.75],[66.5,25.12],[68.5,25.12]]]}},{"type":"Feature","properties":{"kind":"blob","cls":3,"id":44},"geometry":{"type":"Polygon","coordinates":[[[71.75,28.62],[73.25,29.38],[74.12,30.5],[74.12,31.75],[73.5,32.38],[70.5,31.88],[70.12,31.5],[70.12,30.0],[69.12,29.5],[71.75,28.62]]]}},{"type":"Feature","properties":{"kind":"blob","cls":1,"id":45},"geometry":{"type":"Polygon","coordinates":[[[-73.25,-12.12],[-72.75,-12.38],[-72.25,-11.88],[-71.75,-12.38],[-71.38,-12.0],[-71.12,-10.0],[-73.25,-7.38],[-73.75,-7.38],[-75.0,-8.12],[-75.75,-8.12],[-75.88,-8.75],[-75.38,-10.25],[-74.75,-10.62],[-74.25,-10.12],[-73.25,-12.12]]]}},{"type":"Feature","properties":{"kind":"blob","cls":4,"id":46},"geometry":{"type":"Polygon","coordinates":[[[-68.25,-34.38],[-67.0,-33.88],[-66.38,-32.75],[-65.38,-32.0],[-65.38,-31.0],[-65.88,-30.25],[-64.38,-28.75],[-64.38,-27.5],[-65.25,-26.38],[-65.88,-27.25],[-65.5,-28.62],[-65.75,-28.38],[-66.25,-28.88],[-66.12,-28.0],[-66.5,-27.62],[-66.88,-28.0],[-66.62,-29.0],[-67.38,-29.75],[-67.38,-31.25],[-68.12,-31.5],[-67.62,-31.0],[-68.25,-29.88],[-68.62,-30.5],[-69.12,-33.5],[-68.38,-33.75],[-68.25,-34.38]],[[-66.62,-31.0],[-66.5,-30.62],[-66.38,-30.75],[-66.62,-31.0]]]}},{"type":"Feature","properties":{"kind":"blob","cls":4,"id":47},"geometry":{"type":"Polygon","coordinates":[[[-118.75,33.38],[-117.5,33.88],[-118.12,34.5],[-117.25,34.38],[-116.88,34.75],[-116.88,35.75],[-117.25,36.12],[-118.75,34.62],[-119.75,34.62],[-118.62,35.0],[-118.62,36.0],[-120.25,37.62],[-121.88,36.5],[-121.88,35.0],[-120.75,33.88],[-118.75,33.38]]]}},{"type":"Feature","properties":{"kind":"blob","cls":4,"id":48},"geometry":{"type":"Polygon","coordinates":[[[-59.0,-81.62],[-49.38,-81.5],[-49.5,-81.38],[-59.0,-81.62]]]}},{"type":"Feature","properties":{"kind":"blob","cls":1,"id":49},"geometry":{"type":"Polygon","coordinates":[[[-74.0,-12.38],[-74.0,-11.62],[-74.12,-11.75],[-74.0,-12.38]]]}},{"type":"Feature","properties":{"kind":"blob","cls":4,"id":50},"geometry":{"type":"Polygon","coordinates":[[[-112.25,49.38],[-110.62,49.25],[-110.62,51.0],[-111.75,51.88],[-114.25,52.12],[-113.12,50.5],[-113.38,50.0],[-112.25,49.38]]]}},{"type":"Feature","properties":{"kind":"blob","cls":1,"id":51},"geometry":{"type":"Polygon","coordinates":[[[81.25,25.38],[82.12,26.25],[82.38,27.5],[81.25,28.88],[78.25,29.88],[76.62,28.75],[76.38,27.75],[78.25,25.62],[81.25,25.38]]]}},{"type":"Feature","properties":{"kind":"blob","cls":4,"id":52},"geometry":{"type":"Polygon","coordinates":[[[-124.38,56.25],[-124.25,56.12],[-124.12,56.25],[-124.38,56.25]]]}},{"type":"Feature","properties":{"kind":"blob","cls":1,"id":53},"geometry":{"type":"Polygon","coordinates":[[[-74.5,-11.38],[-74.12,-11.25],[-74.25,-11.12],[-74.5,-11.38]]]}},{"type":"Feature","properties":{"kind":"blob","cls":1,"id":54},"geometry":{"type":"Polygon","coordinates":[[[87.5,24.88],[88.62,26.5],[88.25,26.88],[87.0,26.88],[84.75,27.62],[84.12,26.5],[84.38,25.75],[85.25,24.88],[87.5,24.88]]]}},{"type":"Feature","properties":{"kind":"blob","cls":1,"id":55},"geometry":{"type":"Polygon","coordinates":[[[-76.12,-9.25],[-76.0,-9.38],[-75.88,-9.25],[-76.12,-9.25]]]}},{"type":"Feature","properties":{"kind":"blob","cls":4,"id":56},"geometry":{"type":"Polygon","coordinates":[[[83.62,47.75],[83.75,47.38],[85.5,47.38],[86.38,48.25],[84.5,48.62],[83.62,47.75]]]}},{"type":"Feature","properties":{"kind":"blob","cls":3,"id":57},"geometry":{"type":"Polygon","coordinates":[[[87.25,43.88],[87.88,44.0],[87.75,44.12],[87.25,43.88]]]}},{"type":"Feature","properties":{"kind":"blob","cls":1,"id":58},"geometry":{"type":"Polygon","coordinates":[[[62.38,30.0],[62.5,29.88],[62.62,30.0],[62.38,30.0]]]}},{"type":"Feature","properties":{"kind":"blob","cls":1,"id":59},"geometry":{"type":"Polygon","coordinates":[[[62.88,29.75],[63.0,29.62],[63.12,29.75],[62.88,29.75]]]}},{"type":"Feature","properties":{"kind":"blob","cls":3,"id":60},"geometry":{"type":"Polygon","coordinates":[[[89.0,42.38],[89.38,43.0],[87.88,43.0],[88.0,42.62],[89.0,42.38]]]}},{"type":"Feature","properties":{"kind":"blob","cls":4,"id":61},"geometry":{"type":"Polygon","coordinates":[[[85.0,45.62],[85.12,46.25],[84.5,46.38],[84.38,46.25],[85.0,45.62]]]}},{"type":"Feature","properties":{"kind":"blob","cls":4,"id":62},"geometry":{"type":"Polygon","coordinates":[[[83.75,46.62],[84.12,46.75],[84.0,46.88],[83.75,46.62]]]}},{"type":"Feature","properties":{"kind":"blob","cls":4,"id":63},"geometry":{"type":"Polygon","coordinates":[[[76.0,43.12],[79.38,43.75],[78.75,44.12],[78.0,43.88],[77.75,44.38],[76.5,44.38],[74.88,43.5],[76.0,43.12]]]}},{"type":"Feature","properties":{"kind":"blob","cls":3,"id":64},"geometry":{"type":"Polygon","coordinates":[[[65.25,36.62],[66.25,36.62],[68.38,38.5],[68.0,38.62],[66.5,37.62],[66.38,38.25],[67.38,39.5],[65.75,39.38],[64.62,38.0],[65.25,36.62]]]}},{"type":"Feature","properties":{"kind":"blob","cls":4,"id":65},"geometry":{"type":"Polygon","coordinates":[[[74.75,42.88],[75.12,43.0],[75.0,43.12],[74.75,42.88]]]}},{"type":"Feature","properties":{"kind":"center","id":1,"lat":-62.0,"lon":1.5,"mslp":937.3,"hvtl":256.0,"hvtu":-151.1,"hb":53.7,"idx":1.1,"cls":3,"psfc":937.3,"terrain":false,"radius_km":200,"name":"asym shallow warm","track":"T04"},"geometry":{"type":"Point","coordinates":[1.5,-62.0]}},{"type":"Feature","properties":{"kind":"center","id":2,"lat":24.5,"lon":146.25,"mslp":941.0,"hvtl":152.7,"hvtu":269.8,"hb":-6.3,"idx":2.8,"cls":0,"psfc":941.1,"terrain":false,"radius_km":200,"name":"sym deep warm","track":"T07"},"geometry":{"type":"Point","coordinates":[146.25,24.5]}},{"type":"Feature","properties":{"kind":"center","id":3,"lat":-70.75,"lon":-123.5,"mslp":943.6,"hvtl":-60.6,"hvtu":-19.8,"hb":11.5,"idx":-1.3,"cls":4,"psfc":943.6,"terrain":false,"radius_km":200,"name":"asym cold","track":"T05"},"geometry":{"type":"Point","coordinates":[-123.5,-70.75]}},{"type":"Feature","properties":{"kind":"center","id":4,"lat":-62.0,"lon":-137.0,"mslp":955.2,"hvtl":-33.6,"hvtu":24.7,"hb":64.5,"idx":-0.4,"cls":6,"psfc":955.2,"terrain":false,"radius_km":200,"name":"shallow cold","track":"T10"},"geometry":{"type":"Point","coordinates":[-137.0,-62.0]}},{"type":"Feature","properties":{"kind":"center","id":5,"lat":-54.5,"lon":129.5,"mslp":955.3,"hvtl":-128.4,"hvtu":-215.1,"hb":48.1,"idx":-2.7,"cls":4,"psfc":955.3,"terrain":false,"radius_km":200,"name":"asym cold"},"geometry":{"type":"Point","coordinates":[129.5,-54.5]}},{"type":"Feature","properties":{"kind":"center","id":6,"lat":-57.75,"lon":132.5,"mslp":957.7,"hvtl":-182.4,"hvtu":-256.9,"hb":69.7,"idx":-2.9,"cls":4,"psfc":957.7,"terrain":false,"radius_km":200,"name":"asym cold","track":"T06"},"geometry":{"type":"Point","coordinates":[132.5,-57.75]}},{"type":"Feature","properties":{"kind":"center","id":7,"lat":-83.0,"lon":-164.25,"mslp":961.4,"hvtl":-407.1,"hvtu":-27.6,"hb":26.9,"idx":-2.3,"cls":4,"psfc":953.4,"terrain":false,"radius_km":200,"name":"asym cold","track":"T25"},"geometry":{"type":"Point","coordinates":[-164.25,-83.0]}},{"type":"Feature","properties":{"kind":"center","id":8,"lat":-76.5,"lon":166.0,"mslp":965.1,"hvtl":-272.2,"hvtu":42.3,"hb":41.3,"idx":-1.6,"cls":6,"psfc":965.1,"terrain":false,"radius_km":200,"name":"shallow cold","track":"T13"},"geometry":{"type":"Point","coordinates":[166.0,-76.5]}},{"type":"Feature","properties":{"kind":"center","id":9,"lat":-70.25,"lon":172.0,"mslp":966.5,"hvtl":-420.3,"hvtu":-253.7,"hb":104.9,"idx":-3.0,"cls":4,"psfc":966.5,"terrain":false,"radius_km":200,"name":"asym cold","track":"T28"},"geometry":{"type":"Point","coordinates":[172.0,-70.25]}},{"type":"Feature","properties":{"kind":"center","id":10,"lat":-52.75,"lon":82.0,"mslp":967.0,"hvtl":-121.6,"hvtu":-462.8,"hb":56.9,"idx":-2.7,"cls":4,"psfc":967.0,"terrain":false,"radius_km":200,"name":"asym cold","track":"T12"},"geometry":{"type":"Point","coordinates":[82.0,-52.75]}},{"type":"Feature","properties":{"kind":"center","id":11,"lat":24.75,"lon":179.25,"mslp":970.5,"hvtl":82.6,"hvtu":326.9,"hb":-1.1,"idx":2.4,"cls":0,"psfc":970.5,"terrain":false,"radius_km":200,"name":"sym deep warm","track":"T40"},"geometry":{"type":"Point","coordinates":[179.25,24.75]}},{"type":"Feature","properties":{"kind":"center","id":12,"lat":-71.25,"lon":162.5,"mslp":970.6,"hvtl":-230.3,"hvtu":-224.9,"hb":91.4,"idx":-2.9,"cls":4,"psfc":902.6,"terrain":false,"radius_km":200,"name":"asym cold","track":"T29"},"geometry":{"type":"Point","coordinates":[162.5,-71.25]}},{"type":"Feature","properties":{"kind":"center","id":13,"lat":-58.75,"lon":-108.0,"mslp":971.6,"hvtl":-205.5,"hvtu":-223.7,"hb":56.6,"idx":-2.9,"cls":4,"psfc":971.6,"terrain":false,"radius_km":200,"name":"asym cold","track":"T34"},"geometry":{"type":"Point","coordinates":[-108.0,-58.75]}},{"type":"Feature","properties":{"kind":"center","id":14,"lat":-56.0,"lon":75.5,"mslp":974.3,"hvtl":166.6,"hvtu":-102.6,"hb":-11.0,"idx":1.1,"cls":1,"psfc":974.3,"terrain":false,"radius_km":200,"name":"sym shallow warm","track":"T49"},"geometry":{"type":"Point","coordinates":[75.5,-56.0]}},{"type":"Feature","properties":{"kind":"center","id":15,"lat":55.75,"lon":-164.75,"mslp":976.6,"hvtl":6.2,"hvtu":-99.8,"hb":6.3,"idx":-0.6,"cls":1,"psfc":976.6,"terrain":false,"radius_km":200,"name":"sym shallow warm","track":"T35"},"geometry":{"type":"Point","coordinates":[-164.75,55.75]}},{"type":"Feature","properties":{"kind":"center","id":16,"lat":70.0,"lon":7.0,"mslp":978.7,"hvtl":25.2,"hvtu":-42.2,"hb":8.3,"idx":0.1,"cls":1,"psfc":978.7,"terrain":false,"radius_km":200,"name":"sym shallow warm","track":"T41"},"geometry":{"type":"Point","coordinates":[7.0,70.0]}},{"type":"Feature","properties":{"kind":"center","id":17,"lat":20.5,"lon":-114.0,"mslp":979.3,"hvtl":87.7,"hvtu":182.1,"hb":3.8,"idx":2.4,"cls":0,"psfc":979.3,"terrain":false,"radius_km":200,"name":"sym deep warm","track":"T48"},"geometry":{"type":"Point","coordinates":[-114.0,20.5]}},{"type":"Feature","properties":{"kind":"center","id":18,"lat":62.25,"lon":-18.75,"mslp":982.7,"hvtl":-98.6,"hvtu":-426.7,"hb":55.7,"idx":-2.5,"cls":4,"psfc":982.7,"terrain":false,"radius_km":200,"name":"asym cold","track":"T55"},"geometry":{"type":"Point","coordinates":[-18.75,62.25]}},{"type":"Feature","properties":{"kind":"center","id":19,"lat":-66.5,"lon":79.75,"mslp":983.4,"hvtl":-70.6,"hvtu":-120.4,"hb":-18.4,"idx":-2.1,"cls":5,"psfc":983.4,"terrain":false,"radius_km":200,"name":"sym cold","track":"T52"},"geometry":{"type":"Point","coordinates":[79.75,-66.5]}},{"type":"Feature","properties":{"kind":"center","id":20,"lat":80.0,"lon":36.5,"mslp":983.5,"hvtl":7.8,"hvtu":-161.0,"hb":31.6,"idx":-0.8,"cls":3,"psfc":983.5,"terrain":false,"radius_km":200,"name":"asym shallow warm","track":"T61"},"geometry":{"type":"Point","coordinates":[36.5,80.0]}},{"type":"Feature","properties":{"kind":"center","id":21,"lat":62.0,"lon":-154.5,"mslp":989.4,"hvtl":-53.4,"hvtu":-102.4,"hb":8.1,"idx":-1.7,"cls":5,"psfc":901.9,"terrain":false,"radius_km":200,"name":"sym cold"},"geometry":{"type":"Point","coordinates":[-154.5,62.0]}},{"type":"Feature","properties":{"kind":"center","id":22,"lat":61.5,"lon":-149.25,"mslp":990.4,"hvtl":-81.5,"hvtu":-79.9,"hb":14.0,"idx":-2.0,"cls":4,"psfc":950.9,"terrain":false,"radius_km":200,"name":"asym cold"},"geometry":{"type":"Point","coordinates":[-149.25,61.5]}},{"type":"Feature","properties":{"kind":"center","id":23,"lat":57.0,"lon":62.25,"mslp":990.5,"hvtl":-116.1,"hvtu":-139.3,"hb":33.1,"idx":-2.5,"cls":4,"psfc":972.3,"terrain":false,"radius_km":200,"name":"asym cold","track":"T77"},"geometry":{"type":"Point","coordinates":[62.25,57.0]}},{"type":"Feature","properties":{"kind":"center","id":24,"lat":67.25,"lon":130.75,"mslp":993.7,"hvtl":-76.9,"hvtu":-2.1,"hb":24.5,"idx":-1.3,"cls":4,"psfc":918.9,"terrain":false,"radius_km":200,"name":"asym cold","track":"T79"},"geometry":{"type":"Point","coordinates":[130.75,67.25]}},{"type":"Feature","properties":{"kind":"center","id":25,"lat":52.75,"lon":-80.5,"mslp":994.6,"hvtl":169.6,"hvtu":-132.8,"hb":23.2,"idx":1.0,"cls":3,"psfc":994.6,"terrain":false,"radius_km":200,"name":"asym shallow warm","track":"T57"},"geometry":{"type":"Point","coordinates":[-80.5,52.75]}},{"type":"Feature","properties":{"kind":"center","id":26,"lat":61.0,"lon":-34.0,"mslp":994.7,"hvtl":58.5,"hvtu":-271.4,"hb":-6.0,"idx":0.1,"cls":1,"psfc":994.7,"terrain":false,"radius_km":200,"name":"sym shallow warm","track":"T78"},"geometry":{"type":"Point","coordinates":[-34.0,61.0]}},{"type":"Feature","properties":{"kind":"center","id":27,"lat":64.0,"lon":-126.0,"mslp":995.0,"hvtl":-146.9,"hvtu":-192.9,"hb":78.1,"idx":-2.8,"cls":4,"psfc":913.4,"terrain":false,"radius_km":200,"name":"asym cold","track":"T85"},"geometry":{"type":"Point","coordinates":[-126.0,64.0]}},{"type":"Feature","properties":{"kind":"center","id":28,"lat":69.5,"lon":-57.5,"mslp":995.9,"hvtl":24.6,"hvtu":-61.4,"hb":13.3,"idx":-0.1,"cls":3,"psfc":995.9,"terrain":false,"radius_km":200,"name":"asym shallow warm","track":"T69"},"geometry":{"type":"Point","coordinates":[-57.5,69.5]}},{"type":"Feature","properties":{"kind":"center","id":29,"lat":68.75,"lon":128.0,"mslp":996.1,"hvtl":-78.4,"hvtu":72.4,"hb":20.1,"idx":-0.7,"cls":6,"psfc":903.5,"terrain":true,"radius_km":200,"name":"shallow cold"},"geometry":{"type":"Point","coordinates":[128.0,68.75]}},{"type":"Feature","properties":{"kind":"center","id":30,"lat":68.5,"lon":127.25,"mslp":996.3,"hvtl":-77.2,"hvtu":73.8,"hb":16.3,"idx":-0.7,"cls":6,"psfc":909.4,"terrain":false,"radius_km":200,"name":"shallow cold","track":"T82"},"geometry":{"type":"Point","coordinates":[127.25,68.5]}},{"type":"Feature","properties":{"kind":"center","id":31,"lat":68.25,"lon":126.75,"mslp":996.8,"hvtl":-76.6,"hvtu":78.7,"hb":10.7,"idx":-0.6,"cls":6,"psfc":912.5,"terrain":false,"radius_km":200,"name":"shallow cold"},"geometry":{"type":"Point","coordinates":[126.75,68.25]}},{"type":"Feature","properties":{"kind":"center","id":32,"lat":-39.25,"lon":-46.0,"mslp":997.0,"hvtl":41.5,"hvtu":-338.3,"hb":56.0,"idx":-0.2,"cls":3,"psfc":997.0,"terrain":false,"radius_km":200,"name":"asym shallow warm","track":"T16"},"geometry":{"type":"Point","coordinates":[-46.0,-39.25]}},{"type":"Feature","properties":{"kind":"center","id":33,"lat":-78.75,"lon":-67.75,"mslp":997.3,"hvtl":-343.5,"hvtu":-134.3,"hb":65.5,"idx":-2.9,"cls":4,"psfc":983.3,"terrain":false,"radius_km":200,"name":"asym cold"},"geometry":{"type":"Point","coordinates":[-67.75,-78.75]}},{"type":"Feature","properties":{"kind":"center","id":34,"lat":67.0,"lon":126.0,"mslp":998.0,"hvtl":-74.0,"hvtu":-37.1,"hb":-29.5,"idx":-1.6,"cls":5,"psfc":945.7,"terrain":false,"radius_km":200,"name":"sym cold","track":"T56"},"geometry":{"type":"Point","coordinates":[126.0,67.0]}},{"type":"Feature","properties":{"kind":"center","id":35,"lat":-52.5,"lon":-59.5,"mslp":998.4,"hvtl":-7.9,"hvtu":13.3,"hb":22.6,"idx":-0.0,"cls":6,"psfc":998.4,"terrain":false,"radius_km":200,"name":"shallow cold","track":"T86"},"geometry":{"type":"Point","coordinates":[-59.5,-52.5]}},{"type":"Feature","properties":{"kind":"center","id":36,"lat":66.25,"lon":127.25,"mslp":998.4,"hvtl":-128.5,"hvtu":-50.9,"hb":-6.4,"idx":-2.2,"cls":5,"psfc":905.5,"terrain":true,"radius_km":200,"name":"sym cold"},"geometry":{"type":"Point","coordinates":[127.25,66.25]}},{"type":"Feature","properties":{"kind":"center","id":37,"lat":-37.75,"lon":-90.0,"mslp":1000.1,"hvtl":-50.2,"hvtu":-222.4,"hb":23.9,"idx":-1.9,"cls":4,"psfc":1000.1,"terrain":false,"radius_km":200,"name":"asym cold","track":"T92"},"geometry":{"type":"Point","coordinates":[-90.0,-37.75]}},{"type":"Feature","properties":{"kind":"center","id":38,"lat":58.5,"lon":79.0,"mslp":1000.5,"hvtl":-236.8,"hvtu":-348.3,"hb":56.8,"idx":-3.0,"cls":4,"psfc":988.5,"terrain":false,"radius_km":200,"name":"asym cold","track":"T91"},"geometry":{"type":"Point","coordinates":[79.0,58.5]}},{"type":"Feature","properties":{"kind":"center","id":39,"lat":58.75,"lon":-120.0,"mslp":1000.5,"hvtl":-163.4,"hvtu":-244.9,"hb":46.1,"idx":-2.8,"cls":4,"psfc":959.3,"terrain":false,"radius_km":200,"name":"asym cold"},"geometry":{"type":"Point","coordinates":[-120.0,58.75]}},{"type":"Feature","properties":{"kind":"center","id":40,"lat":74.5,"lon":-58.25,"mslp":1000.9,"hvtl":-116.5,"hvtu":-50.6,"hb":50.6,"idx":-2.1,"cls":4,"psfc":1000.9,"terrain":false,"radius_km":200,"name":"asym cold","track":"T75"},"geometry":{"type":"Point","coordinates":[-58.25,74.5]}},{"type":"Feature","properties":{"kind":"center","id":41,"lat":-18.75,"lon":-63.25,"mslp":1001.8,"hvtl":-92.2,"hvtu":-62.1,"hb":32.9,"idx":-2.0,"cls":4,"psfc":947.4,"terrain":false,"radius_km":200,"name":"asym cold","track":"T87"},"geometry":{"type":"Point","coordinates":[-63.25,-18.75]}},{"type":"Feature","properties":{"kind":"center","id":42,"lat":41.0,"lon":133.25,"mslp":1004.4,"hvtl":-167.9,"hvtu":-450.3,"hb":56.0,"idx":-2.9,"cls":4,"psfc":1004.5,"terrain":false,"radius_km":200,"name":"asym cold","track":"T26"},"geometry":{"type":"Point","coordinates":[133.25,41.0]}},{"type":"Feature","properties":{"kind":"center","id":43,"lat":27.25,"lon":67.5,"mslp":1004.7,"hvtl":42.6,"hvtu":-42.1,"hb":2.1,"idx":0.4,"cls":1,"psfc":995.6,"terrain":false,"radius_km":200,"name":"sym shallow warm","track":"T111"},"geometry":{"type":"Point","coordinates":[67.5,27.25]}},{"type":"Feature","properties":{"kind":"center","id":44,"lat":30.75,"lon":71.0,"mslp":1004.9,"hvtl":7.2,"hvtu":-68.1,"hb":18.3,"idx":-0.4,"cls":3,"psfc":988.7,"terrain":false,"radius_km":200,"name":"asym shallow warm","track":"T105"},"geometry":{"type":"Point","coordinates":[71.0,30.75]}},{"type":"Feature","properties":{"kind":"center","id":45,"lat":-10.75,"lon":-73.25,"mslp":1005.7,"hvtl":44.9,"hvtu":-78.6,"hb":-1.6,"idx":0.2,"cls":1,"psfc":972.3,"terrain":false,"radius_km":200,"name":"sym shallow warm"},"geometry":{"type":"Point","coordinates":[-73.25,-10.75]}},{"type":"Feature","properties":{"kind":"center","id":46,"lat":-28.25,"lon":-66.5,"mslp":1006.0,"hvtl":-42.1,"hvtu":-221.5,"hb":28.6,"idx":-1.8,"cls":4,"psfc":923.0,"terrain":false,"radius_km":200,"name":"asym cold","track":"T93"},"geometry":{"type":"Point","coordinates":[-66.5,-28.25]}},{"type":"Feature","properties":{"kind":"center","id":47,"lat":35.25,"lon":-119.25,"mslp":1006.4,"hvtl":-113.2,"hvtu":-196.9,"hb":16.5,"idx":-2.6,"cls":4,"psfc":994.8,"terrain":false,"radius_km":200,"name":"asym cold"},"geometry":{"type":"Point","coordinates":[-119.25,35.25]}},{"type":"Feature","properties":{"kind":"center","id":48,"lat":-81.5,"lon":-59.0,"mslp":1006.5,"hvtl":-327.5,"hvtu":-150.1,"hb":67.5,"idx":-2.9,"cls":4,"psfc":989.3,"terrain":false,"radius_km":200,"name":"asym cold"},"geometry":{"type":"Point","coordinates":[-59.0,-81.5]}},{"type":"Feature","properties":{"kind":"center","id":49,"lat":-12.0,"lon":-74.0,"mslp":1007.1,"hvtl":78.6,"hvtu":-82.6,"hb":-7.1,"idx":0.6,"cls":1,"psfc":931.0,"terrain":false,"radius_km":200,"name":"sym shallow warm"},"geometry":{"type":"Point","coordinates":[-74.0,-12.0]}},{"type":"Feature","properties":{"kind":"center","id":50,"lat":50.0,"lon":-113.25,"mslp":1007.9,"hvtl":-129.3,"hvtu":-33.0,"hb":43.2,"idx":-2.0,"cls":4,"psfc":900.4,"terrain":true,"radius_km":200,"name":"asym cold"},"geometry":{"type":"Point","coordinates":[-113.25,50.0]}},{"type":"Feature","properties":{"kind":"center","id":51,"lat":28.5,"lon":77.25,"mslp":1007.9,"hvtl":10.6,"hvtu":-59.6,"hb":7.7,"idx":-0.3,"cls":1,"psfc":981.8,"terrain":false,"radius_km":200,"name":"sym shallow warm"},"geometry":{"type":"Point","coordinates":[77.25,28.5]}},{"type":"Feature","properties":{"kind":"center","id":52,"lat":56.25,"lon":-124.25,"mslp":1008.2,"hvtl":-91.9,"hvtu":-246.4,"hb":30.7,"idx":-2.4,"cls":4,"psfc":908.5,"terrain":true,"radius_km":200,"name":"asym cold"},"geometry":{"type":"Point","coordinates":[-124.25,56.25]}},{"type":"Feature","properties":{"kind":"center","id":53,"lat":-11.25,"lon":-74.25,"mslp":1009.3,"hvtl":47.2,"hvtu":-72.8,"hb":-9.0,"idx":0.3,"cls":1,"psfc":903.1,"terrain":true,"radius_km":200,"name":"sym shallow warm"},"geometry":{"type":"Point","coordinates":[-74.25,-11.25]}},{"type":"Feature","properties":{"kind":"center","id":54,"lat":26.75,"lon":84.5,"mslp":1010.1,"hvtl":13.5,"hvtu":-130.2,"hb":3.8,"idx":-0.6,"cls":1,"psfc":1001.2,"terrain":false,"radius_km":200,"name":"sym shallow warm"},"geometry":{"type":"Point","coordinates":[84.5,26.75]}},{"type":"Feature","properties":{"kind":"center","id":55,"lat":-9.25,"lon":-76.0,"mslp":1011.6,"hvtl":44.9,"hvtu":-33.0,"hb":-25.8,"idx":0.5,"cls":1,"psfc":901.9,"terrain":true,"radius_km":200,"name":"sym shallow warm"},"geometry":{"type":"Point","coordinates":[-76.0,-9.25]}},{"type":"Feature","properties":{"kind":"center","id":56,"lat":48.25,"lon":84.5,"mslp":1012.9,"hvtl":-177.2,"hvtu":-141.3,"hb":81.4,"idx":-2.8,"cls":4,"psfc":954.6,"terrain":false,"radius_km":200,"name":"asym cold"},"geometry":{"type":"Point","coordinates":[84.5,48.25]}},{"type":"Feature","properties":{"kind":"center","id":57,"lat":44.0,"lon":87.75,"mslp":1013.8,"hvtl":67.9,"hvtu":-46.8,"hb":12.6,"idx":0.7,"cls":3,"psfc":935.6,"terrain":false,"radius_km":200,"name":"asym shallow warm"},"geometry":{"type":"Point","coordinates":[87.75,44.0]}},{"type":"Feature","properties":{"kind":"center","id":58,"lat":30.0,"lon":62.5,"mslp":1014.1,"hvtl":248.2,"hvtu":-90.9,"hb":8.4,"idx":1.3,"cls":1,"psfc":954.7,"terrain":false,"radius_km":200,"name":"sym shallow warm","track":"T109"},"geometry":{"type":"Point","coordinates":[62.5,30.0]}},{"type":"Feature","properties":{"kind":"center","id":59,"lat":29.75,"lon":63.0,"mslp":1014.7,"hvtl":260.1,"hvtu":-82.1,"hb":5.7,"idx":1.3,"cls":1,"psfc":920.6,"terrain":true,"radius_km":200,"name":"sym shallow warm"},"geometry":{"type":"Point","coordinates":[63.0,29.75]}},{"type":"Feature","properties":{"kind":"center","id":60,"lat":42.75,"lon":89.25,"mslp":1017.5,"hvtl":52.9,"hvtu":-87.0,"hb":18.4,"idx":0.3,"cls":3,"psfc":1032.6,"terrain":false,"radius_km":200,"name":"asym shallow warm"},"geometry":{"type":"Point","coordinates":[89.25,42.75]}},{"type":"Feature","properties":{"kind":"center","id":61,"lat":45.75,"lon":85.0,"mslp":1017.5,"hvtl":-26.6,"hvtu":-108.5,"hb":59.9,"idx":-1.3,"cls":4,"psfc":947.2,"terrain":false,"radius_km":200,"name":"asym cold"},"geometry":{"type":"Point","coordinates":[85.0,45.75]}},{"type":"Feature","properties":{"kind":"center","id":62,"lat":46.75,"lon":84.0,"mslp":1019.4,"hvtl":-120.7,"hvtu":-116.9,"hb":74.6,"idx":-2.5,"cls":4,"psfc":926.0,"terrain":true,"radius_km":200,"name":"asym cold"},"geometry":{"type":"Point","coordinates":[84.0,46.75]}},{"type":"Feature","properties":{"kind":"center","id":63,"lat":43.75,"lon":79.25,"mslp":1020.0,"hvtl":-139.5,"hvtu":-178.3,"hb":106.4,"idx":-2.7,"cls":4,"psfc":952.2,"terrain":false,"radius_km":200,"name":"asym cold"},"geometry":{"type":"Point","coordinates":[79.25,43.75]}},{"type":"Feature","properties":{"kind":"center","id":64,"lat":37.75,"lon":67.0,"mslp":1020.0,"hvtl":177.0,"hvtu":-259.6,"hb":52.3,"idx":0.9,"cls":3,"psfc":953.9,"terrain":false,"radius_km":200,"name":"asym shallow warm","track":"T128"},"geometry":{"type":"Point","coordinates":[67.0,37.75]}},{"type":"Feature","properties":{"kind":"center","id":65,"lat":43.0,"lon":75.0,"mslp":1029.4,"hvtl":-217.2,"hvtu":-309.9,"hb":62.3,"idx":-2.9,"cls":4,"psfc":923.0,"terrain":true,"radius_km":200,"name":"asym cold"},"geometry":{"type":"Point","coordinates":[75.0,43.0]}}]}