{"type":"FeatureCollection","features":[{"type":"Feature","properties":{"kind":"blob","cls":1,"id":1},"geometry":{"type":"Polygon","coordinates":[[[-121.0,-72.12],[-118.25,-71.62],[-116.62,-70.5],[-116.62,-70.0],[-118.5,-68.62],[-124.0,-68.12],[-126.75,-68.62],[-127.75,-69.12],[-128.38,-70.0],[-127.75,-71.12],[-126.75,-71.62],[-121.0,-72.12]]]}},{"type":"Feature","properties":{"kind":"blob","cls":3,"id":2},"geometry":{"type":"Polygon","coordinates":[[[105.0,-52.88],[106.5,-52.38],[107.38,-51.25],[107.12,-50.25],[106.5,-49.62],[105.0,-49.12],[102.25,-49.62],[101.62,-50.25],[101.38,-51.25],[102.25,-52.38],[105.0,-52.88]]]}},{"type":"Feature","properties":{"kind":"blob","cls":3,"id":3},"geometry":{"type":"Polygon","coordinates":[[[-168.25,-65.38],[-166.0,-64.88],[-164.12,-63.75],[-164.12,-62.75],[-165.5,-61.62],[-169.5,-60.62],[-172.75,-60.88],[-174.75,-61.62],[-175.38,-62.25],[-175.38,-63.5],[-174.5,-64.38],[-172.75,-65.12],[-168.25,-65.38]]]}},{"type":"Feature","properties":{"kind":"blob","cls":0,"id":4},"geometry":{"type":"Polygon","coordinates":[[[96.0,-65.38],[98.5,-64.62],[100.88,-62.0],[100.62,-60.25],[99.75,-59.38],[97.0,-58.38],[95.25,-58.38],[92.5,-59.38],[91.62,-60.25],[91.38,-61.5],[90.12,-62.5],[90.12,-63.75],[91.25,-64.62],[96.0,-65.38]],[[94.62,-61.25],[95.0,-60.62],[96.5,-60.62],[97.12,-61.0],[96.5,-61.88],[94.62,-61.25]]]}},{"type":"Feature","properties":{"kind":"blob","cls":4,"id":5},"geometry":{"type":"Polygon","coordinates":[[[-153.5,-63.88],[-152.0,-63.12],[-151.12,-62.25],[-151.12,-61.75],[-153.0,-60.38],[-156.75,-59.62],[-161.5,-59.88],[-163.5,-60.62],[-164.38,-61.5],[-164.38,-62.0],[-163.25,-63.12],[-162.25,-63.62],[-153.5,-63.88]]]}},{"type":"Feature","properties":{"kind":"blob","cls":5,"id":6},"geometry":{"type":"Polygon","coordinates":[[[-149.25,-82.12],[-146.38,-82.0],[-146.5,-81.88],[-149.25,-82.12]]]}},{"type":"Feature","properties":{"kind":"blob","cls":1,"id":7},"geometry":{"type":"Polygon","coordinates":[[[-15.5,-69.62],[-11.75,-69.12],[-9.75,-68.38],[-8.62,-67.25],[-8.62,-66.75],[-10.75,-65.12],[-13.5,-64.38],[-20.5,-64.38],[-25.0,-65.38],[-26.62,-66.75],[-26.62,-67.25],[-25.75,-68.12],[-24.75,-68.62],[-21.5,-69.38],[-15.5,-69.62]],[[-20.75,-67.12],[-21.38,-66.5],[-21.0,-66.12],[-18.0,-66.12],[-16.62,-66.75],[-17.0,-67.38],[-20.75,-67.12]]]}},{"type":"Feature","properties":{"kind":"blob","cls":5,"id":8},"geometry":{"type":"Polygon","coordinates":[[[-143.0,-81.62],[-141.38,-81.0],[-142.38,-80.25],[-142.75,-79.38],[-144.0,-79.38],[-146.0,-79.62],[-149.88,-81.25],[-143.0,-81.62]]]}},{"type":"Feature","properties":{"kind":"blob","cls":6,"id":9},"geometry":{"type":"Polygon","coordinates":[[[163.0,-79.62],[166.5,-79.62],[168.75,-79.12],[170.0,-78.62],[170.88,-77.5],[169.25,-76.38],[164.25,-75.62],[162.62,-77.0],[164.12,-78.0],[164.0,-78.38],[165.12,-78.5],[162.25,-78.62],[162.12,-79.0],[163.0,-79.62]],[[166.62,-77.5],[169.12,-77.5],[169.0,-77.62],[166.62,-77.5]]]}},{"type":"Feature","properties":{"kind":"blob","cls":4,"id":10},"geometry":{"type":"Polygon","coordinates":[[[161.75,-71.12],[162.62,-71.25],[162.12,-70.75],[162.5,-70.38],[163.5,-70.88],[164.12,-70.0],[163.88,-69.75],[164.62,-69.25],[164.62,-68.25],[162.75,-67.12],[158.25,-66.38],[155.5,-66.38],[152.5,-67.12],[151.62,-68.0],[151.75,-68.62],[152.5,-68.88],[159.5,-69.62],[161.75,-71.12]]]}},{"type":"Feature","properties":{"kind":"blob","cls":6,"id":11},"geometry":{"type":"Polygon","coordinates":[[[164.75,-75.38],[165.75,-75.38],[167.5,-74.88],[168.62,-74.0],[168.62,-73.5],[168.25,-73.12],[166.75,-73.12],[166.5,-73.62],[164.75,-73.88],[164.75,-75.38]]]}},{"type":"Feature","properties":{"kind":"blob","cls":1,"id":12},"geometry":{"type":"Polygon","coordinates":[[[61.25,-60.62],[63.25,-59.88],[63.88,-59.25],[64.12,-58.0],[63.88,-56.75],[62.25,-55.62],[59.25,-55.38],[55.75,-56.88],[55.12,-57.5],[55.12,-58.75],[57.0,-60.12],[61.25,-60.62]]]}},{"type":"Feature","properties":{"kind":"blob","cls":3,"id":13},"geometry":{"type":"Polygon","coordinates":[[[134.5,75.88],[142.25,77.88],[143.12,78.5],[143.12,79.0],[141.5,79.88],[139.0,80.38],[129.0,80.62],[122.25,79.62],[120.75,79.12],[119.62,78.25],[119.62,77.75],[120.75,76.62],[123.75,75.88],[134.5,75.88]]]}},{"type":"Feature","properties":{"kind":"blob","cls":0,"id":14},"geometry":{"type":"Polygon","coordinates":[[[141.75,12.88],[142.62,14.0],[142.38,15.5],[141.0,16.38],[139.75,16.12],[138.88,15.0],[139.0,14.38],[140.12,14.5],[139.62,13.0],[141.75,12.88]]]}},{"type":"Feature","properties":{"kind":"blob","cls":4,"id":15},"geometry":{"type":"Polygon","coordinates":[[[52.5,74.62],[56.5,75.12],[59.0,76.12],[59.38,77.0],[58.0,77.88],[56.0,78.38],[50.75,79.12],[39.0,78.88],[36.5,78.38],[35.12,77.5],[35.5,76.62],[37.5,75.88],[52.5,74.62]]]}},{"type":"Feature","properties":{"kind":"blob","cls":4,"id":16},"geometry":{"type":"Polygon","coordinates":[[[125.25,-53.88],[126.75,-53.38],[127.62,-52.5],[127.62,-51.25],[125.5,-49.12],[122.0,-49.12],[120.62,-50.5],[120.88,-52.0],[122.0,-53.12],[125.25,-53.88]]]}},{"type":"Feature","properties":{"kind":"blob","cls":4,"id":17},"geometry":{"type":"Polygon","coordinates":[[[179.75,81.12],[180.0,83.62],[172.5,84.38],[157.5,84.12],[152.5,83.38],[151.0,82.88],[150.38,82.25],[150.5,81.62],[152.75,80.88],[160.5,80.12],[171.25,80.12],[177.75,80.62],[179.75,81.12]]]}},{"type":"Feature","properties":{"kind":"blob","cls":4,"id":17},"geometry":{"type":"Polygon","coordinates":[[[-179.75,83.62],[-180.0,81.12],[-177.75,81.62],[-176.62,82.5],[-178.0,83.38],[-179.75,83.62]]]}},{"type":"Feature","properties":{"kind":"blob","cls":4,"id":18},"geometry":{"type":"Polygon","coordinates":[[[82.25,80.38],[88.75,80.88],[92.0,81.62],[93.38,82.5],[93.38,83.0],[91.0,83.88],[85.5,84.62],[74.0,84.88],[62.5,83.88],[60.75,83.38],[59.62,82.5],[61.0,81.62],[63.75,81.12],[82.25,80.38]]]}},{"type":"Feature","properties":{"kind":"blob","cls":4,"id":19},"geometry":{"type":"Polygon","coordinates":[[[25.25,76.38],[28.25,77.12],[29.12,77.75],[29.12,78.25],[28.25,78.88],[25.25,79.62],[18.75,79.88],[16.88,79.5],[18.25,79.12],[18.25,78.62],[17.25,78.62],[16.25,79.62],[15.75,79.62],[12.75,78.88],[11.88,78.25],[12.25,77.38],[13.5,76.88],[15.75,76.38],[25.25,76.38]]]}},{"type":"Feature","properties":{"kind":"blob","cls":0,"id":20},"geometry":{"type":"Polygon","coordinates":[[[91.75,21.12],[93.12,22.0],[93.12,24.0],[91.75,24.88],[90.5,24.62],[89.62,23.75],[89.62,22.25],[90.5,21.38],[91.75,21.12]]]}},{"type":"Feature","properties":{"kind":"blob","cls":4,"id":21},"geometry":{"type":"Polygon","coordinates":[[[20.5,-70.38],[29.75,-70.38],[46.88,-67.75],[46.25,-67.12],[43.25,-66.38],[40.75,-66.38],[39.0,-65.88],[34.0,-65.88],[31.75,-66.38],[30.0,-67.38],[26.5,-67.12],[22.5,-67.88],[21.25,-68.38],[20.12,-69.5],[20.5,-70.38]]]}},{"type":"Feature","properties":{"kind":"blob","cls":4,"id":22},"geometry":{"type":"Polygon","coordinates":[[[-37.75,61.62],[-35.75,62.12],[-34.5,63.12],[-32.25,63.88],[-31.12,65.25],[-32.0,66.38],[-34.25,66.88],[-41.0,64.12],[-42.88,62.75],[-41.25,61.88],[-37.75,61.62]]]}},{"type":"Feature","properties":{"kind":"blob","cls":0,"id":23},"geometry":{"type":"Polygon","coordinates":[[[-101.75,11.62],[-100.25,11.62],[-99.38,12.75],[-99.62,14.25],[-101.0,15.12],[-102.25,14.88],[-103.12,13.75],[-102.88,12.25],[-101.75,11.62]]]}},{"type":"Feature","properties":{"kind":"blob","cls":3,"id":24},"geometry":{"type":"Polygon","coordinates":[[[-52.75,61.88],[-51.5,62.38],[-50.62,63.5],[-50.62,64.0],[-51.5,64.88],[-52.62,65.25],[-50.88,65.75],[-52.25,65.62],[-52.88,66.5],[-51.0,66.38],[-50.12,66.75],[-50.12,67.25],[-52.0,70.38],[-53.38,70.5],[-51.88,70.75],[-53.0,71.88],[-56.0,71.38],[-59.12,69.5],[-58.62,68.25],[-59.38,67.5],[-59.38,66.75],[-57.38,65.25],[-58.5,64.88],[-59.38,64.0],[-59.38,63.5],[-57.5,62.12],[-52.75,61.88]],[[-54.12,70.0],[-53.0,70.12],[-52.62,69.75],[-54.12,70.0]]]}},{"type":"Feature","properties":{"kind":"blob","cls":4,"id":25},"geometry":{"type":"Polygon","coordinates":[[[-13.75,69.38],[-10.0,70.12],[-7.75,71.12],[-7.62,72.25],[-10.25,73.38],[-16.25,73.62],[-20.0,72.88],[-22.12,71.5],[-21.5,70.38],[-20.5,69.88],[-13.75,69.38]]]}},{"type":"Feature","properties":{"kind":"blob","cls":4,"id":26},"geometry":{"type":"Polygon","coordinates":[[[-23.0,-38.88],[-20.25,-37.88],[-19.62,-37.25],[-19.62,-35.75],[-21.0,-34.62],[-22.75,-33.88],[-24.25,-33.88],[-25.25,-34.38],[-26.12,-35.25],[-26.12,-37.25],[-25.25,-38.38],[-23.0,-38.88]]]}},{"type":"Feature","properties":{"kind":"blob","cls":4,"id":27},"geometry":{"type":"Polygon","coordinates":[[[46.0,-43.62],[47.5,-42.88],[47.88,-42.25],[47.62,-40.75],[46.0,-39.88],[45.0,-39.88],[43.5,-40.62],[43.12,-42.25],[43.5,-42.88],[46.0,-43.62]]]}},{"type":"Feature","properties":{"kind":"blob","cls":4,"id":28},"geometry":{"type":"Polygon","coordinates":[[[-85.75,59.12],[-83.88,60.5],[-83.88,61.5],[-85.0,62.88],[-87.75,63.88],[-92.75,63.62],[-95.12,62.0],[-94.88,61.0],[-94.25,60.38],[-92.25,59.38],[-85.75,59.12]]]}},{"type":"Feature","properties":{"kind":"blob","cls":4,"id":29},"geometry":{"type":"Polygon","coordinates":[[[126.0,36.12],[127.5,37.12],[128.75,36.62],[130.75,36.62],[132.0,37.12],[133.25,36.38],[134.25,36.38],[135.88,37.5],[136.12,38.5],[135.0,39.88],[132.25,39.88],[130.75,40.88],[128.5,40.62],[127.25,39.62],[124.75,40.12],[124.0,39.88],[122.88,38.5],[123.12,37.25],[124.0,36.38],[126.0,36.12]]]}},{"type":"Feature","properties":{"kind":"blob","cls":3,"id":30},"geometry":{"type":"Polygon","coordinates":[[[-57.75,72.62],[-55.75,72.88],[-55.38,73.25],[-58.5,74.62],[-60.5,76.38],[-64.75,76.38],[-67.88,75.0],[-67.88,74.5],[-66.5,73.38],[-57.75,72.62]]]}},{"type":"Feature","properties":{"kind":"blob","cls":3,"id":31},"geometry":{"type":"Polygon","coordinates":[[[-125.25,-28.62],[-123.62,-27.5],[-123.62,-25.75],[-124.5,-24.88],[-126.25,-24.62],[-128.12,-26.0],[-128.12,-27.5],[-127.25,-28.38],[-125.25,-28.62]]]}},{"type":"Feature","properties":{"kind":"blob","cls":3,"id":32},"geometry":{"type":"Polygon","coordinates":[[[-169.25,48.88],[-167.75,49.38],[-166.62,50.75],[-166.88,51.75],[-167.5,52.38],[-169.0,52.88],[-170.75,52.88],[-172.25,52.38],[-172.88,51.75],[-173.12,50.75],[-172.0,49.38],[-169.25,48.88]]]}},{"type":"Feature","properties":{"kind":"blob","cls":1,"id":33},"geometry":{"type":"Polygon","coordinates":[[[-138.75,55.12],[-136.88,56.75],[-136.88,57.25],[-138.0,58.38],[-139.5,58.62],[-141.25,56.88],[-143.62,55.75],[-142.75,55.12],[-138.75,55.12]]]}},{"type":"Feature","properties":{"kind":"blob","cls":4,"id":34},"geometry":{"type":"Polygon","coordinates":[[[-154.5,-36.12],[-152.88,-35.25],[-152.62,-33.5],[-153.5,-32.12],[-155.75,-31.62],[-157.0,-32.12],[-157.88,-33.0],[-158.12,-34.75],[-157.5,-35.62],[-154.5,-36.12]]]}},{"type":"Feature","properties":{"kind":"blob","cls":1,"id":35},"geometry":{"type":"Polygon","coordinates":[[[-151.75,61.12],[-149.0,61.38],[-148.62,61.75],[-149.38,62.25],[-148.62,62.75],[-149.75,63.12],[-151.75,62.62],[-152.12,61.75],[-151.75,61.12]]]}},{"type":"Feature","properties":{"kind":"blob","cls":1,"id":36},"geometry":{"type":"Polygon","coordinates":[[[84.75,24.62],[85.62,25.5],[86.12,27.0],[84.5,27.88],[83.0,27.88],[81.5,28.88],[79.5,29.38],[78.62,28.25],[78.88,27.0],[81.0,24.88],[84.75,24.62]]]}},{"type":"Feature","properties":{"kind":"blob","cls":0,"id":37},"geometry":{"type":"Polygon","coordinates":[[[-96.5,14.12],[-95.62,15.25],[-95.62,16.25],[-96.5,15.88],[-98.25,17.12],[-98.75,16.88],[-99.75,17.38],[-100.38,16.75],[-100.12,15.25],[-99.25,14.38],[-96.5,14.12]]]}},{"type":"Feature","properties":{"kind":"blob","cls":5,"id":38},"geometry":{"type":"Polygon","coordinates":[[[-106.75,20.12],[-104.62,21.75],[-105.62,22.75],[-106.88,25.25],[-108.12,26.5],[-108.12,27.0],[-109.0,27.62],[-110.62,26.5],[-110.62,24.75],[-109.75,23.88],[-107.88,23.0],[-107.88,20.75],[-106.75,20.12]]]}},{"type":"Feature","properties":{"kind":"blob","cls":3,"id":39},"geometry":{"type":"Polygon","coordinates":[[[-68.25,-39.12],[-67.25,-38.62],[-66.38,-37.25],[-66.62,-36.5],[-68.0,-35.62],[-68.75,-37.12],[-69.62,-37.25],[-69.38,-38.25],[-70.0,-37.62],[-70.12,-38.25],[-70.62,-38.5],[-68.25,-39.12]],[[-69.0,-37.88],[-69.12,-37.75],[-68.75,-37.62],[-69.0,-37.88]]]}},{"type":"Feature","properties":{"kind":"blob","cls":4,"id":40},"geometry":{"type":"Polygon","coordinates":[[[-124.25,62.12],[-123.62,62.75],[-123.62,63.75],[-124.25,64.38],[-126.75,65.12],[-127.62,65.0],[-126.0,63.38],[-125.5,63.38],[-124.25,62.12]]]}},{"type":"Feature","properties":{"kind":"blob","cls":3,"id":41},"geometry":{"type":"Polygon","coordinates":[[[-152.25,62.88],[-150.5,63.62],[-148.75,63.62],[-148.12,64.25],[-150.25,64.88],[-151.75,64.88],[-153.75,64.38],[-154.88,63.5],[-154.75,63.12],[-152.25,62.88]]]}},{"type":"Feature","properties":{"kind":"blob","cls":4,"id":42},"geometry":{"type":"Polygon","coordinates":[[[-71.25,-32.62],[-70.62,-32.75],[-71.12,-32.0],[-71.0,-30.38],[-71.62,-31.0],[-71.25,-32.62]]]}},{"type":"Feature","properties":{"kind":"blob","cls":3,"id":43},"geometry":{"type":"Polygon","coordinates":[[[-80.0,24.62],[-79.5,24.38],[-76.5,24.88],[-76.38,26.25],[-78.0,27.38],[-79.25,27.12],[-80.12,26.25],[-80.0,24.62]]]}},{"type":"Feature","properties":{"kind":"blob","cls":3,"id":44},"geometry":{"type":"Polygon","coordinates":[[[-147.38,62.5],[-147.25,62.38],[-147.12,62.75],[-147.38,62.5]]]}},{"type":"Feature","properties":{"kind":"blob","cls":1,"id":45},"geometry":{"type":"Polygon","coordinates":[[[-68.75,-33.12],[-68.0,-32.88],[-67.38,-32.0],[-67.5,-31.38],[-68.12,-31.5],[-67.62,-31.0],[-68.25,-30.12],[-68.62,-30.5],[-68.75,-33.12]]]}},{"type":"Feature","properties":{"kind":"blob","cls":5,"id":46},"geometry":{"type":"Polygon","coordinates":[[[-104.62,19.75],[-104.5,19.62],[-104.38,19.75],[-104.62,19.75]]]}},{"type":"Feature","properties":{"kind":"blob","cls":4,"id":47},"geometry":{"type":"MultiPolygon","coordinates":[[[[-62.75,38.38],[-60.25,38.38],[-59.12,39.5],[-59.12,40.75],[-61.0,42.12],[-63.0,41.88],[-64.12,40.75],[-64.12,39.5],[-62.75,38.38]]],[[[-59.75,41.88],[-58.25,41.62],[-57.0,42.12],[-55.88,43.25],[-55.88,45.0],[-57.75,46.12],[-60.0,45.62],[-61.12,44.5],[-61.12,42.75],[-59.75,41.88]]]]}},{"type":"Feature","properties":{"kind":"blob","cls":0,"id":48},"geometry":{"type":"Polygon","coordinates":[[[-39.0,-38.88],[-37.5,-39.12],[-35.88,-38.0],[-35.88,-36.25],[-36.5,-35.62],[-37.5,-35.12],[-38.75,-35.12],[-40.38,-36.25],[-40.38,-38.0],[-39.0,-38.88]]]}},{"type":"Feature","properties":{"kind":"blob","cls":1,"id":49},"geometry":{"type":"Polygon","coordinates":[[[-66.5,-28.12],[-66.12,-27.75],[-66.5,-27.62],[-66.5,-28.12]]]}},{"type":"Feature","properties":{"kind":"blob","cls":1,"id":50},"geometry":{"type":"Polygon","coordinates":[[[-76.0,-50.62],[-74.0,-49.88],[-73.5,-48.38],[-73.0,-48.88],[-72.62,-48.5],[-72.62,-47.5],[-73.0,-47.12],[-73.5,-47.38],[-74.25,-46.62],[-75.75,-46.62],[-77.5,-47.38],[-77.88,-49.25],[-76.0,-50.62]]]}},{"type":"Feature","properties":{"kind":"blob","cls":4,"id":51},"geometry":{"type":"MultiPolygon","coordinates":[[[[71.0,41.12],[70.88,41.0],[71.0,40.88],[71.0,41.12]]],[[[68.25,39.88],[70.25,40.12],[70.88,40.75],[69.62,40.5],[69.62,41.75],[70.38,42.5],[70.12,42.75],[71.5,42.62],[72.12,43.25],[70.5,44.12],[69.5,44.12],[68.0,43.38],[67.38,42.5],[67.38,41.5],[68.25,39.88]]]]}},{"type":"Feature","properties":{"kind":"blob","cls":4,"id":52},"geometry":{"type":"Polygon","coordinates":[[[-64.0,-21.38],[-63.62,-21.0],[-64.0,-20.62],[-64.0,-21.38]]]}},{"type":"Feature","properties":{"kind":"blob","cls":4,"id":53},"geometry":{"type":"MultiPolygon","coordinates":[[[[-64.5,-23.12],[-64.62,-23.25],[-64.5,-23.38],[-64.5,-23.12]]],[[[-64.25,-23.12],[-63.88,-22.75],[-64.0,-21.88],[-64.38,-22.25],[-64.25,-23.12]]]]}},{"type":"Feature","properties":{"kind":"blob","cls":1,"id":54},"geometry":{"type":"Polygon","coordinates":[[[-101.75,36.38],[-101.12,37.5],[-101.5,38.38],[-101.88,38.0],[-101.75,36.38]]]}},{"type":"Feature","properties":{"kind":"blob","cls":3,"id":55},"geometry":{"type":"Polygon","coordinates":[[[-65.88,-27.25],[-65.75,-27.38],[-65.62,-27.25],[-65.88,-27.25]]]}},{"type":"Feature","properties":{"kind":"blob","cls":4,"id":56},"geometry":{"type":"MultiPolygon","coordinates":[[[[74.5,42.88],[75.12,43.0],[74.75,43.38],[74.5,42.88]]],[[[76.0,43.12],[79.12,43.75],[78.5,44.12],[78.0,43.88],[77.75,44.38],[76.25,44.38],[75.0,43.88],[74.88,43.5],[76.0,43.12]]]]}},{"type":"Feature","properties":{"kind":"blob","cls":4,"id":57},"geometry":{"type":"Polygon","coordinates":[[[80.5,43.62],[81.62,43.75],[81.5,43.88],[80.5,43.62]]]}},{"type":"Feature","properties":{"kind":"blob","cls":4,"id":58},"geometry":{"type":"Polygon","coordinates":[[[82.88,43.5],[83.0,43.38],[83.12,43.5],[82.88,43.5]]]}},{"type":"Feature","properties":{"kind":"blob","cls":4,"id":59},"geometry":{"type":"Polygon","coordinates":[[[82.0,43.38],[82.38,43.5],[82.25,43.62],[82.0,43.38]]]}},{"type":"Feature","properties":{"kind":"blob","cls":3,"id":60},"geometry":{"type":"MultiPolygon","coordinates":[[[[83.0,44.62],[82.88,44.5],[83.0,44.38],[83.0,44.62]]],[[[87.5,43.62],[87.62,44.25],[86.5,44.62],[85.75,45.62],[84.0,45.38],[83.12,44.75],[84.5,44.12],[87.5,43.62]]]]}},{"type":"Feature","properties":{"kind":"blob","cls":4,"id":61},"geometry":{"type":"Polygon","coordinates":[[[101.88,52.5],[102.0,52.38],[102.12,52.5],[101.88,52.5]]]}},{"type":"Feature","properties":{"kind":"center","id":1,"lat":-70.25,"lon":-122.5,"mslp":941.7,"hvtl":128.8,"hvtu":-161.4,"hb":-2.2,"idx":0.8,"cls":1,"psfc":941.7,"terrain":false,"radius_km":200,"name":"sym shallow warm","track":"T01"},"geometry":{"type":"Point","coordinates":[-122.5,-70.25]}},{"type":"Feature","properties":{"kind":"center","id":2,"lat":-51.0,"lon":104.25,"mslp":949.2,"hvtl":58.0,"hvtu":-361.8,"hb":39.2,"idx":0.0,"cls":3,"psfc":949.2,"terrain":false,"radius_km":200,"name":"asym shallow warm"},"geometry":{"type":"Point","coordinates":[104.25,-51.0]}},{"type":"Feature","properties":{"kind":"center","id":3,"lat":-63.25,"lon":-170.25,"mslp":952.0,"hvtl":53.2,"hvtu":-148.8,"hb":54.5,"idx":0.1,"cls":3,"psfc":952.0,"terrain":false,"radius_km":200,"name":"asym shallow warm","track":"T08"},"geometry":{"type":"Point","coordinates":[-170.25,-63.25]}},{"type":"Feature","properties":{"kind":"center","id":4,"lat":-63.25,"lon":94.75,"mslp":952.5,"hvtl":4.0,"hvtu":30.6,"hb":-6.0,"idx":0.4,"cls":0,"psfc":952.5,"terrain":false,"radius_km":200,"name":"sym deep warm","track":"T05"},"geometry":{"type":"Point","coordinates":[94.75,-63.25]}},{"type":"Feature","properties":{"kind":"center","id":5,"lat":-62.0,"lon":-159.25,"mslp":953.0,"hvtl":-21.0,"hvtu":-173.2,"hb":37.3,"idx":-1.4,"cls":4,"psfc":953.0,"terrain":false,"radius_km":200,"name":"asym cold"},"geometry":{"type":"Point","coordinates":[-159.25,-62.0]}},{"type":"Feature","properties":{"kind":"center","id":6,"lat":-82.0,"lon":-146.5,"mslp":959.4,"hvtl":-178.6,"hvtu":-15.3,"hb":9.8,"idx":-2.0,"cls":5,"psfc":906.7,"terrain":false,"radius_km":200,"name":"sym cold"},"geometry":{"type":"Point","coordinates":[-146.5,-82.0]}},{"type":"Feature","properties":{"kind":"center","id":7,"lat":-67.0,"lon":-16.5,"mslp":960.1,"hvtl":112.8,"hvtu":-60.5,"hb":6.5,"idx":1.1,"cls":1,"psfc":960.1,"terrain":false,"radius_km":200,"name":"sym shallow warm","track":"T22"},"geometry":{"type":"Point","coordinates":[-16.5,-67.0]}},{"type":"Feature","properties":{"kind":"center","id":8,"lat":-79.5,"lon":-144.0,"mslp":960.7,"hvtl":-104.9,"hvtu":-45.6,"hb":5.0,"idx":-2.0,"cls":5,"psfc":900.1,"terrain":false,"radius_km":200,"name":"sym cold","track":"T25"},"geometry":{"type":"Point","coordinates":[-144.0,-79.5]}},{"type":"Feature","properties":{"kind":"center","id":9,"lat":-78.0,"lon":164.25,"mslp":970.4,"hvtl":-114.6,"hvtu":8.8,"hb":-2.9,"idx":-1.5,"cls":6,"psfc":919.5,"terrain":false,"radius_km":200,"name":"shallow cold"},"geometry":{"type":"Point","coordinates":[164.25,-78.0]}},{"type":"Feature","properties":{"kind":"center","id":10,"lat":-68.25,"lon":157.0,"mslp":971.5,"hvtl":-333.7,"hvtu":-140.6,"hb":72.9,"idx":-2.9,"cls":4,"psfc":971.5,"terrain":false,"radius_km":200,"name":"asym cold"},"geometry":{"type":"Point","coordinates":[157.0,-68.25]}},{"type":"Feature","properties":{"kind":"center","id":11,"lat":-75.25,"lon":164.75,"mslp":973.0,"hvtl":-179.4,"hvtu":39.1,"hb":-1.6,"idx":-1.5,"cls":6,"psfc":972.8,"terrain":false,"radius_km":200,"name":"shallow cold"},"geometry":{"type":"Point","coordinates":[164.75,-75.25]}},{"type":"Feature","properties":{"kind":"center","id":12,"lat":-57.5,"lon":60.25,"mslp":976.2,"hvtl":35.9,"hvtu":-345.3,"hb":3.4,"idx":-0.3,"cls":1,"psfc":976.2,"terrain":false,"radius_km":200,"name":"sym shallow warm"},"geometry":{"type":"Point","coordinates":[60.25,-57.5]}},{"type":"Feature","properties":{"kind":"center","id":13,"lat":78.25,"lon":130.0,"mslp":976.6,"hvtl":73.7,"hvtu":-136.8,"hb":58.6,"idx":0.4,"cls":3,"psfc":976.6,"terrain":false,"radius_km":200,"name":"asym shallow warm","track":"T45"},"geometry":{"type":"Point","coordinates":[130.0,78.25]}},{"type":"Feature","properties":{"kind":"center","id":14,"lat":14.5,"lon":140.75,"mslp":976.9,"hvtl":140.9,"hvtu":178.2,"hb":-5.8,"idx":2.7,"cls":0,"psfc":976.9,"terrain":false,"radius_km":200,"name":"sym deep warm","track":"T50"},"geometry":{"type":"Point","coordinates":[140.75,14.5]}},{"type":"Feature","properties":{"kind":"center","id":15,"lat":76.75,"lon":50.0,"mslp":977.2,"hvtl":-312.1,"hvtu":-416.6,"hb":102.6,"idx":-3.0,"cls":4,"psfc":977.2,"terrain":false,"radius_km":200,"name":"asym cold"},"geometry":{"type":"Point","coordinates":[50.0,76.75]}},{"type":"Feature","properties":{"kind":"center","id":16,"lat":-51.5,"lon":124.25,"mslp":978.4,"hvtl":-199.9,"hvtu":-127.8,"hb":40.4,"idx":-2.8,"cls":4,"psfc":978.4,"terrain":false,"radius_km":200,"name":"asym cold","track":"T53"},"geometry":{"type":"Point","coordinates":[124.25,-51.5]}},{"type":"Feature","properties":{"kind":"center","id":17,"lat":81.75,"lon":162.25,"mslp":979.4,"hvtl":-92.8,"hvtu":-184.4,"hb":45.8,"idx":-2.4,"cls":4,"psfc":979.4,"terrain":false,"radius_km":200,"name":"asym cold"},"geometry":{"type":"Point","coordinates":[162.25,81.75]}},{"type":"Feature","properties":{"kind":"center","id":18,"lat":82.5,"lon":76.75,"mslp":980.0,"hvtl":-63.1,"hvtu":-215.5,"hb":42.7,"idx":-2.1,"cls":4,"psfc":980.0,"terrain":false,"radius_km":200,"name":"asym cold"},"geometry":{"type":"Point","coordinates":[76.75,82.5]}},{"type":"Feature","properties":{"kind":"center","id":19,"lat":78.0,"lon":26.0,"mslp":981.1,"hvtl":-244.4,"hvtu":-463.0,"hb":126.2,"idx":-3.0,"cls":4,"psfc":981.1,"terrain":false,"radius_km":200,"name":"asym cold"},"geometry":{"type":"Point","coordinates":[26.0,78.0]}},{"type":"Feature","properties":{"kind":"center","id":20,"lat":23.0,"lon":91.5,"mslp":982.9,"hvtl":131.1,"hvtu":107.1,"hb":-1.9,"idx":2.5,"cls":0,"psfc":980.4,"terrain":false,"radius_km":200,"name":"sym deep warm","track":"T42"},"geometry":{"type":"Point","coordinates":[91.5,23.0]}},{"type":"Feature","properties":{"kind":"center","id":21,"lat":-67.75,"lon":36.0,"mslp":984.1,"hvtl":-131.1,"hvtu":-91.5,"hb":16.1,"idx":-2.5,"cls":4,"psfc":984.1,"terrain":false,"radius_km":200,"name":"asym cold"},"geometry":{"type":"Point","coordinates":[36.0,-67.75]}},{"type":"Feature","properties":{"kind":"center","id":22,"lat":65.0,"lon":-36.25,"mslp":985.0,"hvtl":-332.4,"hvtu":-552.8,"hb":40.1,"idx":-3.0,"cls":4,"psfc":985.0,"terrain":false,"radius_km":200,"name":"asym cold","track":"T41"},"geometry":{"type":"Point","coordinates":[-36.25,65.0]}},{"type":"Feature","properties":{"kind":"center","id":23,"lat":13.25,"lon":-101.25,"mslp":988.5,"hvtl":100.9,"hvtu":86.3,"hb":4.5,"idx":2.2,"cls":0,"psfc":988.5,"terrain":false,"radius_km":200,"name":"sym deep warm","track":"T24"},"geometry":{"type":"Point","coordinates":[-101.25,13.25]}},{"type":"Feature","properties":{"kind":"center","id":24,"lat":70.0,"lon":-52.0,"mslp":992.8,"hvtl":80.4,"hvtu":-50.6,"hb":15.4,"idx":0.9,"cls":3,"psfc":979.0,"terrain":false,"radius_km":200,"name":"asym shallow warm","track":"T63"},"geometry":{"type":"Point","coordinates":[-52.0,70.0]}},{"type":"Feature","properties":{"kind":"center","id":25,"lat":71.75,"lon":-14.5,"mslp":993.8,"hvtl":-308.2,"hvtu":-281.6,"hb":74.9,"idx":-3.0,"cls":4,"psfc":993.8,"terrain":false,"radius_km":200,"name":"asym cold"},"geometry":{"type":"Point","coordinates":[-14.5,71.75]}},{"type":"Feature","properties":{"kind":"center","id":26,"lat":-36.25,"lon":-23.5,"mslp":996.2,"hvtl":-29.2,"hvtu":-288.4,"hb":81.2,"idx":-1.6,"cls":4,"psfc":996.2,"terrain":false,"radius_km":200,"name":"asym cold","track":"T76"},"geometry":{"type":"Point","coordinates":[-23.5,-36.25]}},{"type":"Feature","properties":{"kind":"center","id":27,"lat":-41.75,"lon":45.5,"mslp":996.9,"hvtl":-194.1,"hvtu":-303.7,"hb":116.0,"idx":-2.9,"cls":4,"psfc":996.9,"terrain":false,"radius_km":200,"name":"asym cold"},"geometry":{"type":"Point","coordinates":[45.5,-41.75]}},{"type":"Feature","properties":{"kind":"center","id":28,"lat":61.5,"lon":-89.5,"mslp":997.4,"hvtl":-188.1,"hvtu":-84.2,"hb":47.9,"idx":-2.6,"cls":4,"psfc":997.4,"terrain":false,"radius_km":200,"name":"asym cold"},"geometry":{"type":"Point","coordinates":[-89.5,61.5]}},{"type":"Feature","properties":{"kind":"center","id":29,"lat":38.75,"lon":129.75,"mslp":997.8,"hvtl":-93.8,"hvtu":-146.7,"hb":81.2,"idx":-2.4,"cls":4,"psfc":997.8,"terrain":false,"radius_km":200,"name":"asym cold"},"geometry":{"type":"Point","coordinates":[129.75,38.75]}},{"type":"Feature","properties":{"kind":"center","id":30,"lat":73.75,"lon":-57.5,"mslp":998.1,"hvtl":94.3,"hvtu":-76.2,"hb":20.4,"idx":0.8,"cls":3,"psfc":998.1,"terrain":false,"radius_km":200,"name":"asym shallow warm","track":"T66"},"geometry":{"type":"Point","coordinates":[-57.5,73.75]}},{"type":"Feature","properties":{"kind":"center","id":31,"lat":-26.5,"lon":-126.0,"mslp":999.1,"hvtl":40.4,"hvtu":-70.2,"hb":16.0,"idx":0.2,"cls":3,"psfc":999.1,"terrain":false,"radius_km":200,"name":"asym shallow warm","track":"T85"},"geometry":{"type":"Point","coordinates":[-126.0,-26.5]}},{"type":"Feature","properties":{"kind":"center","id":32,"lat":51.0,"lon":-170.0,"mslp":999.3,"hvtl":52.1,"hvtu":-132.4,"hb":13.8,"idx":0.1,"cls":3,"psfc":999.3,"terrain":false,"radius_km":200,"name":"asym shallow warm","track":"T81"},"geometry":{"type":"Point","coordinates":[-170.0,51.0]}},{"type":"Feature","properties":{"kind":"center","id":33,"lat":57.0,"lon":-140.5,"mslp":1000.5,"hvtl":26.8,"hvtu":-122.7,"hb":9.6,"idx":-0.3,"cls":1,"psfc":1000.5,"terrain":false,"radius_km":200,"name":"sym shallow warm","track":"T34"},"geometry":{"type":"Point","coordinates":[-140.5,57.0]}},{"type":"Feature","properties":{"kind":"center","id":34,"lat":-34.25,"lon":-155.5,"mslp":1007.2,"hvtl":-8.4,"hvtu":-277.8,"hb":34.5,"idx":-1.2,"cls":4,"psfc":1007.2,"terrain":false,"radius_km":200,"name":"asym cold"},"geometry":{"type":"Point","coordinates":[-155.5,-34.25]}},{"type":"Feature","properties":{"kind":"center","id":35,"lat":61.5,"lon":-149.0,"mslp":1007.5,"hvtl":89.9,"hvtu":-134.5,"hb":-15.1,"idx":0.6,"cls":1,"psfc":939.5,"terrain":false,"radius_km":200,"name":"sym shallow warm"},"geometry":{"type":"Point","coordinates":[-149.0,61.5]}},{"type":"Feature","properties":{"kind":"center","id":36,"lat":26.25,"lon":85.75,"mslp":1007.7,"hvtl":32.7,"hvtu":-210.1,"hb":0.5,"idx":-0.3,"cls":1,"psfc":1001.3,"terrain":false,"radius_km":200,"name":"sym shallow warm"},"geometry":{"type":"Point","coordinates":[85.75,26.25]}},{"type":"Feature","properties":{"kind":"center","id":37,"lat":16.0,"lon":-99.0,"mslp":1008.6,"hvtl":381.2,"hvtu":96.3,"hb":-19.9,"idx":2.7,"cls":0,"psfc":1008.6,"terrain":false,"radius_km":200,"name":"sym deep warm"},"geometry":{"type":"Point","coordinates":[-99.0,16.0]}},{"type":"Feature","properties":{"kind":"center","id":38,"lat":21.75,"lon":-105.25,"mslp":1008.7,"hvtl":-12.7,"hvtu":-94.4,"hb":-4.7,"idx":-1.0,"cls":5,"psfc":1006.5,"terrain":false,"radius_km":200,"name":"sym cold","track":"T107"},"geometry":{"type":"Point","coordinates":[-105.25,21.75]}},{"type":"Feature","properties":{"kind":"center","id":39,"lat":-37.25,"lon":-69.0,"mslp":1009.1,"hvtl":69.7,"hvtu":-113.8,"hb":11.1,"idx":0.4,"cls":3,"psfc":918.5,"terrain":true,"radius_km":200,"name":"asym shallow warm"},"geometry":{"type":"Point","coordinates":[-69.0,-37.25]}},{"type":"Feature","properties":{"kind":"center","id":40,"lat":62.25,"lon":-124.5,"mslp":1010.1,"hvtl":-213.0,"hvtu":-241.3,"hb":73.5,"idx":-2.9,"cls":4,"psfc":910.0,"terrain":true,"radius_km":200,"name":"asym cold"},"geometry":{"type":"Point","coordinates":[-124.5,62.25]}},{"type":"Feature","properties":{"kind":"center","id":41,"lat":63.0,"lon":-152.75,"mslp":1010.2,"hvtl":52.0,"hvtu":-68.1,"hb":25.7,"idx":0.4,"cls":3,"psfc":951.7,"terrain":false,"radius_km":200,"name":"asym shallow warm"},"geometry":{"type":"Point","coordinates":[-152.75,63.0]}},{"type":"Feature","properties":{"kind":"center","id":42,"lat":-30.75,"lon":-71.0,"mslp":1010.9,"hvtl":-37.6,"hvtu":-116.7,"hb":22.7,"idx":-1.5,"cls":4,"psfc":930.9,"terrain":false,"radius_km":200,"name":"asym cold"},"geometry":{"type":"Point","coordinates":[-71.0,-30.75]}},{"type":"Feature","properties":{"kind":"center","id":43,"lat":25.5,"lon":-78.25,"mslp":1011.1,"hvtl":130.5,"hvtu":-85.8,"hb":32.6,"idx":1.0,"cls":3,"psfc":1011.1,"terrain":false,"radius_km":200,"name":"asym shallow warm"},"geometry":{"type":"Point","coordinates":[-78.25,25.5]}},{"type":"Feature","properties":{"kind":"center","id":44,"lat":62.5,"lon":-147.25,"mslp":1011.5,"hvtl":69.5,"hvtu":-143.4,"hb":18.5,"idx":0.3,"cls":3,"psfc":907.2,"terrain":true,"radius_km":200,"name":"asym shallow warm"},"geometry":{"type":"Point","coordinates":[-147.25,62.5]}},{"type":"Feature","properties":{"kind":"center","id":45,"lat":-31.75,"lon":-68.0,"mslp":1011.9,"hvtl":123.1,"hvtu":-101.1,"hb":-15.3,"idx":0.9,"cls":1,"psfc":924.5,"terrain":false,"radius_km":200,"name":"sym shallow warm"},"geometry":{"type":"Point","coordinates":[-68.0,-31.75]}},{"type":"Feature","properties":{"kind":"center","id":46,"lat":19.75,"lon":-104.5,"mslp":1012.7,"hvtl":-19.2,"hvtu":-32.7,"hb":1.9,"idx":-0.7,"cls":5,"psfc":908.6,"terrain":true,"radius_km":200,"name":"sym cold"},"geometry":{"type":"Point","coordinates":[-104.5,19.75]}},{"type":"Feature","properties":{"kind":"center","id":47,"lat":43.75,"lon":-58.5,"mslp":1012.8,"hvtl":-337.3,"hvtu":-61.3,"hb":74.5,"idx":-2.5,"cls":4,"psfc":1012.8,"terrain":false,"radius_km":200,"name":"asym cold"},"geometry":{"type":"Point","coordinates":[-58.5,43.75]}},{"type":"Feature","properties":{"kind":"center","id":48,"lat":-37.25,"lon":-38.25,"mslp":1013.3,"hvtl":24.0,"hvtu":31.1,"hb":6.7,"idx":0.8,"cls":0,"psfc":1013.3,"terrain":false,"radius_km":200,"name":"sym deep warm"},"geometry":{"type":"Point","coordinates":[-38.25,-37.25]}},{"type":"Feature","properties":{"kind":"center","id":49,"lat":-28.0,"lon":-66.5,"mslp":1014.1,"hvtl":113.3,"hvtu":-186.2,"hb":3.3,"idx":0.7,"cls":1,"psfc":926.9,"terrain":false,"radius_km":200,"name":"sym shallow warm"},"geometry":{"type":"Point","coordinates":[-66.5,-28.0]}},{"type":"Feature","properties":{"kind":"center","id":50,"lat":-48.5,"lon":-75.0,"mslp":1015.2,"hvtl":30.5,"hvtu":-69.3,"hb":-25.7,"idx":-0.0,"cls":1,"psfc":987.0,"terrain":false,"radius_km":200,"name":"sym shallow warm"},"geometry":{"type":"Point","coordinates":[-75.0,-48.5]}},{"type":"Feature","properties":{"kind":"center","id":51,"lat":40.5,"lon":70.5,"mslp":1015.6,"hvtl":-120.8,"hvtu":-141.9,"hb":82.9,"idx":-2.6,"cls":4,"psfc":968.9,"terrain":false,"radius_km":200,"name":"asym cold","track":"T115"},"geometry":{"type":"Point","coordinates":[70.5,40.5]}},{"type":"Feature","properties":{"kind":"center","id":52,"lat":-21.25,"lon":-64.0,"mslp":1018.3,"hvtl":-90.0,"hvtu":-182.2,"hb":36.0,"idx":-2.4,"cls":4,"psfc":922.5,"terrain":true,"radius_km":200,"name":"asym cold"},"geometry":{"type":"Point","coordinates":[-64.0,-21.25]}},{"type":"Feature","properties":{"kind":"center","id":53,"lat":-22.75,"lon":-64.0,"mslp":1018.6,"hvtl":-76.9,"hvtu":-181.7,"hb":27.5,"idx":-2.2,"cls":4,"psfc":955.6,"terrain":false,"radius_km":200,"name":"asym cold"},"geometry":{"type":"Point","coordinates":[-64.0,-22.75]}},{"type":"Feature","properties":{"kind":"center","id":54,"lat":38.0,"lon":-101.75,"mslp":1018.8,"hvtl":113.6,"hvtu":-75.3,"hb":-22.3,"idx":1.0,"cls":1,"psfc":902.9,"terrain":true,"radius_km":200,"name":"sym shallow warm"},"geometry":{"type":"Point","coordinates":[-101.75,38.0]}},{"type":"Feature","properties":{"kind":"center","id":55,"lat":-27.25,"lon":-65.75,"mslp":1019.3,"hvtl":92.8,"hvtu":-210.3,"hb":10.9,"idx":0.5,"cls":3,"psfc":931.6,"terrain":false,"radius_km":200,"name":"asym shallow warm"},"geometry":{"type":"Point","coordinates":[-65.75,-27.25]}},{"type":"Feature","properties":{"kind":"center","id":56,"lat":43.0,"lon":75.0,"mslp":1022.2,"hvtl":-10.1,"hvtu":-282.1,"hb":123.3,"idx":-1.2,"cls":4,"psfc":915.2,"terrain":true,"radius_km":200,"name":"asym cold"},"geometry":{"type":"Point","coordinates":[75.0,43.0]}},{"type":"Feature","properties":{"kind":"center","id":57,"lat":43.75,"lon":80.75,"mslp":1026.0,"hvtl":-3.1,"hvtu":-296.4,"hb":55.7,"idx":-1.1,"cls":4,"psfc":943.0,"terrain":false,"radius_km":200,"name":"asym cold","track":"T117"},"geometry":{"type":"Point","coordinates":[80.75,43.75]}},{"type":"Feature","properties":{"kind":"center","id":58,"lat":43.5,"lon":83.0,"mslp":1026.2,"hvtl":-30.8,"hvtu":-317.7,"hb":63.4,"idx":-1.6,"cls":4,"psfc":905.1,"terrain":true,"radius_km":200,"name":"asym cold"},"geometry":{"type":"Point","coordinates":[83.0,43.5]}},{"type":"Feature","properties":{"kind":"center","id":59,"lat":43.5,"lon":82.25,"mslp":1026.2,"hvtl":-31.7,"hvtu":-321.5,"hb":59.4,"idx":-1.6,"cls":4,"psfc":919.8,"terrain":true,"radius_km":200,"name":"asym cold"},"geometry":{"type":"Point","coordinates":[82.25,43.5]}},{"type":"Feature","properties":{"kind":"center","id":60,"lat":44.5,"lon":84.5,"mslp":1030.0,"hvtl":27.6,"hvtu":-267.0,"hb":55.6,"idx":-0.5,"cls":3,"psfc":976.4,"terrain":false,"radius_km":200,"name":"asym shallow warm"},"geometry":{"type":"Point","coordinates":[84.5,44.5]}},{"type":"Feature","properties":{"kind":"center","id":61,"lat":52.5,"lon":102.0,"mslp":1037.2,"hvtl":-37.4,"hvtu":-105.4,"hb":20.7,"idx":-1.5,"cls":4,"psfc":904.3,"terrain":true,"radius_km":200,"name":"asym cold"},"geometry":{"type":"Point","coordinates":[102.0,52.5]}}]}