{"type":"FeatureCollection","features":[{"type":"Feature","properties":{"kind":"blob","cls":1,"id":1},"geometry":{"type":"Polygon","coordinates":[[[171.5,58.88],[175.0,58.88],[176.62,60.0],[176.62,61.0],[175.75,61.88],[173.5,62.62],[172.25,62.62],[172.12,62.25],[172.62,61.75],[171.0,60.62],[170.62,60.75],[171.25,61.38],[170.25,61.62],[170.0,60.88],[168.88,61.25],[168.88,60.0],[169.5,59.38],[171.5,58.88]],[[172.12,59.25],[172.5,59.62],[174.12,60.0],[173.75,59.38],[172.12,59.25]]]}},{"type":"Feature","properties":{"kind":"blob","cls":1,"id":2},"geometry":{"type":"Polygon","coordinates":[[[-140.75,-68.12],[-138.25,-67.12],[-137.88,-66.75],[-137.88,-65.75],[-139.5,-64.38],[-141.5,-64.38],[-141.5,-63.62],[-144.0,-63.12],[-148.25,-63.38],[-149.5,-63.88],[-150.38,-64.75],[-150.38,-65.75],[-149.25,-66.88],[-146.25,-68.12],[-140.75,-68.12]]]}},{"type":"Feature","properties":{"kind":"blob","cls":3,"id":3},"geometry":{"type":"Polygon","coordinates":[[[45.75,-65.88],[47.38,-65.0],[47.62,-64.0],[46.0,-62.38],[43.5,-61.62],[39.75,-61.88],[37.88,-63.0],[37.62,-64.0],[38.75,-65.12],[40.5,-65.88],[45.75,-65.88]]]}},{"type":"Feature","properties":{"kind":"blob","cls":1,"id":4},"geometry":{"type":"Polygon","coordinates":[[[-134.25,-63.88],[-132.62,-63.0],[-132.38,-62.0],[-133.5,-60.88],[-135.5,-60.38],[-139.5,-60.62],[-141.12,-61.5],[-141.38,-62.5],[-141.0,-63.12],[-138.75,-63.38],[-138.88,-63.75],[-134.25,-63.88]]]}},{"type":"Feature","properties":{"kind":"blob","cls":3,"id":5},"geometry":{"type":"Polygon","coordinates":[[[124.25,-57.88],[126.0,-57.38],[127.62,-55.0],[127.38,-54.0],[126.75,-53.38],[124.75,-52.62],[122.75,-52.62],[120.75,-53.38],[120.12,-54.25],[119.88,-56.5],[121.25,-57.62],[124.25,-57.88]]]}},{"type":"Feature","properties":{"kind":"blob","cls":4,"id":6},"geometry":{"type":"Polygon","coordinates":[[[26.75,-60.88],[27.5,-60.62],[28.62,-59.25],[27.5,-57.88],[25.75,-57.38],[23.0,-57.38],[21.25,-57.88],[20.12,-59.25],[20.38,-59.75],[21.25,-60.62],[26.75,-60.88]]]}},{"type":"Feature","properties":{"kind":"blob","cls":3,"id":7},"geometry":{"type":"Polygon","coordinates":[[[114.5,-54.12],[118.75,-54.12],[120.12,-53.0],[120.12,-51.75],[118.25,-50.38],[116.25,-49.88],[113.25,-50.12],[111.62,-51.5],[111.62,-52.5],[112.75,-53.62],[114.5,-54.12]]]}},{"type":"Feature","properties":{"kind":"blob","cls":1,"id":8},"geometry":{"type":"Polygon","coordinates":[[[-114.0,-74.88],[-107.0,-74.38],[-99.5,-74.38],[-99.0,-73.88],[-96.88,-73.75],[-98.75,-72.62],[-100.5,-72.12],[-108.25,-71.38],[-114.0,-72.38],[-115.38,-73.5],[-115.38,-74.0],[-114.0,-74.88]]]}},{"type":"Feature","properties":{"kind":"blob","cls":3,"id":9},"geometry":{"type":"Polygon","coordinates":[[[136.25,-65.88],[137.75,-65.12],[138.62,-64.25],[138.62,-63.75],[137.75,-62.88],[136.0,-62.12],[133.0,-61.88],[130.5,-62.62],[129.38,-63.75],[129.38,-64.25],[130.25,-65.12],[131.75,-65.88],[136.25,-65.88]]]}},{"type":"Feature","properties":{"kind":"blob","cls":3,"id":10},"geometry":{"type":"Polygon","coordinates":[[[117.5,-62.38],[119.75,-61.62],[120.38,-61.0],[120.12,-59.25],[117.5,-58.12],[114.0,-58.62],[112.88,-59.5],[112.62,-60.5],[113.5,-61.62],[117.5,-62.38]]]}},{"type":"Feature","properties":{"kind":"blob","cls":4,"id":11},"geometry":{"type":"Polygon","coordinates":[[[144.0,-57.38],[145.75,-56.88],[146.62,-56.0],[146.62,-54.75],[145.5,-53.62],[142.0,-52.12],[140.75,-52.12],[138.75,-52.88],[138.12,-53.75],[138.38,-55.25],[139.75,-56.62],[144.0,-57.38]]]}},{"type":"Feature","properties":{"kind":"blob","cls":4,"id":12},"geometry":{"type":"Polygon","coordinates":[[[-91.0,-68.38],[-89.75,-67.88],[-88.88,-67.0],[-88.88,-66.5],[-90.0,-65.38],[-93.0,-64.38],[-97.0,-64.62],[-99.12,-65.75],[-99.12,-66.75],[-98.5,-67.38],[-96.5,-68.38],[-91.0,-68.38]]]}},{"type":"Feature","properties":{"kind":"blob","cls":4,"id":13},"geometry":{"type":"Polygon","coordinates":[[[-69.62,-73.0],[-69.5,-73.38],[-67.0,-73.12],[-66.38,-71.75],[-67.5,-71.62],[-69.62,-73.0]]]}},{"type":"Feature","properties":{"kind":"blob","cls":4,"id":14},"geometry":{"type":"Polygon","coordinates":[[[-64.25,-74.88],[-62.25,-75.12],[-59.25,-74.62],[-56.75,-73.62],[-56.12,-72.75],[-56.75,-71.88],[-58.0,-71.38],[-62.0,-70.88],[-61.62,-71.25],[-62.62,-72.0],[-61.12,-73.0],[-62.12,-73.25],[-61.88,-74.0],[-62.25,-74.38],[-64.25,-74.88]]]}},{"type":"Feature","properties":{"kind":"blob","cls":4,"id":15},"geometry":{"type":"Polygon","coordinates":[[[-33.5,-79.38],[-30.88,-78.75],[-35.25,-78.62],[-35.38,-78.25],[-28.25,-76.38],[-23.5,-75.88],[-22.0,-76.12],[-20.0,-74.88],[-14.62,-73.75],[-15.5,-73.38],[-11.75,-73.38],[-10.0,-72.12],[-7.75,-72.12],[-4.88,-71.5],[-6.5,-70.62],[-9.25,-70.12],[-13.75,-70.38],[-21.0,-72.38],[-22.25,-73.62],[-23.75,-74.12],[-24.38,-74.75],[-24.0,-75.88],[-32.5,-75.88],[-36.5,-76.62],[-37.88,-77.5],[-37.5,-78.38],[-36.5,-78.88],[-33.5,-79.38]]]}},{"type":"Feature","properties":{"kind":"blob","cls":4,"id":16},"geometry":{"type":"Polygon","coordinates":[[[96.75,-65.88],[98.38,-65.0],[98.62,-63.75],[96.75,-62.38],[95.25,-62.12],[90.25,-62.62],[88.62,-63.5],[88.38,-64.5],[88.75,-65.12],[90.25,-65.88],[96.75,-65.88]]]}},{"type":"Feature","properties":{"kind":"blob","cls":4,"id":17},"geometry":{"type":"Polygon","coordinates":[[[179.75,-82.88],[180.0,-80.38],[175.75,-80.62],[174.25,-81.12],[166.12,-81.0],[172.5,-82.38],[179.75,-82.88]]]}},{"type":"Feature","properties":{"kind":"blob","cls":4,"id":17},"geometry":{"type":"Polygon","coordinates":[[[-179.75,-80.38],[-180.0,-82.88],[-177.75,-83.12],[-153.0,-83.12],[-142.62,-81.75],[-153.5,-80.62],[-165.5,-80.62],[-171.75,-80.12],[-179.75,-80.38]]]}},{"type":"Feature","properties":{"kind":"blob","cls":1,"id":18},"geometry":{"type":"Polygon","coordinates":[[[-7.75,63.38],[-3.75,63.38],[-2.5,63.88],[-1.62,65.0],[-2.5,66.12],[-3.5,66.62],[-5.75,67.12],[-8.5,66.88],[-9.5,68.38],[-13.5,69.62],[-18.0,69.38],[-20.38,68.0],[-20.38,67.0],[-18.75,65.88],[-15.75,65.12],[-11.0,65.38],[-10.88,64.5],[-10.25,63.88],[-7.75,63.38]]]}},{"type":"Feature","properties":{"kind":"blob","cls":4,"id":19},"geometry":{"type":"Polygon","coordinates":[[[171.75,-73.38],[172.38,-72.25],[171.75,-71.62],[169.75,-70.88],[166.12,-70.75],[170.5,-71.62],[169.88,-72.25],[170.0,-72.62],[169.38,-72.5],[169.38,-73.0],[171.75,-73.38]]]}},{"type":"Feature","properties":{"kind":"blob","cls":4,"id":20},"geometry":{"type":"MultiPolygon","coordinates":[[[[-46.75,-81.38],[-39.5,-80.62],[-37.12,-80.0],[-40.5,-79.38],[-44.0,-79.38],[-45.25,-80.12],[-48.0,-80.12],[-48.12,-79.75],[-47.5,-79.12],[-51.75,-79.12],[-65.25,-79.62],[-70.62,-80.75],[-69.75,-81.12],[-46.75,-81.38]]],[[[-44.88,-79.25],[-44.12,-79.25],[-44.25,-79.12],[-44.88,-79.25]]]]}},{"type":"Feature","properties":{"kind":"blob","cls":4,"id":21},"geometry":{"type":"Polygon","coordinates":[[[162.5,-71.62],[162.62,-71.25],[162.25,-70.88],[161.62,-71.25],[162.5,-71.62]]]}},{"type":"Feature","properties":{"kind":"blob","cls":6,"id":22},"geometry":{"type":"Polygon","coordinates":[[[107.38,-66.5],[106.75,-65.88],[105.12,-66.25],[107.38,-66.5]]]}},{"type":"Feature","properties":{"kind":"blob","cls":6,"id":23},"geometry":{"type":"Polygon","coordinates":[[[96.5,-66.38],[100.75,-66.38],[104.12,-65.25],[101.0,-65.12],[96.5,-66.38]]]}},{"type":"Feature","properties":{"kind":"blob","cls":4,"id":24},"geometry":{"type":"Polygon","coordinates":[[[163.75,-70.88],[164.5,-71.12],[164.62,-70.75],[164.25,-70.62],[163.75,-70.88]]]}},{"type":"Feature","properties":{"kind":"blob","cls":3,"id":25},"geometry":{"type":"Polygon","coordinates":[[[-98.5,-50.12],[-97.25,-49.62],[-96.12,-48.5],[-96.12,-47.25],[-97.0,-46.38],[-98.75,-45.62],[-101.25,-46.12],[-102.38,-47.25],[-102.38,-48.5],[-101.25,-49.62],[-98.5,-50.12]]]}},{"type":"Feature","properties":{"kind":"blob","cls":4,"id":26},"geometry":{"type":"Polygon","coordinates":[[[98.25,-59.38],[100.25,-58.88],[101.62,-58.0],[102.12,-56.75],[100.5,-55.12],[97.0,-55.12],[94.75,-56.38],[94.12,-57.25],[94.75,-58.62],[98.25,-59.38]]]}},{"type":"Feature","properties":{"kind":"blob","cls":1,"id":27},"geometry":{"type":"Polygon","coordinates":[[[-18.0,60.38],[-16.0,60.88],[-14.62,62.25],[-14.88,63.5],[-15.5,64.12],[-18.25,64.12],[-18.5,64.62],[-19.38,64.75],[-19.25,65.38],[-20.5,65.62],[-23.5,65.38],[-24.75,64.88],[-25.62,64.0],[-25.62,63.5],[-23.88,62.25],[-23.5,61.38],[-22.0,60.62],[-18.0,60.38]],[[-20.38,64.75],[-19.62,64.75],[-19.75,64.62],[-20.38,64.75]],[[-19.25,63.62],[-19.38,63.75],[-19.0,63.88],[-19.25,63.62]]]}},{"type":"Feature","properties":{"kind":"blob","cls":4,"id":28},"geometry":{"type":"Polygon","coordinates":[[[168.25,-73.12],[169.12,-73.0],[169.0,-72.88],[168.25,-73.12]]]}},{"type":"Feature","properties":{"kind":"blob","cls":4,"id":29},"geometry":{"type":"Polygon","coordinates":[[[162.5,-79.62],[164.0,-79.88],[168.25,-79.38],[170.5,-78.62],[170.88,-77.75],[167.5,-75.62],[164.25,-75.62],[162.38,-77.0],[164.62,-78.5],[162.0,-78.62],[161.88,-79.0],[162.5,-79.62]],[[166.62,-77.5],[169.12,-77.5],[169.0,-77.62],[166.62,-77.5]]]}},{"type":"Feature","properties":{"kind":"blob","cls":1,"id":30},"geometry":{"type":"Polygon","coordinates":[[[25.75,54.38],[27.38,55.75],[27.38,56.75],[26.62,57.75],[28.25,58.12],[29.62,59.5],[29.62,60.0],[28.5,61.12],[25.25,61.62],[24.38,61.25],[24.25,59.88],[23.25,60.88],[22.12,59.75],[23.12,58.0],[21.5,57.62],[20.62,56.75],[20.62,55.75],[21.75,54.62],[25.75,54.38]]]}},{"type":"Feature","properties":{"kind":"blob","cls":3,"id":31},"geometry":{"type":"Polygon","coordinates":[[[-133.25,50.38],[-131.75,50.88],[-130.88,51.75],[-130.88,53.0],[-132.0,54.12],[-133.5,54.62],[-136.0,54.12],[-137.12,53.0],[-137.12,51.75],[-136.25,50.88],[-133.25,50.38]]]}},{"type":"Feature","properties":{"kind":"blob","cls":3,"id":32},"geometry":{"type":"Polygon","coordinates":[[[56.5,74.12],[58.5,74.62],[59.88,75.75],[59.5,76.38],[57.25,77.38],[50.25,78.38],[46.5,78.38],[41.25,77.62],[40.25,77.38],[40.12,77.0],[41.25,76.12],[39.12,76.0],[39.5,75.38],[41.25,74.62],[43.25,74.12],[56.5,74.12]]]}},{"type":"Feature","properties":{"kind":"blob","cls":0,"id":33},"geometry":{"type":"Polygon","coordinates":[[[162.25,12.88],[163.62,13.75],[163.5,14.12],[162.0,13.88],[161.62,14.5],[162.25,14.88],[163.25,14.88],[163.88,14.25],[163.62,16.0],[162.25,16.88],[161.0,16.62],[160.12,15.5],[160.38,13.75],[162.25,12.88]]]}},{"type":"Feature","properties":{"kind":"blob","cls":0,"id":34},"geometry":{"type":"Polygon","coordinates":[[[-126.25,20.62],[-125.25,20.62],[-124.12,21.75],[-124.12,23.25],[-125.75,24.38],[-127.25,24.12],[-128.12,23.25],[-128.0,21.38],[-127.0,22.38],[-125.88,22.0],[-125.88,21.0],[-126.25,20.62]]]}},{"type":"Feature","properties":{"kind":"blob","cls":3,"id":35},"geometry":{"type":"Polygon","coordinates":[[[35.75,81.38],[41.0,82.12],[42.88,83.25],[41.25,84.12],[35.75,84.88],[22.0,85.12],[12.75,84.38],[10.75,83.88],[9.88,83.25],[11.5,82.38],[15.5,81.62],[35.75,81.38]]]}},{"type":"Feature","properties":{"kind":"blob","cls":3,"id":36},"geometry":{"type":"Polygon","coordinates":[[[-168.75,30.62],[-167.12,31.5],[-166.88,33.0],[-167.5,33.88],[-169.75,34.38],[-171.38,33.5],[-171.38,31.5],[-168.75,30.62]]]}},{"type":"Feature","properties":{"kind":"blob","cls":5,"id":37},"geometry":{"type":"Polygon","coordinates":[[[-104.75,-41.62],[-103.38,-40.0],[-103.62,-39.0],[-105.5,-37.62],[-108.0,-37.88],[-109.12,-39.25],[-109.12,-40.5],[-108.0,-41.62],[-104.75,-41.62]]]}},{"type":"Feature","properties":{"kind":"blob","cls":0,"id":38},"geometry":{"type":"Polygon","coordinates":[[[145.0,14.38],[146.5,14.38],[147.38,15.5],[147.12,17.0],[145.75,17.88],[144.5,17.62],[143.62,16.5],[143.75,16.12],[145.75,16.12],[146.62,15.5],[146.25,14.88],[145.0,14.38]]]}},{"type":"Feature","properties":{"kind":"blob","cls":3,"id":39},"geometry":{"type":"Polygon","coordinates":[[[-41.75,59.12],[-39.0,59.62],[-37.25,60.38],[-36.38,61.5],[-37.25,62.62],[-38.12,63.0],[-34.5,63.88],[-33.62,65.0],[-33.88,65.75],[-35.0,66.62],[-36.75,66.12],[-40.0,64.38],[-41.75,64.38],[-41.62,63.75],[-43.12,62.75],[-42.88,62.0],[-44.0,60.38],[-44.75,60.62],[-45.25,61.38],[-46.12,61.25],[-46.12,60.5],[-45.5,59.88],[-41.75,59.12]]]}},{"type":"Feature","properties":{"kind":"blob","cls":3,"id":40},"geometry":{"type":"Polygon","coordinates":[[[160.5,31.88],[161.62,33.0],[161.38,34.75],[159.5,35.88],[157.75,35.38],[156.88,34.25],[157.12,32.75],[157.75,32.12],[160.5,31.88]]]}},{"type":"Feature","properties":{"kind":"blob","cls":1,"id":41},"geometry":{"type":"Polygon","coordinates":[[[-78.25,53.12],[-75.25,52.88],[-72.25,54.12],[-71.12,55.5],[-71.12,56.75],[-72.0,57.62],[-73.75,58.12],[-77.75,58.38],[-79.5,57.88],[-79.75,57.38],[-77.0,56.38],[-71.62,56.0],[-72.75,54.88],[-75.0,54.38],[-78.0,54.62],[-81.38,55.75],[-81.38,54.5],[-80.75,53.88],[-78.25,53.12]]]}},{"type":"Feature","properties":{"kind":"blob","cls":0,"id":42},"geometry":{"type":"Polygon","coordinates":[[[-102.5,10.38],[-101.12,11.25],[-100.88,12.75],[-101.25,13.38],[-102.5,12.38],[-104.62,12.25],[-104.38,11.25],[-102.5,10.38]]]}},{"type":"Feature","properties":{"kind":"blob","cls":4,"id":43},"geometry":{"type":"Polygon","coordinates":[[[-4.5,74.62],[-0.5,75.12],[2.5,76.12],[3.62,77.0],[3.62,77.5],[2.25,78.38],[-0.25,78.88],[-8.0,79.12],[-13.0,78.38],[-15.62,76.75],[-15.25,75.88],[-13.5,75.12],[-4.5,74.62]]]}},{"type":"Feature","properties":{"kind":"blob","cls":4,"id":44},"geometry":{"type":"Polygon","coordinates":[[[-160.5,73.62],[-152.0,73.62],[-148.0,74.62],[-146.88,75.25],[-146.62,76.25],[-148.25,77.38],[-150.5,77.88],[-158.75,78.12],[-163.5,77.38],[-165.75,76.38],[-166.12,75.75],[-165.5,74.62],[-164.5,74.12],[-160.5,73.62]]]}},{"type":"Feature","properties":{"kind":"blob","cls":0,"id":45},"geometry":{"type":"Polygon","coordinates":[[[-93.5,17.12],[-92.62,18.25],[-92.62,19.25],[-93.5,20.38],[-94.12,20.25],[-93.88,19.0],[-94.25,18.62],[-96.38,18.5],[-95.5,17.12],[-93.5,17.12]]]}},{"type":"Feature","properties":{"kind":"blob","cls":5,"id":46},"geometry":{"type":"MultiPolygon","coordinates":[[[[-66.5,-15.88],[-65.12,-15.0],[-65.12,-13.0],[-66.0,-12.12],[-68.5,-11.12],[-70.5,-11.38],[-71.12,-12.0],[-71.38,-13.0],[-68.5,-13.88],[-67.88,-15.25],[-66.5,-15.88]]],[[[-73.0,-12.38],[-72.5,-11.88],[-71.38,-12.25],[-71.12,-10.0],[-71.75,-9.12],[-74.62,-9.5],[-74.88,-10.5],[-74.12,-10.25],[-73.0,-12.38]]]]}},{"type":"Feature","properties":{"kind":"blob","cls":1,"id":47},"geometry":{"type":"Polygon","coordinates":[[[-113.75,29.62],[-112.5,30.12],[-111.88,31.0],[-111.88,32.25],[-112.75,33.38],[-115.0,34.38],[-115.38,34.0],[-115.62,31.75],[-115.12,30.5],[-115.5,30.62],[-115.62,30.25],[-113.75,29.62]]]}},{"type":"Feature","properties":{"kind":"blob","cls":1,"id":48},"geometry":{"type":"Polygon","coordinates":[[[-109.5,25.12],[-107.88,26.25],[-109.12,28.0],[-109.62,29.5],[-110.25,29.88],[-112.0,29.62],[-113.12,28.25],[-112.88,26.75],[-111.5,25.38],[-109.5,25.12]]]}},{"type":"Feature","properties":{"kind":"blob","cls":4,"id":49},"geometry":{"type":"Polygon","coordinates":[[[165.75,-35.12],[167.62,-34.25],[167.88,-32.75],[167.25,-31.88],[165.25,-31.38],[163.62,-32.25],[163.62,-34.25],[165.75,-35.12]]]}},{"type":"Feature","properties":{"kind":"blob","cls":5,"id":50},"geometry":{"type":"MultiPolygon","coordinates":[[[[66.75,25.12],[68.75,25.12],[70.38,26.75],[70.62,28.5],[69.75,29.62],[68.75,29.62],[67.75,30.12],[67.38,29.75],[66.88,27.0],[65.38,26.75],[65.62,26.0],[66.75,25.12]]],[[[68.75,30.12],[68.62,30.0],[68.75,29.88],[68.75,30.12]]]]}},{"type":"Feature","properties":{"kind":"blob","cls":0,"id":51},"geometry":{"type":"Polygon","coordinates":[[[110.5,17.38],[111.88,18.25],[112.12,19.75],[111.25,20.88],[109.0,20.88],[108.38,20.25],[108.12,18.75],[109.0,17.62],[110.5,17.38]]]}},{"type":"Feature","properties":{"kind":"blob","cls":4,"id":52},"geometry":{"type":"Polygon","coordinates":[[[-67.25,74.12],[-63.75,75.38],[-63.38,76.25],[-63.75,76.62],[-66.75,76.62],[-65.38,77.25],[-66.75,77.62],[-72.5,77.88],[-77.0,77.12],[-78.5,76.38],[-78.88,75.75],[-77.5,74.62],[-75.5,74.12],[-67.25,74.12]],[[-68.12,77.0],[-67.38,77.0],[-67.5,76.88],[-68.12,77.0]]]}},{"type":"Feature","properties":{"kind":"blob","cls":4,"id":53},"geometry":{"type":"Polygon","coordinates":[[[-57.25,71.62],[-54.0,72.12],[-53.62,72.5],[-58.25,74.62],[-59.5,75.62],[-63.75,74.88],[-65.12,73.75],[-65.12,73.25],[-64.0,72.38],[-57.25,71.62]]]}},{"type":"Feature","properties":{"kind":"blob","cls":3,"id":54},"geometry":{"type":"Polygon","coordinates":[[[-74.0,-12.38],[-74.0,-11.62],[-74.12,-11.75],[-74.0,-12.38]]]}},{"type":"Feature","properties":{"kind":"blob","cls":3,"id":55},"geometry":{"type":"Polygon","coordinates":[[[-74.5,-11.38],[-74.12,-11.25],[-74.25,-11.12],[-74.5,-11.38]]]}},{"type":"Feature","properties":{"kind":"blob","cls":4,"id":56},"geometry":{"type":"Polygon","coordinates":[[[-60.75,33.62],[-58.75,34.38],[-58.12,35.0],[-58.12,36.5],[-59.75,37.62],[-62.0,37.62],[-63.0,37.12],[-63.88,36.25],[-63.88,34.75],[-63.25,34.12],[-60.75,33.62]]]}},{"type":"Feature","properties":{"kind":"blob","cls":3,"id":57},"geometry":{"type":"Polygon","coordinates":[[[-64.0,-21.38],[-63.62,-21.0],[-64.0,-20.62],[-64.0,-21.38]]]}},{"type":"Feature","properties":{"kind":"blob","cls":4,"id":58},"geometry":{"type":"Polygon","coordinates":[[[87.25,51.88],[87.5,51.62],[89.5,52.62],[90.5,52.38],[91.12,52.75],[89.5,53.12],[88.0,52.62],[87.25,51.88]]]}},{"type":"Feature","properties":{"kind":"blob","cls":3,"id":59},"geometry":{"type":"Polygon","coordinates":[[[46.0,-29.12],[46.62,-28.75],[46.12,-28.0],[46.12,-27.0],[46.75,-26.38],[47.62,-26.25],[46.75,-25.38],[45.25,-25.12],[43.62,-26.25],[43.62,-28.0],[44.5,-28.88],[46.0,-29.12]]]}},{"type":"Feature","properties":{"kind":"center","id":1,"lat":60.75,"lon":172.5,"mslp":944.1,"hvtl":199.9,"hvtu":-11.8,"hb":-12.1,"idx":1.8,"cls":1,"psfc":944.1,"terrain":false,"radius_km":200,"name":"sym shallow warm","track":"T07"},"geometry":{"type":"Point","coordinates":[172.5,60.75]}},{"type":"Feature","properties":{"kind":"center","id":2,"lat":-66.0,"lon":-143.75,"mslp":950.3,"hvtl":21.7,"hvtu":-99.1,"hb":5.7,"idx":-0.3,"cls":1,"psfc":950.3,"terrain":false,"radius_km":200,"name":"sym shallow warm","track":"T15"},"geometry":{"type":"Point","coordinates":[-143.75,-66.0]}},{"type":"Feature","properties":{"kind":"center","id":3,"lat":-63.75,"lon":42.0,"mslp":951.2,"hvtl":26.4,"hvtu":-200.9,"hb":50.5,"idx":-0.4,"cls":3,"psfc":951.2,"terrain":false,"radius_km":200,"name":"asym shallow warm","track":"T16"},"geometry":{"type":"Point","coordinates":[42.0,-63.75]}},{"type":"Feature","properties":{"kind":"center","id":4,"lat":-63.0,"lon":-137.25,"mslp":951.5,"hvtl":31.3,"hvtu":-88.6,"hb":-1.8,"idx":-0.1,"cls":1,"psfc":951.5,"terrain":false,"radius_km":200,"name":"sym shallow warm","track":"T14"},"geometry":{"type":"Point","coordinates":[-137.25,-63.0]}},{"type":"Feature","properties":{"kind":"center","id":5,"lat":-54.75,"lon":123.75,"mslp":959.0,"hvtl":6.0,"hvtu":-161.7,"hb":58.1,"idx":-0.8,"cls":3,"psfc":959.0,"terrain":false,"radius_km":200,"name":"asym shallow warm","track":"T22"},"geometry":{"type":"Point","coordinates":[123.75,-54.75]}},{"type":"Feature","properties":{"kind":"center","id":6,"lat":-59.25,"lon":24.25,"mslp":965.3,"hvtl":-21.7,"hvtu":-19.0,"hb":22.6,"idx":-0.6,"cls":4,"psfc":965.3,"terrain":false,"radius_km":200,"name":"asym cold","track":"T23"},"geometry":{"type":"Point","coordinates":[24.25,-59.25]}},{"type":"Feature","properties":{"kind":"center","id":7,"lat":-52.0,"lon":119.25,"mslp":966.4,"hvtl":92.7,"hvtu":-343.6,"hb":20.8,"idx":0.5,"cls":3,"psfc":966.4,"terrain":false,"radius_km":200,"name":"asym shallow warm","track":"T31"},"geometry":{"type":"Point","coordinates":[119.25,-52.0]}},{"type":"Feature","properties":{"kind":"center","id":8,"lat":-73.5,"lon":-107.25,"mslp":968.5,"hvtl":68.7,"hvtu":-155.4,"hb":-12.5,"idx":0.3,"cls":1,"psfc":968.6,"terrain":false,"radius_km":200,"name":"sym shallow warm","track":"T18"},"geometry":{"type":"Point","coordinates":[-107.25,-73.5]}},{"type":"Feature","properties":{"kind":"center","id":9,"lat":-64.0,"lon":134.0,"mslp":971.5,"hvtl":67.1,"hvtu":-223.6,"hb":51.4,"idx":0.2,"cls":3,"psfc":971.5,"terrain":false,"radius_km":200,"name":"asym shallow warm","track":"T38"},"geometry":{"type":"Point","coordinates":[134.0,-64.0]}},{"type":"Feature","properties":{"kind":"center","id":10,"lat":-60.25,"lon":116.5,"mslp":972.9,"hvtl":178.0,"hvtu":-105.2,"hb":49.5,"idx":1.1,"cls":3,"psfc":972.9,"terrain":false,"radius_km":200,"name":"asym shallow warm"},"geometry":{"type":"Point","coordinates":[116.5,-60.25]}},{"type":"Feature","properties":{"kind":"center","id":11,"lat":-54.75,"lon":142.25,"mslp":975.1,"hvtl":-244.9,"hvtu":-394.7,"hb":85.1,"idx":-3.0,"cls":4,"psfc":975.1,"terrain":false,"radius_km":200,"name":"asym cold","track":"T17"},"geometry":{"type":"Point","coordinates":[142.25,-54.75]}},{"type":"Feature","properties":{"kind":"center","id":12,"lat":-67.0,"lon":-93.5,"mslp":976.0,"hvtl":-211.8,"hvtu":-286.9,"hb":45.5,"idx":-2.9,"cls":4,"psfc":976.0,"terrain":false,"radius_km":200,"name":"asym cold","track":"T33"},"geometry":{"type":"Point","coordinates":[-93.5,-67.0]}},{"type":"Feature","properties":{"kind":"center","id":13,"lat":-72.75,"lon":-68.25,"mslp":976.5,"hvtl":-43.1,"hvtu":-142.7,"hb":40.4,"idx":-1.7,"cls":4,"psfc":971.5,"terrain":false,"radius_km":200,"name":"asym cold","track":"T43"},"geometry":{"type":"Point","coordinates":[-68.25,-72.75]}},{"type":"Feature","properties":{"kind":"center","id":14,"lat":-71.0,"lon":-61.75,"mslp":977.3,"hvtl":-93.9,"hvtu":-210.8,"hb":38.4,"idx":-2.4,"cls":4,"psfc":922.8,"terrain":false,"radius_km":200,"name":"asym cold","track":"T45"},"geometry":{"type":"Point","coordinates":[-61.75,-71.0]}},{"type":"Feature","properties":{"kind":"center","id":15,"lat":-73.25,"lon":-15.25,"mslp":977.7,"hvtl":-230.1,"hvtu":-49.1,"hb":20.2,"idx":-2.4,"cls":4,"psfc":917.7,"terrain":false,"radius_km":200,"name":"asym cold","track":"T50"},"geometry":{"type":"Point","coordinates":[-15.25,-73.25]}},{"type":"Feature","properties":{"kind":"center","id":16,"lat":-64.25,"lon":94.0,"mslp":978.8,"hvtl":-189.3,"hvtu":-197.3,"hb":41.0,"idx":-2.9,"cls":4,"psfc":978.8,"terrain":false,"radius_km":200,"name":"asym cold","track":"T37"},"geometry":{"type":"Point","coordinates":[94.0,-64.25]}},{"type":"Feature","properties":{"kind":"center","id":17,"lat":-82.25,"lon":-160.75,"mslp":980.4,"hvtl":-45.0,"hvtu":-142.0,"hb":12.7,"idx":-1.7,"cls":4,"psfc":971.2,"terrain":false,"radius_km":200,"name":"asym cold","track":"T54"},"geometry":{"type":"Point","coordinates":[-160.75,-82.25]}},{"type":"Feature","properties":{"kind":"center","id":18,"lat":67.5,"lon":-14.75,"mslp":982.0,"hvtl":220.5,"hvtu":-146.4,"hb":8.3,"idx":1.1,"cls":1,"psfc":982.0,"terrain":false,"radius_km":200,"name":"sym shallow warm","track":"T53"},"geometry":{"type":"Point","coordinates":[-14.75,67.5]}},{"type":"Feature","properties":{"kind":"center","id":19,"lat":-72.5,"lon":172.25,"mslp":982.3,"hvtl":-61.3,"hvtu":-71.3,"hb":12.6,"idx":-1.7,"cls":4,"psfc":982.3,"terrain":false,"radius_km":200,"name":"asym cold"},"geometry":{"type":"Point","coordinates":[172.25,-72.5]}},{"type":"Feature","properties":{"kind":"center","id":20,"lat":-79.75,"lon":-38.75,"mslp":982.4,"hvtl":-326.4,"hvtu":-42.4,"hb":41.1,"idx":-2.4,"cls":4,"psfc":968.0,"terrain":false,"radius_km":200,"name":"asym cold","track":"T58"},"geometry":{"type":"Point","coordinates":[-38.75,-79.75]}},{"type":"Feature","properties":{"kind":"center","id":21,"lat":-71.5,"lon":162.25,"mslp":982.4,"hvtl":-118.2,"hvtu":-128.2,"hb":45.4,"idx":-2.5,"cls":4,"psfc":921.8,"terrain":false,"radius_km":200,"name":"asym cold"},"geometry":{"type":"Point","coordinates":[162.25,-71.5]}},{"type":"Feature","properties":{"kind":"center","id":22,"lat":-66.25,"lon":105.25,"mslp":982.7,"hvtl":-179.2,"hvtu":16.5,"hb":-19.0,"idx":-1.7,"cls":6,"psfc":927.1,"terrain":false,"radius_km":200,"name":"shallow cold","track":"T01"},"geometry":{"type":"Point","coordinates":[105.25,-66.25]}},{"type":"Feature","properties":{"kind":"center","id":23,"lat":-65.25,"lon":101.25,"mslp":982.9,"hvtl":-179.2,"hvtu":44.6,"hb":25.8,"idx":-1.5,"cls":6,"psfc":982.8,"terrain":false,"radius_km":200,"name":"shallow cold","track":"T24"},"geometry":{"type":"Point","coordinates":[101.25,-65.25]}},{"type":"Feature","properties":{"kind":"center","id":24,"lat":-71.0,"lon":164.5,"mslp":983.0,"hvtl":-125.2,"hvtu":-170.6,"hb":43.2,"idx":-2.6,"cls":4,"psfc":921.5,"terrain":false,"radius_km":200,"name":"asym cold","track":"T64"},"geometry":{"type":"Point","coordinates":[164.5,-71.0]}},{"type":"Feature","properties":{"kind":"center","id":25,"lat":-48.0,"lon":-99.25,"mslp":983.6,"hvtl":49.2,"hvtu":-195.7,"hb":34.6,"idx":-0.0,"cls":3,"psfc":983.6,"terrain":false,"radius_km":200,"name":"asym shallow warm","track":"T39"},"geometry":{"type":"Point","coordinates":[-99.25,-48.0]}},{"type":"Feature","properties":{"kind":"center","id":26,"lat":-57.0,"lon":98.5,"mslp":984.0,"hvtl":-142.3,"hvtu":-232.8,"hb":19.1,"idx":-2.8,"cls":4,"psfc":984.0,"terrain":false,"radius_km":200,"name":"asym cold"},"geometry":{"type":"Point","coordinates":[98.5,-57.0]}},{"type":"Feature","properties":{"kind":"center","id":27,"lat":62.5,"lon":-18.75,"mslp":984.5,"hvtl":7.2,"hvtu":-222.0,"hb":0.3,"idx":-0.8,"cls":1,"psfc":984.5,"terrain":false,"radius_km":200,"name":"sym shallow warm"},"geometry":{"type":"Point","coordinates":[-18.75,62.5]}},{"type":"Feature","properties":{"kind":"center","id":28,"lat":-73.0,"lon":168.5,"mslp":984.6,"hvtl":-82.9,"hvtu":-53.2,"hb":10.0,"idx":-1.8,"cls":4,"psfc":930.7,"terrain":false,"radius_km":200,"name":"asym cold"},"geometry":{"type":"Point","coordinates":[168.5,-73.0]}},{"type":"Feature","properties":{"kind":"center","id":29,"lat":-77.25,"lon":164.0,"mslp":984.8,"hvtl":-127.5,"hvtu":-40.8,"hb":25.7,"idx":-2.1,"cls":4,"psfc":984.3,"terrain":false,"radius_km":200,"name":"asym cold","track":"T59"},"geometry":{"type":"Point","coordinates":[164.0,-77.25]}},{"type":"Feature","properties":{"kind":"center","id":30,"lat":56.25,"lon":24.0,"mslp":985.7,"hvtl":92.1,"hvtu":-72.5,"hb":-31.2,"idx":0.8,"cls":1,"psfc":980.7,"terrain":false,"radius_km":200,"name":"sym shallow warm","track":"T67"},"geometry":{"type":"Point","coordinates":[24.0,56.25]}},{"type":"Feature","properties":{"kind":"center","id":31,"lat":52.5,"lon":-134.0,"mslp":986.3,"hvtl":88.2,"hvtu":-184.8,"hb":41.3,"idx":0.5,"cls":3,"psfc":986.3,"terrain":false,"radius_km":200,"name":"asym shallow warm","track":"T68"},"geometry":{"type":"Point","coordinates":[-134.0,52.5]}},{"type":"Feature","properties":{"kind":"center","id":32,"lat":76.0,"lon":49.75,"mslp":988.0,"hvtl":15.4,"hvtu":-31.8,"hb":12.8,"idx":-0.0,"cls":3,"psfc":988.0,"terrain":false,"radius_km":200,"name":"asym shallow warm","track":"T41"},"geometry":{"type":"Point","coordinates":[49.75,76.0]}},{"type":"Feature","properties":{"kind":"center","id":33,"lat":15.0,"lon":162.0,"mslp":989.6,"hvtl":71.0,"hvtu":73.3,"hb":8.0,"idx":1.8,"cls":0,"psfc":989.6,"terrain":false,"radius_km":200,"name":"sym deep warm","track":"T02"},"geometry":{"type":"Point","coordinates":[162.0,15.0]}},{"type":"Feature","properties":{"kind":"center","id":34,"lat":22.5,"lon":-126.25,"mslp":991.0,"hvtl":76.0,"hvtu":128.2,"hb":-2.7,"idx":2.1,"cls":0,"psfc":991.0,"terrain":false,"radius_km":200,"name":"sym deep warm","track":"T48"},"geometry":{"type":"Point","coordinates":[-126.25,22.5]}},{"type":"Feature","properties":{"kind":"center","id":35,"lat":81.5,"lon":34.75,"mslp":992.0,"hvtl":9.5,"hvtu":-130.0,"hb":45.6,"idx":-0.7,"cls":3,"psfc":992.0,"terrain":false,"radius_km":200,"name":"asym shallow warm","track":"T73"},"geometry":{"type":"Point","coordinates":[34.75,81.5]}},{"type":"Feature","properties":{"kind":"center","id":36,"lat":32.5,"lon":-169.25,"mslp":994.7,"hvtl":37.5,"hvtu":-154.7,"hb":12.3,"idx":-0.2,"cls":3,"psfc":994.7,"terrain":false,"radius_km":200,"name":"asym shallow warm","track":"T81"},"geometry":{"type":"Point","coordinates":[-169.25,32.5]}},{"type":"Feature","properties":{"kind":"center","id":37,"lat":-39.75,"lon":-106.25,"mslp":995.1,"hvtl":-8.4,"hvtu":-236.4,"hb":1.7,"idx":-1.2,"cls":5,"psfc":995.1,"terrain":false,"radius_km":200,"name":"sym cold"},"geometry":{"type":"Point","coordinates":[-106.25,-39.75]}},{"type":"Feature","properties":{"kind":"center","id":38,"lat":16.25,"lon":145.25,"mslp":995.3,"hvtl":59.9,"hvtu":73.6,"hb":3.7,"idx":1.7,"cls":0,"psfc":995.2,"terrain":false,"radius_km":200,"name":"sym deep warm","track":"T08"},"geometry":{"type":"Point","coordinates":[145.25,16.25]}},{"type":"Feature","properties":{"kind":"center","id":39,"lat":65.0,"lon":-38.0,"mslp":997.8,"hvtl":70.5,"hvtu":-94.7,"hb":22.6,"idx":0.5,"cls":3,"psfc":997.8,"terrain":false,"radius_km":200,"name":"asym shallow warm","track":"T62"},"geometry":{"type":"Point","coordinates":[-38.0,65.0]}},{"type":"Feature","properties":{"kind":"center","id":40,"lat":34.0,"lon":159.25,"mslp":1000.1,"hvtl":132.7,"hvtu":-90.0,"hb":44.3,"idx":1.0,"cls":3,"psfc":1000.1,"terrain":false,"radius_km":200,"name":"asym shallow warm","track":"T40"},"geometry":{"type":"Point","coordinates":[159.25,34.0]}},{"type":"Feature","properties":{"kind":"center","id":41,"lat":56.25,"lon":-74.75,"mslp":1002.4,"hvtl":19.3,"hvtu":-52.5,"hb":0.0,"idx":-0.1,"cls":1,"psfc":971.8,"terrain":false,"radius_km":200,"name":"sym shallow warm","track":"T88"},"geometry":{"type":"Point","coordinates":[-74.75,56.25]}},{"type":"Feature","properties":{"kind":"center","id":42,"lat":12.25,"lon":-102.75,"mslp":1002.5,"hvtl":7.8,"hvtu":28.8,"hb":-3.5,"idx":0.4,"cls":0,"psfc":1002.5,"terrain":false,"radius_km":200,"name":"sym deep warm"},"geometry":{"type":"Point","coordinates":[-102.75,12.25]}},{"type":"Feature","properties":{"kind":"center","id":43,"lat":77.25,"lon":-5.5,"mslp":1003.0,"hvtl":-65.8,"hvtu":-205.5,"hb":51.8,"idx":-2.1,"cls":4,"psfc":1002.9,"terrain":false,"radius_km":200,"name":"asym cold","track":"T104"},"geometry":{"type":"Point","coordinates":[-5.5,77.25]}},{"type":"Feature","properties":{"kind":"center","id":44,"lat":76.0,"lon":-156.0,"mslp":1003.0,"hvtl":-20.5,"hvtu":-306.0,"hb":66.5,"idx":-1.4,"cls":4,"psfc":1003.0,"terrain":false,"radius_km":200,"name":"asym cold","track":"T101"},"geometry":{"type":"Point","coordinates":[-156.0,76.0]}},{"type":"Feature","properties":{"kind":"center","id":45,"lat":18.5,"lon":-94.5,"mslp":1003.6,"hvtl":29.8,"hvtu":18.0,"hb":1.9,"idx":0.8,"cls":0,"psfc":1003.5,"terrain":false,"radius_km":200,"name":"sym deep warm","track":"T90"},"geometry":{"type":"Point","coordinates":[-94.5,18.5]}},{"type":"Feature","properties":{"kind":"center","id":46,"lat":-13.75,"lon":-67.5,"mslp":1004.3,"hvtl":-71.3,"hvtu":-65.5,"hb":2.7,"idx":-1.8,"cls":5,"psfc":983.0,"terrain":false,"radius_km":200,"name":"sym cold"},"geometry":{"type":"Point","coordinates":[-67.5,-13.75]}},{"type":"Feature","properties":{"kind":"center","id":47,"lat":31.25,"lon":-114.75,"mslp":1004.4,"hvtl":13.6,"hvtu":-153.3,"hb":-11.6,"idx":-0.6,"cls":1,"psfc":1003.8,"terrain":false,"radius_km":200,"name":"sym shallow warm"},"geometry":{"type":"Point","coordinates":[-114.75,31.25]}},{"type":"Feature","properties":{"kind":"center","id":48,"lat":27.75,"lon":-110.75,"mslp":1004.6,"hvtl":18.8,"hvtu":-185.1,"hb":1.1,"idx":-0.6,"cls":1,"psfc":1004.6,"terrain":false,"radius_km":200,"name":"sym shallow warm","track":"T95"},"geometry":{"type":"Point","coordinates":[-110.75,27.75]}},{"type":"Feature","properties":{"kind":"center","id":49,"lat":-33.25,"lon":165.75,"mslp":1004.8,"hvtl":-47.7,"hvtu":-92.2,"hb":23.4,"idx":-1.6,"cls":4,"psfc":1004.8,"terrain":false,"radius_km":200,"name":"asym cold","track":"T107"},"geometry":{"type":"Point","coordinates":[165.75,-33.25]}},{"type":"Feature","properties":{"kind":"center","id":50,"lat":27.5,"lon":67.75,"mslp":1005.6,"hvtl":-17.6,"hvtu":-47.5,"hb":6.6,"idx":-0.8,"cls":5,"psfc":1000.5,"terrain":false,"radius_km":200,"name":"sym cold","track":"T100"},"geometry":{"type":"Point","coordinates":[67.75,27.5]}},{"type":"Feature","properties":{"kind":"center","id":51,"lat":19.25,"lon":110.25,"mslp":1005.7,"hvtl":34.9,"hvtu":39.6,"hb":-14.4,"idx":1.0,"cls":0,"psfc":990.4,"terrain":false,"radius_km":200,"name":"sym deep warm"},"geometry":{"type":"Point","coordinates":[110.25,19.25]}},{"type":"Feature","properties":{"kind":"center","id":52,"lat":75.75,"lon":-71.5,"mslp":1007.1,"hvtl":-256.7,"hvtu":-144.2,"hb":65.5,"idx":-2.9,"cls":4,"psfc":1007.1,"terrain":false,"radius_km":200,"name":"asym cold","track":"T115"},"geometry":{"type":"Point","coordinates":[-71.5,75.75]}},{"type":"Feature","properties":{"kind":"center","id":53,"lat":74.5,"lon":-62.5,"mslp":1009.1,"hvtl":-217.4,"hvtu":-179.0,"hb":50.3,"idx":-2.9,"cls":4,"psfc":1009.2,"terrain":false,"radius_km":200,"name":"asym cold"},"geometry":{"type":"Point","coordinates":[-62.5,74.5]}},{"type":"Feature","properties":{"kind":"center","id":54,"lat":-11.75,"lon":-74.0,"mslp":1009.5,"hvtl":96.6,"hvtu":-61.2,"hb":20.2,"idx":0.9,"cls":3,"psfc":935.1,"terrain":false,"radius_km":200,"name":"asym shallow warm"},"geometry":{"type":"Point","coordinates":[-74.0,-11.75]}},{"type":"Feature","properties":{"kind":"center","id":55,"lat":-11.25,"lon":-74.25,"mslp":1009.6,"hvtl":76.2,"hvtu":-54.2,"hb":14.7,"idx":0.8,"cls":3,"psfc":902.7,"terrain":true,"radius_km":200,"name":"asym shallow warm"},"geometry":{"type":"Point","coordinates":[-74.25,-11.25]}},{"type":"Feature","properties":{"kind":"center","id":56,"lat":35.5,"lon":-61.5,"mslp":1009.9,"hvtl":-61.5,"hvtu":-238.7,"hb":44.2,"idx":-2.1,"cls":4,"psfc":1009.9,"terrain":false,"radius_km":200,"name":"asym cold","track":"T113"},"geometry":{"type":"Point","coordinates":[-61.5,35.5]}},{"type":"Feature","properties":{"kind":"center","id":57,"lat":-20.75,"lon":-64.0,"mslp":1014.0,"hvtl":6.0,"hvtu":-210.6,"hb":41.7,"idx":-0.9,"cls":3,"psfc":903.1,"terrain":true,"radius_km":200,"name":"asym shallow warm"},"geometry":{"type":"Point","coordinates":[-64.0,-20.75]}},{"type":"Feature","properties":{"kind":"center","id":58,"lat":52.75,"lon":90.75,"mslp":1014.4,"hvtl":-308.6,"hvtu":-264.5,"hb":36.6,"idx":-3.0,"cls":4,"psfc":907.9,"terrain":true,"radius_km":200,"name":"asym cold"},"geometry":{"type":"Point","coordinates":[90.75,52.75]}},{"type":"Feature","properties":{"kind":"center","id":59,"lat":-27.0,"lon":45.5,"mslp":1015.3,"hvtl":81.9,"hvtu":-95.0,"hb":13.0,"idx":0.6,"cls":3,"psfc":1015.3,"terrain":false,"radius_km":200,"name":"asym shallow warm"},"geometry":{"type":"Point","coordinates":[45.5,-27.0]}}]}