{"type":"FeatureCollection","features":[{"type":"Feature","properties":{"kind":"blob","cls":1,"id":1},"geometry":{"type":"Polygon","coordinates":[[[-142.5,-65.38],[-141.25,-64.88],[-140.12,-63.5],[-141.0,-62.38],[-143.5,-61.62],[-145.75,-61.62],[-148.25,-62.38],[-148.88,-63.0],[-149.12,-64.0],[-148.0,-64.38],[-147.75,-65.12],[-142.5,-65.38]]]}},{"type":"Feature","properties":{"kind":"blob","cls":3,"id":2},"geometry":{"type":"Polygon","coordinates":[[[72.25,-63.12],[74.5,-62.62],[76.88,-61.0],[76.88,-60.0],[75.25,-58.88],[69.75,-57.62],[66.0,-57.88],[63.88,-59.25],[63.62,-60.5],[64.75,-61.88],[67.0,-62.62],[72.25,-63.12]],[[67.88,-61.75],[68.0,-61.38],[69.75,-60.88],[71.5,-60.88],[72.12,-61.25],[71.25,-61.88],[67.88,-61.75]]]}},{"type":"Feature","properties":{"kind":"blob","cls":2,"id":3},"geometry":{"type":"Polygon","coordinates":[[[118.75,-65.62],[121.75,-64.62],[122.62,-63.5],[122.38,-62.25],[121.25,-61.38],[119.25,-60.88],[117.0,-60.88],[114.5,-61.62],[114.25,-62.12],[116.75,-61.38],[119.12,-61.5],[117.75,-62.62],[113.62,-63.75],[115.25,-65.12],[118.75,-65.62]]]}},{"type":"Feature","properties":{"kind":"blob","cls":1,"id":4},"geometry":{"type":"Polygon","coordinates":[[[126.75,-62.62],[130.25,-62.62],[132.38,-61.25],[132.38,-60.25],[130.5,-58.88],[126.5,-58.88],[126.38,-57.5],[125.75,-56.88],[123.75,-56.12],[120.5,-56.38],[118.88,-57.5],[118.88,-58.75],[119.5,-59.38],[121.5,-60.12],[124.0,-59.88],[123.88,-61.25],[124.75,-62.12],[126.75,-62.62]]]}},{"type":"Feature","properties":{"kind":"blob","cls":1,"id":5},"geometry":{"type":"Polygon","coordinates":[[[-82.75,-71.62],[-79.5,-70.88],[-78.62,-70.0],[-78.62,-69.0],[-79.5,-68.12],[-81.25,-67.38],[-86.0,-67.12],[-88.5,-67.62],[-90.62,-69.0],[-90.62,-69.75],[-89.5,-70.88],[-88.0,-71.38],[-82.75,-71.62]]]}},{"type":"Feature","properties":{"kind":"blob","cls":3,"id":6},"geometry":{"type":"Polygon","coordinates":[[[35.25,-52.38],[36.75,-51.88],[37.62,-50.75],[37.38,-49.75],[36.75,-49.12],[35.25,-48.62],[33.25,-48.88],[32.5,-49.38],[32.62,-47.75],[31.75,-46.88],[30.5,-46.38],[28.5,-46.62],[27.12,-47.75],[27.12,-48.75],[27.75,-49.62],[29.5,-50.38],[30.5,-50.38],[32.0,-49.62],[32.12,-51.25],[33.25,-52.12],[35.25,-52.38]]]}},{"type":"Feature","properties":{"kind":"blob","cls":4,"id":7},"geometry":{"type":"Polygon","coordinates":[[[-44.75,54.88],[-42.25,55.12],[-40.38,56.75],[-40.38,57.25],[-41.5,58.38],[-43.25,58.88],[-46.75,58.38],[-47.38,57.5],[-44.75,54.88]]]}},{"type":"Feature","properties":{"kind":"blob","cls":4,"id":8},"geometry":{"type":"Polygon","coordinates":[[[-23.75,-74.88],[-20.25,-74.38],[-17.25,-73.38],[-16.62,-72.25],[-17.5,-71.38],[-18.75,-70.88],[-26.0,-69.38],[-29.75,-69.38],[-32.5,-69.88],[-35.38,-72.0],[-35.38,-72.75],[-34.75,-73.62],[-32.0,-74.62],[-23.75,-74.88]]]}},{"type":"Feature","properties":{"kind":"blob","cls":4,"id":9},"geometry":{"type":"Polygon","coordinates":[[[103.5,80.62],[110.0,81.62],[111.38,82.5],[110.0,83.38],[105.0,84.12],[96.75,84.62],[83.5,84.62],[73.0,83.88],[70.25,83.38],[68.88,82.5],[70.0,81.62],[71.75,81.12],[75.5,80.62],[103.5,80.62]]]}},{"type":"Feature","properties":{"kind":"blob","cls":3,"id":10},"geometry":{"type":"Polygon","coordinates":[[[-149.75,50.12],[-148.25,50.62],[-147.38,51.5],[-147.38,52.75],[-148.25,53.62],[-149.75,54.12],[-150.25,54.12],[-151.0,53.12],[-152.5,53.62],[-153.38,52.75],[-153.38,51.5],[-152.5,50.62],[-149.75,50.12]]]}},{"type":"Feature","properties":{"kind":"blob","cls":5,"id":11},"geometry":{"type":"Polygon","coordinates":[[[179.75,-82.88],[180.0,-80.38],[176.25,-80.88],[174.88,-81.75],[175.75,-82.62],[179.75,-82.88]]]}},{"type":"Feature","properties":{"kind":"blob","cls":5,"id":11},"geometry":{"type":"Polygon","coordinates":[[[-179.75,-80.38],[-180.0,-82.88],[-178.0,-83.12],[-159.5,-83.38],[-157.12,-83.0],[-164.5,-81.88],[-165.12,-81.25],[-165.0,-79.88],[-175.25,-79.88],[-179.75,-80.38]]]}},{"type":"Feature","properties":{"kind":"blob","cls":4,"id":12},"geometry":{"type":"Polygon","coordinates":[[[160.0,-70.12],[161.0,-70.12],[161.62,-69.0],[160.5,-67.38],[159.0,-66.88],[153.0,-66.62],[150.5,-67.12],[149.38,-68.0],[149.5,-68.38],[153.75,-69.12],[158.5,-69.38],[160.0,-70.12]]]}},{"type":"Feature","properties":{"kind":"blob","cls":5,"id":13},"geometry":{"type":"Polygon","coordinates":[[[-153.0,-80.62],[-152.62,-80.5],[-152.75,-80.38],[-153.0,-80.62]]]}},{"type":"Feature","properties":{"kind":"blob","cls":5,"id":14},"geometry":{"type":"MultiPolygon","coordinates":[[[[-146.88,-81.75],[-146.12,-81.75],[-146.25,-81.62],[-146.88,-81.75]]],[[[-146.88,-81.5],[-150.5,-80.62],[-152.38,-80.75],[-150.5,-81.38],[-146.88,-81.5]]]]}},{"type":"Feature","properties":{"kind":"blob","cls":4,"id":15},"geometry":{"type":"Polygon","coordinates":[[[-7.75,-72.12],[-4.75,-71.38],[-3.5,-71.88],[3.38,-71.0],[2.75,-70.12],[0.75,-69.38],[-4.0,-69.12],[-8.0,-70.12],[-8.62,-71.0],[-7.75,-72.12]]]}},{"type":"Feature","properties":{"kind":"blob","cls":4,"id":16},"geometry":{"type":"Polygon","coordinates":[[[48.75,75.62],[54.5,76.38],[56.5,77.12],[57.25,78.12],[61.75,78.38],[65.5,79.12],[66.62,80.0],[66.62,80.5],[64.75,81.38],[61.75,81.88],[52.25,82.12],[45.75,81.38],[43.75,80.38],[38.0,79.88],[35.5,79.12],[34.62,78.25],[35.25,77.38],[36.75,76.62],[40.0,75.88],[48.75,75.62]]]}},{"type":"Feature","properties":{"kind":"blob","cls":1,"id":17},"geometry":{"type":"MultiPolygon","coordinates":[[[[174.38,-82.5],[175.12,-82.5],[175.0,-82.38],[174.38,-82.5]]],[[[174.38,-82.25],[171.5,-81.62],[169.38,-81.75],[170.75,-82.12],[174.38,-82.25]]]]}},{"type":"Feature","properties":{"kind":"blob","cls":1,"id":18},"geometry":{"type":"Polygon","coordinates":[[[168.25,-81.62],[169.12,-81.5],[169.0,-81.38],[168.25,-81.62]]]}},{"type":"Feature","properties":{"kind":"blob","cls":4,"id":19},"geometry":{"type":"Polygon","coordinates":[[[164.75,-74.88],[166.5,-74.88],[169.5,-74.38],[170.75,-73.88],[171.38,-72.75],[170.25,-71.88],[170.0,-72.62],[169.38,-72.5],[169.62,-72.75],[169.25,-73.12],[168.25,-72.88],[166.75,-73.12],[165.75,-73.88],[165.0,-73.62],[164.75,-74.88]],[[169.75,-73.62],[169.62,-73.5],[169.75,-73.38],[169.75,-73.62]]]}},{"type":"Feature","properties":{"kind":"blob","cls":4,"id":20},"geometry":{"type":"Polygon","coordinates":[[[162.25,-71.62],[162.62,-71.5],[162.5,-71.38],[162.25,-71.62]]]}},{"type":"Feature","properties":{"kind":"blob","cls":1,"id":21},"geometry":{"type":"Polygon","coordinates":[[[154.25,53.62],[156.0,54.12],[156.88,55.0],[156.88,56.0],[156.0,56.88],[151.0,56.88],[150.12,56.0],[150.12,55.0],[151.0,54.12],[154.25,53.62]]]}},{"type":"Feature","properties":{"kind":"blob","cls":4,"id":22},"geometry":{"type":"Polygon","coordinates":[[[164.75,78.12],[171.0,79.38],[172.62,80.25],[172.62,81.0],[170.75,81.88],[166.25,82.62],[152.25,82.88],[145.25,82.12],[142.12,80.75],[142.5,79.88],[144.75,78.88],[149.0,78.12],[164.75,78.12]]]}},{"type":"Feature","properties":{"kind":"blob","cls":1,"id":23},"geometry":{"type":"MultiPolygon","coordinates":[[[[-46.75,55.38],[-45.88,55.25],[-47.5,56.62],[-47.62,56.25],[-46.75,55.38]]],[[[-47.75,56.88],[-47.88,56.75],[-47.75,56.62],[-47.75,56.88]]]]}},{"type":"Feature","properties":{"kind":"blob","cls":1,"id":24},"geometry":{"type":"Polygon","coordinates":[[[-95.5,83.88],[-83.5,84.38],[-78.75,84.88],[-76.0,85.62],[-75.62,86.0],[-76.38,86.5],[-75.38,87.25],[-75.75,87.62],[-78.75,88.12],[-85.5,88.12],[-96.5,87.38],[-111.75,87.38],[-141.25,88.88],[-154.75,88.12],[-157.75,87.62],[-158.12,87.25],[-157.75,86.88],[-154.75,86.38],[-143.0,85.38],[-119.25,84.12],[-95.5,83.88]]]}},{"type":"Feature","properties":{"kind":"blob","cls":0,"id":25},"geometry":{"type":"MultiPolygon","coordinates":[[[[-98.0,10.62],[-96.75,10.38],[-95.38,11.25],[-95.12,12.75],[-96.0,13.88],[-96.62,12.25],[-97.5,11.62],[-98.62,12.25],[-98.38,13.5],[-98.88,13.25],[-99.12,11.75],[-98.0,10.62]]],[[[-98.25,13.88],[-98.38,13.75],[-98.25,13.62],[-98.25,13.88]]]]}},{"type":"Feature","properties":{"kind":"blob","cls":5,"id":26},"geometry":{"type":"Polygon","coordinates":[[[-42.5,48.12],[-40.5,48.88],[-39.62,50.0],[-39.88,51.5],[-40.75,52.38],[-42.25,52.88],[-44.25,52.88],[-45.75,52.38],[-46.62,51.25],[-46.62,50.25],[-45.5,48.62],[-42.5,48.12]]]}},{"type":"Feature","properties":{"kind":"blob","cls":4,"id":27},"geometry":{"type":"Polygon","coordinates":[[[-94.75,-59.12],[-91.75,-59.12],[-90.38,-58.25],[-90.12,-57.25],[-90.75,-56.38],[-91.75,-55.88],[-95.5,-55.88],[-96.88,-56.75],[-97.12,-57.75],[-96.5,-58.62],[-94.75,-59.12]]]}},{"type":"Feature","properties":{"kind":"blob","cls":4,"id":28},"geometry":{"type":"Polygon","coordinates":[[[-73.0,59.62],[-71.12,61.0],[-70.88,62.0],[-72.0,63.12],[-73.25,63.62],[-77.25,63.62],[-79.62,61.75],[-79.62,60.75],[-78.0,59.62],[-73.0,59.62]]]}},{"type":"Feature","properties":{"kind":"blob","cls":4,"id":29},"geometry":{"type":"Polygon","coordinates":[[[-77.5,44.88],[-75.5,45.38],[-73.62,47.0],[-73.62,48.0],[-74.5,48.88],[-75.75,49.38],[-79.0,48.88],[-81.38,47.25],[-81.38,46.25],[-80.5,45.38],[-77.5,44.88]]]}},{"type":"Feature","properties":{"kind":"blob","cls":0,"id":30},"geometry":{"type":"Polygon","coordinates":[[[147.25,10.62],[148.75,10.62],[149.62,11.75],[149.38,13.25],[148.0,14.12],[146.75,13.88],[145.88,12.75],[145.88,11.75],[147.0,11.38],[147.25,10.62]]]}},{"type":"Feature","properties":{"kind":"blob","cls":0,"id":31},"geometry":{"type":"Polygon","coordinates":[[[89.25,14.12],[90.12,15.25],[89.88,16.75],[88.5,17.62],[87.62,17.25],[86.38,15.5],[87.25,14.12],[89.25,14.12]]]}},{"type":"Feature","properties":{"kind":"blob","cls":4,"id":32},"geometry":{"type":"Polygon","coordinates":[[[-126.25,63.62],[-124.75,63.38],[-123.38,64.5],[-123.38,65.5],[-125.25,66.62],[-131.75,67.12],[-134.5,66.38],[-135.38,65.25],[-131.75,65.62],[-127.75,65.12],[-126.62,64.5],[-126.25,63.62]]]}},{"type":"Feature","properties":{"kind":"blob","cls":4,"id":33},"geometry":{"type":"Polygon","coordinates":[[[167.75,44.12],[169.0,44.62],[169.88,45.75],[169.62,47.0],[167.75,48.12],[165.5,47.62],[164.62,46.75],[164.38,45.75],[165.25,44.62],[167.75,44.12]]]}},{"type":"Feature","properties":{"kind":"blob","cls":2,"id":34},"geometry":{"type":"Polygon","coordinates":[[[-167.0,-14.12],[-166.12,-13.0],[-166.38,-11.25],[-167.75,-10.38],[-169.25,-10.62],[-169.88,-11.25],[-170.12,-12.25],[-168.0,-12.62],[-167.0,-14.12]]]}},{"type":"Feature","properties":{"kind":"blob","cls":4,"id":35},"geometry":{"type":"Polygon","coordinates":[[[-37.75,-29.62],[-36.38,-28.5],[-36.12,-27.5],[-37.5,-25.88],[-39.25,-25.62],[-40.88,-26.75],[-41.12,-28.25],[-40.0,-29.62],[-37.75,-29.62]]]}},{"type":"Feature","properties":{"kind":"blob","cls":4,"id":36},"geometry":{"type":"Polygon","coordinates":[[[-174.0,42.88],[-172.75,43.38],[-171.62,44.75],[-171.88,45.75],[-173.75,46.88],[-175.5,46.88],[-176.75,46.38],[-177.38,45.75],[-177.62,44.75],[-176.75,43.62],[-174.0,42.88]]]}},{"type":"Feature","properties":{"kind":"blob","cls":3,"id":37},"geometry":{"type":"MultiPolygon","coordinates":[[[[-75.12,-10.5],[-74.75,-10.62],[-74.62,-10.25],[-75.12,-10.5]]],[[[-73.75,-11.38],[-73.0,-11.62],[-72.38,-11.0],[-72.0,-8.62],[-74.62,-10.0],[-74.12,-10.25],[-73.75,-11.38]]]]}},{"type":"Feature","properties":{"kind":"blob","cls":0,"id":38},"geometry":{"type":"Polygon","coordinates":[[[92.25,19.62],[93.12,20.5],[93.12,22.0],[91.5,23.12],[90.25,22.88],[89.38,22.0],[89.38,20.5],[90.25,19.62],[92.25,19.62]]]}},{"type":"Feature","properties":{"kind":"blob","cls":3,"id":39},"geometry":{"type":"Polygon","coordinates":[[[-74.12,-11.75],[-74.0,-11.88],[-73.88,-11.75],[-74.12,-11.75]]]}},{"type":"Feature","properties":{"kind":"blob","cls":3,"id":40},"geometry":{"type":"MultiPolygon","coordinates":[[[[-108.25,22.12],[-106.38,24.25],[-108.75,27.88],[-110.62,26.5],[-110.62,25.0],[-108.62,23.5],[-108.25,22.12]]],[[[-112.25,27.12],[-110.25,27.12],[-109.12,28.5],[-109.62,29.75],[-110.25,30.12],[-110.5,29.88],[-111.0,30.88],[-112.75,30.62],[-113.88,29.25],[-113.62,28.25],[-112.25,27.12]]]]}},{"type":"Feature","properties":{"kind":"blob","cls":3,"id":41},"geometry":{"type":"Polygon","coordinates":[[[-74.38,-11.25],[-74.25,-11.38],[-74.12,-11.25],[-74.38,-11.25]]]}},{"type":"Feature","properties":{"kind":"blob","cls":3,"id":42},"geometry":{"type":"Polygon","coordinates":[[[53.25,36.12],[53.75,36.62],[55.25,36.88],[56.0,37.62],[57.0,37.62],[56.62,38.25],[57.12,38.5],[55.25,39.88],[53.0,39.62],[52.12,38.75],[51.88,37.75],[53.25,36.12]]]}},{"type":"Feature","properties":{"kind":"blob","cls":4,"id":43},"geometry":{"type":"Polygon","coordinates":[[[38.75,42.88],[40.0,43.38],[39.62,44.0],[40.88,44.5],[40.62,45.5],[39.75,46.38],[38.5,46.88],[36.0,46.38],[35.12,45.5],[34.88,44.5],[35.75,43.38],[38.75,42.88]]]}},{"type":"Feature","properties":{"kind":"blob","cls":4,"id":44},"geometry":{"type":"MultiPolygon","coordinates":[[[[106.5,27.62],[106.38,27.5],[106.5,27.38],[106.5,27.62]]],[[[105.88,27.75],[106.25,27.62],[106.62,28.0],[106.12,28.5],[107.38,29.25],[106.75,30.38],[106.38,30.25],[105.88,27.75]]]]}},{"type":"Feature","properties":{"kind":"blob","cls":3,"id":45},"geometry":{"type":"Polygon","coordinates":[[[48.5,41.38],[50.0,41.12],[51.62,42.0],[51.88,43.75],[50.75,45.12],[49.5,45.62],[48.0,45.62],[46.12,44.5],[46.12,43.0],[47.5,42.62],[48.5,41.38]]]}},{"type":"Feature","properties":{"kind":"blob","cls":4,"id":46},"geometry":{"type":"Polygon","coordinates":[[[107.38,28.75],[107.5,28.62],[107.62,28.75],[107.38,28.75]]]}},{"type":"Feature","properties":{"kind":"blob","cls":4,"id":47},"geometry":{"type":"Polygon","coordinates":[[[-64.38,-17.25],[-65.25,-16.12],[-66.62,-16.0],[-65.5,-17.12],[-64.38,-17.25]]]}},{"type":"Feature","properties":{"kind":"blob","cls":3,"id":48},"geometry":{"type":"MultiPolygon","coordinates":[[[[55.5,35.62],[55.38,35.5],[55.75,35.38],[55.5,35.62]]],[[[56.0,35.62],[57.12,36.25],[56.25,36.88],[56.0,35.62]]],[[[56.88,37.0],[56.75,37.12],[56.62,37.0],[56.88,37.0]]]]}},{"type":"Feature","properties":{"kind":"blob","cls":1,"id":49},"geometry":{"type":"Polygon","coordinates":[[[93.75,25.62],[94.38,26.25],[93.0,26.88],[92.88,26.5],[93.75,25.62]]]}},{"type":"Feature","properties":{"kind":"blob","cls":5,"id":50},"geometry":{"type":"Polygon","coordinates":[[[95.25,25.38],[95.62,25.5],[95.5,25.62],[95.25,25.38]]]}},{"type":"Feature","properties":{"kind":"blob","cls":3,"id":51},"geometry":{"type":"Polygon","coordinates":[[[-66.5,-28.12],[-66.12,-27.75],[-66.5,-27.62],[-66.5,-28.12]]]}},{"type":"Feature","properties":{"kind":"blob","cls":3,"id":52},"geometry":{"type":"MultiPolygon","coordinates":[[[[-123.25,37.88],[-121.25,37.62],[-120.38,38.25],[-121.62,40.0],[-121.88,41.0],[-123.25,40.88],[-123.12,41.75],[-123.75,42.12],[-124.88,40.75],[-124.88,39.75],[-124.38,38.75],[-123.25,37.88]],[[-122.75,39.38],[-123.12,39.75],[-123.25,40.62],[-122.88,40.5],[-122.75,39.38]]],[[[-123.62,42.25],[-122.75,42.12],[-122.38,42.5],[-122.75,42.62],[-123.62,42.25]]]]}},{"type":"Feature","properties":{"kind":"blob","cls":4,"id":53},"geometry":{"type":"Polygon","coordinates":[[[-64.0,-21.38],[-63.62,-21.0],[-64.0,-20.62],[-64.0,-21.38]]]}},{"type":"Feature","properties":{"kind":"blob","cls":1,"id":54},"geometry":{"type":"Polygon","coordinates":[[[12.5,55.38],[14.5,56.12],[15.12,57.0],[15.12,58.75],[13.5,59.88],[11.75,60.12],[12.12,57.25],[11.5,56.88],[10.38,57.75],[10.0,59.88],[9.0,59.38],[7.88,58.25],[7.62,57.25],[8.5,56.12],[12.5,55.38]]]}},{"type":"Feature","properties":{"kind":"blob","cls":3,"id":55},"geometry":{"type":"Polygon","coordinates":[[[-122.62,41.75],[-122.5,41.62],[-122.38,41.75],[-122.62,41.75]]]}},{"type":"Feature","properties":{"kind":"blob","cls":3,"id":56},"geometry":{"type":"Polygon","coordinates":[[[-65.88,-27.25],[-65.75,-27.38],[-65.62,-27.25],[-65.88,-27.25]]]}},{"type":"Feature","properties":{"kind":"blob","cls":3,"id":57},"geometry":{"type":"Polygon","coordinates":[[[-113.75,50.38],[-112.38,51.5],[-112.38,52.5],[-114.0,53.88],[-116.5,53.88],[-116.88,53.5],[-115.0,52.38],[-113.88,51.25],[-113.75,50.38]]]}},{"type":"Feature","properties":{"kind":"center","id":1,"lat":-63.5,"lon":-144.75,"mslp":914.6,"hvtl":214.1,"hvtu":-75.8,"hb":-10.2,"idx":1.3,"cls":1,"psfc":914.6,"terrain":false,"radius_km":200,"name":"sym shallow warm","track":"T01"},"geometry":{"type":"Point","coordinates":[-144.75,-63.5]}},{"type":"Feature","properties":{"kind":"center","id":2,"lat":-60.25,"lon":69.0,"mslp":946.1,"hvtl":16.2,"hvtu":-53.8,"hb":16.9,"idx":-0.2,"cls":3,"psfc":946.1,"terrain":false,"radius_km":200,"name":"asym shallow warm","track":"T05"},"geometry":{"type":"Point","coordinates":[69.0,-60.25]}},{"type":"Feature","properties":{"kind":"center","id":3,"lat":-63.25,"lon":118.0,"mslp":959.6,"hvtl":152.9,"hvtu":36.0,"hb":15.7,"idx":2.2,"cls":2,"psfc":959.6,"terrain":false,"radius_km":200,"name":"asym deep warm","track":"T20"},"geometry":{"type":"Point","coordinates":[118.0,-63.25]}},{"type":"Feature","properties":{"kind":"center","id":4,"lat":-58.0,"lon":122.75,"mslp":961.4,"hvtl":40.0,"hvtu":-91.2,"hb":-12.8,"idx":0.0,"cls":1,"psfc":961.4,"terrain":false,"radius_km":200,"name":"sym shallow warm"},"geometry":{"type":"Point","coordinates":[122.75,-58.0]}},{"type":"Feature","properties":{"kind":"center","id":5,"lat":-69.25,"lon":-84.5,"mslp":962.9,"hvtl":28.2,"hvtu":-88.2,"hb":1.2,"idx":-0.2,"cls":1,"psfc":962.9,"terrain":false,"radius_km":200,"name":"sym shallow warm","track":"T16"},"geometry":{"type":"Point","coordinates":[-84.5,-69.25]}},{"type":"Feature","properties":{"kind":"center","id":6,"lat":-50.5,"lon":34.75,"mslp":965.8,"hvtl":14.7,"hvtu":-525.1,"hb":51.1,"idx":-0.7,"cls":3,"psfc":965.8,"terrain":false,"radius_km":200,"name":"asym shallow warm","track":"T31"},"geometry":{"type":"Point","coordinates":[34.75,-50.5]}},{"type":"Feature","properties":{"kind":"center","id":7,"lat":56.75,"lon":-44.25,"mslp":974.7,"hvtl":-50.2,"hvtu":-144.5,"hb":52.1,"idx":-1.8,"cls":4,"psfc":974.7,"terrain":false,"radius_km":200,"name":"asym cold","track":"T41"},"geometry":{"type":"Point","coordinates":[-44.25,56.75]}},{"type":"Feature","properties":{"kind":"center","id":8,"lat":-71.5,"lon":-28.0,"mslp":975.1,"hvtl":-171.8,"hvtu":-131.3,"hb":41.1,"idx":-2.7,"cls":4,"psfc":975.1,"terrain":false,"radius_km":200,"name":"asym cold","track":"T43"},"geometry":{"type":"Point","coordinates":[-28.0,-71.5]}},{"type":"Feature","properties":{"kind":"center","id":9,"lat":82.5,"lon":87.5,"mslp":976.1,"hvtl":-90.0,"hvtu":-169.7,"hb":86.3,"idx":-2.4,"cls":4,"psfc":976.1,"terrain":false,"radius_km":200,"name":"asym cold","track":"T45"},"geometry":{"type":"Point","coordinates":[87.5,82.5]}},{"type":"Feature","properties":{"kind":"center","id":10,"lat":52.0,"lon":-150.5,"mslp":977.0,"hvtl":31.8,"hvtu":-104.1,"hb":11.7,"idx":-0.2,"cls":3,"psfc":977.0,"terrain":false,"radius_km":200,"name":"asym shallow warm","track":"T34"},"geometry":{"type":"Point","coordinates":[-150.5,52.0]}},{"type":"Feature","properties":{"kind":"center","id":11,"lat":-82.25,"lon":-165.0,"mslp":977.2,"hvtl":-21.3,"hvtu":-41.2,"hb":-7.4,"idx":-0.8,"cls":5,"psfc":968.7,"terrain":false,"radius_km":200,"name":"sym cold","track":"T36"},"geometry":{"type":"Point","coordinates":[-165.0,-82.25]}},{"type":"Feature","properties":{"kind":"center","id":12,"lat":-69.0,"lon":155.25,"mslp":979.4,"hvtl":-222.1,"hvtu":-208.1,"hb":55.2,"idx":-2.9,"cls":4,"psfc":952.3,"terrain":false,"radius_km":200,"name":"asym cold"},"geometry":{"type":"Point","coordinates":[155.25,-69.0]}},{"type":"Feature","properties":{"kind":"center","id":13,"lat":-80.5,"lon":-153.0,"mslp":980.1,"hvtl":-26.4,"hvtu":-8.6,"hb":2.3,"idx":-0.6,"cls":5,"psfc":968.0,"terrain":false,"radius_km":200,"name":"sym cold"},"geometry":{"type":"Point","coordinates":[-153.0,-80.5]}},{"type":"Feature","properties":{"kind":"center","id":14,"lat":-81.75,"lon":-146.75,"mslp":980.3,"hvtl":-34.8,"hvtu":-31.2,"hb":-0.3,"idx":-1.0,"cls":5,"psfc":906.4,"terrain":false,"radius_km":200,"name":"sym cold","track":"T52"},"geometry":{"type":"Point","coordinates":[-146.75,-81.75]}},{"type":"Feature","properties":{"kind":"center","id":15,"lat":-71.5,"lon":-2.0,"mslp":980.6,"hvtl":-130.3,"hvtu":-180.3,"hb":19.7,"idx":-2.7,"cls":4,"psfc":939.1,"terrain":false,"radius_km":200,"name":"asym cold"},"geometry":{"type":"Point","coordinates":[-2.0,-71.5]}},{"type":"Feature","properties":{"kind":"center","id":16,"lat":78.0,"lon":46.0,"mslp":980.7,"hvtl":-96.2,"hvtu":-202.7,"hb":33.0,"idx":-2.5,"cls":4,"psfc":980.7,"terrain":false,"radius_km":200,"name":"asym cold","track":"T02"},"geometry":{"type":"Point","coordinates":[46.0,78.0]}},{"type":"Feature","properties":{"kind":"center","id":17,"lat":-82.25,"lon":174.25,"mslp":980.9,"hvtl":39.5,"hvtu":-56.4,"hb":-11.7,"idx":0.2,"cls":1,"psfc":973.9,"terrain":false,"radius_km":200,"name":"sym shallow warm"},"geometry":{"type":"Point","coordinates":[174.25,-82.25]}},{"type":"Feature","properties":{"kind":"center","id":18,"lat":-81.5,"lon":169.0,"mslp":981.5,"hvtl":41.2,"hvtu":-64.2,"hb":-13.1,"idx":0.2,"cls":1,"psfc":974.8,"terrain":false,"radius_km":200,"name":"sym shallow warm","track":"T25"},"geometry":{"type":"Point","coordinates":[169.0,-81.5]}},{"type":"Feature","properties":{"kind":"center","id":19,"lat":-72.75,"lon":171.25,"mslp":981.5,"hvtl":-145.9,"hvtu":-185.2,"hb":34.8,"idx":-2.7,"cls":4,"psfc":981.5,"terrain":false,"radius_km":200,"name":"asym cold"},"geometry":{"type":"Point","coordinates":[171.25,-72.75]}},{"type":"Feature","properties":{"kind":"center","id":20,"lat":-71.5,"lon":162.25,"mslp":981.7,"hvtl":-266.4,"hvtu":-201.2,"hb":85.5,"idx":-2.9,"cls":4,"psfc":921.2,"terrain":false,"radius_km":200,"name":"asym cold"},"geometry":{"type":"Point","coordinates":[162.25,-71.5]}},{"type":"Feature","properties":{"kind":"center","id":21,"lat":55.5,"lon":153.5,"mslp":982.3,"hvtl":113.7,"hvtu":-28.8,"hb":2.0,"idx":1.3,"cls":1,"psfc":982.3,"terrain":false,"radius_km":200,"name":"sym shallow warm","track":"T30"},"geometry":{"type":"Point","coordinates":[153.5,55.5]}},{"type":"Feature","properties":{"kind":"center","id":22,"lat":80.5,"lon":157.25,"mslp":983.0,"hvtl":-68.3,"hvtu":-68.3,"hb":33.2,"idx":-1.8,"cls":4,"psfc":983.0,"terrain":false,"radius_km":200,"name":"asym cold","track":"T58"},"geometry":{"type":"Point","coordinates":[157.25,80.5]}},{"type":"Feature","properties":{"kind":"center","id":23,"lat":56.0,"lon":-46.75,"mslp":983.9,"hvtl":183.1,"hvtu":-91.6,"hb":-17.1,"idx":1.2,"cls":1,"psfc":983.9,"terrain":false,"radius_km":200,"name":"sym shallow warm","track":"T63"},"geometry":{"type":"Point","coordinates":[-46.75,56.0]}},{"type":"Feature","properties":{"kind":"center","id":24,"lat":86.0,"lon":-106.5,"mslp":984.7,"hvtl":25.8,"hvtu":-1.5,"hb":-21.2,"idx":0.5,"cls":1,"psfc":984.7,"terrain":false,"radius_km":200,"name":"sym shallow warm","track":"T59"},"geometry":{"type":"Point","coordinates":[-106.5,86.0]}},{"type":"Feature","properties":{"kind":"center","id":25,"lat":12.0,"lon":-96.75,"mslp":984.7,"hvtl":87.9,"hvtu":161.8,"hb":-2.2,"idx":2.3,"cls":0,"psfc":984.7,"terrain":false,"radius_km":200,"name":"sym deep warm","track":"T24"},"geometry":{"type":"Point","coordinates":[-96.75,12.0]}},{"type":"Feature","properties":{"kind":"center","id":26,"lat":50.75,"lon":-43.5,"mslp":986.2,"hvtl":-23.6,"hvtu":-86.9,"hb":-7.6,"idx":-1.2,"cls":5,"psfc":986.2,"terrain":false,"radius_km":200,"name":"sym cold","track":"T44"},"geometry":{"type":"Point","coordinates":[-43.5,50.75]}},{"type":"Feature","properties":{"kind":"center","id":27,"lat":-58.5,"lon":-91.0,"mslp":990.5,"hvtl":-273.9,"hvtu":-324.6,"hb":61.6,"idx":-3.0,"cls":4,"psfc":990.5,"terrain":false,"radius_km":200,"name":"asym cold"},"geometry":{"type":"Point","coordinates":[-91.0,-58.5]}},{"type":"Feature","properties":{"kind":"center","id":28,"lat":61.5,"lon":-75.25,"mslp":993.6,"hvtl":-23.6,"hvtu":-181.0,"hb":17.4,"idx":-1.4,"cls":4,"psfc":943.5,"terrain":false,"radius_km":200,"name":"asym cold","track":"T71"},"geometry":{"type":"Point","coordinates":[-75.25,61.5]}},{"type":"Feature","properties":{"kind":"center","id":29,"lat":47.0,"lon":-78.0,"mslp":994.8,"hvtl":-297.0,"hvtu":-471.5,"hb":131.8,"idx":-3.0,"cls":4,"psfc":954.9,"terrain":false,"radius_km":200,"name":"asym cold","track":"T78"},"geometry":{"type":"Point","coordinates":[-78.0,47.0]}},{"type":"Feature","properties":{"kind":"center","id":30,"lat":12.25,"lon":147.75,"mslp":996.7,"hvtl":28.1,"hvtu":52.9,"hb":7.5,"idx":1.0,"cls":0,"psfc":996.7,"terrain":false,"radius_km":200,"name":"sym deep warm","track":"T50"},"geometry":{"type":"Point","coordinates":[147.75,12.25]}},{"type":"Feature","properties":{"kind":"center","id":31,"lat":15.75,"lon":88.25,"mslp":998.8,"hvtl":1.8,"hvtu":69.2,"hb":5.6,"idx":0.6,"cls":0,"psfc":998.8,"terrain":false,"radius_km":200,"name":"sym deep warm","track":"T42"},"geometry":{"type":"Point","coordinates":[88.25,15.75]}},{"type":"Feature","properties":{"kind":"center","id":32,"lat":65.0,"lon":-127.5,"mslp":999.2,"hvtl":-288.9,"hvtu":-71.2,"hb":104.1,"idx":-2.6,"cls":4,"psfc":916.3,"terrain":false,"radius_km":200,"name":"asym cold","track":"T77"},"geometry":{"type":"Point","coordinates":[-127.5,65.0]}},{"type":"Feature","properties":{"kind":"center","id":33,"lat":46.0,"lon":167.0,"mslp":1001.0,"hvtl":-200.3,"hvtu":-341.7,"hb":52.0,"idx":-2.9,"cls":4,"psfc":1001.0,"terrain":false,"radius_km":200,"name":"asym cold","track":"T81"},"geometry":{"type":"Point","coordinates":[167.0,46.0]}},{"type":"Feature","properties":{"kind":"center","id":34,"lat":-12.25,"lon":-168.0,"mslp":1001.1,"hvtl":53.2,"hvtu":21.3,"hb":10.4,"idx":1.2,"cls":2,"psfc":1001.1,"terrain":false,"radius_km":200,"name":"asym deep warm","track":"T88"},"geometry":{"type":"Point","coordinates":[-168.0,-12.25]}},{"type":"Feature","properties":{"kind":"center","id":35,"lat":-27.75,"lon":-39.0,"mslp":1001.2,"hvtl":-25.1,"hvtu":-216.9,"hb":73.4,"idx":-1.5,"cls":4,"psfc":1001.2,"terrain":false,"radius_km":200,"name":"asym cold","track":"T76"},"geometry":{"type":"Point","coordinates":[-39.0,-27.75]}},{"type":"Feature","properties":{"kind":"center","id":36,"lat":44.75,"lon":-173.0,"mslp":1003.5,"hvtl":-313.3,"hvtu":-206.9,"hb":90.8,"idx":-3.0,"cls":4,"psfc":1003.5,"terrain":false,"radius_km":200,"name":"asym cold","track":"T09"},"geometry":{"type":"Point","coordinates":[-173.0,44.75]}},{"type":"Feature","properties":{"kind":"center","id":37,"lat":-9.75,"lon":-74.0,"mslp":1003.5,"hvtl":54.0,"hvtu":-1.0,"hb":13.1,"idx":1.0,"cls":3,"psfc":982.7,"terrain":false,"radius_km":200,"name":"asym shallow warm"},"geometry":{"type":"Point","coordinates":[-74.0,-9.75]}},{"type":"Feature","properties":{"kind":"center","id":38,"lat":21.25,"lon":91.25,"mslp":1004.4,"hvtl":7.3,"hvtu":7.4,"hb":2.1,"idx":0.2,"cls":0,"psfc":1004.4,"terrain":false,"radius_km":200,"name":"sym deep warm"},"geometry":{"type":"Point","coordinates":[91.25,21.25]}},{"type":"Feature","properties":{"kind":"center","id":39,"lat":-11.75,"lon":-74.0,"mslp":1005.3,"hvtl":63.2,"hvtu":-12.4,"hb":28.4,"idx":1.0,"cls":3,"psfc":931.9,"terrain":false,"radius_km":200,"name":"asym shallow warm"},"geometry":{"type":"Point","coordinates":[-74.0,-11.75]}},{"type":"Feature","properties":{"kind":"center","id":40,"lat":25.75,"lon":-108.5,"mslp":1006.1,"hvtl":11.6,"hvtu":-156.7,"hb":12.0,"idx":-0.7,"cls":3,"psfc":1001.6,"terrain":false,"radius_km":200,"name":"asym shallow warm","track":"T106"},"geometry":{"type":"Point","coordinates":[-108.5,25.75]}},{"type":"Feature","properties":{"kind":"center","id":41,"lat":-11.25,"lon":-74.25,"mslp":1007.3,"hvtl":52.7,"hvtu":-14.4,"hb":24.7,"idx":0.8,"cls":3,"psfc":901.3,"terrain":true,"radius_km":200,"name":"asym shallow warm"},"geometry":{"type":"Point","coordinates":[-74.25,-11.25]}},{"type":"Feature","properties":{"kind":"center","id":42,"lat":37.5,"lon":55.0,"mslp":1008.2,"hvtl":61.1,"hvtu":-37.0,"hb":33.6,"idx":0.7,"cls":3,"psfc":1001.9,"terrain":false,"radius_km":200,"name":"asym shallow warm"},"geometry":{"type":"Point","coordinates":[55.0,37.5]}},{"type":"Feature","properties":{"kind":"center","id":43,"lat":44.75,"lon":38.0,"mslp":1008.3,"hvtl":-33.2,"hvtu":-74.7,"hb":23.9,"idx":-1.3,"cls":4,"psfc":980.8,"terrain":false,"radius_km":200,"name":"asym cold","track":"T98"},"geometry":{"type":"Point","coordinates":[38.0,44.75]}},{"type":"Feature","properties":{"kind":"center","id":44,"lat":29.25,"lon":106.25,"mslp":1008.5,"hvtl":-141.0,"hvtu":-140.3,"hb":24.6,"idx":-2.7,"cls":4,"psfc":974.2,"terrain":false,"radius_km":200,"name":"asym cold"},"geometry":{"type":"Point","coordinates":[106.25,29.25]}},{"type":"Feature","properties":{"kind":"center","id":45,"lat":43.25,"lon":49.25,"mslp":1009.8,"hvtl":36.0,"hvtu":-103.8,"hb":41.1,"idx":-0.1,"cls":3,"psfc":1013.0,"terrain":false,"radius_km":200,"name":"asym shallow warm","track":"T99"},"geometry":{"type":"Point","coordinates":[49.25,43.25]}},{"type":"Feature","properties":{"kind":"center","id":46,"lat":28.75,"lon":107.5,"mslp":1011.3,"hvtl":-101.6,"hvtu":-109.2,"hb":24.3,"idx":-2.3,"cls":4,"psfc":911.8,"terrain":true,"radius_km":200,"name":"asym cold"},"geometry":{"type":"Point","coordinates":[107.5,28.75]}},{"type":"Feature","properties":{"kind":"center","id":47,"lat":-16.25,"lon":-65.5,"mslp":1011.4,"hvtl":-21.6,"hvtu":-81.7,"hb":31.0,"idx":-1.1,"cls":4,"psfc":988.2,"terrain":false,"radius_km":200,"name":"asym cold"},"geometry":{"type":"Point","coordinates":[-65.5,-16.25]}},{"type":"Feature","properties":{"kind":"center","id":48,"lat":35.5,"lon":55.75,"mslp":1012.0,"hvtl":10.5,"hvtu":-26.1,"hb":38.3,"idx":-0.0,"cls":3,"psfc":927.9,"terrain":false,"radius_km":200,"name":"asym shallow warm"},"geometry":{"type":"Point","coordinates":[55.75,35.5]}},{"type":"Feature","properties":{"kind":"center","id":49,"lat":26.5,"lon":93.0,"mslp":1012.1,"hvtl":11.2,"hvtu":-196.6,"hb":7.7,"idx":-0.7,"cls":1,"psfc":991.3,"terrain":false,"radius_km":200,"name":"sym shallow warm","track":"T111"},"geometry":{"type":"Point","coordinates":[93.0,26.5]}},{"type":"Feature","properties":{"kind":"center","id":50,"lat":25.5,"lon":95.5,"mslp":1012.2,"hvtl":-7.0,"hvtu":-141.4,"hb":9.1,"idx":-1.0,"cls":5,"psfc":988.4,"terrain":false,"radius_km":200,"name":"sym cold","track":"T109"},"geometry":{"type":"Point","coordinates":[95.5,25.5]}},{"type":"Feature","properties":{"kind":"center","id":51,"lat":-28.0,"lon":-66.5,"mslp":1014.2,"hvtl":24.8,"hvtu":-326.3,"hb":35.5,"idx":-0.5,"cls":3,"psfc":927.2,"terrain":false,"radius_km":200,"name":"asym shallow warm"},"geometry":{"type":"Point","coordinates":[-66.5,-28.0]}},{"type":"Feature","properties":{"kind":"center","id":52,"lat":40.5,"lon":-122.25,"mslp":1014.5,"hvtl":83.9,"hvtu":-47.0,"hb":19.5,"idx":0.9,"cls":3,"psfc":996.2,"terrain":false,"radius_km":200,"name":"asym shallow warm"},"geometry":{"type":"Point","coordinates":[-122.25,40.5]}},{"type":"Feature","properties":{"kind":"center","id":53,"lat":-21.25,"lon":-64.0,"mslp":1016.2,"hvtl":-118.6,"hvtu":-277.1,"hb":12.8,"idx":-2.7,"cls":4,"psfc":920.8,"terrain":true,"radius_km":200,"name":"asym cold"},"geometry":{"type":"Point","coordinates":[-64.0,-21.25]}},{"type":"Feature","properties":{"kind":"center","id":54,"lat":57.0,"lon":11.25,"mslp":1016.9,"hvtl":89.4,"hvtu":-139.6,"hb":2.5,"idx":0.5,"cls":1,"psfc":1016.9,"terrain":false,"radius_km":200,"name":"sym shallow warm","track":"T116"},"geometry":{"type":"Point","coordinates":[11.25,57.0]}},{"type":"Feature","properties":{"kind":"center","id":55,"lat":41.75,"lon":-122.5,"mslp":1018.0,"hvtl":80.5,"hvtu":-52.8,"hb":34.6,"idx":0.8,"cls":3,"psfc":918.2,"terrain":true,"radius_km":200,"name":"asym shallow warm"},"geometry":{"type":"Point","coordinates":[-122.5,41.75]}},{"type":"Feature","properties":{"kind":"center","id":56,"lat":-27.25,"lon":-65.75,"mslp":1018.6,"hvtl":5.8,"hvtu":-377.6,"hb":31.8,"idx":-0.9,"cls":3,"psfc":931.4,"terrain":false,"radius_km":200,"name":"asym shallow warm"},"geometry":{"type":"Point","coordinates":[-65.75,-27.25]}},{"type":"Feature","properties":{"kind":"center","id":57,"lat":52.5,"lon":-115.0,"mslp":1021.0,"hvtl":21.5,"hvtu":-129.4,"hb":13.9,"idx":-0.4,"cls":3,"psfc":906.3,"terrain":true,"radius_km":200,"name":"asym shallow warm"},"geometry":{"type":"Point","coordinates":[-115.0,52.5]}}]}