{"type":"FeatureCollection","features":[{"type":"Feature","properties":{"kind":"blob","cls":3,"id":1},"geometry":{"type":"MultiPolygon","coordinates":[[[[170.25,57.38],[173.25,57.12],[175.75,57.88],[177.12,59.25],[177.12,59.75],[176.0,60.88],[174.25,61.38],[172.25,61.38],[171.0,60.62],[170.62,60.75],[170.75,61.12],[169.25,60.88],[167.62,59.25],[168.25,58.38],[170.0,58.88],[171.88,58.75],[168.62,58.0],[170.25,57.38]]],[[[171.0,61.38],[170.88,61.25],[171.25,61.12],[171.0,61.38]]]]}},{"type":"Feature","properties":{"kind":"blob","cls":4,"id":2},"geometry":{"type":"Polygon","coordinates":[[[37.5,-63.62],[39.38,-62.25],[39.38,-61.5],[38.25,-60.12],[35.0,-58.88],[30.25,-59.12],[28.62,-60.25],[28.62,-61.5],[29.75,-62.62],[32.0,-63.62],[37.5,-63.62]]]}},{"type":"Feature","properties":{"kind":"blob","cls":1,"id":3},"geometry":{"type":"Polygon","coordinates":[[[-144.5,-68.38],[-140.0,-67.62],[-136.75,-66.38],[-135.88,-65.25],[-136.75,-64.12],[-138.0,-63.62],[-144.25,-63.38],[-150.25,-64.62],[-152.62,-66.0],[-152.88,-66.5],[-152.25,-67.38],[-150.5,-68.12],[-144.5,-68.38]],[[-149.62,-65.75],[-149.5,-65.38],[-148.0,-64.62],[-146.0,-64.12],[-145.38,-64.5],[-146.75,-65.38],[-149.62,-65.75]]]}},{"type":"Feature","properties":{"kind":"blob","cls":0,"id":4},"geometry":{"type":"Polygon","coordinates":[[[12.5,-61.12],[16.0,-59.88],[16.62,-59.25],[16.62,-58.25],[15.0,-57.12],[12.5,-56.88],[7.75,-57.12],[6.0,-57.62],[5.12,-58.5],[5.12,-59.5],[6.0,-60.38],[9.5,-60.88],[10.0,-60.38],[11.25,-60.38],[12.5,-61.12]]]}},{"type":"Feature","properties":{"kind":"blob","cls":3,"id":5},"geometry":{"type":"Polygon","coordinates":[[[109.25,-55.62],[112.5,-55.62],[114.38,-54.5],[114.62,-53.5],[113.75,-52.38],[112.75,-51.88],[109.25,-51.88],[107.12,-53.25],[106.88,-54.25],[107.5,-55.12],[109.25,-55.62]]]}},{"type":"Feature","properties":{"kind":"blob","cls":1,"id":6},"geometry":{"type":"MultiPolygon","coordinates":[[[[-116.75,-72.88],[-116.88,-73.0],[-116.5,-73.12],[-116.75,-72.88]]],[[[-113.62,-74.5],[-99.25,-74.38],[-99.0,-73.88],[-97.0,-73.88],[-96.0,-73.38],[-95.38,-72.75],[-95.38,-72.0],[-97.0,-70.88],[-98.75,-70.38],[-105.0,-70.12],[-110.25,-71.38],[-113.25,-71.62],[-116.38,-72.75],[-111.75,-71.88],[-110.12,-72.25],[-110.5,-73.12],[-113.62,-74.5]]]]}},{"type":"Feature","properties":{"kind":"blob","cls":4,"id":7},"geometry":{"type":"Polygon","coordinates":[[[132.75,-62.62],[134.38,-61.5],[134.38,-60.5],[132.75,-59.38],[131.5,-59.12],[129.5,-59.12],[127.25,-59.88],[126.62,-60.5],[126.62,-61.5],[128.25,-62.62],[132.75,-62.62]]]}},{"type":"Feature","properties":{"kind":"blob","cls":4,"id":8},"geometry":{"type":"Polygon","coordinates":[[[117.25,-66.88],[117.62,-66.25],[117.25,-65.12],[114.0,-64.12],[111.0,-64.38],[109.0,-65.38],[106.0,-64.38],[103.25,-64.38],[100.25,-64.88],[98.12,-66.0],[98.25,-66.38],[106.25,-66.12],[108.25,-66.62],[111.0,-66.62],[111.25,-66.12],[113.0,-65.88],[114.25,-66.62],[117.25,-66.88]]]}},{"type":"Feature","properties":{"kind":"blob","cls":4,"id":9},"geometry":{"type":"Polygon","coordinates":[[[84.5,-67.12],[87.0,-66.62],[88.5,-66.12],[89.62,-65.25],[89.62,-64.0],[87.0,-62.62],[83.75,-62.38],[79.0,-63.12],[76.88,-64.5],[76.62,-65.0],[77.5,-66.12],[79.5,-66.88],[84.5,-67.12]]]}},{"type":"Feature","properties":{"kind":"blob","cls":4,"id":10},"geometry":{"type":"Polygon","coordinates":[[[-114.25,-74.88],[-113.88,-74.75],[-114.0,-74.62],[-114.25,-74.88]]]}},{"type":"Feature","properties":{"kind":"blob","cls":4,"id":11},"geometry":{"type":"Polygon","coordinates":[[[123.5,-54.12],[124.88,-53.0],[124.88,-51.0],[123.75,-49.88],[121.25,-49.38],[119.25,-50.12],[118.38,-51.0],[118.38,-52.75],[119.5,-53.88],[123.5,-54.12]]]}},{"type":"Feature","properties":{"kind":"blob","cls":4,"id":12},"geometry":{"type":"Polygon","coordinates":[[[69.0,-68.62],[73.88,-68.75],[71.75,-67.88],[69.0,-67.62],[69.62,-66.5],[69.38,-65.75],[68.0,-64.88],[66.0,-64.38],[59.75,-64.88],[58.0,-65.62],[57.38,-66.5],[58.0,-67.38],[69.25,-68.12],[69.38,-68.5],[69.0,-68.62]]]}},{"type":"Feature","properties":{"kind":"blob","cls":4,"id":13},"geometry":{"type":"Polygon","coordinates":[[[-97.25,-66.12],[-95.38,-65.0],[-95.38,-64.0],[-95.75,-63.38],[-97.25,-62.62],[-98.5,-62.62],[-100.5,-61.38],[-102.5,-60.88],[-106.0,-61.12],[-107.88,-62.25],[-107.88,-63.25],[-107.0,-64.12],[-105.5,-64.62],[-103.25,-66.12],[-97.25,-66.12]]]}},{"type":"Feature","properties":{"kind":"blob","cls":4,"id":14},"geometry":{"type":"Polygon","coordinates":[[[-75.5,-72.62],[-71.75,-71.88],[-70.75,-71.12],[-69.75,-71.12],[-69.62,-70.25],[-71.88,-69.25],[-70.75,-68.62],[-74.0,-67.88],[-82.75,-68.12],[-84.25,-68.62],[-85.12,-69.5],[-84.88,-70.5],[-83.5,-71.38],[-81.0,-72.12],[-75.5,-72.62]]]}},{"type":"Feature","properties":{"kind":"blob","cls":4,"id":15},"geometry":{"type":"MultiPolygon","coordinates":[[[[-33.25,-77.38],[-33.38,-77.5],[-33.25,-77.62],[-33.25,-77.38]]],[[[-32.88,-77.0],[-33.0,-77.38],[-31.5,-77.38],[-28.25,-76.38],[-23.5,-75.88],[-22.25,-76.12],[-20.0,-74.88],[-14.38,-73.75],[-15.5,-73.38],[-11.75,-73.38],[-11.0,-73.12],[-10.38,-72.25],[-12.75,-71.88],[-18.5,-72.12],[-20.25,-72.62],[-21.75,-73.62],[-22.38,-74.25],[-22.0,-75.38],[-29.5,-75.88],[-32.88,-77.0]]]]}},{"type":"Feature","properties":{"kind":"blob","cls":4,"id":16},"geometry":{"type":"Polygon","coordinates":[[[-177.75,-82.12],[-163.25,-82.12],[-151.38,-81.0],[-156.0,-80.62],[-167.0,-80.62],[-173.75,-81.12],[-177.75,-82.12]]]}},{"type":"Feature","properties":{"kind":"blob","cls":5,"id":17},"geometry":{"type":"Polygon","coordinates":[[[-139.75,-81.88],[-137.62,-81.25],[-140.5,-81.12],[-139.75,-81.88]]]}},{"type":"Feature","properties":{"kind":"blob","cls":4,"id":18},"geometry":{"type":"Polygon","coordinates":[[[-69.38,-70.0],[-69.25,-70.12],[-69.12,-70.0],[-69.38,-70.0]]]}},{"type":"Feature","properties":{"kind":"blob","cls":4,"id":19},"geometry":{"type":"MultiPolygon","coordinates":[[[[-70.12,-69.25],[-69.75,-69.62],[-69.38,-69.5],[-69.75,-69.12],[-70.12,-69.25]]],[[[-70.25,-68.88],[-70.38,-69.0],[-70.25,-69.12],[-70.25,-68.88]]]]}},{"type":"Feature","properties":{"kind":"blob","cls":1,"id":20},"geometry":{"type":"Polygon","coordinates":[[[-32.5,61.62],[-30.5,62.12],[-28.88,63.5],[-29.0,64.38],[-25.5,64.12],[-23.25,64.62],[-22.12,65.25],[-21.88,66.75],[-24.0,67.88],[-28.25,68.12],[-29.12,67.75],[-29.12,66.25],[-30.5,65.12],[-32.25,64.88],[-33.5,65.62],[-34.5,65.62],[-36.5,65.12],[-37.88,64.0],[-37.62,63.0],[-37.0,62.38],[-32.5,61.62]]]}},{"type":"Feature","properties":{"kind":"blob","cls":3,"id":21},"geometry":{"type":"Polygon","coordinates":[[[163.75,-79.88],[168.0,-79.38],[170.25,-78.62],[170.62,-77.75],[168.0,-76.62],[163.5,-76.12],[162.38,-77.0],[164.62,-78.5],[162.0,-78.62],[161.88,-79.0],[163.75,-79.88]],[[166.62,-77.5],[169.12,-77.5],[169.0,-77.62],[166.62,-77.5]]]}},{"type":"Feature","properties":{"kind":"blob","cls":4,"id":22},"geometry":{"type":"Polygon","coordinates":[[[138.75,-52.88],[140.25,-52.38],[141.12,-51.5],[141.38,-50.5],[139.0,-48.12],[135.5,-48.12],[134.38,-49.0],[134.12,-50.0],[136.0,-52.38],[138.75,-52.88]]]}},{"type":"Feature","properties":{"kind":"blob","cls":1,"id":23},"geometry":{"type":"MultiPolygon","coordinates":[[[[43.0,74.12],[42.88,74.0],[43.0,73.88],[43.0,74.12]]],[[[55.5,72.12],[57.75,72.88],[58.62,74.0],[57.5,75.12],[55.5,75.88],[52.25,76.38],[48.75,76.38],[44.75,75.62],[44.12,75.25],[45.5,74.88],[46.12,74.25],[45.75,73.88],[43.12,73.75],[43.25,73.38],[45.5,72.38],[55.5,72.12]]]]}},{"type":"Feature","properties":{"kind":"blob","cls":4,"id":24},"geometry":{"type":"Polygon","coordinates":[[[-79.0,-79.38],[-77.5,-79.38],[-76.38,-78.5],[-77.0,-77.88],[-78.5,-77.38],[-79.0,-79.38]]]}},{"type":"Feature","properties":{"kind":"blob","cls":0,"id":25},"geometry":{"type":"Polygon","coordinates":[[[-124.75,20.38],[-123.5,20.38],[-122.62,21.25],[-122.62,22.75],[-123.75,23.88],[-125.0,24.12],[-126.88,22.75],[-126.88,21.25],[-126.5,20.88],[-125.25,21.38],[-124.62,20.75],[-124.75,20.38]]]}},{"type":"Feature","properties":{"kind":"blob","cls":4,"id":26},"geometry":{"type":"Polygon","coordinates":[[[-102.75,-46.38],[-100.88,-45.25],[-100.88,-43.5],[-101.75,-42.62],[-104.25,-42.12],[-106.12,-43.25],[-106.12,-45.0],[-105.25,-45.88],[-102.75,-46.38]]]}},{"type":"Feature","properties":{"kind":"blob","cls":3,"id":27},"geometry":{"type":"Polygon","coordinates":[[[21.25,55.62],[23.75,56.62],[24.38,57.5],[24.38,58.75],[23.75,59.38],[21.75,60.12],[20.0,60.12],[17.5,59.12],[16.88,58.5],[17.12,57.0],[18.75,55.88],[21.25,55.62]]]}},{"type":"Feature","properties":{"kind":"blob","cls":2,"id":28},"geometry":{"type":"Polygon","coordinates":[[[163.88,13.75],[162.62,14.25],[163.0,14.88],[165.0,14.62],[165.38,15.0],[165.38,16.25],[164.5,17.38],[162.25,17.38],[161.38,16.25],[161.62,14.5],[163.88,13.75]]]}},{"type":"Feature","properties":{"kind":"blob","cls":3,"id":29},"geometry":{"type":"Polygon","coordinates":[[[-164.75,30.88],[-163.12,31.75],[-162.88,33.5],[-163.5,34.38],[-165.5,34.88],[-167.12,34.0],[-167.38,32.25],[-166.75,31.38],[-164.75,30.88]]]}},{"type":"Feature","properties":{"kind":"blob","cls":4,"id":30},"geometry":{"type":"Polygon","coordinates":[[[-112.0,-42.88],[-110.88,-41.75],[-110.88,-40.75],[-112.0,-39.62],[-113.25,-39.12],[-115.0,-39.38],[-116.12,-40.5],[-116.12,-41.75],[-115.0,-42.88],[-112.0,-42.88]]]}},{"type":"Feature","properties":{"kind":"blob","cls":3,"id":31},"geometry":{"type":"Polygon","coordinates":[[[157.0,30.88],[158.62,31.75],[158.88,33.25],[158.25,34.12],[156.5,34.62],[154.88,33.75],[154.88,31.75],[157.0,30.88]]]}},{"type":"Feature","properties":{"kind":"blob","cls":0,"id":32},"geometry":{"type":"Polygon","coordinates":[[[147.25,13.62],[148.62,14.5],[148.88,16.25],[148.0,17.38],[146.0,17.88],[144.62,17.0],[144.38,16.0],[145.75,15.88],[146.62,15.25],[145.62,14.25],[147.25,13.62]]]}},{"type":"Feature","properties":{"kind":"blob","cls":1,"id":33},"geometry":{"type":"Polygon","coordinates":[[[-78.0,52.62],[-74.25,53.12],[-72.12,54.5],[-71.62,55.25],[-71.62,56.25],[-73.0,57.38],[-75.5,57.88],[-80.0,57.62],[-81.62,56.5],[-81.25,56.12],[-76.12,55.0],[-76.5,54.38],[-77.5,54.12],[-82.12,54.5],[-81.5,53.62],[-78.0,52.62]]]}},{"type":"Feature","properties":{"kind":"blob","cls":4,"id":34},"geometry":{"type":"Polygon","coordinates":[[[68.75,26.38],[69.62,27.25],[70.0,28.62],[71.75,28.62],[73.12,30.0],[73.12,31.25],[72.5,32.38],[70.12,31.5],[70.12,30.0],[69.75,29.62],[68.75,29.62],[68.0,30.12],[67.38,29.75],[67.12,27.5],[66.38,26.75],[68.75,26.38]]]}},{"type":"Feature","properties":{"kind":"blob","cls":1,"id":35},"geometry":{"type":"Polygon","coordinates":[[[-52.0,63.12],[-49.75,63.88],[-49.38,64.5],[-50.12,65.0],[-49.88,65.5],[-50.25,65.88],[-52.25,65.62],[-52.88,66.25],[-49.62,66.5],[-51.0,67.12],[-54.0,67.38],[-56.25,66.88],[-57.62,65.75],[-57.62,65.25],[-56.25,63.88],[-52.0,63.12]]]}},{"type":"Feature","properties":{"kind":"blob","cls":4,"id":36},"geometry":{"type":"Polygon","coordinates":[[[-13.0,72.38],[-9.5,72.88],[-4.5,74.62],[-3.88,75.25],[-3.62,76.25],[-5.0,77.38],[-7.25,77.88],[-14.25,78.12],[-19.0,77.38],[-21.12,76.25],[-21.38,75.75],[-20.88,75.0],[-21.38,74.0],[-20.75,73.38],[-18.25,72.62],[-13.0,72.38]]]}},{"type":"Feature","properties":{"kind":"blob","cls":3,"id":37},"geometry":{"type":"Polygon","coordinates":[[[-50.75,-37.38],[-49.0,-36.62],[-48.38,-35.75],[-48.62,-34.0],[-50.25,-33.12],[-51.5,-33.12],[-53.5,-34.12],[-54.12,-34.75],[-54.12,-36.25],[-53.5,-36.88],[-50.75,-37.38]]]}},{"type":"Feature","properties":{"kind":"blob","cls":4,"id":38},"geometry":{"type":"Polygon","coordinates":[[[-140.25,48.12],[-137.5,49.12],[-136.38,50.5],[-136.62,51.75],[-137.25,52.38],[-138.75,52.88],[-140.0,52.88],[-142.25,52.12],[-143.62,50.75],[-143.88,49.75],[-143.0,48.62],[-140.25,48.12]]]}},{"type":"Feature","properties":{"kind":"blob","cls":4,"id":39},"geometry":{"type":"Polygon","coordinates":[[[162.75,-38.88],[164.0,-39.12],[165.0,-38.62],[165.88,-37.25],[165.62,-36.25],[164.88,-35.5],[165.62,-34.5],[165.62,-33.25],[165.0,-32.38],[163.75,-31.88],[161.62,-32.75],[161.38,-34.5],[161.88,-35.25],[160.88,-36.0],[160.88,-37.5],[162.75,-38.88]]]}},{"type":"Feature","properties":{"kind":"blob","cls":4,"id":40},"geometry":{"type":"Polygon","coordinates":[[[-57.75,72.12],[-54.38,72.75],[-58.25,74.62],[-60.0,76.38],[-66.75,76.62],[-64.62,77.5],[-65.5,77.88],[-67.75,77.62],[-69.62,78.0],[-60.0,80.12],[-73.5,79.88],[-76.75,79.12],[-76.5,78.62],[-78.12,78.25],[-77.75,77.38],[-75.5,76.12],[-69.75,75.38],[-69.62,74.5],[-67.5,72.88],[-65.75,72.38],[-57.75,72.12]],[[-71.62,78.25],[-70.12,78.25],[-70.25,78.12],[-71.62,78.25]],[[-68.12,77.0],[-67.38,77.0],[-67.5,76.88],[-68.12,77.0]]]}},{"type":"Feature","properties":{"kind":"blob","cls":6,"id":41},"geometry":{"type":"Polygon","coordinates":[[[-103.0,75.38],[-95.0,75.38],[-91.75,76.12],[-89.88,77.5],[-90.75,78.38],[-98.25,78.38],[-98.0,79.12],[-97.12,79.25],[-97.25,79.62],[-102.25,79.62],[-107.5,78.88],[-109.0,78.38],[-109.88,77.5],[-109.25,76.62],[-107.5,75.88],[-103.0,75.38]]]}},{"type":"Feature","properties":{"kind":"blob","cls":3,"id":42},"geometry":{"type":"Polygon","coordinates":[[[42.25,11.62],[42.88,12.25],[43.12,13.75],[41.75,15.38],[40.5,15.62],[39.62,15.25],[40.12,13.25],[39.88,12.0],[42.25,11.62]]]}},{"type":"Feature","properties":{"kind":"blob","cls":4,"id":43},"geometry":{"type":"Polygon","coordinates":[[[-7.25,27.38],[-5.25,28.12],[-4.12,29.5],[-4.38,30.5],[-5.25,31.12],[-6.25,30.12],[-7.5,30.12],[-9.25,29.12],[-9.12,30.0],[-8.12,30.75],[-9.5,30.62],[-10.12,30.0],[-10.38,29.0],[-9.25,27.62],[-7.25,27.38]]]}},{"type":"Feature","properties":{"kind":"blob","cls":4,"id":44},"geometry":{"type":"MultiPolygon","coordinates":[[[[-64.88,-24.5],[-64.75,-24.62],[-64.62,-24.25],[-64.88,-24.5]]],[[[-64.62,-24.0],[-64.12,-24.25],[-64.12,-22.75],[-63.38,-22.0],[-63.38,-21.0],[-64.0,-20.62],[-64.12,-21.25],[-63.62,-21.75],[-64.38,-22.5],[-64.62,-24.0]]]]}},{"type":"Feature","properties":{"kind":"blob","cls":1,"id":45},"geometry":{"type":"Polygon","coordinates":[[[65.5,28.12],[65.5,28.88],[65.38,28.75],[65.5,28.12]]]}},{"type":"Feature","properties":{"kind":"blob","cls":3,"id":46},"geometry":{"type":"Polygon","coordinates":[[[58.5,28.88],[59.0,28.88],[59.88,29.75],[59.88,31.0],[59.5,31.38],[58.5,31.38],[57.62,30.5],[58.5,28.88]]]}},{"type":"Feature","properties":{"kind":"blob","cls":4,"id":47},"geometry":{"type":"Polygon","coordinates":[[[95.25,25.12],[95.62,25.5],[95.25,25.62],[95.25,25.12]]]}},{"type":"Feature","properties":{"kind":"blob","cls":5,"id":48},"geometry":{"type":"Polygon","coordinates":[[[93.25,25.12],[94.38,26.25],[93.25,26.88],[92.0,26.88],[92.12,26.0],[93.25,25.12]]]}},{"type":"Feature","properties":{"kind":"blob","cls":1,"id":49},"geometry":{"type":"Polygon","coordinates":[[[64.75,29.38],[65.12,29.5],[65.0,29.62],[64.75,29.38]]]}},{"type":"Feature","properties":{"kind":"blob","cls":3,"id":50},"geometry":{"type":"Polygon","coordinates":[[[49.25,28.88],[50.25,29.38],[50.88,30.25],[49.5,32.38],[47.75,33.38],[47.25,32.88],[46.5,33.38],[45.62,32.25],[45.62,31.25],[46.12,30.0],[47.25,28.88],[49.25,28.88]]]}},{"type":"Feature","properties":{"kind":"blob","cls":1,"id":51},"geometry":{"type":"MultiPolygon","coordinates":[[[[65.62,29.25],[65.75,29.12],[65.88,29.5],[65.62,29.25]]],[[[65.5,29.88],[65.38,29.75],[65.5,29.62],[65.5,29.88]]]]}},{"type":"Feature","properties":{"kind":"blob","cls":4,"id":52},"geometry":{"type":"MultiPolygon","coordinates":[[[[-71.62,-31.5],[-70.88,-31.75],[-70.88,-30.5],[-71.25,-30.12],[-71.62,-30.5],[-71.62,-31.5]]],[[[-71.12,-30.0],[-71.0,-30.12],[-70.88,-29.75],[-71.12,-30.0]]]]}},{"type":"Feature","properties":{"kind":"blob","cls":4,"id":53},"geometry":{"type":"Polygon","coordinates":[[[-72.25,-40.88],[-71.88,-40.25],[-71.88,-38.0],[-70.75,-33.88],[-71.5,-33.88],[-73.12,-35.0],[-73.12,-35.75],[-74.12,-36.5],[-74.62,-37.75],[-74.38,-39.75],[-73.5,-40.62],[-72.25,-40.88]]]}},{"type":"Feature","properties":{"kind":"blob","cls":1,"id":54},"geometry":{"type":"Polygon","coordinates":[[[63.0,29.38],[63.38,30.0],[62.25,30.38],[60.75,31.88],[60.62,30.75],[61.12,30.0],[63.0,29.38]]]}},{"type":"Feature","properties":{"kind":"blob","cls":4,"id":55},"geometry":{"type":"Polygon","coordinates":[[[-65.12,-25.0],[-65.0,-25.12],[-64.88,-25.0],[-65.12,-25.0]]]}},{"type":"Feature","properties":{"kind":"blob","cls":4,"id":56},"geometry":{"type":"Polygon","coordinates":[[[-71.12,-32.25],[-71.0,-32.38],[-70.88,-32.25],[-71.12,-32.25]]]}},{"type":"Feature","properties":{"kind":"blob","cls":3,"id":57},"geometry":{"type":"Polygon","coordinates":[[[57.62,28.75],[57.75,28.62],[57.88,28.75],[57.62,28.75]]]}},{"type":"Feature","properties":{"kind":"blob","cls":3,"id":58},"geometry":{"type":"Polygon","coordinates":[[[61.25,32.12],[62.0,32.12],[62.12,32.75],[61.5,33.12],[61.25,32.12]]]}},{"type":"Feature","properties":{"kind":"blob","cls":3,"id":59},"geometry":{"type":"Polygon","coordinates":[[[-7.88,31.5],[-7.75,31.38],[-7.62,31.5],[-7.88,31.5]]]}},{"type":"Feature","properties":{"kind":"blob","cls":4,"id":60},"geometry":{"type":"Polygon","coordinates":[[[119.0,48.38],[120.5,48.88],[121.38,50.0],[121.12,51.0],[120.5,51.62],[119.0,52.12],[117.25,52.12],[115.75,51.62],[115.12,51.0],[114.88,50.0],[115.75,48.88],[119.0,48.38]],[[117.0,50.88],[116.88,51.0],[117.0,51.12],[117.0,50.88]]]}},{"type":"Feature","properties":{"kind":"blob","cls":3,"id":61},"geometry":{"type":"MultiPolygon","coordinates":[[[[56.0,34.88],[55.88,34.75],[56.0,34.62],[56.0,34.88]]],[[[55.75,34.88],[55.88,35.25],[55.0,35.62],[54.62,35.25],[55.75,34.88]]]]}},{"type":"Feature","properties":{"kind":"blob","cls":3,"id":62},"geometry":{"type":"Polygon","coordinates":[[[-67.62,-30.5],[-67.5,-30.62],[-67.38,-30.5],[-67.62,-30.5]]]}},{"type":"Feature","properties":{"kind":"blob","cls":3,"id":63},"geometry":{"type":"Polygon","coordinates":[[[-68.75,-32.62],[-68.0,-32.38],[-67.38,-31.5],[-68.12,-31.5],[-67.62,-31.0],[-68.25,-29.88],[-68.62,-30.5],[-68.75,-32.62]]]}},{"type":"Feature","properties":{"kind":"blob","cls":3,"id":64},"geometry":{"type":"MultiPolygon","coordinates":[[[[85.5,41.62],[86.0,41.38],[86.62,41.5],[86.25,41.88],[85.5,41.62]]],[[[86.38,42.0],[87.38,42.0],[87.25,42.12],[86.38,42.0]]]]}},{"type":"Feature","properties":{"kind":"blob","cls":3,"id":65},"geometry":{"type":"Polygon","coordinates":[[[65.0,-32.88],[66.12,-31.75],[66.12,-30.5],[65.62,-29.75],[64.25,-29.12],[62.5,-29.62],[61.88,-30.5],[61.88,-31.75],[62.38,-32.5],[65.0,-32.88]]]}},{"type":"Feature","properties":{"kind":"blob","cls":1,"id":66},"geometry":{"type":"Polygon","coordinates":[[[-69.62,-37.5],[-69.5,-37.62],[-69.38,-37.25],[-69.62,-37.5]]]}},{"type":"Feature","properties":{"kind":"blob","cls":1,"id":67},"geometry":{"type":"MultiPolygon","coordinates":[[[[-70.75,-40.38],[-70.12,-39.5],[-71.0,-39.62],[-70.75,-40.38]]],[[[-70.12,-38.75],[-70.0,-39.38],[-69.62,-38.0],[-70.0,-37.62],[-70.12,-38.25],[-70.62,-38.5],[-70.12,-38.75]]]]}},{"type":"Feature","properties":{"kind":"center","id":1,"lat":59.25,"lon":172.5,"mslp":939.2,"hvtl":227.6,"hvtu":-62.4,"hb":18.5,"idx":1.4,"cls":3,"psfc":939.3,"terrain":false,"radius_km":200,"name":"asym shallow warm","track":"T07"},"geometry":{"type":"Point","coordinates":[172.5,59.25]}},{"type":"Feature","properties":{"kind":"center","id":2,"lat":-61.25,"lon":33.75,"mslp":952.8,"hvtl":-28.4,"hvtu":-174.5,"hb":59.9,"idx":-1.5,"cls":4,"psfc":952.8,"terrain":false,"radius_km":200,"name":"asym cold","track":"T16"},"geometry":{"type":"Point","coordinates":[33.75,-61.25]}},{"type":"Feature","properties":{"kind":"center","id":3,"lat":-65.75,"lon":-143.0,"mslp":953.4,"hvtl":36.8,"hvtu":-91.2,"hb":4.5,"idx":-0.0,"cls":1,"psfc":953.4,"terrain":false,"radius_km":200,"name":"sym shallow warm","track":"T15"},"geometry":{"type":"Point","coordinates":[-143.0,-65.75]}},{"type":"Feature","properties":{"kind":"center","id":4,"lat":-59.25,"lon":11.25,"mslp":962.4,"hvtl":5.7,"hvtu":7.4,"hb":-8.0,"idx":0.2,"cls":0,"psfc":962.4,"terrain":false,"radius_km":200,"name":"sym deep warm","track":"T23"},"geometry":{"type":"Point","coordinates":[11.25,-59.25]}},{"type":"Feature","properties":{"kind":"center","id":5,"lat":-53.75,"lon":111.0,"mslp":965.0,"hvtl":13.1,"hvtu":-406.8,"hb":31.1,"idx":-0.7,"cls":3,"psfc":965.0,"terrain":false,"radius_km":200,"name":"asym shallow warm","track":"T31"},"geometry":{"type":"Point","coordinates":[111.0,-53.75]}},{"type":"Feature","properties":{"kind":"center","id":6,"lat":-72.0,"lon":-102.25,"mslp":966.5,"hvtl":13.0,"hvtu":-36.1,"hb":9.7,"idx":-0.1,"cls":1,"psfc":951.5,"terrain":false,"radius_km":200,"name":"sym shallow warm","track":"T18"},"geometry":{"type":"Point","coordinates":[-102.25,-72.0]}},{"type":"Feature","properties":{"kind":"center","id":7,"lat":-61.0,"lon":130.5,"mslp":967.2,"hvtl":-69.9,"hvtu":-185.3,"hb":65.2,"idx":-2.2,"cls":4,"psfc":967.2,"terrain":false,"radius_km":200,"name":"asym cold","track":"T38"},"geometry":{"type":"Point","coordinates":[130.5,-61.0]}},{"type":"Feature","properties":{"kind":"center","id":8,"lat":-66.5,"lon":108.25,"mslp":968.4,"hvtl":-172.5,"hvtu":-48.2,"hb":26.3,"idx":-2.3,"cls":4,"psfc":968.0,"terrain":false,"radius_km":200,"name":"asym cold","track":"T24"},"geometry":{"type":"Point","coordinates":[108.25,-66.5]}},{"type":"Feature","properties":{"kind":"center","id":9,"lat":-64.75,"lon":83.5,"mslp":969.5,"hvtl":-323.9,"hvtu":-74.2,"hb":65.1,"idx":-2.6,"cls":4,"psfc":969.5,"terrain":false,"radius_km":200,"name":"asym cold","track":"T37"},"geometry":{"type":"Point","coordinates":[83.5,-64.75]}},{"type":"Feature","properties":{"kind":"center","id":10,"lat":-74.75,"lon":-114.0,"mslp":970.5,"hvtl":-6.1,"hvtu":-20.0,"hb":29.8,"idx":-0.3,"cls":4,"psfc":934.9,"terrain":false,"radius_km":200,"name":"asym cold"},"geometry":{"type":"Point","coordinates":[-114.0,-74.75]}},{"type":"Feature","properties":{"kind":"center","id":11,"lat":-52.0,"lon":121.5,"mslp":971.9,"hvtl":-128.6,"hvtu":-270.1,"hb":54.6,"idx":-2.7,"cls":4,"psfc":971.9,"terrain":false,"radius_km":200,"name":"asym cold","track":"T22"},"geometry":{"type":"Point","coordinates":[121.5,-52.0]}},{"type":"Feature","properties":{"kind":"center","id":12,"lat":-68.75,"lon":69.75,"mslp":973.2,"hvtl":-383.2,"hvtu":-197.4,"hb":98.1,"idx":-3.0,"cls":4,"psfc":958.9,"terrain":false,"radius_km":200,"name":"asym cold","track":"T30"},"geometry":{"type":"Point","coordinates":[69.75,-68.75]}},{"type":"Feature","properties":{"kind":"center","id":13,"lat":-64.25,"lon":-100.25,"mslp":974.9,"hvtl":-174.6,"hvtu":-264.0,"hb":41.7,"idx":-2.9,"cls":4,"psfc":974.9,"terrain":false,"radius_km":200,"name":"asym cold","track":"T33"},"geometry":{"type":"Point","coordinates":[-100.25,-64.25]}},{"type":"Feature","properties":{"kind":"center","id":14,"lat":-70.25,"lon":-77.25,"mslp":974.9,"hvtl":-151.5,"hvtu":-237.8,"hb":37.6,"idx":-2.8,"cls":4,"psfc":974.9,"terrain":false,"radius_km":200,"name":"asym cold","track":"T43"},"geometry":{"type":"Point","coordinates":[-77.25,-70.25]}},{"type":"Feature","properties":{"kind":"center","id":15,"lat":-76.0,"lon":-24.5,"mslp":977.9,"hvtl":-334.4,"hvtu":-24.5,"hb":30.2,"idx":-2.2,"cls":4,"psfc":915.9,"terrain":false,"radius_km":200,"name":"asym cold","track":"T50"},"geometry":{"type":"Point","coordinates":[-24.5,-76.0]}},{"type":"Feature","properties":{"kind":"center","id":16,"lat":-81.0,"lon":-151.5,"mslp":978.8,"hvtl":-41.7,"hvtu":-143.9,"hb":11.5,"idx":-1.7,"cls":4,"psfc":967.0,"terrain":false,"radius_km":200,"name":"asym cold","track":"T54"},"geometry":{"type":"Point","coordinates":[-151.5,-81.0]}},{"type":"Feature","properties":{"kind":"center","id":17,"lat":-81.25,"lon":-140.5,"mslp":979.3,"hvtl":-76.8,"hvtu":-56.7,"hb":-4.0,"idx":-1.8,"cls":5,"psfc":934.3,"terrain":false,"radius_km":200,"name":"sym cold","track":"T05"},"geometry":{"type":"Point","coordinates":[-140.5,-81.25]}},{"type":"Feature","properties":{"kind":"center","id":18,"lat":-70.0,"lon":-69.25,"mslp":980.5,"hvtl":-97.2,"hvtu":-204.9,"hb":39.0,"idx":-2.5,"cls":4,"psfc":915.4,"terrain":false,"radius_km":200,"name":"asym cold","track":"T45"},"geometry":{"type":"Point","coordinates":[-69.25,-70.0]}},{"type":"Feature","properties":{"kind":"center","id":19,"lat":-69.0,"lon":-70.25,"mslp":980.9,"hvtl":-164.2,"hvtu":-216.4,"hb":37.5,"idx":-2.8,"cls":4,"psfc":935.9,"terrain":false,"radius_km":200,"name":"asym cold"},"geometry":{"type":"Point","coordinates":[-70.25,-69.0]}},{"type":"Feature","properties":{"kind":"center","id":20,"lat":63.75,"lon":-33.5,"mslp":981.7,"hvtl":129.3,"hvtu":-55.4,"hb":4.2,"idx":1.2,"cls":1,"psfc":981.7,"terrain":false,"radius_km":200,"name":"sym shallow warm","track":"T62"},"geometry":{"type":"Point","coordinates":[-33.5,63.75]}},{"type":"Feature","properties":{"kind":"center","id":21,"lat":-77.25,"lon":167.5,"mslp":983.2,"hvtl":14.5,"hvtu":-73.0,"hb":37.1,"idx":-0.3,"cls":3,"psfc":979.9,"terrain":false,"radius_km":200,"name":"asym shallow warm","track":"T59"},"geometry":{"type":"Point","coordinates":[167.5,-77.25]}},{"type":"Feature","properties":{"kind":"center","id":22,"lat":-50.0,"lon":136.5,"mslp":983.8,"hvtl":-373.8,"hvtu":-358.1,"hb":90.4,"idx":-3.0,"cls":4,"psfc":983.8,"terrain":false,"radius_km":200,"name":"asym cold","track":"T17"},"geometry":{"type":"Point","coordinates":[136.5,-50.0]}},{"type":"Feature","properties":{"kind":"center","id":23,"lat":74.0,"lon":50.75,"mslp":983.9,"hvtl":28.3,"hvtu":-43.5,"hb":3.3,"idx":0.1,"cls":1,"psfc":983.8,"terrain":false,"radius_km":200,"name":"sym shallow warm","track":"T41"},"geometry":{"type":"Point","coordinates":[50.75,74.0]}},{"type":"Feature","properties":{"kind":"center","id":24,"lat":-77.5,"lon":-78.25,"mslp":984.4,"hvtl":-117.5,"hvtu":-96.0,"hb":37.0,"idx":-2.4,"cls":4,"psfc":911.9,"terrain":false,"radius_km":200,"name":"asym cold"},"geometry":{"type":"Point","coordinates":[-78.25,-77.5]}},{"type":"Feature","properties":{"kind":"center","id":25,"lat":22.0,"lon":-124.75,"mslp":989.5,"hvtl":57.9,"hvtu":132.4,"hb":1.8,"idx":1.9,"cls":0,"psfc":989.5,"terrain":false,"radius_km":200,"name":"sym deep warm","track":"T48"},"geometry":{"type":"Point","coordinates":[-124.75,22.0]}},{"type":"Feature","properties":{"kind":"center","id":26,"lat":-44.25,"lon":-103.5,"mslp":993.1,"hvtl":-108.4,"hvtu":-231.0,"hb":38.1,"idx":-2.6,"cls":4,"psfc":993.1,"terrain":false,"radius_km":200,"name":"asym cold","track":"T39"},"geometry":{"type":"Point","coordinates":[-103.5,-44.25]}},{"type":"Feature","properties":{"kind":"center","id":27,"lat":58.0,"lon":20.5,"mslp":993.8,"hvtl":98.5,"hvtu":-270.4,"hb":52.5,"idx":0.5,"cls":3,"psfc":993.8,"terrain":false,"radius_km":200,"name":"asym shallow warm","track":"T67"},"geometry":{"type":"Point","coordinates":[20.5,58.0]}},{"type":"Feature","properties":{"kind":"center","id":28,"lat":15.75,"lon":163.5,"mslp":993.9,"hvtl":30.7,"hvtu":84.4,"hb":12.8,"idx":1.3,"cls":2,"psfc":993.9,"terrain":false,"radius_km":200,"name":"asym deep warm","track":"T02"},"geometry":{"type":"Point","coordinates":[163.5,15.75]}},{"type":"Feature","properties":{"kind":"center","id":29,"lat":33.0,"lon":-165.0,"mslp":993.9,"hvtl":36.4,"hvtu":-139.0,"hb":17.5,"idx":-0.2,"cls":3,"psfc":993.9,"terrain":false,"radius_km":200,"name":"asym shallow warm","track":"T81"},"geometry":{"type":"Point","coordinates":[-165.0,33.0]}},{"type":"Feature","properties":{"kind":"center","id":30,"lat":-41.75,"lon":-112.75,"mslp":996.3,"hvtl":-90.8,"hvtu":-115.3,"hb":20.3,"idx":-2.3,"cls":4,"psfc":996.3,"terrain":false,"radius_km":200,"name":"asym cold"},"geometry":{"type":"Point","coordinates":[-112.75,-41.75]}},{"type":"Feature","properties":{"kind":"center","id":31,"lat":32.75,"lon":156.75,"mslp":998.9,"hvtl":89.6,"hvtu":-13.0,"hb":30.5,"idx":1.3,"cls":3,"psfc":998.9,"terrain":false,"radius_km":200,"name":"asym shallow warm","track":"T40"},"geometry":{"type":"Point","coordinates":[156.75,32.75]}},{"type":"Feature","properties":{"kind":"center","id":32,"lat":16.0,"lon":146.5,"mslp":999.5,"hvtl":7.0,"hvtu":33.9,"hb":4.9,"idx":0.5,"cls":0,"psfc":999.5,"terrain":false,"radius_km":200,"name":"sym deep warm","track":"T08"},"geometry":{"type":"Point","coordinates":[146.5,16.0]}},{"type":"Feature","properties":{"kind":"center","id":33,"lat":55.5,"lon":-77.25,"mslp":1000.2,"hvtl":19.6,"hvtu":-73.1,"hb":4.0,"idx":-0.2,"cls":1,"psfc":983.8,"terrain":false,"radius_km":200,"name":"sym shallow warm","track":"T88"},"geometry":{"type":"Point","coordinates":[-77.25,55.5]}},{"type":"Feature","properties":{"kind":"center","id":34,"lat":30.75,"lon":70.75,"mslp":1003.6,"hvtl":-31.4,"hvtu":-139.9,"hb":33.2,"idx":-1.5,"cls":4,"psfc":986.7,"terrain":false,"radius_km":200,"name":"asym cold","track":"T108"},"geometry":{"type":"Point","coordinates":[70.75,30.75]}},{"type":"Feature","properties":{"kind":"center","id":35,"lat":64.0,"lon":-50.25,"mslp":1003.8,"hvtl":171.6,"hvtu":-104.3,"hb":0.3,"idx":1.1,"cls":1,"psfc":918.5,"terrain":false,"radius_km":200,"name":"sym shallow warm","track":"T44"},"geometry":{"type":"Point","coordinates":[-50.25,64.0]}},{"type":"Feature","properties":{"kind":"center","id":36,"lat":76.0,"lon":-12.75,"mslp":1006.3,"hvtl":-152.9,"hvtu":-213.1,"hb":55.6,"idx":-2.8,"cls":4,"psfc":1006.3,"terrain":false,"radius_km":200,"name":"asym cold","track":"T104"},"geometry":{"type":"Point","coordinates":[-12.75,76.0]}},{"type":"Feature","properties":{"kind":"center","id":37,"lat":-34.0,"lon":-49.75,"mslp":1006.6,"hvtl":33.5,"hvtu":-251.6,"hb":39.3,"idx":-0.3,"cls":3,"psfc":1006.6,"terrain":false,"radius_km":200,"name":"asym shallow warm"},"geometry":{"type":"Point","coordinates":[-49.75,-34.0]}},{"type":"Feature","properties":{"kind":"center","id":38,"lat":50.25,"lon":-140.5,"mslp":1007.9,"hvtl":-166.6,"hvtu":-348.9,"hb":84.2,"idx":-2.9,"cls":4,"psfc":1007.9,"terrain":false,"radius_km":200,"name":"asym cold","track":"T68"},"geometry":{"type":"Point","coordinates":[-140.5,50.25]}},{"type":"Feature","properties":{"kind":"center","id":39,"lat":-37.0,"lon":163.5,"mslp":1008.0,"hvtl":-80.9,"hvtu":-36.1,"hb":34.0,"idx":-1.7,"cls":4,"psfc":1008.0,"terrain":false,"radius_km":200,"name":"asym cold","track":"T107"},"geometry":{"type":"Point","coordinates":[163.5,-37.0]}},{"type":"Feature","properties":{"kind":"center","id":40,"lat":74.25,"lon":-60.25,"mslp":1008.0,"hvtl":-132.9,"hvtu":-115.8,"hb":19.0,"idx":-2.6,"cls":4,"psfc":1008.0,"terrain":false,"radius_km":200,"name":"asym cold","track":"T115"},"geometry":{"type":"Point","coordinates":[-60.25,74.25]}},{"type":"Feature","properties":{"kind":"center","id":41,"lat":77.5,"lon":-100.25,"mslp":1008.1,"hvtl":-97.4,"hvtu":20.4,"hb":-4.1,"idx":-1.3,"cls":6,"psfc":1008.1,"terrain":false,"radius_km":200,"name":"shallow cold","track":"T116"},"geometry":{"type":"Point","coordinates":[-100.25,77.5]}},{"type":"Feature","properties":{"kind":"center","id":42,"lat":13.5,"lon":40.5,"mslp":1008.7,"hvtl":64.2,"hvtu":-7.1,"hb":14.3,"idx":1.1,"cls":3,"psfc":1005.1,"terrain":false,"radius_km":200,"name":"asym shallow warm"},"geometry":{"type":"Point","coordinates":[40.5,13.5]}},{"type":"Feature","properties":{"kind":"center","id":43,"lat":29.5,"lon":-7.75,"mslp":1008.9,"hvtl":-35.3,"hvtu":-314.7,"hb":50.1,"idx":-1.7,"cls":4,"psfc":961.9,"terrain":false,"radius_km":200,"name":"asym cold"},"geometry":{"type":"Point","coordinates":[-7.75,29.5]}},{"type":"Feature","properties":{"kind":"center","id":44,"lat":-21.25,"lon":-64.0,"mslp":1010.1,"hvtl":-103.4,"hvtu":-151.1,"hb":93.2,"idx":-2.5,"cls":4,"psfc":915.9,"terrain":true,"radius_km":200,"name":"asym cold"},"geometry":{"type":"Point","coordinates":[-64.0,-21.25]}},{"type":"Feature","properties":{"kind":"center","id":45,"lat":28.5,"lon":65.5,"mslp":1011.3,"hvtl":54.9,"hvtu":-33.3,"hb":-2.6,"idx":0.7,"cls":1,"psfc":931.1,"terrain":false,"radius_km":200,"name":"sym shallow warm","track":"T100"},"geometry":{"type":"Point","coordinates":[65.5,28.5]}},{"type":"Feature","properties":{"kind":"center","id":46,"lat":30.75,"lon":58.0,"mslp":1011.4,"hvtl":104.9,"hvtu":-34.9,"hb":30.2,"idx":1.2,"cls":3,"psfc":979.5,"terrain":false,"radius_km":200,"name":"asym shallow warm"},"geometry":{"type":"Point","coordinates":[58.0,30.75]}},{"type":"Feature","properties":{"kind":"center","id":47,"lat":25.5,"lon":95.5,"mslp":1011.8,"hvtl":-18.2,"hvtu":-88.7,"hb":13.2,"idx":-1.1,"cls":4,"psfc":988.0,"terrain":false,"radius_km":200,"name":"asym cold"},"geometry":{"type":"Point","coordinates":[95.5,25.5]}},{"type":"Feature","properties":{"kind":"center","id":48,"lat":26.75,"lon":92.25,"mslp":1011.8,"hvtl":-21.5,"hvtu":-100.1,"hb":4.7,"idx":-1.2,"cls":5,"psfc":1001.7,"terrain":false,"radius_km":200,"name":"sym cold","track":"T124"},"geometry":{"type":"Point","coordinates":[92.25,26.75]}},{"type":"Feature","properties":{"kind":"center","id":49,"lat":29.5,"lon":65.0,"mslp":1012.1,"hvtl":22.2,"hvtu":-36.9,"hb":-2.9,"idx":0.1,"cls":1,"psfc":917.1,"terrain":true,"radius_km":200,"name":"sym shallow warm"},"geometry":{"type":"Point","coordinates":[65.0,29.5]}},{"type":"Feature","properties":{"kind":"center","id":50,"lat":31.5,"lon":48.75,"mslp":1012.4,"hvtl":5.7,"hvtu":-75.2,"hb":18.7,"idx":-0.5,"cls":3,"psfc":1009.8,"terrain":false,"radius_km":200,"name":"asym shallow warm","track":"T122"},"geometry":{"type":"Point","coordinates":[48.75,31.5]}},{"type":"Feature","properties":{"kind":"center","id":51,"lat":29.75,"lon":65.5,"mslp":1012.5,"hvtl":66.3,"hvtu":-47.6,"hb":-4.3,"idx":0.7,"cls":1,"psfc":907.5,"terrain":true,"radius_km":200,"name":"sym shallow warm"},"geometry":{"type":"Point","coordinates":[65.5,29.75]}},{"type":"Feature","properties":{"kind":"center","id":52,"lat":-30.5,"lon":-71.0,"mslp":1012.5,"hvtl":-79.8,"hvtu":-145.5,"hb":36.9,"idx":-2.2,"cls":4,"psfc":917.3,"terrain":true,"radius_km":200,"name":"asym cold"},"geometry":{"type":"Point","coordinates":[-71.0,-30.5]}},{"type":"Feature","properties":{"kind":"center","id":53,"lat":-35.5,"lon":-72.0,"mslp":1013.4,"hvtl":-18.3,"hvtu":-145.4,"hb":11.3,"idx":-1.3,"cls":4,"psfc":984.2,"terrain":false,"radius_km":200,"name":"asym cold"},"geometry":{"type":"Point","coordinates":[-72.0,-35.5]}},{"type":"Feature","properties":{"kind":"center","id":54,"lat":30.0,"lon":62.5,"mslp":1013.4,"hvtl":76.8,"hvtu":-16.6,"hb":3.8,"idx":1.1,"cls":1,"psfc":954.7,"terrain":false,"radius_km":200,"name":"sym shallow warm","track":"T129"},"geometry":{"type":"Point","coordinates":[62.5,30.0]}},{"type":"Feature","properties":{"kind":"center","id":55,"lat":-25.0,"lon":-65.0,"mslp":1013.8,"hvtl":-4.8,"hvtu":-260.2,"hb":59.8,"idx":-1.1,"cls":4,"psfc":903.0,"terrain":true,"radius_km":200,"name":"asym cold"},"geometry":{"type":"Point","coordinates":[-65.0,-25.0]}},{"type":"Feature","properties":{"kind":"center","id":56,"lat":-32.25,"lon":-71.0,"mslp":1013.9,"hvtl":-104.2,"hvtu":-171.4,"hb":21.9,"idx":-2.5,"cls":4,"psfc":910.4,"terrain":true,"radius_km":200,"name":"asym cold"},"geometry":{"type":"Point","coordinates":[-71.0,-32.25]}},{"type":"Feature","properties":{"kind":"center","id":57,"lat":28.75,"lon":57.75,"mslp":1014.6,"hvtl":23.7,"hvtu":-27.8,"hb":13.2,"idx":0.2,"cls":3,"psfc":909.5,"terrain":true,"radius_km":200,"name":"asym shallow warm"},"geometry":{"type":"Point","coordinates":[57.75,28.75]}},{"type":"Feature","properties":{"kind":"center","id":58,"lat":32.25,"lon":62.0,"mslp":1015.1,"hvtl":48.9,"hvtu":-48.1,"hb":39.8,"idx":0.5,"cls":3,"psfc":943.7,"terrain":false,"radius_km":200,"name":"asym shallow warm","track":"T125"},"geometry":{"type":"Point","coordinates":[62.0,32.25]}},{"type":"Feature","properties":{"kind":"center","id":59,"lat":31.5,"lon":-7.75,"mslp":1015.3,"hvtl":19.5,"hvtu":-340.3,"hb":63.6,"idx":-0.6,"cls":3,"psfc":929.1,"terrain":false,"radius_km":200,"name":"asym shallow warm"},"geometry":{"type":"Point","coordinates":[-7.75,31.5]}},{"type":"Feature","properties":{"kind":"center","id":60,"lat":50.25,"lon":118.0,"mslp":1015.9,"hvtl":-182.7,"hvtu":-303.1,"hb":59.6,"idx":-2.9,"cls":4,"psfc":932.1,"terrain":false,"radius_km":200,"name":"asym cold"},"geometry":{"type":"Point","coordinates":[118.0,50.25]}},{"type":"Feature","properties":{"kind":"center","id":61,"lat":34.75,"lon":56.0,"mslp":1016.2,"hvtl":61.5,"hvtu":-91.2,"hb":63.1,"idx":0.4,"cls":3,"psfc":936.2,"terrain":false,"radius_km":200,"name":"asym shallow warm"},"geometry":{"type":"Point","coordinates":[56.0,34.75]}},{"type":"Feature","properties":{"kind":"center","id":62,"lat":-30.5,"lon":-67.5,"mslp":1016.2,"hvtl":22.8,"hvtu":-300.3,"hb":35.8,"idx":-0.5,"cls":3,"psfc":903.0,"terrain":true,"radius_km":200,"name":"asym shallow warm"},"geometry":{"type":"Point","coordinates":[-67.5,-30.5]}},{"type":"Feature","properties":{"kind":"center","id":63,"lat":-30.0,"lon":-68.25,"mslp":1016.5,"hvtl":12.2,"hvtu":-293.0,"hb":24.9,"idx":-0.8,"cls":3,"psfc":909.7,"terrain":true,"radius_km":200,"name":"asym shallow warm"},"geometry":{"type":"Point","coordinates":[-68.25,-30.0]}},{"type":"Feature","properties":{"kind":"center","id":64,"lat":41.75,"lon":85.75,"mslp":1020.8,"hvtl":113.9,"hvtu":-171.8,"hb":83.3,"idx":0.7,"cls":3,"psfc":916.2,"terrain":true,"radius_km":200,"name":"asym shallow warm"},"geometry":{"type":"Point","coordinates":[85.75,41.75]}},{"type":"Feature","properties":{"kind":"center","id":65,"lat":-30.25,"lon":62.75,"mslp":1021.1,"hvtl":44.4,"hvtu":-175.2,"hb":26.1,"idx":-0.1,"cls":3,"psfc":1021.1,"terrain":false,"radius_km":200,"name":"asym shallow warm"},"geometry":{"type":"Point","coordinates":[62.75,-30.25]}},{"type":"Feature","properties":{"kind":"center","id":66,"lat":-37.25,"lon":-69.5,"mslp":1022.6,"hvtl":77.5,"hvtu":-162.2,"hb":-14.7,"idx":0.4,"cls":1,"psfc":911.7,"terrain":true,"radius_km":200,"name":"sym shallow warm"},"geometry":{"type":"Point","coordinates":[-69.5,-37.25]}},{"type":"Feature","properties":{"kind":"center","id":67,"lat":-37.75,"lon":-70.0,"mslp":1023.1,"hvtl":84.7,"hvtu":-150.1,"hb":-18.9,"idx":0.5,"cls":1,"psfc":907.6,"terrain":true,"radius_km":200,"name":"sym shallow warm"},"geometry":{"type":"Point","coordinates":[-70.0,-37.75]}}]}