{"type":"FeatureCollection","features":[{"type":"Feature","properties":{"kind":"blob","cls":0,"id":1},"geometry":{"type":"Polygon","coordinates":[[[-135.75,-68.12],[-134.0,-67.38],[-133.38,-66.5],[-134.25,-65.38],[-137.25,-64.38],[-141.0,-64.62],[-143.12,-65.75],[-143.38,-66.5],[-142.75,-67.38],[-141.0,-68.12],[-135.75,-68.12]],[[-141.38,-67.0],[-141.25,-66.62],[-139.75,-66.62],[-139.38,-67.0],[-139.5,-67.12],[-141.38,-67.0]]]}},{"type":"Feature","properties":{"kind":"blob","cls":1,"id":2},"geometry":{"type":"Polygon","coordinates":[[[82.75,-63.12],[84.38,-62.0],[84.38,-60.75],[83.5,-59.88],[79.25,-58.12],[75.0,-58.62],[73.75,-59.12],[72.88,-60.0],[72.88,-61.25],[73.5,-61.88],[76.0,-62.88],[82.75,-63.12]],[[79.25,-61.38],[78.12,-61.0],[79.5,-60.38],[82.38,-60.5],[81.5,-61.12],[79.25,-61.38]]]}},{"type":"Feature","properties":{"kind":"blob","cls":1,"id":3},"geometry":{"type":"Polygon","coordinates":[[[132.25,-63.38],[133.62,-62.25],[133.62,-61.5],[131.75,-60.12],[127.25,-60.12],[125.12,-61.75],[125.12,-62.25],[126.0,-63.12],[132.25,-63.38]]]}},{"type":"Feature","properties":{"kind":"blob","cls":1,"id":4},"geometry":{"type":"Polygon","coordinates":[[[25.5,-64.12],[29.5,-63.62],[30.38,-63.0],[31.12,-61.5],[30.88,-60.5],[29.25,-59.38],[26.5,-59.12],[23.75,-59.62],[20.88,-61.75],[20.88,-62.25],[21.75,-63.12],[23.5,-63.88],[25.5,-64.12]]]}},{"type":"Feature","properties":{"kind":"blob","cls":4,"id":5},"geometry":{"type":"Polygon","coordinates":[[[-46.0,-73.12],[-43.25,-72.12],[-42.38,-71.0],[-43.0,-70.12],[-45.0,-69.38],[-50.5,-69.12],[-54.75,-69.88],[-56.62,-71.25],[-56.0,-72.38],[-55.0,-72.88],[-46.0,-73.12]]]}},{"type":"Feature","properties":{"kind":"blob","cls":3,"id":6},"geometry":{"type":"Polygon","coordinates":[[[47.0,-54.38],[48.5,-53.88],[49.38,-53.0],[49.38,-52.0],[48.5,-51.12],[47.0,-50.62],[44.25,-51.12],[43.38,-52.0],[43.38,-53.0],[44.25,-53.88],[47.0,-54.38]]]}},{"type":"Feature","properties":{"kind":"blob","cls":5,"id":7},"geometry":{"type":"Polygon","coordinates":[[[-74.5,-71.38],[-71.5,-70.88],[-70.12,-70.0],[-71.75,-69.38],[-71.5,-68.88],[-70.5,-68.88],[-69.5,-69.62],[-68.88,-69.0],[-69.5,-67.88],[-70.5,-67.38],[-74.25,-66.62],[-76.75,-66.62],[-80.25,-67.38],[-81.25,-67.88],[-82.12,-69.0],[-81.25,-70.12],[-80.25,-70.62],[-74.5,-71.38]]]}},{"type":"Feature","properties":{"kind":"blob","cls":3,"id":8},"geometry":{"type":"Polygon","coordinates":[[[120.25,-66.62],[121.88,-66.0],[121.12,-65.25],[121.5,-64.62],[123.62,-64.0],[123.25,-63.38],[121.75,-62.62],[117.75,-62.38],[112.0,-63.88],[110.12,-65.25],[110.12,-66.0],[110.75,-66.62],[111.38,-66.5],[111.25,-66.12],[113.5,-66.12],[114.0,-66.62],[120.25,-66.62]]]}},{"type":"Feature","properties":{"kind":"blob","cls":4,"id":9},"geometry":{"type":"Polygon","coordinates":[[[-15.5,-73.88],[-14.38,-73.75],[-14.5,-73.62],[-15.5,-73.88]]]}},{"type":"Feature","properties":{"kind":"blob","cls":4,"id":10},"geometry":{"type":"Polygon","coordinates":[[[-16.5,-74.12],[-15.88,-74.0],[-16.0,-73.88],[-16.5,-74.12]]]}},{"type":"Feature","properties":{"kind":"blob","cls":4,"id":11},"geometry":{"type":"Polygon","coordinates":[[[-17.12,-74.25],[-17.0,-74.38],[-16.88,-74.25],[-17.12,-74.25]]]}},{"type":"Feature","properties":{"kind":"blob","cls":4,"id":12},"geometry":{"type":"Polygon","coordinates":[[[-110.62,-74.25],[-110.5,-74.62],[-99.25,-74.38],[-98.75,-73.88],[-96.5,-73.88],[-96.38,-73.5],[-99.0,-72.62],[-105.25,-72.38],[-108.75,-72.88],[-110.0,-73.38],[-110.62,-74.25]]]}},{"type":"Feature","properties":{"kind":"blob","cls":4,"id":13},"geometry":{"type":"Polygon","coordinates":[[[-11.12,-73.0],[-11.0,-73.12],[-10.88,-73.0],[-11.12,-73.0]]]}},{"type":"Feature","properties":{"kind":"blob","cls":4,"id":14},"geometry":{"type":"Polygon","coordinates":[[[-13.25,-73.38],[-11.62,-73.25],[-11.75,-73.12],[-13.25,-73.38]]]}},{"type":"Feature","properties":{"kind":"blob","cls":4,"id":15},"geometry":{"type":"Polygon","coordinates":[[[130.0,77.62],[135.0,78.12],[137.75,79.12],[137.88,79.75],[135.5,80.88],[132.75,81.38],[127.5,81.62],[125.0,82.38],[119.5,83.12],[110.5,83.62],[95.5,83.12],[91.0,82.38],[89.5,81.88],[88.88,81.25],[89.5,80.62],[91.0,80.12],[95.25,79.38],[105.75,78.88],[117.5,78.88],[121.75,77.88],[130.0,77.62]],[[94.62,80.5],[95.38,80.5],[95.25,80.38],[94.62,80.5]]]}},{"type":"Feature","properties":{"kind":"blob","cls":1,"id":16},"geometry":{"type":"Polygon","coordinates":[[[-43.25,56.12],[-40.0,56.12],[-38.62,57.0],[-38.38,58.5],[-39.0,59.12],[-41.0,59.88],[-44.0,59.62],[-45.62,58.5],[-45.62,57.5],[-45.0,56.62],[-43.25,56.12]]]}},{"type":"Feature","properties":{"kind":"blob","cls":4,"id":17},"geometry":{"type":"Polygon","coordinates":[[[-30.12,-78.5],[-30.0,-78.62],[-29.88,-78.5],[-30.12,-78.5]]]}},{"type":"Feature","properties":{"kind":"blob","cls":4,"id":18},"geometry":{"type":"Polygon","coordinates":[[[-37.0,-80.12],[-31.0,-78.88],[-35.38,-78.5],[-33.0,-77.38],[-31.5,-77.38],[-28.38,-76.5],[-37.5,-76.88],[-40.75,-77.62],[-41.88,-78.5],[-40.0,-79.62],[-37.0,-80.12]]]}},{"type":"Feature","properties":{"kind":"blob","cls":5,"id":19},"geometry":{"type":"Polygon","coordinates":[[[177.5,-82.88],[179.38,-82.75],[179.25,-82.62],[177.5,-82.88]]]}},{"type":"Feature","properties":{"kind":"blob","cls":1,"id":20},"geometry":{"type":"Polygon","coordinates":[[[174.5,-82.62],[176.38,-82.5],[176.25,-82.38],[174.5,-82.62]]]}},{"type":"Feature","properties":{"kind":"blob","cls":5,"id":21},"geometry":{"type":"Polygon","coordinates":[[[6.5,-70.62],[17.38,-70.75],[13.75,-69.88],[10.0,-69.88],[6.5,-70.62]]]}},{"type":"Feature","properties":{"kind":"blob","cls":5,"id":22},"geometry":{"type":"Polygon","coordinates":[[[-143.25,51.12],[-141.88,52.25],[-141.38,53.5],[-141.38,55.0],[-142.25,56.12],[-144.25,56.88],[-145.5,56.88],[-146.62,56.5],[-145.88,56.0],[-146.25,55.38],[-148.0,55.38],[-148.38,55.0],[-148.12,52.25],[-147.25,51.38],[-143.25,51.12]]]}},{"type":"Feature","properties":{"kind":"blob","cls":3,"id":23},"geometry":{"type":"Polygon","coordinates":[[[-47.62,61.25],[-50.88,63.75],[-50.75,64.12],[-50.0,63.88],[-49.38,64.25],[-50.38,65.0],[-50.12,65.75],[-52.75,65.62],[-53.12,65.25],[-53.12,64.25],[-52.62,62.75],[-51.25,61.62],[-47.62,61.25]]]}},{"type":"Feature","properties":{"kind":"blob","cls":5,"id":24},"geometry":{"type":"Polygon","coordinates":[[[-79.0,-79.62],[-78.12,-79.5],[-78.25,-79.38],[-79.0,-79.62]]]}},{"type":"Feature","properties":{"kind":"blob","cls":5,"id":25},"geometry":{"type":"Polygon","coordinates":[[[-77.75,-79.38],[-77.38,-79.25],[-77.5,-79.12],[-77.75,-79.38]]]}},{"type":"Feature","properties":{"kind":"blob","cls":0,"id":26},"geometry":{"type":"Polygon","coordinates":[[[87.75,15.38],[89.25,15.38],[90.12,16.5],[89.88,18.0],[88.5,18.88],[87.25,17.62],[86.38,17.5],[86.62,16.0],[87.75,15.38]]]}},{"type":"Feature","properties":{"kind":"blob","cls":4,"id":27},"geometry":{"type":"Polygon","coordinates":[[[-63.75,61.12],[-61.75,61.62],[-60.62,62.5],[-60.62,63.5],[-62.0,64.62],[-65.75,65.62],[-68.75,65.38],[-70.0,64.88],[-70.88,64.0],[-70.75,63.62],[-69.75,63.88],[-69.38,63.5],[-69.5,62.38],[-67.25,61.38],[-63.75,61.12]],[[-66.0,63.88],[-66.12,64.0],[-66.0,64.12],[-66.0,63.88]]]}},{"type":"Feature","properties":{"kind":"blob","cls":1,"id":28},"geometry":{"type":"Polygon","coordinates":[[[157.0,53.38],[157.38,55.25],[157.12,55.5],[158.62,56.5],[156.5,57.12],[153.5,56.62],[152.62,55.75],[152.62,54.75],[153.5,53.88],[157.0,53.38]]]}},{"type":"Feature","properties":{"kind":"blob","cls":5,"id":29},"geometry":{"type":"Polygon","coordinates":[[[-70.0,57.88],[-68.25,58.38],[-67.12,59.25],[-66.88,60.25],[-68.0,61.38],[-69.75,61.88],[-72.0,61.88],[-73.75,61.38],[-74.62,60.75],[-74.88,59.5],[-73.75,58.38],[-70.0,57.88]]]}},{"type":"Feature","properties":{"kind":"blob","cls":1,"id":30},"geometry":{"type":"MultiPolygon","coordinates":[[[[157.38,53.75],[157.75,53.62],[157.88,54.0],[157.38,53.75]]],[[[158.75,53.88],[159.12,54.25],[158.88,54.5],[159.25,54.38],[159.62,55.0],[159.25,56.12],[157.88,54.75],[157.88,54.25],[158.75,53.88]]]]}},{"type":"Feature","properties":{"kind":"blob","cls":4,"id":31},"geometry":{"type":"Polygon","coordinates":[[[-63.25,47.62],[-62.12,48.5],[-62.12,50.25],[-63.25,51.38],[-65.5,52.12],[-68.0,51.62],[-68.88,50.5],[-68.38,48.5],[-67.25,47.62],[-63.25,47.62]]]}},{"type":"Feature","properties":{"kind":"blob","cls":0,"id":32},"geometry":{"type":"Polygon","coordinates":[[[145.25,12.12],[146.5,12.12],[147.38,13.25],[147.12,15.0],[145.75,15.88],[144.5,15.62],[143.62,14.5],[143.88,12.75],[145.25,12.12]]]}},{"type":"Feature","properties":{"kind":"blob","cls":4,"id":33},"geometry":{"type":"Polygon","coordinates":[[[175.5,46.12],[176.75,46.62],[177.62,47.5],[177.62,48.75],[176.75,49.62],[175.5,50.12],[173.0,49.62],[172.12,48.75],[172.12,47.5],[173.0,46.62],[175.5,46.12]]]}},{"type":"Feature","properties":{"kind":"blob","cls":4,"id":34},"geometry":{"type":"Polygon","coordinates":[[[-121.5,65.62],[-112.25,65.62],[-109.75,66.62],[-109.12,67.25],[-109.12,68.25],[-111.75,69.62],[-118.5,69.88],[-125.75,69.62],[-128.0,69.12],[-129.38,68.25],[-129.38,67.25],[-129.0,66.88],[-127.25,66.12],[-121.5,65.62]]]}},{"type":"Feature","properties":{"kind":"blob","cls":0,"id":35},"geometry":{"type":"MultiPolygon","coordinates":[[[[-99.12,11.5],[-99.0,11.38],[-98.88,11.75],[-99.12,11.5]]],[[[-97.25,10.62],[-95.88,11.5],[-95.62,13.0],[-96.5,14.12],[-97.75,14.38],[-99.12,13.5],[-99.25,11.88],[-98.88,13.0],[-97.75,13.62],[-97.0,13.62],[-96.38,13.0],[-96.38,12.25],[-97.0,11.38],[-98.88,11.25],[-97.25,10.62]]]]}},{"type":"Feature","properties":{"kind":"blob","cls":4,"id":36},"geometry":{"type":"Polygon","coordinates":[[[-35.5,-31.62],[-33.25,-31.62],[-32.12,-30.25],[-32.12,-29.25],[-34.75,-26.62],[-36.5,-26.38],[-38.12,-27.5],[-38.38,-29.25],[-37.25,-30.62],[-35.5,-31.62]]]}},{"type":"Feature","properties":{"kind":"blob","cls":4,"id":37},"geometry":{"type":"Polygon","coordinates":[[[109.5,-38.38],[111.0,-38.62],[112.0,-38.12],[112.62,-37.5],[112.62,-36.0],[111.0,-34.88],[108.5,-35.38],[107.75,-34.38],[106.75,-33.88],[105.25,-33.88],[103.38,-35.25],[103.38,-36.75],[104.25,-37.62],[105.25,-38.12],[107.0,-38.12],[108.25,-37.62],[109.5,-38.38]]]}},{"type":"Feature","properties":{"kind":"blob","cls":4,"id":38},"geometry":{"type":"MultiPolygon","coordinates":[[[[106.0,28.62],[105.88,28.0],[106.5,27.88],[106.62,28.0],[106.0,28.62]]],[[[107.88,27.0],[108.88,28.75],[108.75,29.88],[107.62,29.25],[107.88,28.5],[107.62,28.0],[106.62,27.5],[107.88,27.0]]],[[[107.38,28.75],[107.5,28.38],[107.62,28.5],[107.38,28.75]]],[[[106.12,28.75],[106.75,28.62],[108.38,30.5],[107.0,31.38],[106.12,28.75]]]]}},{"type":"Feature","properties":{"kind":"blob","cls":4,"id":39},"geometry":{"type":"Polygon","coordinates":[[[-86.25,-40.12],[-85.12,-39.0],[-84.88,-37.75],[-86.25,-36.12],[-88.25,-35.88],[-89.88,-37.0],[-90.12,-38.75],[-89.0,-40.12],[-86.25,-40.12]]]}},{"type":"Feature","properties":{"kind":"blob","cls":1,"id":40},"geometry":{"type":"Polygon","coordinates":[[[-104.12,19.25],[-105.12,20.25],[-104.62,21.0],[-104.88,21.25],[-104.38,21.5],[-106.75,24.88],[-107.5,24.62],[-109.12,22.5],[-109.12,21.0],[-108.5,20.38],[-106.75,20.88],[-104.12,19.25]]]}},{"type":"Feature","properties":{"kind":"blob","cls":3,"id":41},"geometry":{"type":"Polygon","coordinates":[[[53.5,36.38],[55.25,36.88],[56.0,37.62],[57.0,37.62],[56.75,38.38],[57.88,38.25],[56.75,39.62],[54.0,39.62],[52.62,38.0],[53.5,36.38]]]}},{"type":"Feature","properties":{"kind":"blob","cls":5,"id":42},"geometry":{"type":"MultiPolygon","coordinates":[[[[93.75,24.88],[93.62,24.75],[94.0,24.62],[93.75,24.88]]],[[[93.0,24.88],[93.5,24.88],[93.38,25.25],[94.38,26.25],[92.25,26.88],[91.88,26.5],[92.12,25.75],[93.0,24.88]]]]}},{"type":"Feature","properties":{"kind":"blob","cls":4,"id":43},"geometry":{"type":"Polygon","coordinates":[[[25.62,-32.25],[25.75,-32.38],[25.88,-32.25],[25.62,-32.25]]]}},{"type":"Feature","properties":{"kind":"blob","cls":4,"id":44},"geometry":{"type":"MultiPolygon","coordinates":[[[[24.5,-33.12],[28.25,-33.12],[29.12,-32.5],[29.38,-31.0],[29.0,-30.88],[28.5,-31.62],[28.0,-31.62],[27.25,-32.62],[25.25,-32.62],[24.5,-32.12],[23.38,-32.5],[24.5,-33.12]]],[[[27.25,-31.88],[27.12,-32.0],[27.25,-32.12],[27.25,-31.88]]]]}},{"type":"Feature","properties":{"kind":"blob","cls":5,"id":45},"geometry":{"type":"MultiPolygon","coordinates":[[[[96.25,24.88],[96.12,24.75],[96.25,24.62],[96.25,24.88]]],[[[94.75,24.88],[96.12,25.0],[95.5,25.62],[94.75,24.88]]]]}},{"type":"Feature","properties":{"kind":"blob","cls":3,"id":46},"geometry":{"type":"MultiPolygon","coordinates":[[[[56.0,35.88],[55.88,35.75],[56.0,35.62],[56.0,35.88]]],[[[56.25,36.38],[56.25,35.88],[57.12,36.25],[57.0,36.38],[56.25,36.38]]]]}},{"type":"Feature","properties":{"kind":"blob","cls":3,"id":47},"geometry":{"type":"MultiPolygon","coordinates":[[[[56.25,36.88],[56.12,36.75],[56.5,36.62],[56.25,36.88]]],[[[56.75,37.12],[56.62,37.0],[56.75,36.88],[56.75,37.12]]]]}},{"type":"Feature","properties":{"kind":"blob","cls":4,"id":48},"geometry":{"type":"MultiPolygon","coordinates":[[[[-111.25,48.12],[-110.88,48.5],[-111.5,48.62],[-111.25,48.12]]],[[[-111.0,49.12],[-110.5,48.62],[-110.12,49.25],[-110.62,49.75],[-109.88,50.0],[-110.5,50.88],[-111.88,51.5],[-111.88,52.5],[-113.0,53.62],[-115.5,54.12],[-116.62,53.5],[-115.75,53.38],[-115.0,52.62],[-114.38,52.75],[-114.62,52.25],[-113.12,50.5],[-113.38,49.75],[-113.0,49.38],[-111.0,49.12]]]]}},{"type":"Feature","properties":{"kind":"blob","cls":3,"id":49},"geometry":{"type":"Polygon","coordinates":[[[48.75,43.12],[50.0,43.62],[50.88,44.75],[50.62,46.0],[48.75,47.12],[46.25,46.62],[45.38,45.5],[45.38,44.75],[46.25,43.62],[48.75,43.12]]]}},{"type":"Feature","properties":{"kind":"blob","cls":3,"id":50},"geometry":{"type":"MultiPolygon","coordinates":[[[[8.0,43.88],[10.0,45.12],[12.25,44.62],[13.75,45.12],[15.12,46.25],[15.12,47.25],[14.0,46.88],[13.75,46.38],[11.5,45.88],[8.5,46.12],[7.12,44.75],[8.0,43.88]]],[[[11.12,46.25],[11.25,46.12],[11.38,46.5],[11.12,46.25]]]]}},{"type":"Feature","properties":{"kind":"blob","cls":3,"id":51},"geometry":{"type":"Polygon","coordinates":[[[5.25,44.88],[5.75,44.88],[7.0,46.62],[8.88,47.25],[7.0,47.62],[5.75,47.12],[4.88,46.0],[5.25,44.88]]]}},{"type":"Feature","properties":{"kind":"blob","cls":4,"id":52},"geometry":{"type":"Polygon","coordinates":[[[9.38,47.5],[9.5,47.12],[10.25,47.62],[12.25,47.38],[14.62,47.75],[13.0,48.62],[11.25,48.62],[9.38,47.5]]]}},{"type":"Feature","properties":{"kind":"blob","cls":1,"id":53},"geometry":{"type":"MultiPolygon","coordinates":[[[[-104.5,45.12],[-104.62,45.0],[-104.5,44.88],[-104.5,45.12]]],[[[-105.75,45.62],[-105.5,45.12],[-104.62,45.25],[-106.25,46.12],[-107.38,46.0],[-106.25,45.38],[-105.75,45.62]]]]}},{"type":"Feature","properties":{"kind":"center","id":1,"lat":-66.5,"lon":-138.5,"mslp":915.8,"hvtl":93.6,"hvtu":69.3,"hb":8.8,"idx":2.1,"cls":0,"psfc":915.8,"terrain":false,"radius_km":200,"name":"sym deep warm","track":"T01"},"geometry":{"type":"Point","coordinates":[-138.5,-66.5]}},{"type":"Feature","properties":{"kind":"center","id":2,"lat":-60.75,"lon":78.25,"mslp":948.1,"hvtl":81.6,"hvtu":-54.0,"hb":-6.1,"idx":0.9,"cls":1,"psfc":948.1,"terrain":false,"radius_km":200,"name":"sym shallow warm","track":"T05"},"geometry":{"type":"Point","coordinates":[78.25,-60.75]}},{"type":"Feature","properties":{"kind":"center","id":3,"lat":-61.75,"lon":129.5,"mslp":964.1,"hvtl":92.3,"hvtu":-5.7,"hb":-6.8,"idx":1.4,"cls":1,"psfc":964.1,"terrain":false,"radius_km":200,"name":"sym shallow warm"},"geometry":{"type":"Point","coordinates":[129.5,-61.75]}},{"type":"Feature","properties":{"kind":"center","id":4,"lat":-61.25,"lon":27.0,"mslp":969.5,"hvtl":2.8,"hvtu":-93.6,"hb":4.2,"idx":-0.7,"cls":1,"psfc":969.5,"terrain":false,"radius_km":200,"name":"sym shallow warm","track":"T35"},"geometry":{"type":"Point","coordinates":[27.0,-61.25]}},{"type":"Feature","properties":{"kind":"center","id":5,"lat":-71.25,"lon":-49.75,"mslp":970.1,"hvtl":-115.2,"hvtu":-173.4,"hb":51.2,"idx":-2.6,"cls":4,"psfc":970.1,"terrain":false,"radius_km":200,"name":"asym cold","track":"T22"},"geometry":{"type":"Point","coordinates":[-49.75,-71.25]}},{"type":"Feature","properties":{"kind":"center","id":6,"lat":-52.5,"lon":46.5,"mslp":970.2,"hvtl":72.1,"hvtu":-441.1,"hb":42.2,"idx":0.2,"cls":3,"psfc":970.1,"terrain":false,"radius_km":200,"name":"asym shallow warm","track":"T31"},"geometry":{"type":"Point","coordinates":[46.5,-52.5]}},{"type":"Feature","properties":{"kind":"center","id":7,"lat":-69.0,"lon":-75.5,"mslp":970.2,"hvtl":-2.0,"hvtu":-115.2,"hb":-1.1,"idx":-0.9,"cls":5,"psfc":970.2,"terrain":false,"radius_km":200,"name":"sym cold","track":"T16"},"geometry":{"type":"Point","coordinates":[-75.5,-69.0]}},{"type":"Feature","properties":{"kind":"center","id":8,"lat":-64.5,"lon":118.0,"mslp":970.4,"hvtl":125.2,"hvtu":-47.4,"hb":20.3,"idx":1.3,"cls":3,"psfc":970.4,"terrain":false,"radius_km":200,"name":"asym shallow warm","track":"T20"},"geometry":{"type":"Point","coordinates":[118.0,-64.5]}},{"type":"Feature","properties":{"kind":"center","id":9,"lat":-73.75,"lon":-14.5,"mslp":975.7,"hvtl":-8.3,"hvtu":-169.6,"hb":19.4,"idx":-1.1,"cls":4,"psfc":928.8,"terrain":false,"radius_km":200,"name":"asym cold"},"geometry":{"type":"Point","coordinates":[-14.5,-73.75]}},{"type":"Feature","properties":{"kind":"center","id":10,"lat":-74.0,"lon":-16.0,"mslp":976.3,"hvtl":-4.7,"hvtu":-170.1,"hb":21.1,"idx":-1.0,"cls":4,"psfc":963.6,"terrain":false,"radius_km":200,"name":"asym cold"},"geometry":{"type":"Point","coordinates":[-16.0,-74.0]}},{"type":"Feature","properties":{"kind":"center","id":11,"lat":-74.25,"lon":-17.0,"mslp":976.5,"hvtl":-42.0,"hvtu":-165.9,"hb":22.6,"idx":-1.7,"cls":4,"psfc":965.3,"terrain":false,"radius_km":200,"name":"asym cold"},"geometry":{"type":"Point","coordinates":[-17.0,-74.25]}},{"type":"Feature","properties":{"kind":"center","id":12,"lat":-74.25,"lon":-103.5,"mslp":976.6,"hvtl":-43.4,"hvtu":-231.8,"hb":29.6,"idx":-1.8,"cls":4,"psfc":976.4,"terrain":false,"radius_km":200,"name":"asym cold","track":"T39"},"geometry":{"type":"Point","coordinates":[-103.5,-74.25]}},{"type":"Feature","properties":{"kind":"center","id":13,"lat":-73.0,"lon":-11.0,"mslp":976.9,"hvtl":-30.9,"hvtu":-146.0,"hb":18.1,"idx":-1.5,"cls":4,"psfc":902.2,"terrain":false,"radius_km":200,"name":"asym cold","track":"T43"},"geometry":{"type":"Point","coordinates":[-11.0,-73.0]}},{"type":"Feature","properties":{"kind":"center","id":14,"lat":-73.25,"lon":-11.75,"mslp":977.0,"hvtl":-29.7,"hvtu":-156.2,"hb":18.3,"idx":-1.5,"cls":4,"psfc":903.8,"terrain":false,"radius_km":200,"name":"asym cold"},"geometry":{"type":"Point","coordinates":[-11.75,-73.25]}},{"type":"Feature","properties":{"kind":"center","id":15,"lat":81.25,"lon":107.5,"mslp":977.8,"hvtl":-37.2,"hvtu":-149.9,"hb":70.4,"idx":-1.6,"cls":4,"psfc":977.8,"terrain":false,"radius_km":200,"name":"asym cold","track":"T45"},"geometry":{"type":"Point","coordinates":[107.5,81.25]}},{"type":"Feature","properties":{"kind":"center","id":16,"lat":57.75,"lon":-42.0,"mslp":978.2,"hvtl":54.5,"hvtu":-87.2,"hb":6.9,"idx":0.3,"cls":1,"psfc":978.1,"terrain":false,"radius_km":200,"name":"sym shallow warm","track":"T41"},"geometry":{"type":"Point","coordinates":[-42.0,57.75]}},{"type":"Feature","properties":{"kind":"center","id":17,"lat":-78.5,"lon":-30.0,"mslp":978.6,"hvtl":-232.4,"hvtu":-90.2,"hb":39.8,"idx":-2.7,"cls":4,"psfc":900.7,"terrain":false,"radius_km":200,"name":"asym cold"},"geometry":{"type":"Point","coordinates":[-30.0,-78.5]}},{"type":"Feature","properties":{"kind":"center","id":18,"lat":-76.5,"lon":-29.75,"mslp":978.6,"hvtl":-205.1,"hvtu":-121.9,"hb":42.1,"idx":-2.8,"cls":4,"psfc":967.4,"terrain":false,"radius_km":200,"name":"asym cold"},"geometry":{"type":"Point","coordinates":[-29.75,-76.5]}},{"type":"Feature","properties":{"kind":"center","id":19,"lat":-82.75,"lon":179.25,"mslp":979.4,"hvtl":-1.7,"hvtu":-46.2,"hb":-5.4,"idx":-0.5,"cls":5,"psfc":970.7,"terrain":false,"radius_km":200,"name":"sym cold","track":"T25"},"geometry":{"type":"Point","coordinates":[179.25,-82.75]}},{"type":"Feature","properties":{"kind":"center","id":20,"lat":-82.5,"lon":176.25,"mslp":979.9,"hvtl":13.7,"hvtu":-42.4,"hb":-7.8,"idx":-0.1,"cls":1,"psfc":972.3,"terrain":false,"radius_km":200,"name":"sym shallow warm"},"geometry":{"type":"Point","coordinates":[176.25,-82.5]}},{"type":"Feature","properties":{"kind":"center","id":21,"lat":-70.25,"lon":15.5,"mslp":981.0,"hvtl":-4.0,"hvtu":-167.3,"hb":8.7,"idx":-1.0,"cls":5,"psfc":969.7,"terrain":false,"radius_km":200,"name":"sym cold"},"geometry":{"type":"Point","coordinates":[15.5,-70.25]}},{"type":"Feature","properties":{"kind":"center","id":22,"lat":54.75,"lon":-144.75,"mslp":984.1,"hvtl":-26.3,"hvtu":-97.0,"hb":3.3,"idx":-1.3,"cls":5,"psfc":984.0,"terrain":false,"radius_km":200,"name":"sym cold","track":"T34"},"geometry":{"type":"Point","coordinates":[-144.75,54.75]}},{"type":"Feature","properties":{"kind":"center","id":23,"lat":63.25,"lon":-50.5,"mslp":986.0,"hvtl":81.2,"hvtu":-222.3,"hb":27.9,"idx":0.4,"cls":3,"psfc":939.8,"terrain":false,"radius_km":200,"name":"asym shallow warm","track":"T63"},"geometry":{"type":"Point","coordinates":[-50.5,63.25]}},{"type":"Feature","properties":{"kind":"center","id":24,"lat":-79.5,"lon":-78.25,"mslp":986.9,"hvtl":-28.5,"hvtu":-37.0,"hb":-3.1,"idx":-0.9,"cls":5,"psfc":930.2,"terrain":false,"radius_km":200,"name":"sym cold","track":"T52"},"geometry":{"type":"Point","coordinates":[-78.25,-79.5]}},{"type":"Feature","properties":{"kind":"center","id":25,"lat":-79.25,"lon":-77.5,"mslp":987.0,"hvtl":-21.4,"hvtu":-33.4,"hb":-5.7,"idx":-0.7,"cls":5,"psfc":965.6,"terrain":false,"radius_km":200,"name":"sym cold"},"geometry":{"type":"Point","coordinates":[-77.5,-79.25]}},{"type":"Feature","properties":{"kind":"center","id":26,"lat":17.0,"lon":88.25,"mslp":989.2,"hvtl":54.3,"hvtu":98.0,"hb":3.0,"idx":1.7,"cls":0,"psfc":989.2,"terrain":false,"radius_km":200,"name":"sym deep warm","track":"T42"},"geometry":{"type":"Point","coordinates":[88.25,17.0]}},{"type":"Feature","properties":{"kind":"center","id":27,"lat":63.25,"lon":-65.5,"mslp":989.8,"hvtl":-101.4,"hvtu":-216.6,"hb":55.8,"idx":-2.5,"cls":4,"psfc":941.2,"terrain":false,"radius_km":200,"name":"asym cold","track":"T69"},"geometry":{"type":"Point","coordinates":[-65.5,63.25]}},{"type":"Feature","properties":{"kind":"center","id":28,"lat":55.25,"lon":156.0,"mslp":990.0,"hvtl":88.9,"hvtu":-87.0,"hb":0.4,"idx":0.7,"cls":1,"psfc":979.6,"terrain":false,"radius_km":200,"name":"sym shallow warm","track":"T30"},"geometry":{"type":"Point","coordinates":[156.0,55.25]}},{"type":"Feature","properties":{"kind":"center","id":29,"lat":60.0,"lon":-70.75,"mslp":993.2,"hvtl":-43.9,"hvtu":-167.6,"hb":1.1,"idx":-1.8,"cls":5,"psfc":973.2,"terrain":false,"radius_km":200,"name":"sym cold","track":"T71"},"geometry":{"type":"Point","coordinates":[-70.75,60.0]}},{"type":"Feature","properties":{"kind":"center","id":30,"lat":55.25,"lon":159.5,"mslp":993.3,"hvtl":69.4,"hvtu":-105.9,"hb":8.5,"idx":0.4,"cls":1,"psfc":974.8,"terrain":false,"radius_km":200,"name":"sym shallow warm","track":"T75"},"geometry":{"type":"Point","coordinates":[159.5,55.25]}},{"type":"Feature","properties":{"kind":"center","id":31,"lat":49.25,"lon":-65.0,"mslp":995.3,"hvtl":-562.4,"hvtu":-300.3,"hb":116.4,"idx":-3.0,"cls":4,"psfc":985.8,"terrain":false,"radius_km":200,"name":"asym cold","track":"T78"},"geometry":{"type":"Point","coordinates":[-65.0,49.25]}},{"type":"Feature","properties":{"kind":"center","id":32,"lat":13.75,"lon":145.5,"mslp":996.4,"hvtl":76.5,"hvtu":31.2,"hb":7.4,"idx":1.6,"cls":0,"psfc":996.4,"terrain":false,"radius_km":200,"name":"sym deep warm","track":"T50"},"geometry":{"type":"Point","coordinates":[145.5,13.75]}},{"type":"Feature","properties":{"kind":"center","id":33,"lat":48.0,"lon":175.0,"mslp":996.5,"hvtl":-33.7,"hvtu":-300.1,"hb":36.1,"idx":-1.6,"cls":4,"psfc":996.4,"terrain":false,"radius_km":200,"name":"asym cold","track":"T81"},"geometry":{"type":"Point","coordinates":[175.0,48.0]}},{"type":"Feature","properties":{"kind":"center","id":34,"lat":67.25,"lon":-119.75,"mslp":996.9,"hvtl":-197.3,"hvtu":-115.9,"hb":68.5,"idx":-2.7,"cls":4,"psfc":955.4,"terrain":false,"radius_km":200,"name":"asym cold","track":"T77"},"geometry":{"type":"Point","coordinates":[-119.75,67.25]}},{"type":"Feature","properties":{"kind":"center","id":35,"lat":13.5,"lon":-98.0,"mslp":999.0,"hvtl":210.4,"hvtu":263.8,"hb":-0.3,"idx":2.9,"cls":0,"psfc":999.0,"terrain":false,"radius_km":200,"name":"sym deep warm","track":"T24"},"geometry":{"type":"Point","coordinates":[-98.0,13.5]}},{"type":"Feature","properties":{"kind":"center","id":36,"lat":-29.5,"lon":-35.25,"mslp":1000.5,"hvtl":-23.3,"hvtu":-263.5,"hb":73.5,"idx":-1.4,"cls":4,"psfc":1000.5,"terrain":false,"radius_km":200,"name":"asym cold","track":"T76"},"geometry":{"type":"Point","coordinates":[-35.25,-29.5]}},{"type":"Feature","properties":{"kind":"center","id":37,"lat":-36.75,"lon":110.25,"mslp":1002.4,"hvtl":-231.8,"hvtu":-172.8,"hb":59.4,"idx":-2.9,"cls":4,"psfc":1002.4,"terrain":false,"radius_km":200,"name":"asym cold","track":"T53"},"geometry":{"type":"Point","coordinates":[110.25,-36.75]}},{"type":"Feature","properties":{"kind":"center","id":38,"lat":29.5,"lon":106.5,"mslp":1005.2,"hvtl":-85.7,"hvtu":-202.7,"hb":32.8,"idx":-2.4,"cls":4,"psfc":969.6,"terrain":false,"radius_km":200,"name":"asym cold"},"geometry":{"type":"Point","coordinates":[106.5,29.5]}},{"type":"Feature","properties":{"kind":"center","id":39,"lat":-38.5,"lon":-87.75,"mslp":1006.9,"hvtl":-79.1,"hvtu":-172.8,"hb":16.1,"idx":-2.3,"cls":4,"psfc":1006.9,"terrain":false,"radius_km":200,"name":"asym cold","track":"T102"},"geometry":{"type":"Point","coordinates":[-87.75,-38.5]}},{"type":"Feature","properties":{"kind":"center","id":40,"lat":21.25,"lon":-105.75,"mslp":1007.7,"hvtl":30.2,"hvtu":-92.0,"hb":7.4,"idx":-0.1,"cls":1,"psfc":1007.7,"terrain":false,"radius_km":200,"name":"sym shallow warm","track":"T106"},"geometry":{"type":"Point","coordinates":[-105.75,21.25]}},{"type":"Feature","properties":{"kind":"center","id":41,"lat":37.5,"lon":55.25,"mslp":1008.1,"hvtl":109.9,"hvtu":-57.2,"hb":32.6,"idx":1.1,"cls":3,"psfc":991.2,"terrain":false,"radius_km":200,"name":"asym shallow warm"},"geometry":{"type":"Point","coordinates":[55.25,37.5]}},{"type":"Feature","properties":{"kind":"center","id":42,"lat":26.25,"lon":92.25,"mslp":1009.1,"hvtl":-16.8,"hvtu":-147.4,"hb":1.1,"idx":-1.2,"cls":5,"psfc":1000.2,"terrain":false,"radius_km":200,"name":"sym cold","track":"T111"},"geometry":{"type":"Point","coordinates":[92.25,26.25]}},{"type":"Feature","properties":{"kind":"center","id":43,"lat":-32.25,"lon":25.75,"mslp":1009.5,"hvtl":-277.3,"hvtu":-85.6,"hb":101.1,"idx":-2.7,"cls":4,"psfc":900.7,"terrain":true,"radius_km":200,"name":"asym cold"},"geometry":{"type":"Point","coordinates":[25.75,-32.25]}},{"type":"Feature","properties":{"kind":"center","id":44,"lat":-32.0,"lon":27.25,"mslp":1009.7,"hvtl":-207.8,"hvtu":-83.2,"hb":106.5,"idx":-2.6,"cls":4,"psfc":902.6,"terrain":true,"radius_km":200,"name":"asym cold"},"geometry":{"type":"Point","coordinates":[27.25,-32.0]}},{"type":"Feature","properties":{"kind":"center","id":45,"lat":25.5,"lon":95.5,"mslp":1010.4,"hvtl":-61.8,"hvtu":-106.0,"hb":-2.6,"idx":-1.9,"cls":5,"psfc":986.8,"terrain":false,"radius_km":200,"name":"sym cold","track":"T109"},"geometry":{"type":"Point","coordinates":[95.5,25.5]}},{"type":"Feature","properties":{"kind":"center","id":46,"lat":36.25,"lon":56.75,"mslp":1010.6,"hvtl":86.0,"hvtu":-32.0,"hb":54.0,"idx":1.1,"cls":3,"psfc":920.8,"terrain":false,"radius_km":200,"name":"asym shallow warm"},"geometry":{"type":"Point","coordinates":[56.75,36.25]}},{"type":"Feature","properties":{"kind":"center","id":47,"lat":36.75,"lon":56.25,"mslp":1011.1,"hvtl":101.1,"hvtu":-36.8,"hb":44.6,"idx":1.2,"cls":3,"psfc":905.8,"terrain":true,"radius_km":200,"name":"asym shallow warm"},"geometry":{"type":"Point","coordinates":[56.25,36.75]}},{"type":"Feature","properties":{"kind":"center","id":48,"lat":53.0,"lon":-114.5,"mslp":1013.0,"hvtl":-28.4,"hvtu":-212.9,"hb":22.6,"idx":-1.5,"cls":4,"psfc":906.3,"terrain":true,"radius_km":200,"name":"asym cold"},"geometry":{"type":"Point","coordinates":[-114.5,53.0]}},{"type":"Feature","properties":{"kind":"center","id":49,"lat":45.0,"lon":48.25,"mslp":1013.0,"hvtl":61.3,"hvtu":-123.8,"hb":32.3,"idx":0.2,"cls":3,"psfc":1016.2,"terrain":false,"radius_km":200,"name":"asym shallow warm","track":"T99"},"geometry":{"type":"Point","coordinates":[48.25,45.0]}},{"type":"Feature","properties":{"kind":"center","id":50,"lat":46.5,"lon":11.25,"mslp":1015.8,"hvtl":19.3,"hvtu":-207.4,"hb":75.0,"idx":-0.6,"cls":3,"psfc":907.6,"terrain":true,"radius_km":200,"name":"asym shallow warm"},"geometry":{"type":"Point","coordinates":[11.25,46.5]}},{"type":"Feature","properties":{"kind":"center","id":51,"lat":45.75,"lon":6.25,"mslp":1020.4,"hvtl":117.9,"hvtu":-175.1,"hb":64.7,"idx":0.7,"cls":3,"psfc":902.7,"terrain":true,"radius_km":200,"name":"asym shallow warm"},"geometry":{"type":"Point","coordinates":[6.25,45.75]}},{"type":"Feature","properties":{"kind":"center","id":52,"lat":47.75,"lon":14.5,"mslp":1022.0,"hvtl":-49.1,"hvtu":-223.7,"hb":62.5,"idx":-1.9,"cls":4,"psfc":912.8,"terrain":true,"radius_km":200,"name":"asym cold"},"geometry":{"type":"Point","coordinates":[14.5,47.75]}},{"type":"Feature","properties":{"kind":"center","id":53,"lat":46.0,"lon":-107.25,"mslp":1026.8,"hvtl":189.6,"hvtu":-158.0,"hb":9.0,"idx":1.0,"cls":1,"psfc":909.8,"terrain":true,"radius_km":200,"name":"sym shallow warm"},"geometry":{"type":"Point","coordinates":[-107.25,46.0]}}]}