{"type":"FeatureCollection","features":[{"type":"Feature","properties":{"kind":"blob","cls":4,"id":1},"geometry":{"type":"Polygon","coordinates":[[[-123.75,-67.88],[-120.5,-66.88],[-117.5,-66.62],[-116.25,-66.12],[-115.38,-65.0],[-117.0,-63.38],[-118.75,-62.88],[-124.25,-62.88],[-127.75,-64.12],[-129.38,-65.5],[-129.0,-66.88],[-127.25,-67.62],[-123.75,-67.88]]]}},{"type":"Feature","properties":{"kind":"blob","cls":3,"id":2},"geometry":{"type":"Polygon","coordinates":[[[3.25,-62.38],[5.12,-61.0],[5.12,-59.25],[3.25,-56.88],[0.75,-55.88],[-1.0,-55.88],[-3.38,-57.0],[-4.12,-59.25],[-3.62,-61.0],[-1.5,-62.38],[3.25,-62.38]]]}},{"type":"Feature","properties":{"kind":"blob","cls":0,"id":3},"geometry":{"type":"Polygon","coordinates":[[[148.25,21.62],[149.12,22.5],[149.12,24.0],[148.25,24.88],[146.75,25.12],[145.12,24.0],[145.12,22.5],[146.0,21.62],[148.25,21.62]],[[145.62,22.75],[145.62,23.25],[146.25,23.38],[146.38,22.75],[145.62,22.75]]]}},{"type":"Feature","properties":{"kind":"blob","cls":3,"id":4},"geometry":{"type":"Polygon","coordinates":[[[-143.0,-62.88],[-141.38,-61.75],[-141.38,-60.75],[-143.5,-59.38],[-147.0,-58.62],[-150.0,-58.88],[-151.62,-60.0],[-151.62,-61.0],[-151.0,-61.62],[-148.5,-62.88],[-143.0,-62.88]]]}},{"type":"Feature","properties":{"kind":"blob","cls":3,"id":5},"geometry":{"type":"Polygon","coordinates":[[[-136.75,-73.38],[-134.0,-72.88],[-132.12,-71.5],[-132.12,-71.0],[-133.0,-70.12],[-135.0,-69.38],[-139.5,-69.12],[-144.38,-71.25],[-143.75,-72.12],[-142.25,-72.88],[-136.75,-73.38]]]}},{"type":"Feature","properties":{"kind":"blob","cls":6,"id":6},"geometry":{"type":"Polygon","coordinates":[[[168.75,-81.38],[173.75,-80.88],[176.5,-79.88],[176.62,-79.25],[173.75,-78.12],[168.75,-77.62],[163.75,-77.62],[164.0,-78.38],[165.38,-78.5],[162.12,-78.75],[162.75,-79.62],[164.75,-80.62],[168.75,-81.38]]]}},{"type":"Feature","properties":{"kind":"blob","cls":4,"id":7},"geometry":{"type":"Polygon","coordinates":[[[139.0,-65.88],[140.62,-65.0],[140.88,-64.0],[140.5,-63.38],[138.5,-62.38],[137.0,-62.12],[133.0,-62.38],[131.12,-63.75],[131.12,-64.25],[132.0,-65.12],[133.5,-65.88],[139.0,-65.88]]]}},{"type":"Feature","properties":{"kind":"blob","cls":4,"id":8},"geometry":{"type":"Polygon","coordinates":[[[117.75,-54.12],[119.5,-53.62],[121.38,-52.25],[121.38,-51.25],[120.5,-50.38],[119.0,-49.88],[114.5,-49.88],[113.0,-50.38],[112.12,-51.25],[112.12,-52.25],[113.25,-53.38],[117.75,-54.12]]]}},{"type":"Feature","properties":{"kind":"blob","cls":4,"id":9},"geometry":{"type":"Polygon","coordinates":[[[179.88,-73.5],[180.0,-70.62],[177.0,-69.88],[171.0,-69.88],[170.5,-69.12],[169.5,-68.62],[166.75,-68.12],[162.25,-68.38],[159.38,-69.5],[162.5,-71.62],[162.62,-71.25],[162.12,-70.75],[162.75,-70.38],[163.75,-71.12],[164.5,-71.12],[164.5,-70.62],[166.25,-70.62],[170.5,-71.62],[169.88,-72.25],[170.25,-72.62],[169.5,-73.12],[168.5,-72.88],[168.12,-73.25],[170.5,-74.12],[176.25,-74.38],[179.88,-73.5]],[[169.75,-73.62],[169.62,-73.5],[169.75,-73.38],[169.75,-73.62]]]}},{"type":"Feature","properties":{"kind":"blob","cls":4,"id":9},"geometry":{"type":"Polygon","coordinates":[[[-179.88,-70.75],[-180.0,-73.38],[-179.5,-73.38],[-178.38,-72.5],[-178.38,-72.0],[-179.88,-70.75]]]}},{"type":"Feature","properties":{"kind":"blob","cls":1,"id":10},"geometry":{"type":"Polygon","coordinates":[[[104.5,-65.38],[106.5,-64.88],[108.12,-63.75],[108.12,-62.5],[107.0,-61.62],[105.0,-61.12],[101.75,-61.12],[99.25,-61.88],[98.38,-62.75],[98.38,-63.75],[99.75,-64.88],[104.5,-65.38]]]}},{"type":"Feature","properties":{"kind":"blob","cls":0,"id":11},"geometry":{"type":"Polygon","coordinates":[[[-176.25,21.88],[-175.38,22.75],[-175.38,24.25],[-176.25,25.12],[-177.75,25.38],[-179.38,24.25],[-179.38,22.75],[-178.5,21.88],[-176.25,21.88]]]}},{"type":"Feature","properties":{"kind":"blob","cls":1,"id":12},"geometry":{"type":"Polygon","coordinates":[[[-170.75,52.62],[-168.75,53.38],[-167.88,54.5],[-168.12,55.5],[-170.5,56.62],[-172.0,56.62],[-174.0,55.88],[-174.62,55.0],[-174.38,53.75],[-173.0,52.88],[-170.75,52.62]]]}},{"type":"Feature","properties":{"kind":"blob","cls":4,"id":13},"geometry":{"type":"Polygon","coordinates":[[[103.25,-56.12],[105.25,-55.38],[105.88,-54.5],[105.62,-53.5],[103.25,-52.38],[102.0,-52.38],[100.0,-53.12],[99.38,-54.0],[99.62,-55.0],[101.0,-55.88],[103.25,-56.12]]]}},{"type":"Feature","properties":{"kind":"blob","cls":3,"id":14},"geometry":{"type":"Polygon","coordinates":[[[65.5,-60.38],[69.75,-60.38],[71.38,-59.25],[71.38,-58.25],[70.25,-57.12],[67.0,-55.88],[65.0,-55.88],[63.0,-56.62],[62.38,-57.5],[62.38,-58.5],[63.75,-59.88],[65.5,-60.38]]]}},{"type":"Feature","properties":{"kind":"blob","cls":4,"id":15},"geometry":{"type":"Polygon","coordinates":[[[80.25,-67.88],[81.25,-68.12],[86.12,-67.25],[85.5,-66.88],[80.25,-67.88]]]}},{"type":"Feature","properties":{"kind":"blob","cls":4,"id":16},"geometry":{"type":"MultiPolygon","coordinates":[[[[77.62,-68.75],[78.5,-68.88],[79.12,-68.5],[78.5,-68.38],[77.62,-68.75]]],[[[79.25,-68.12],[79.12,-68.25],[79.5,-68.38],[79.25,-68.12]]]]}},{"type":"Feature","properties":{"kind":"blob","cls":3,"id":17},"geometry":{"type":"Polygon","coordinates":[[[-4.75,64.88],[-0.75,65.88],[0.38,67.0],[-0.12,69.5],[-2.5,70.88],[-7.5,71.12],[-8.12,69.75],[-9.5,68.88],[-15.25,69.12],[-16.62,68.25],[-16.62,67.25],[-16.0,66.62],[-14.25,65.88],[-4.75,64.88]]]}},{"type":"Feature","properties":{"kind":"blob","cls":0,"id":18},"geometry":{"type":"Polygon","coordinates":[[[-112.25,18.38],[-111.38,19.5],[-111.62,21.0],[-113.0,21.88],[-114.25,21.62],[-115.12,20.5],[-114.75,18.88],[-114.62,19.75],[-114.0,20.38],[-113.0,20.38],[-112.38,19.75],[-113.0,18.88],[-114.62,18.75],[-112.25,18.38]]]}},{"type":"Feature","properties":{"kind":"blob","cls":4,"id":19},"geometry":{"type":"Polygon","coordinates":[[[49.25,-67.38],[51.5,-67.38],[51.38,-66.5],[52.5,-66.12],[55.0,-66.12],[55.88,-66.5],[56.0,-67.12],[57.5,-67.38],[58.25,-67.38],[58.62,-66.5],[57.75,-65.62],[56.5,-65.12],[52.5,-64.88],[49.75,-65.62],[48.88,-66.5],[49.25,-67.38]]]}},{"type":"Feature","properties":{"kind":"blob","cls":5,"id":20},"geometry":{"type":"Polygon","coordinates":[[[119.25,66.38],[122.75,67.12],[124.38,68.25],[124.62,69.0],[123.0,69.38],[122.62,69.75],[123.38,70.25],[122.75,70.62],[120.25,71.12],[115.25,70.88],[112.88,69.5],[112.88,68.0],[113.75,67.12],[119.25,66.38]]]}},{"type":"Feature","properties":{"kind":"blob","cls":4,"id":21},"geometry":{"type":"Polygon","coordinates":[[[-98.5,-53.88],[-97.12,-52.75],[-97.12,-51.75],[-98.75,-50.38],[-102.0,-50.38],[-103.62,-51.75],[-103.62,-52.75],[-102.75,-53.62],[-98.5,-53.88]]]}},{"type":"Feature","properties":{"kind":"blob","cls":4,"id":22},"geometry":{"type":"Polygon","coordinates":[[[-149.25,56.12],[-146.25,57.12],[-145.38,58.0],[-145.38,59.25],[-146.5,60.38],[-148.25,60.88],[-151.0,60.88],[-152.75,60.38],[-154.12,59.0],[-154.12,57.75],[-152.5,56.62],[-149.25,56.12]],[[-150.25,59.62],[-150.62,60.0],[-150.0,60.38],[-149.62,60.0],[-150.25,59.62]],[[-149.0,60.12],[-149.38,60.5],[-149.0,60.62],[-149.0,60.12]]]}},{"type":"Feature","properties":{"kind":"blob","cls":4,"id":23},"geometry":{"type":"Polygon","coordinates":[[[21.5,-70.62],[24.38,-70.5],[24.25,-70.38],[21.5,-70.62]]]}},{"type":"Feature","properties":{"kind":"blob","cls":4,"id":24},"geometry":{"type":"Polygon","coordinates":[[[23.0,74.62],[31.75,74.62],[35.0,75.62],[36.12,76.5],[36.12,77.0],[35.25,77.88],[32.25,78.62],[26.25,78.88],[19.25,78.12],[16.38,76.75],[16.75,75.88],[18.5,75.12],[23.0,74.62]]]}},{"type":"Feature","properties":{"kind":"blob","cls":1,"id":25},"geometry":{"type":"Polygon","coordinates":[[[-38.5,58.62],[-36.25,59.38],[-35.12,60.5],[-35.12,61.75],[-36.0,62.62],[-38.25,63.38],[-40.75,63.38],[-43.0,62.62],[-42.88,61.75],[-43.88,60.25],[-41.75,58.88],[-38.5,58.62]]]}},{"type":"Feature","properties":{"kind":"blob","cls":4,"id":26},"geometry":{"type":"Polygon","coordinates":[[[38.5,-68.88],[39.5,-69.12],[43.12,-68.25],[41.75,-68.12],[38.5,-68.88]]]}},{"type":"Feature","properties":{"kind":"blob","cls":4,"id":27},"geometry":{"type":"Polygon","coordinates":[[[-29.75,56.12],[-28.0,56.62],[-26.12,58.0],[-26.12,59.0],[-26.75,59.62],[-28.75,60.38],[-32.25,60.12],[-34.38,58.75],[-34.38,57.5],[-32.75,56.38],[-29.75,56.12]]]}},{"type":"Feature","properties":{"kind":"blob","cls":4,"id":28},"geometry":{"type":"Polygon","coordinates":[[[134.25,60.38],[136.12,61.75],[136.12,62.75],[135.25,63.62],[130.75,64.38],[128.5,64.12],[126.88,63.25],[126.62,62.25],[127.0,61.62],[129.5,60.38],[134.25,60.38]]]}},{"type":"Feature","properties":{"kind":"blob","cls":4,"id":29},"geometry":{"type":"Polygon","coordinates":[[[37.88,-69.25],[38.0,-69.38],[38.12,-69.25],[37.88,-69.25]]]}},{"type":"Feature","properties":{"kind":"blob","cls":4,"id":30},"geometry":{"type":"Polygon","coordinates":[[[-54.5,66.38],[-52.75,67.12],[-51.88,68.0],[-51.88,68.5],[-53.75,69.88],[-56.25,70.38],[-59.25,70.38],[-61.75,69.88],[-62.12,69.5],[-61.88,69.0],[-59.88,67.0],[-60.62,66.5],[-54.5,66.38]]]}},{"type":"Feature","properties":{"kind":"blob","cls":1,"id":31},"geometry":{"type":"Polygon","coordinates":[[[-154.75,62.38],[-153.5,62.38],[-151.5,63.38],[-147.38,64.25],[-150.0,65.12],[-152.75,64.88],[-154.0,64.38],[-154.88,63.5],[-154.75,62.38]]]}},{"type":"Feature","properties":{"kind":"blob","cls":4,"id":32},"geometry":{"type":"Polygon","coordinates":[[[-151.75,61.12],[-149.0,61.38],[-149.0,61.88],[-149.62,62.0],[-148.88,62.75],[-149.75,63.12],[-150.75,62.62],[-152.0,62.62],[-152.38,62.0],[-151.75,61.12]]]}},{"type":"Feature","properties":{"kind":"blob","cls":4,"id":33},"geometry":{"type":"Polygon","coordinates":[[[66.0,55.62],[67.75,56.12],[69.12,57.0],[69.38,58.0],[68.75,58.88],[66.75,59.62],[63.25,59.38],[61.62,58.25],[61.38,57.25],[62.0,56.38],[66.0,55.62]]]}},{"type":"Feature","properties":{"kind":"blob","cls":3,"id":34},"geometry":{"type":"Polygon","coordinates":[[[-32.5,66.38],[-28.0,66.38],[-26.25,67.12],[-25.62,68.0],[-32.25,67.88],[-34.38,66.75],[-32.5,66.38]]]}},{"type":"Feature","properties":{"kind":"blob","cls":1,"id":35},"geometry":{"type":"Polygon","coordinates":[[[-61.0,-53.38],[-58.75,-52.62],[-57.12,-51.25],[-57.12,-49.75],[-58.0,-48.88],[-59.5,-48.38],[-64.0,-49.38],[-64.62,-50.0],[-64.38,-51.0],[-65.12,-52.25],[-64.0,-53.12],[-61.0,-53.38]]]}},{"type":"Feature","properties":{"kind":"blob","cls":4,"id":36},"geometry":{"type":"Polygon","coordinates":[[[-54.0,72.12],[-53.88,72.5],[-58.5,74.62],[-60.5,76.38],[-63.12,76.25],[-63.12,75.75],[-61.0,73.38],[-58.25,72.38],[-54.0,72.12]]]}},{"type":"Feature","properties":{"kind":"blob","cls":3,"id":37},"geometry":{"type":"Polygon","coordinates":[[[-49.75,-37.38],[-48.5,-37.62],[-46.88,-36.5],[-46.88,-35.0],[-47.5,-34.38],[-49.5,-33.88],[-51.12,-35.0],[-51.12,-36.5],[-49.75,-37.38]]]}},{"type":"Feature","properties":{"kind":"blob","cls":4,"id":38},"geometry":{"type":"Polygon","coordinates":[[[143.0,75.12],[146.25,76.12],[146.62,77.0],[144.5,78.12],[139.75,78.88],[129.75,78.62],[126.75,77.88],[126.12,77.25],[126.75,76.12],[127.5,75.88],[131.75,75.12],[143.0,75.12]]]}},{"type":"Feature","properties":{"kind":"blob","cls":4,"id":39},"geometry":{"type":"Polygon","coordinates":[[[-94.0,-37.38],[-92.5,-37.62],[-90.88,-36.5],[-90.88,-34.75],[-91.5,-34.12],[-93.5,-33.62],[-95.38,-34.75],[-95.38,-36.5],[-94.0,-37.38]]]}},{"type":"Feature","properties":{"kind":"blob","cls":4,"id":40},"geometry":{"type":"Polygon","coordinates":[[[-83.25,49.12],[-81.75,49.62],[-80.88,50.75],[-80.88,52.0],[-81.75,52.88],[-83.75,53.62],[-86.25,53.12],[-87.38,52.0],[-87.38,50.75],[-86.25,49.62],[-83.25,49.12]]]}},{"type":"Feature","properties":{"kind":"blob","cls":1,"id":41},"geometry":{"type":"Polygon","coordinates":[[[73.25,28.88],[74.62,29.5],[75.12,30.25],[75.12,31.5],[74.5,32.38],[71.25,32.12],[70.12,31.5],[70.12,30.0],[73.25,28.88]]]}},{"type":"Feature","properties":{"kind":"blob","cls":5,"id":42},"geometry":{"type":"Polygon","coordinates":[[[-64.25,-17.62],[-63.62,-16.75],[-63.62,-15.5],[-64.38,-13.75],[-65.25,-12.88],[-66.75,-12.38],[-68.5,-12.62],[-69.12,-13.75],[-68.12,-14.25],[-67.88,-15.25],[-65.5,-17.12],[-64.25,-17.62]]]}},{"type":"Feature","properties":{"kind":"blob","cls":5,"id":43},"geometry":{"type":"Polygon","coordinates":[[[-147.25,74.62],[-145.0,75.12],[-143.62,76.25],[-144.25,77.12],[-145.5,77.88],[-151.0,78.88],[-158.25,78.62],[-161.5,77.88],[-162.88,77.0],[-158.75,77.62],[-155.75,77.62],[-153.0,77.12],[-152.38,76.5],[-155.0,75.62],[-160.88,75.25],[-158.5,74.62],[-147.25,74.62]]]}},{"type":"Feature","properties":{"kind":"blob","cls":4,"id":44},"geometry":{"type":"Polygon","coordinates":[[[75.25,43.38],[77.25,43.38],[82.12,43.75],[80.75,44.38],[78.0,43.88],[77.62,44.25],[79.0,45.38],[80.25,45.38],[81.12,46.25],[80.0,47.12],[78.0,47.38],[76.25,46.62],[75.38,45.75],[75.25,43.38]]]}},{"type":"Feature","properties":{"kind":"blob","cls":3,"id":45},"geometry":{"type":"Polygon","coordinates":[[[96.0,23.62],[96.88,24.25],[95.25,25.62],[94.25,24.62],[93.62,24.75],[94.5,23.88],[96.0,23.62]]]}},{"type":"Feature","properties":{"kind":"blob","cls":4,"id":46},"geometry":{"type":"Polygon","coordinates":[[[-68.5,-34.62],[-67.0,-34.62],[-65.75,-34.12],[-65.12,-33.25],[-65.12,-31.5],[-66.12,-30.5],[-64.38,-28.75],[-64.38,-27.5],[-65.25,-26.38],[-65.88,-27.25],[-65.5,-28.62],[-65.75,-28.38],[-66.38,-28.75],[-66.25,-27.62],[-67.12,-28.25],[-66.62,-29.0],[-67.38,-29.75],[-67.38,-31.25],[-68.12,-31.5],[-67.62,-31.0],[-68.25,-29.88],[-68.62,-30.5],[-69.12,-33.5],[-68.38,-33.75],[-68.5,-34.62]],[[-66.62,-31.0],[-66.5,-30.62],[-66.38,-30.75],[-66.62,-31.0]],[[-66.38,-32.75],[-65.75,-32.38],[-65.62,-33.0],[-66.38,-32.75]]]}},{"type":"Feature","properties":{"kind":"blob","cls":5,"id":47},"geometry":{"type":"Polygon","coordinates":[[[-87.25,27.88],[-86.12,29.25],[-86.38,30.25],[-88.0,31.38],[-89.25,31.12],[-90.38,29.75],[-90.12,28.75],[-89.25,27.88],[-87.25,27.88]]]}},{"type":"Feature","properties":{"kind":"blob","cls":1,"id":48},"geometry":{"type":"Polygon","coordinates":[[[62.88,29.75],[63.0,29.62],[63.12,29.75],[62.88,29.75]]]}},{"type":"Feature","properties":{"kind":"blob","cls":3,"id":49},"geometry":{"type":"Polygon","coordinates":[[[93.75,25.62],[94.38,26.25],[93.75,26.38],[93.75,25.62]]]}},{"type":"Feature","properties":{"kind":"blob","cls":4,"id":50},"geometry":{"type":"MultiPolygon","coordinates":[[[[69.62,40.25],[70.25,40.12],[70.88,40.75],[70.5,40.88],[69.62,40.25]]],[[[69.5,40.38],[69.88,41.5],[69.5,41.62],[69.5,40.38]]],[[[71.12,41.0],[71.0,41.12],[70.88,41.0],[71.12,41.0]]]]}},{"type":"Feature","properties":{"kind":"blob","cls":4,"id":51},"geometry":{"type":"Polygon","coordinates":[[[125.25,37.62],[126.62,39.0],[126.62,40.75],[125.5,41.88],[123.0,41.88],[121.38,40.5],[121.12,39.0],[122.25,37.62],[125.25,37.62]]]}},{"type":"Feature","properties":{"kind":"blob","cls":4,"id":52},"geometry":{"type":"Polygon","coordinates":[[[154.25,-49.38],[155.5,-48.88],[156.38,-48.0],[156.38,-46.5],[155.0,-45.12],[153.0,-44.38],[150.75,-44.88],[149.88,-46.0],[149.88,-47.25],[151.25,-48.88],[154.25,-49.38]]]}},{"type":"Feature","properties":{"kind":"blob","cls":3,"id":53},"geometry":{"type":"Polygon","coordinates":[[[66.5,37.38],[67.25,37.38],[68.38,38.5],[67.0,38.12],[66.5,37.38]]]}},{"type":"Feature","properties":{"kind":"blob","cls":4,"id":54},"geometry":{"type":"Polygon","coordinates":[[[71.25,42.62],[71.62,42.75],[71.5,42.88],[71.25,42.62]]]}},{"type":"Feature","properties":{"kind":"blob","cls":4,"id":55},"geometry":{"type":"Polygon","coordinates":[[[-70.75,-33.38],[-70.75,-32.62],[-70.88,-32.75],[-70.75,-33.38]]]}},{"type":"Feature","properties":{"kind":"blob","cls":3,"id":56},"geometry":{"type":"MultiPolygon","coordinates":[[[[82.25,44.62],[82.12,44.5],[82.25,44.38],[82.25,44.62]]],[[[82.12,44.75],[82.0,44.88],[81.88,44.75],[82.12,44.75]]],[[[81.5,45.12],[81.38,45.0],[81.75,44.88],[81.5,45.12]]]]}},{"type":"Feature","properties":{"kind":"blob","cls":4,"id":57},"geometry":{"type":"Polygon","coordinates":[[[66.88,39.0],[67.0,38.88],[67.12,39.0],[66.88,39.0]]]}},{"type":"Feature","properties":{"kind":"blob","cls":4,"id":58},"geometry":{"type":"Polygon","coordinates":[[[50.75,36.62],[51.38,36.75],[51.25,36.88],[50.75,36.62]]]}},{"type":"Feature","properties":{"kind":"blob","cls":4,"id":59},"geometry":{"type":"Polygon","coordinates":[[[51.88,36.5],[52.0,36.38],[52.12,36.5],[51.88,36.5]]]}},{"type":"Feature","properties":{"kind":"blob","cls":3,"id":60},"geometry":{"type":"Polygon","coordinates":[[[52.38,36.25],[52.5,36.12],[52.62,36.25],[52.38,36.25]]]}},{"type":"Feature","properties":{"kind":"center","id":1,"lat":-65.25,"lon":-123.5,"mslp":939.2,"hvtl":-45.0,"hvtu":-86.6,"hb":38.5,"idx":-1.5,"cls":4,"psfc":939.3,"terrain":false,"radius_km":200,"name":"asym cold","track":"T05"},"geometry":{"type":"Point","coordinates":[-123.5,-65.25]}},{"type":"Feature","properties":{"kind":"center","id":2,"lat":-59.75,"lon":0.0,"mslp":942.2,"hvtl":248.1,"hvtu":-150.4,"hb":97.9,"idx":1.1,"cls":3,"psfc":942.2,"terrain":false,"radius_km":200,"name":"asym shallow warm","track":"T04"},"geometry":{"type":"Point","coordinates":[0.0,-59.75]}},{"type":"Feature","properties":{"kind":"center","id":3,"lat":23.25,"lon":147.0,"mslp":945.8,"hvtl":156.0,"hvtu":230.4,"hb":-4.0,"idx":2.8,"cls":0,"psfc":945.8,"terrain":false,"radius_km":200,"name":"sym deep warm","track":"T07"},"geometry":{"type":"Point","coordinates":[147.0,23.25]}},{"type":"Feature","properties":{"kind":"center","id":4,"lat":-61.0,"lon":-146.5,"mslp":947.0,"hvtl":209.7,"hvtu":-35.4,"hb":43.5,"idx":1.6,"cls":3,"psfc":947.0,"terrain":false,"radius_km":200,"name":"asym shallow warm","track":"T10"},"geometry":{"type":"Point","coordinates":[-146.5,-61.0]}},{"type":"Feature","properties":{"kind":"center","id":5,"lat":-71.0,"lon":-137.75,"mslp":948.4,"hvtl":101.8,"hvtu":-64.4,"hb":55.0,"idx":1.0,"cls":3,"psfc":948.4,"terrain":false,"radius_km":200,"name":"asym shallow warm","track":"T09"},"geometry":{"type":"Point","coordinates":[-137.75,-71.0]}},{"type":"Feature","properties":{"kind":"center","id":6,"lat":-79.5,"lon":165.5,"mslp":957.7,"hvtl":-197.1,"hvtu":30.7,"hb":55.5,"idx":-1.6,"cls":6,"psfc":950.5,"terrain":false,"radius_km":200,"name":"shallow cold","track":"T13"},"geometry":{"type":"Point","coordinates":[165.5,-79.5]}},{"type":"Feature","properties":{"kind":"center","id":7,"lat":-64.25,"lon":136.5,"mslp":962.8,"hvtl":-138.2,"hvtu":-338.6,"hb":64.2,"idx":-2.8,"cls":4,"psfc":962.8,"terrain":false,"radius_km":200,"name":"asym cold","track":"T27"},"geometry":{"type":"Point","coordinates":[136.5,-64.25]}},{"type":"Feature","properties":{"kind":"center","id":8,"lat":-52.0,"lon":117.25,"mslp":963.2,"hvtl":-198.8,"hvtu":-198.6,"hb":47.9,"idx":-2.9,"cls":4,"psfc":963.2,"terrain":false,"radius_km":200,"name":"asym cold"},"geometry":{"type":"Point","coordinates":[117.25,-52.0]}},{"type":"Feature","properties":{"kind":"center","id":9,"lat":-72.0,"lon":173.75,"mslp":963.9,"hvtl":-264.5,"hvtu":-84.8,"hb":50.9,"idx":-2.7,"cls":4,"psfc":963.9,"terrain":false,"radius_km":200,"name":"asym cold","track":"T29"},"geometry":{"type":"Point","coordinates":[173.75,-72.0]}},{"type":"Feature","properties":{"kind":"center","id":10,"lat":-63.25,"lon":103.0,"mslp":964.6,"hvtl":10.1,"hvtu":-183.7,"hb":5.4,"idx":-0.7,"cls":1,"psfc":964.6,"terrain":false,"radius_km":200,"name":"sym shallow warm","track":"T21"},"geometry":{"type":"Point","coordinates":[103.0,-63.25]}},{"type":"Feature","properties":{"kind":"center","id":11,"lat":23.5,"lon":-177.5,"mslp":969.7,"hvtl":83.7,"hvtu":332.9,"hb":0.9,"idx":2.4,"cls":0,"psfc":969.7,"terrain":false,"radius_km":200,"name":"sym deep warm","track":"T40"},"geometry":{"type":"Point","coordinates":[-177.5,23.5]}},{"type":"Feature","properties":{"kind":"center","id":12,"lat":54.75,"lon":-171.25,"mslp":971.9,"hvtl":7.7,"hvtu":-144.2,"hb":2.8,"idx":-0.7,"cls":1,"psfc":971.9,"terrain":false,"radius_km":200,"name":"sym shallow warm","track":"T35"},"geometry":{"type":"Point","coordinates":[-171.25,54.75]}},{"type":"Feature","properties":{"kind":"center","id":13,"lat":-54.25,"lon":103.0,"mslp":973.0,"hvtl":-230.3,"hvtu":-292.6,"hb":54.9,"idx":-3.0,"cls":4,"psfc":973.0,"terrain":false,"radius_km":200,"name":"asym cold"},"geometry":{"type":"Point","coordinates":[103.0,-54.25]}},{"type":"Feature","properties":{"kind":"center","id":14,"lat":-58.25,"lon":66.25,"mslp":975.2,"hvtl":28.2,"hvtu":-180.4,"hb":20.8,"idx":-0.4,"cls":3,"psfc":975.3,"terrain":false,"radius_km":200,"name":"asym shallow warm","track":"T49"},"geometry":{"type":"Point","coordinates":[66.25,-58.25]}},{"type":"Feature","properties":{"kind":"center","id":15,"lat":-67.25,"lon":86.0,"mslp":976.7,"hvtl":-121.9,"hvtu":-30.6,"hb":11.3,"idx":-2.0,"cls":4,"psfc":933.0,"terrain":false,"radius_km":200,"name":"asym cold"},"geometry":{"type":"Point","coordinates":[86.0,-67.25]}},{"type":"Feature","properties":{"kind":"center","id":16,"lat":-68.25,"lon":79.5,"mslp":977.9,"hvtl":-110.9,"hvtu":-25.9,"hb":17.1,"idx":-1.9,"cls":4,"psfc":910.9,"terrain":false,"radius_km":200,"name":"asym cold","track":"T52"},"geometry":{"type":"Point","coordinates":[79.5,-68.25]}},{"type":"Feature","properties":{"kind":"center","id":17,"lat":69.0,"lon":-6.5,"mslp":979.7,"hvtl":59.0,"hvtu":-72.9,"hb":20.6,"idx":0.4,"cls":3,"psfc":979.7,"terrain":false,"radius_km":200,"name":"asym shallow warm","track":"T41"},"geometry":{"type":"Point","coordinates":[-6.5,69.0]}},{"type":"Feature","properties":{"kind":"center","id":18,"lat":20.5,"lon":-113.25,"mslp":983.8,"hvtl":67.7,"hvtu":204.1,"hb":5.3,"idx":2.1,"cls":0,"psfc":983.8,"terrain":false,"radius_km":200,"name":"sym deep warm","track":"T48"},"geometry":{"type":"Point","coordinates":[-113.25,20.5]}},{"type":"Feature","properties":{"kind":"center","id":19,"lat":-67.0,"lon":57.0,"mslp":985.3,"hvtl":-168.4,"hvtu":-102.5,"hb":44.8,"idx":-2.6,"cls":4,"psfc":973.9,"terrain":false,"radius_km":200,"name":"asym cold"},"geometry":{"type":"Point","coordinates":[57.0,-67.0]}},{"type":"Feature","properties":{"kind":"center","id":20,"lat":69.0,"lon":118.75,"mslp":988.7,"hvtl":-77.6,"hvtu":-6.2,"hb":-4.7,"idx":-1.4,"cls":5,"psfc":959.0,"terrain":false,"radius_km":200,"name":"sym cold","track":"T56"},"geometry":{"type":"Point","coordinates":[118.75,69.0]}},{"type":"Feature","properties":{"kind":"center","id":21,"lat":-52.25,"lon":-100.75,"mslp":989.4,"hvtl":-78.0,"hvtu":-7.2,"hb":17.3,"idx":-1.4,"cls":4,"psfc":989.4,"terrain":false,"radius_km":200,"name":"asym cold","track":"T71"},"geometry":{"type":"Point","coordinates":[-100.75,-52.25]}},{"type":"Feature","properties":{"kind":"center","id":22,"lat":58.75,"lon":-149.75,"mslp":989.6,"hvtl":-108.1,"hvtu":-134.6,"hb":17.2,"idx":-2.5,"cls":4,"psfc":989.6,"terrain":false,"radius_km":200,"name":"asym cold","track":"T74"},"geometry":{"type":"Point","coordinates":[-149.75,58.75]}},{"type":"Feature","properties":{"kind":"center","id":23,"lat":-70.5,"lon":21.5,"mslp":989.7,"hvtl":-11.3,"hvtu":-253.6,"hb":19.9,"idx":-1.2,"cls":4,"psfc":974.6,"terrain":false,"radius_km":200,"name":"asym cold"},"geometry":{"type":"Point","coordinates":[21.5,-70.5]}},{"type":"Feature","properties":{"kind":"center","id":24,"lat":76.75,"lon":23.75,"mslp":990.8,"hvtl":-122.8,"hvtu":-172.4,"hb":38.8,"idx":-2.6,"cls":4,"psfc":990.8,"terrain":false,"radius_km":200,"name":"asym cold","track":"T61"},"geometry":{"type":"Point","coordinates":[23.75,76.75]}},{"type":"Feature","properties":{"kind":"center","id":25,"lat":61.0,"lon":-39.75,"mslp":991.0,"hvtl":131.6,"hvtu":-332.5,"hb":-7.6,"idx":0.7,"cls":1,"psfc":991.0,"terrain":false,"radius_km":200,"name":"sym shallow warm","track":"T78"},"geometry":{"type":"Point","coordinates":[-39.75,61.0]}},{"type":"Feature","properties":{"kind":"center","id":26,"lat":-68.5,"lon":42.25,"mslp":991.3,"hvtl":-88.3,"hvtu":-254.9,"hb":20.6,"idx":-2.4,"cls":4,"psfc":901.9,"terrain":false,"radius_km":200,"name":"asym cold"},"geometry":{"type":"Point","coordinates":[42.25,-68.5]}},{"type":"Feature","properties":{"kind":"center","id":27,"lat":58.25,"lon":-30.75,"mslp":991.5,"hvtl":-388.0,"hvtu":-449.5,"hb":91.1,"idx":-3.0,"cls":4,"psfc":991.5,"terrain":false,"radius_km":200,"name":"asym cold","track":"T55"},"geometry":{"type":"Point","coordinates":[-30.75,58.25]}},{"type":"Feature","properties":{"kind":"center","id":28,"lat":62.5,"lon":131.75,"mslp":992.0,"hvtl":-305.7,"hvtu":-235.1,"hb":67.2,"idx":-3.0,"cls":4,"psfc":968.7,"terrain":false,"radius_km":200,"name":"asym cold","track":"T79"},"geometry":{"type":"Point","coordinates":[131.75,62.5]}},{"type":"Feature","properties":{"kind":"center","id":29,"lat":-69.25,"lon":38.0,"mslp":992.1,"hvtl":-83.0,"hvtu":-273.0,"hb":28.5,"idx":-2.4,"cls":4,"psfc":992.1,"terrain":false,"radius_km":200,"name":"asym cold"},"geometry":{"type":"Point","coordinates":[38.0,-69.25]}},{"type":"Feature","properties":{"kind":"center","id":30,"lat":68.25,"lon":-57.75,"mslp":992.5,"hvtl":-24.6,"hvtu":-6.8,"hb":20.0,"idx":-0.6,"cls":4,"psfc":992.5,"terrain":false,"radius_km":200,"name":"asym cold","track":"T69"},"geometry":{"type":"Point","coordinates":[-57.75,68.25]}},{"type":"Feature","properties":{"kind":"center","id":31,"lat":62.5,"lon":-153.5,"mslp":993.8,"hvtl":70.2,"hvtu":-56.3,"hb":-0.6,"idx":0.7,"cls":1,"psfc":914.9,"terrain":false,"radius_km":200,"name":"sym shallow warm"},"geometry":{"type":"Point","coordinates":[-153.5,62.5]}},{"type":"Feature","properties":{"kind":"center","id":32,"lat":61.5,"lon":-149.25,"mslp":994.3,"hvtl":-69.0,"hvtu":-74.2,"hb":10.9,"idx":-1.8,"cls":4,"psfc":954.2,"terrain":false,"radius_km":200,"name":"asym cold"},"geometry":{"type":"Point","coordinates":[-149.25,61.5]}},{"type":"Feature","properties":{"kind":"center","id":33,"lat":57.5,"lon":65.0,"mslp":994.6,"hvtl":-2.4,"hvtu":-263.6,"hb":58.7,"idx":-1.0,"cls":4,"psfc":985.8,"terrain":false,"radius_km":200,"name":"asym cold","track":"T77"},"geometry":{"type":"Point","coordinates":[65.0,57.5]}},{"type":"Feature","properties":{"kind":"center","id":34,"lat":67.75,"lon":-30.5,"mslp":997.8,"hvtl":80.6,"hvtu":-196.5,"hb":11.0,"idx":0.4,"cls":3,"psfc":997.8,"terrain":false,"radius_km":200,"name":"asym shallow warm"},"geometry":{"type":"Point","coordinates":[-30.5,67.75]}},{"type":"Feature","properties":{"kind":"center","id":35,"lat":-50.75,"lon":-61.75,"mslp":998.2,"hvtl":64.3,"hvtu":-43.8,"hb":3.6,"idx":0.7,"cls":1,"psfc":998.2,"terrain":false,"radius_km":200,"name":"sym shallow warm","track":"T86"},"geometry":{"type":"Point","coordinates":[-61.75,-50.75]}},{"type":"Feature","properties":{"kind":"center","id":36,"lat":72.25,"lon":-56.0,"mslp":998.3,"hvtl":-105.4,"hvtu":-36.2,"hb":36.6,"idx":-1.9,"cls":4,"psfc":998.0,"terrain":false,"radius_km":200,"name":"asym cold","track":"T75"},"geometry":{"type":"Point","coordinates":[-56.0,72.25]}},{"type":"Feature","properties":{"kind":"center","id":37,"lat":-35.75,"lon":-49.0,"mslp":999.2,"hvtl":92.2,"hvtu":-257.0,"hb":43.5,"idx":0.5,"cls":3,"psfc":999.2,"terrain":false,"radius_km":200,"name":"asym shallow warm","track":"T16"},"geometry":{"type":"Point","coordinates":[-49.0,-35.75]}},{"type":"Feature","properties":{"kind":"center","id":38,"lat":76.75,"lon":137.0,"mslp":999.6,"hvtl":-89.0,"hvtu":-131.4,"hb":22.4,"idx":-2.3,"cls":4,"psfc":999.6,"terrain":false,"radius_km":200,"name":"asym cold","track":"T82"},"geometry":{"type":"Point","coordinates":[137.0,76.75]}},{"type":"Feature","properties":{"kind":"center","id":39,"lat":-35.75,"lon":-93.0,"mslp":1002.5,"hvtl":-144.1,"hvtu":-331.7,"hb":31.5,"idx":-2.8,"cls":4,"psfc":1002.5,"terrain":false,"radius_km":200,"name":"asym cold","track":"T92"},"geometry":{"type":"Point","coordinates":[-93.0,-35.75]}},{"type":"Feature","properties":{"kind":"center","id":40,"lat":51.25,"lon":-84.25,"mslp":1002.9,"hvtl":-48.9,"hvtu":-297.5,"hb":37.5,"idx":-1.9,"cls":4,"psfc":991.2,"terrain":false,"radius_km":200,"name":"asym cold","track":"T57"},"geometry":{"type":"Point","coordinates":[-84.25,51.25]}},{"type":"Feature","properties":{"kind":"center","id":41,"lat":30.0,"lon":70.75,"mslp":1004.4,"hvtl":36.5,"hvtu":-66.4,"hb":5.7,"idx":0.1,"cls":1,"psfc":991.1,"terrain":false,"radius_km":200,"name":"sym shallow warm","track":"T111"},"geometry":{"type":"Point","coordinates":[70.75,30.0]}},{"type":"Feature","properties":{"kind":"center","id":42,"lat":-16.75,"lon":-65.25,"mslp":1007.2,"hvtl":-21.0,"hvtu":-56.7,"hb":1.8,"idx":-0.9,"cls":5,"psfc":982.1,"terrain":false,"radius_km":200,"name":"sym cold","track":"T87"},"geometry":{"type":"Point","coordinates":[-65.25,-16.75]}},{"type":"Feature","properties":{"kind":"center","id":43,"lat":76.25,"lon":-152.75,"mslp":1007.9,"hvtl":-74.8,"hvtu":-61.7,"hb":4.2,"idx":-1.8,"cls":5,"psfc":1007.9,"terrain":false,"radius_km":200,"name":"sym cold","track":"T117"},"geometry":{"type":"Point","coordinates":[-152.75,76.25]}},{"type":"Feature","properties":{"kind":"center","id":44,"lat":43.75,"lon":78.0,"mslp":1008.2,"hvtl":-195.0,"hvtu":-69.7,"hb":47.5,"idx":-2.5,"cls":4,"psfc":953.1,"terrain":false,"radius_km":200,"name":"asym cold"},"geometry":{"type":"Point","coordinates":[78.0,43.75]}},{"type":"Feature","properties":{"kind":"center","id":45,"lat":24.75,"lon":95.0,"mslp":1008.6,"hvtl":19.8,"hvtu":-40.1,"hb":16.2,"idx":0.0,"cls":3,"psfc":990.0,"terrain":false,"radius_km":200,"name":"asym shallow warm"},"geometry":{"type":"Point","coordinates":[95.0,24.75]}},{"type":"Feature","properties":{"kind":"center","id":46,"lat":-28.0,"lon":-66.5,"mslp":1009.2,"hvtl":-124.9,"hvtu":-223.6,"hb":28.2,"idx":-2.7,"cls":4,"psfc":922.4,"terrain":false,"radius_km":200,"name":"asym cold","track":"T93"},"geometry":{"type":"Point","coordinates":[-66.5,-28.0]}},{"type":"Feature","properties":{"kind":"center","id":47,"lat":29.5,"lon":-88.25,"mslp":1009.5,"hvtl":-2.9,"hvtu":-27.0,"hb":1.4,"idx":-0.3,"cls":5,"psfc":1009.5,"terrain":false,"radius_km":200,"name":"sym cold"},"geometry":{"type":"Point","coordinates":[-88.25,29.5]}},{"type":"Feature","properties":{"kind":"center","id":48,"lat":29.75,"lon":63.0,"mslp":1009.8,"hvtl":52.5,"hvtu":-58.0,"hb":-0.2,"idx":0.4,"cls":1,"psfc":918.2,"terrain":true,"radius_km":200,"name":"sym shallow warm"},"geometry":{"type":"Point","coordinates":[63.0,29.75]}},{"type":"Feature","properties":{"kind":"center","id":49,"lat":26.0,"lon":93.75,"mslp":1010.7,"hvtl":4.3,"hvtu":-65.4,"hb":12.3,"idx":-0.5,"cls":3,"psfc":987.8,"terrain":false,"radius_km":200,"name":"asym shallow warm"},"geometry":{"type":"Point","coordinates":[93.75,26.0]}},{"type":"Feature","properties":{"kind":"center","id":50,"lat":40.75,"lon":70.75,"mslp":1011.1,"hvtl":-293.4,"hvtu":-144.4,"hb":99.0,"idx":-2.9,"cls":4,"psfc":953.3,"terrain":false,"radius_km":200,"name":"asym cold"},"geometry":{"type":"Point","coordinates":[70.75,40.75]}},{"type":"Feature","properties":{"kind":"center","id":51,"lat":39.75,"lon":124.25,"mslp":1011.2,"hvtl":-46.0,"hvtu":-460.4,"hb":41.1,"idx":-1.9,"cls":4,"psfc":1011.2,"terrain":false,"radius_km":200,"name":"asym cold","track":"T26"},"geometry":{"type":"Point","coordinates":[124.25,39.75]}},{"type":"Feature","properties":{"kind":"center","id":52,"lat":-47.0,"lon":152.75,"mslp":1011.2,"hvtl":-51.6,"hvtu":-98.8,"hb":30.3,"idx":-1.7,"cls":4,"psfc":1011.3,"terrain":false,"radius_km":200,"name":"asym cold","track":"T127"},"geometry":{"type":"Point","coordinates":[152.75,-47.0]}},{"type":"Feature","properties":{"kind":"center","id":53,"lat":38.0,"lon":67.75,"mslp":1011.6,"hvtl":17.8,"hvtu":-163.3,"hb":95.8,"idx":-0.6,"cls":3,"psfc":957.2,"terrain":false,"radius_km":200,"name":"asym shallow warm","track":"T128"},"geometry":{"type":"Point","coordinates":[67.75,38.0]}},{"type":"Feature","properties":{"kind":"center","id":54,"lat":42.75,"lon":71.5,"mslp":1017.2,"hvtl":-367.5,"hvtu":-221.9,"hb":84.7,"idx":-3.0,"cls":4,"psfc":921.6,"terrain":true,"radius_km":200,"name":"asym cold"},"geometry":{"type":"Point","coordinates":[71.5,42.75]}},{"type":"Feature","properties":{"kind":"center","id":55,"lat":-32.75,"lon":-70.75,"mslp":1018.4,"hvtl":-183.2,"hvtu":-329.1,"hb":38.5,"idx":-2.9,"cls":4,"psfc":916.0,"terrain":true,"radius_km":200,"name":"asym cold"},"geometry":{"type":"Point","coordinates":[-70.75,-32.75]}},{"type":"Feature","properties":{"kind":"center","id":56,"lat":44.5,"lon":82.25,"mslp":1019.2,"hvtl":11.2,"hvtu":-60.7,"hb":29.4,"idx":-0.3,"cls":3,"psfc":931.5,"terrain":false,"radius_km":200,"name":"asym shallow warm"},"geometry":{"type":"Point","coordinates":[82.25,44.5]}},{"type":"Feature","properties":{"kind":"center","id":57,"lat":39.0,"lon":67.0,"mslp":1020.7,"hvtl":-204.1,"hvtu":-177.1,"hb":107.2,"idx":-2.9,"cls":4,"psfc":906.8,"terrain":true,"radius_km":200,"name":"asym cold"},"geometry":{"type":"Point","coordinates":[67.0,39.0]}},{"type":"Feature","properties":{"kind":"center","id":58,"lat":36.75,"lon":51.25,"mslp":1026.2,"hvtl":-31.6,"hvtu":-195.8,"hb":154.5,"idx":-1.6,"cls":4,"psfc":1013.0,"terrain":false,"radius_km":200,"name":"asym cold"},"geometry":{"type":"Point","coordinates":[51.25,36.75]}},{"type":"Feature","properties":{"kind":"center","id":59,"lat":36.5,"lon":52.0,"mslp":1026.7,"hvtl":-7.1,"hvtu":-212.6,"hb":164.6,"idx":-1.1,"cls":4,"psfc":976.5,"terrain":false,"radius_km":200,"name":"asym cold"},"geometry":{"type":"Point","coordinates":[52.0,36.5]}},{"type":"Feature","properties":{"kind":"center","id":60,"lat":36.25,"lon":52.5,"mslp":1027.3,"hvtl":16.9,"hvtu":-218.6,"hb":166.6,"idx":-0.6,"cls":3,"psfc":922.3,"terrain":true,"radius_km":200,"name":"asym shallow warm"},"geometry":{"type":"Point","coordinates":[52.5,36.25]}}]}