{"type":"FeatureCollection","features":[{"type":"Feature","properties":{"kind":"blob","cls":3,"id":1},"geometry":{"type":"Polygon","coordinates":[[[-149.25,-63.62],[-145.5,-63.62],[-143.62,-62.25],[-143.62,-61.5],[-145.5,-60.12],[-149.25,-59.88],[-151.5,-60.62],[-152.38,-61.5],[-152.38,-62.0],[-151.25,-63.12],[-149.25,-63.62]]]}},{"type":"Feature","properties":{"kind":"blob","cls":3,"id":2},"geometry":{"type":"Polygon","coordinates":[[[70.75,-62.62],[72.38,-61.5],[72.38,-60.5],[70.75,-59.38],[68.5,-59.12],[65.75,-58.12],[62.75,-58.12],[60.12,-59.25],[59.88,-60.5],[60.75,-61.62],[67.0,-61.38],[67.62,-61.75],[66.25,-62.38],[63.88,-62.5],[70.75,-62.62]]]}},{"type":"Feature","properties":{"kind":"blob","cls":6,"id":3},"geometry":{"type":"Polygon","coordinates":[[[121.0,-63.88],[122.5,-63.12],[122.88,-62.5],[122.62,-61.5],[121.5,-60.62],[120.0,-59.88],[117.88,-59.5],[118.5,-58.12],[120.0,-57.88],[121.12,-56.5],[119.75,-54.88],[118.0,-54.38],[115.25,-54.62],[113.88,-55.75],[113.75,-56.38],[112.0,-56.88],[111.12,-57.75],[111.12,-59.0],[112.0,-59.88],[114.38,-60.5],[113.38,-62.0],[115.25,-63.62],[121.0,-63.88]]]}},{"type":"Feature","properties":{"kind":"blob","cls":1,"id":4},"geometry":{"type":"Polygon","coordinates":[[[-88.5,-70.88],[-84.75,-70.88],[-82.5,-69.88],[-81.88,-69.0],[-82.75,-67.88],[-83.75,-67.38],[-87.0,-66.62],[-91.0,-66.88],[-94.12,-68.25],[-94.12,-69.5],[-92.75,-70.38],[-89.75,-70.38],[-88.5,-70.88]]]}},{"type":"Feature","properties":{"kind":"blob","cls":4,"id":5},"geometry":{"type":"Polygon","coordinates":[[[51.75,-58.38],[53.38,-56.75],[52.25,-55.38],[51.25,-54.88],[47.5,-54.88],[45.62,-56.75],[46.75,-58.12],[51.75,-58.38]]]}},{"type":"Feature","properties":{"kind":"blob","cls":4,"id":6},"geometry":{"type":"Polygon","coordinates":[[[81.5,-67.62],[82.75,-67.88],[82.12,-66.75],[84.5,-65.62],[94.62,-65.25],[92.0,-64.38],[87.75,-64.38],[82.0,-65.88],[81.12,-66.75],[81.5,-67.62]]]}},{"type":"Feature","properties":{"kind":"blob","cls":4,"id":7},"geometry":{"type":"Polygon","coordinates":[[[27.75,-51.12],[29.5,-50.38],[30.12,-49.25],[29.88,-48.5],[27.75,-47.38],[25.75,-47.62],[25.0,-48.12],[24.38,-49.25],[24.62,-50.0],[25.75,-50.88],[27.75,-51.12]]]}},{"type":"Feature","properties":{"kind":"blob","cls":4,"id":8},"geometry":{"type":"Polygon","coordinates":[[[-33.25,-74.62],[-23.5,-74.62],[-21.25,-73.88],[-20.62,-72.75],[-21.25,-71.88],[-22.5,-71.38],[-29.25,-70.38],[-36.0,-70.62],[-37.75,-71.12],[-38.88,-72.0],[-38.88,-72.5],[-37.75,-73.62],[-36.75,-74.12],[-33.25,-74.62]]]}},{"type":"Feature","properties":{"kind":"blob","cls":5,"id":9},"geometry":{"type":"Polygon","coordinates":[[[179.75,-82.88],[180.0,-80.12],[177.5,-80.62],[176.38,-81.25],[176.5,-81.88],[177.5,-82.38],[179.75,-82.88]]]}},{"type":"Feature","properties":{"kind":"blob","cls":5,"id":9},"geometry":{"type":"Polygon","coordinates":[[[-179.75,-80.12],[-180.0,-82.88],[-177.75,-83.12],[-160.5,-83.38],[-148.88,-82.75],[-156.25,-81.88],[-156.62,-81.0],[-157.38,-80.5],[-156.75,-79.88],[-174.25,-79.62],[-179.75,-80.12]]]}},{"type":"Feature","properties":{"kind":"blob","cls":1,"id":10},"geometry":{"type":"Polygon","coordinates":[[[-150.25,48.88],[-148.75,49.38],[-147.88,50.5],[-148.12,51.5],[-149.0,52.38],[-150.5,52.88],[-151.75,52.88],[-152.75,51.88],[-153.75,51.88],[-154.38,51.0],[-154.12,50.0],[-153.0,49.12],[-150.25,48.88]]]}},{"type":"Feature","properties":{"kind":"blob","cls":4,"id":11},"geometry":{"type":"Polygon","coordinates":[[[81.75,80.62],[91.75,81.12],[96.75,81.88],[98.0,82.38],[98.12,83.0],[95.75,83.88],[87.0,84.62],[66.0,84.62],[57.25,83.88],[54.12,82.5],[55.5,81.62],[58.25,81.12],[81.75,80.62]]]}},{"type":"Feature","properties":{"kind":"blob","cls":4,"id":12},"geometry":{"type":"Polygon","coordinates":[[[162.62,-71.5],[162.25,-70.62],[164.5,-71.12],[164.75,-70.62],[166.0,-70.62],[167.5,-71.12],[167.88,-70.25],[166.25,-69.12],[163.5,-68.62],[161.5,-68.62],[158.62,-69.25],[158.75,-69.62],[159.5,-69.62],[162.62,-71.5]]]}},{"type":"Feature","properties":{"kind":"blob","cls":5,"id":13},"geometry":{"type":"Polygon","coordinates":[[[-140.88,-82.0],[-141.25,-81.62],[-147.5,-80.62],[-152.75,-80.12],[-155.62,-80.25],[-152.75,-81.12],[-140.88,-82.0]]]}},{"type":"Feature","properties":{"kind":"blob","cls":4,"id":14},"geometry":{"type":"Polygon","coordinates":[[[26.5,75.12],[36.0,75.12],[39.5,76.12],[40.12,76.75],[40.12,77.5],[38.75,78.38],[36.25,78.88],[27.5,79.12],[22.5,78.38],[20.62,77.25],[20.62,76.5],[22.0,75.62],[26.5,75.12]]]}},{"type":"Feature","properties":{"kind":"blob","cls":1,"id":15},"geometry":{"type":"Polygon","coordinates":[[[-47.75,47.88],[-44.25,47.88],[-42.62,49.5],[-42.88,50.75],[-43.5,51.38],[-45.0,51.88],[-47.25,51.88],[-48.75,51.38],[-49.62,50.5],[-49.88,49.5],[-49.25,48.38],[-47.75,47.88]]]}},{"type":"Feature","properties":{"kind":"blob","cls":4,"id":16},"geometry":{"type":"Polygon","coordinates":[[[-41.0,53.62],[-39.25,54.12],[-38.38,55.0],[-38.38,56.25],[-39.25,57.12],[-41.0,57.62],[-44.75,56.88],[-45.62,56.0],[-45.62,55.0],[-44.75,54.12],[-41.0,53.62]]]}},{"type":"Feature","properties":{"kind":"blob","cls":1,"id":17},"geometry":{"type":"Polygon","coordinates":[[[153.25,53.62],[155.0,54.12],[155.88,55.0],[155.88,56.25],[155.0,57.12],[150.25,57.12],[149.12,56.0],[149.12,55.0],[150.0,54.12],[153.25,53.62]]]}},{"type":"Feature","properties":{"kind":"blob","cls":0,"id":18},"geometry":{"type":"Polygon","coordinates":[[[-97.75,10.38],[-96.25,10.38],[-95.38,11.5],[-95.38,12.5],[-96.25,13.62],[-97.5,11.62],[-98.5,11.38],[-99.12,12.0],[-98.88,11.0],[-97.75,10.38]]]}},{"type":"Feature","properties":{"kind":"blob","cls":1,"id":19},"geometry":{"type":"Polygon","coordinates":[[[6.5,-70.62],[16.12,-70.75],[12.75,-69.88],[10.0,-69.88],[6.5,-70.62]]]}},{"type":"Feature","properties":{"kind":"blob","cls":1,"id":20},"geometry":{"type":"Polygon","coordinates":[[[-95.5,84.12],[-84.25,85.38],[-75.5,85.88],[-72.62,86.75],[-75.0,87.62],[-79.25,88.12],[-92.75,88.62],[-103.0,87.62],[-119.5,87.62],[-129.75,88.38],[-138.25,88.38],[-146.5,87.62],[-148.38,86.75],[-145.75,85.88],[-139.75,85.12],[-126.75,84.12],[-95.5,84.12]]]}},{"type":"Feature","properties":{"kind":"blob","cls":3,"id":21},"geometry":{"type":"Polygon","coordinates":[[[154.0,77.38],[162.5,78.12],[165.5,78.88],[167.25,79.88],[167.38,80.5],[165.0,81.62],[161.75,82.12],[155.75,82.62],[147.75,82.62],[138.75,81.62],[136.25,80.62],[135.62,80.0],[137.0,78.88],[139.5,78.12],[154.0,77.38]]]}},{"type":"Feature","properties":{"kind":"blob","cls":3,"id":22},"geometry":{"type":"Polygon","coordinates":[[[-78.75,-78.12],[-78.38,-78.0],[-78.75,-77.62],[-78.75,-78.12]]]}},{"type":"Feature","properties":{"kind":"blob","cls":6,"id":23},"geometry":{"type":"Polygon","coordinates":[[[-77.25,60.88],[-75.25,61.38],[-74.12,62.25],[-74.12,63.5],[-76.0,64.62],[-79.5,64.88],[-81.5,64.38],[-82.62,63.5],[-82.62,62.5],[-82.0,61.88],[-80.25,61.12],[-77.25,60.88]]]}},{"type":"Feature","properties":{"kind":"blob","cls":1,"id":24},"geometry":{"type":"Polygon","coordinates":[[[160.25,58.12],[161.0,58.62],[161.25,58.38],[162.75,58.88],[164.62,60.25],[164.62,61.25],[163.0,62.38],[160.25,62.62],[156.0,61.88],[154.88,60.75],[154.88,60.0],[155.75,59.12],[160.25,58.12]],[[161.75,59.38],[161.62,59.5],[162.0,59.62],[161.75,59.38]]]}},{"type":"Feature","properties":{"kind":"blob","cls":4,"id":25},"geometry":{"type":"Polygon","coordinates":[[[-80.5,43.88],[-79.25,44.38],[-77.88,46.0],[-78.12,47.0],[-81.5,49.12],[-83.5,49.12],[-84.75,48.62],[-85.62,47.75],[-85.62,46.0],[-84.5,44.62],[-80.5,43.88]]]}},{"type":"Feature","properties":{"kind":"blob","cls":2,"id":26},"geometry":{"type":"Polygon","coordinates":[[[148.5,10.88],[150.0,11.12],[150.88,12.25],[150.62,14.25],[149.25,15.12],[147.75,14.88],[146.88,13.75],[147.12,11.75],[148.5,10.88]]]}},{"type":"Feature","properties":{"kind":"blob","cls":4,"id":27},"geometry":{"type":"Polygon","coordinates":[[[-60.75,67.88],[-58.75,68.62],[-57.38,70.0],[-58.0,70.88],[-59.0,71.38],[-61.75,71.88],[-63.25,71.88],[-64.5,70.62],[-66.75,69.88],[-68.25,70.12],[-68.75,71.38],[-70.62,70.5],[-70.38,70.25],[-70.88,70.0],[-70.88,69.5],[-70.0,68.62],[-67.75,67.88],[-60.75,67.88]],[[-69.62,69.5],[-68.88,69.5],[-69.0,69.38],[-69.62,69.5]]]}},{"type":"Feature","properties":{"kind":"blob","cls":4,"id":28},"geometry":{"type":"Polygon","coordinates":[[[-72.0,54.62],[-69.0,55.62],[-67.62,57.0],[-67.88,58.25],[-70.25,59.38],[-72.25,59.38],[-74.25,58.62],[-75.88,57.25],[-76.12,56.5],[-75.0,55.12],[-72.0,54.62]]]}},{"type":"Feature","properties":{"kind":"blob","cls":1,"id":29},"geometry":{"type":"Polygon","coordinates":[[[-154.75,61.88],[-154.38,62.0],[-154.5,62.12],[-154.75,61.88]]]}},{"type":"Feature","properties":{"kind":"blob","cls":5,"id":30},"geometry":{"type":"Polygon","coordinates":[[[-154.0,62.38],[-153.5,62.38],[-151.5,63.38],[-148.5,64.12],[-146.0,63.62],[-145.25,63.88],[-144.0,63.38],[-143.25,63.38],[-143.12,63.75],[-144.0,63.88],[-145.25,65.38],[-148.25,65.62],[-150.5,64.88],[-154.25,64.38],[-154.38,64.0],[-153.88,63.5],[-154.0,62.38]]]}},{"type":"Feature","properties":{"kind":"blob","cls":5,"id":31},"geometry":{"type":"Polygon","coordinates":[[[-152.0,61.38],[-149.25,61.38],[-148.88,61.75],[-149.62,62.0],[-148.88,62.75],[-149.75,63.12],[-150.75,62.62],[-152.0,62.62],[-152.38,62.0],[-152.0,61.38]]]}},{"type":"Feature","properties":{"kind":"blob","cls":3,"id":32},"geometry":{"type":"Polygon","coordinates":[[[-39.0,-29.38],[-37.88,-28.0],[-38.12,-27.0],[-40.0,-25.62],[-41.25,-25.88],[-42.38,-27.25],[-42.12,-28.25],[-41.0,-29.38],[-39.0,-29.38]]]}},{"type":"Feature","properties":{"kind":"blob","cls":3,"id":33},"geometry":{"type":"Polygon","coordinates":[[[-78.0,50.12],[-76.5,50.62],[-75.38,51.75],[-75.38,52.75],[-76.25,53.62],[-77.75,54.12],[-80.75,53.62],[-81.62,52.75],[-81.62,51.5],[-80.75,50.62],[-78.0,50.12]]]}},{"type":"Feature","properties":{"kind":"blob","cls":4,"id":34},"geometry":{"type":"Polygon","coordinates":[[[180.0,44.62],[180.0,46.88],[179.38,46.0],[180.0,44.62]]]}},{"type":"Feature","properties":{"kind":"blob","cls":4,"id":34},"geometry":{"type":"Polygon","coordinates":[[[-179.88,47.0],[-180.0,44.62],[-178.0,43.38],[-174.5,43.12],[-173.25,43.62],[-172.38,44.75],[-172.38,45.5],[-173.25,46.62],[-175.25,47.38],[-178.5,47.62],[-179.88,47.0]]]}},{"type":"Feature","properties":{"kind":"blob","cls":5,"id":35},"geometry":{"type":"Polygon","coordinates":[[[-146.75,61.88],[-145.25,62.12],[-144.38,62.75],[-147.0,62.88],[-147.38,62.5],[-146.75,61.88]]]}},{"type":"Feature","properties":{"kind":"blob","cls":0,"id":36},"geometry":{"type":"Polygon","coordinates":[[[-166.75,-13.38],[-166.88,-11.5],[-168.25,-10.62],[-169.5,-10.88],[-170.38,-12.0],[-170.25,-12.62],[-169.5,-11.88],[-168.0,-11.88],[-166.75,-13.38]]]}},{"type":"Feature","properties":{"kind":"blob","cls":4,"id":37},"geometry":{"type":"Polygon","coordinates":[[[-126.5,64.38],[-125.88,65.25],[-126.75,66.38],[-129.5,67.12],[-133.75,66.62],[-135.12,65.25],[-132.0,65.62],[-127.75,65.12],[-126.5,64.38]]]}},{"type":"Feature","properties":{"kind":"blob","cls":3,"id":38},"geometry":{"type":"Polygon","coordinates":[[[-74.0,-12.38],[-74.0,-11.62],[-74.12,-11.75],[-74.0,-12.38]]]}},{"type":"Feature","properties":{"kind":"blob","cls":2,"id":39},"geometry":{"type":"Polygon","coordinates":[[[-72.75,-12.38],[-72.12,-11.25],[-73.0,-10.12],[-73.5,-10.12],[-74.12,-10.75],[-72.75,-12.38]]]}},{"type":"Feature","properties":{"kind":"blob","cls":3,"id":40},"geometry":{"type":"Polygon","coordinates":[[[17.75,-27.88],[18.25,-26.88],[18.88,-26.75],[18.75,-26.38],[17.88,-26.5],[18.0,-25.62],[17.12,-26.75],[17.12,-27.5],[17.75,-27.88]]]}},{"type":"Feature","properties":{"kind":"blob","cls":0,"id":41},"geometry":{"type":"Polygon","coordinates":[[[-99.12,12.5],[-99.0,12.38],[-98.88,12.5],[-99.12,12.5]]]}},{"type":"Feature","properties":{"kind":"blob","cls":3,"id":42},"geometry":{"type":"Polygon","coordinates":[[[-74.38,-11.25],[-74.25,-11.38],[-74.12,-11.25],[-74.38,-11.25]]]}},{"type":"Feature","properties":{"kind":"blob","cls":4,"id":43},"geometry":{"type":"Polygon","coordinates":[[[37.5,41.62],[38.75,42.12],[39.38,42.75],[39.38,44.5],[37.5,45.62],[35.0,45.12],[34.38,44.5],[34.38,42.75],[35.0,42.12],[37.5,41.62]]]}},{"type":"Feature","properties":{"kind":"blob","cls":3,"id":44},"geometry":{"type":"Polygon","coordinates":[[[53.25,36.12],[53.75,36.62],[55.25,36.88],[56.0,37.62],[57.12,37.75],[56.25,38.88],[55.25,39.38],[52.75,39.38],[50.62,37.75],[51.0,36.62],[53.25,36.12]]]}},{"type":"Feature","properties":{"kind":"blob","cls":4,"id":45},"geometry":{"type":"Polygon","coordinates":[[[163.0,42.88],[165.0,43.62],[165.88,44.75],[165.62,45.75],[163.75,46.88],[162.5,46.88],[160.75,46.12],[160.12,45.5],[159.88,44.5],[160.75,43.38],[163.0,42.88]]]}},{"type":"Feature","properties":{"kind":"blob","cls":2,"id":46},"geometry":{"type":"Polygon","coordinates":[[[37.5,0.88],[37.88,0.75],[38.38,2.5],[36.75,4.12],[36.62,2.5],[37.38,1.75],[37.5,0.88]]]}},{"type":"Feature","properties":{"kind":"blob","cls":4,"id":47},"geometry":{"type":"Polygon","coordinates":[[[-98.25,-38.62],[-96.25,-38.88],[-94.75,-38.12],[-94.12,-37.5],[-94.12,-36.0],[-95.75,-34.88],[-98.0,-34.88],[-99.0,-35.38],[-99.62,-36.0],[-99.62,-37.75],[-98.25,-38.62]]]}},{"type":"Feature","properties":{"kind":"blob","cls":4,"id":48},"geometry":{"type":"MultiPolygon","coordinates":[[[[47.38,41.0],[47.75,40.62],[48.38,40.75],[47.75,41.12],[47.38,41.0]]],[[[48.38,40.5],[49.75,40.38],[51.62,41.5],[51.88,43.0],[51.0,44.12],[48.5,44.62],[46.62,43.5],[46.62,43.0],[47.5,42.62],[48.88,41.0],[48.38,40.5]]]]}},{"type":"Feature","properties":{"kind":"blob","cls":2,"id":49},"geometry":{"type":"MultiPolygon","coordinates":[[[[35.25,3.62],[35.12,3.5],[35.5,3.38],[35.25,3.62]]],[[[35.75,3.88],[35.62,3.75],[35.75,3.62],[35.75,3.88]]]]}},{"type":"Feature","properties":{"kind":"blob","cls":1,"id":50},"geometry":{"type":"Polygon","coordinates":[[[31.25,-30.88],[33.0,-30.88],[34.12,-29.5],[31.88,-27.75],[31.75,-27.12],[30.88,-27.5],[31.38,-27.75],[30.88,-28.0],[31.0,-28.62],[29.88,-28.75],[30.88,-29.0],[30.12,-30.25],[31.25,-30.88]]]}},{"type":"Feature","properties":{"kind":"blob","cls":3,"id":51},"geometry":{"type":"MultiPolygon","coordinates":[[[[42.75,14.38],[42.62,14.25],[42.75,14.12],[42.75,14.38]]],[[[42.25,14.38],[42.62,14.5],[42.0,15.12],[41.38,15.0],[42.25,14.38]]],[[[40.75,15.38],[40.62,15.25],[41.25,15.12],[40.75,15.38]]]]}},{"type":"Feature","properties":{"kind":"blob","cls":4,"id":52},"geometry":{"type":"Polygon","coordinates":[[[-107.5,23.12],[-106.38,23.75],[-106.88,25.25],[-107.62,25.75],[-108.75,27.88],[-109.62,28.0],[-109.12,28.75],[-109.75,29.88],[-110.5,29.88],[-111.0,30.88],[-112.5,30.62],[-113.62,29.25],[-113.38,28.25],[-111.75,27.12],[-110.75,27.38],[-111.12,26.25],[-110.88,25.0],[-110.0,24.12],[-107.5,23.12]]]}},{"type":"Feature","properties":{"kind":"blob","cls":3,"id":53},"geometry":{"type":"Polygon","coordinates":[[[41.38,11.25],[41.5,11.12],[41.62,11.25],[41.38,11.25]]]}},{"type":"Feature","properties":{"kind":"blob","cls":3,"id":54},"geometry":{"type":"Polygon","coordinates":[[[40.0,14.88],[40.38,15.0],[40.25,15.12],[40.0,14.88]]]}},{"type":"Feature","properties":{"kind":"blob","cls":3,"id":55},"geometry":{"type":"MultiPolygon","coordinates":[[[[-69.0,-13.62],[-69.12,-13.75],[-69.0,-13.88],[-69.0,-13.62]]],[[[-70.5,-13.38],[-70.0,-13.62],[-69.12,-13.5],[-70.0,-13.12],[-70.5,-13.38]]]]}},{"type":"Feature","properties":{"kind":"blob","cls":3,"id":56},"geometry":{"type":"MultiPolygon","coordinates":[[[[42.0,11.38],[42.62,11.75],[42.25,11.88],[42.0,11.38]]],[[[42.75,12.12],[42.62,12.0],[42.75,11.88],[42.75,12.12]]]]}},{"type":"Feature","properties":{"kind":"blob","cls":4,"id":57},"geometry":{"type":"MultiPolygon","coordinates":[[[[47.0,41.38],[46.88,41.25],[47.0,41.12],[47.0,41.38]]],[[[46.75,41.62],[46.62,41.5],[46.75,41.38],[46.75,41.62]]]]}},{"type":"Feature","properties":{"kind":"blob","cls":1,"id":58},"geometry":{"type":"Polygon","coordinates":[[[93.75,25.62],[94.38,26.25],[93.0,26.88],[92.88,26.25],[93.75,25.62]]]}},{"type":"Feature","properties":{"kind":"blob","cls":4,"id":59},"geometry":{"type":"Polygon","coordinates":[[[-66.5,-28.12],[-66.12,-27.75],[-66.5,-27.62],[-66.5,-28.12]]]}},{"type":"Feature","properties":{"kind":"blob","cls":3,"id":60},"geometry":{"type":"Polygon","coordinates":[[[16.12,-26.25],[16.25,-26.38],[16.38,-26.25],[16.12,-26.25]]]}},{"type":"Feature","properties":{"kind":"blob","cls":3,"id":61},"geometry":{"type":"MultiPolygon","coordinates":[[[[55.5,35.62],[55.38,35.5],[55.75,35.38],[55.5,35.62]]],[[[56.0,35.62],[56.88,36.25],[56.25,36.88],[56.0,35.62]]],[[[56.88,37.0],[56.75,37.12],[56.62,37.0],[56.88,37.0]]]]}},{"type":"Feature","properties":{"kind":"blob","cls":5,"id":62},"geometry":{"type":"MultiPolygon","coordinates":[[[[95.0,25.38],[94.88,25.25],[95.0,25.12],[95.0,25.38]]],[[[95.25,25.62],[95.12,25.5],[95.5,25.38],[95.25,25.62]]]]}},{"type":"Feature","properties":{"kind":"blob","cls":3,"id":63},"geometry":{"type":"Polygon","coordinates":[[[61.38,30.5],[61.5,30.38],[61.62,30.5],[61.38,30.5]]]}},{"type":"Feature","properties":{"kind":"blob","cls":4,"id":64},"geometry":{"type":"MultiPolygon","coordinates":[[[[-64.25,-17.38],[-64.38,-17.5],[-64.25,-17.62],[-64.25,-17.38]]],[[[-65.5,-17.12],[-64.5,-17.38],[-64.38,-17.0],[-65.25,-15.88],[-66.5,-15.62],[-66.62,-16.0],[-65.5,-17.12]]]]}},{"type":"Feature","properties":{"kind":"blob","cls":5,"id":65},"geometry":{"type":"Polygon","coordinates":[[[-64.38,-22.5],[-64.25,-22.88],[-63.38,-22.0],[-63.38,-21.0],[-64.0,-20.62],[-64.12,-21.25],[-63.62,-21.75],[-64.38,-22.5]]]}},{"type":"Feature","properties":{"kind":"blob","cls":3,"id":66},"geometry":{"type":"Polygon","coordinates":[[[-71.5,-31.62],[-70.88,-31.75],[-71.0,-29.62],[-71.62,-30.5],[-71.5,-31.62]]]}},{"type":"Feature","properties":{"kind":"blob","cls":3,"id":67},"geometry":{"type":"MultiPolygon","coordinates":[[[[61.25,33.38],[61.12,33.25],[61.25,33.12],[61.25,33.38]]],[[[61.5,33.62],[61.38,33.5],[61.5,33.38],[61.5,33.62]]]]}},{"type":"Feature","properties":{"kind":"blob","cls":3,"id":68},"geometry":{"type":"Polygon","coordinates":[[[-71.12,-32.25],[-71.0,-32.38],[-70.88,-32.25],[-71.12,-32.25]]]}},{"type":"Feature","properties":{"kind":"blob","cls":3,"id":69},"geometry":{"type":"Polygon","coordinates":[[[-68.75,-32.62],[-68.0,-32.38],[-67.38,-31.5],[-68.12,-31.5],[-67.62,-31.0],[-68.25,-29.88],[-68.62,-30.5],[-68.75,-32.62]]]}},{"type":"Feature","properties":{"kind":"blob","cls":4,"id":70},"geometry":{"type":"Polygon","coordinates":[[[-65.88,-27.25],[-65.75,-27.38],[-65.62,-27.25],[-65.88,-27.25]]]}},{"type":"Feature","properties":{"kind":"blob","cls":3,"id":71},"geometry":{"type":"Polygon","coordinates":[[[-67.62,-30.5],[-67.5,-30.62],[-67.38,-30.5],[-67.62,-30.5]]]}},{"type":"Feature","properties":{"kind":"blob","cls":3,"id":72},"geometry":{"type":"Polygon","coordinates":[[[11.25,56.12],[14.25,57.12],[15.12,58.0],[15.12,59.75],[14.25,60.62],[12.5,61.12],[10.5,61.12],[8.75,60.62],[8.5,59.88],[7.12,59.25],[7.12,57.5],[8.75,56.38],[11.25,56.12]]]}},{"type":"Feature","properties":{"kind":"blob","cls":1,"id":73},"geometry":{"type":"Polygon","coordinates":[[[-114.25,51.62],[-113.62,52.25],[-113.62,53.25],[-114.75,54.38],[-117.75,55.62],[-119.0,55.62],[-120.38,55.0],[-116.75,53.88],[-117.0,53.38],[-116.0,53.12],[-114.25,51.62]]]}},{"type":"Feature","properties":{"kind":"blob","cls":4,"id":74},"geometry":{"type":"MultiPolygon","coordinates":[[[[-121.25,53.88],[-121.38,53.75],[-121.0,53.62],[-121.25,53.88]]],[[[-121.5,54.12],[-121.62,54.0],[-121.5,53.88],[-121.5,54.12]]]]}},{"type":"Feature","properties":{"kind":"center","id":1,"lat":-61.75,"lon":-148.0,"mslp":920.3,"hvtl":116.0,"hvtu":-143.3,"hb":21.8,"idx":0.7,"cls":3,"psfc":920.3,"terrain":false,"radius_km":200,"name":"asym shallow warm","track":"T01"},"geometry":{"type":"Point","coordinates":[-148.0,-61.75]}},{"type":"Feature","properties":{"kind":"center","id":2,"lat":-60.25,"lon":64.0,"mslp":948.0,"hvtl":48.2,"hvtu":-19.4,"hb":37.6,"idx":0.7,"cls":3,"psfc":948.1,"terrain":false,"radius_km":200,"name":"asym shallow warm","track":"T05"},"geometry":{"type":"Point","coordinates":[64.0,-60.25]}},{"type":"Feature","properties":{"kind":"center","id":3,"lat":-61.75,"lon":118.0,"mslp":958.1,"hvtl":-34.5,"hvtu":49.4,"hb":24.7,"idx":-0.2,"cls":6,"psfc":958.1,"terrain":false,"radius_km":200,"name":"shallow cold","track":"T20"},"geometry":{"type":"Point","coordinates":[118.0,-61.75]}},{"type":"Feature","properties":{"kind":"center","id":4,"lat":-68.75,"lon":-88.0,"mslp":960.7,"hvtl":21.7,"hvtu":-97.1,"hb":3.8,"idx":-0.3,"cls":1,"psfc":960.7,"terrain":false,"radius_km":200,"name":"sym shallow warm","track":"T16"},"geometry":{"type":"Point","coordinates":[-88.0,-68.75]}},{"type":"Feature","properties":{"kind":"center","id":5,"lat":-56.75,"lon":49.5,"mslp":962.2,"hvtl":-20.8,"hvtu":-346.5,"hb":15.3,"idx":-1.4,"cls":4,"psfc":962.2,"terrain":false,"radius_km":200,"name":"asym cold","track":"T21"},"geometry":{"type":"Point","coordinates":[49.5,-56.75]}},{"type":"Feature","properties":{"kind":"center","id":6,"lat":-66.5,"lon":81.5,"mslp":971.3,"hvtl":-93.0,"hvtu":-204.3,"hb":12.8,"idx":-2.4,"cls":4,"psfc":971.3,"terrain":false,"radius_km":200,"name":"asym cold"},"geometry":{"type":"Point","coordinates":[81.5,-66.5]}},{"type":"Feature","properties":{"kind":"center","id":7,"lat":-49.25,"lon":27.25,"mslp":974.3,"hvtl":-10.2,"hvtu":-527.5,"hb":48.1,"idx":-1.2,"cls":4,"psfc":974.3,"terrain":false,"radius_km":200,"name":"asym cold","track":"T31"},"geometry":{"type":"Point","coordinates":[27.25,-49.25]}},{"type":"Feature","properties":{"kind":"center","id":8,"lat":-72.25,"lon":-31.75,"mslp":975.1,"hvtl":-149.7,"hvtu":-98.1,"hb":38.2,"idx":-2.6,"cls":4,"psfc":975.1,"terrain":false,"radius_km":200,"name":"asym cold","track":"T43"},"geometry":{"type":"Point","coordinates":[-31.75,-72.25]}},{"type":"Feature","properties":{"kind":"center","id":9,"lat":-81.75,"lon":-160.5,"mslp":976.2,"hvtl":-23.5,"hvtu":-12.5,"hb":-0.6,"idx":-0.6,"cls":5,"psfc":967.8,"terrain":false,"radius_km":200,"name":"sym cold","track":"T36"},"geometry":{"type":"Point","coordinates":[-160.5,-81.75]}},{"type":"Feature","properties":{"kind":"center","id":10,"lat":50.75,"lon":-151.0,"mslp":976.6,"hvtl":36.3,"hvtu":-79.6,"hb":8.0,"idx":0.0,"cls":1,"psfc":976.6,"terrain":false,"radius_km":200,"name":"sym shallow warm","track":"T34"},"geometry":{"type":"Point","coordinates":[-151.0,50.75]}},{"type":"Feature","properties":{"kind":"center","id":11,"lat":82.75,"lon":75.25,"mslp":977.0,"hvtl":-97.7,"hvtu":-149.9,"hb":96.6,"idx":-2.4,"cls":4,"psfc":977.0,"terrain":false,"radius_km":200,"name":"asym cold","track":"T45"},"geometry":{"type":"Point","coordinates":[75.25,82.75]}},{"type":"Feature","properties":{"kind":"center","id":12,"lat":-70.5,"lon":162.5,"mslp":977.9,"hvtl":-258.3,"hvtu":-318.1,"hb":71.8,"idx":-3.0,"cls":4,"psfc":901.4,"terrain":false,"radius_km":200,"name":"asym cold"},"geometry":{"type":"Point","coordinates":[162.5,-70.5]}},{"type":"Feature","properties":{"kind":"center","id":13,"lat":-80.25,"lon":-155.5,"mslp":978.9,"hvtl":-59.4,"hvtu":-33.3,"hb":7.5,"idx":-1.4,"cls":5,"psfc":967.7,"terrain":false,"radius_km":200,"name":"sym cold"},"geometry":{"type":"Point","coordinates":[-155.5,-80.25]}},{"type":"Feature","properties":{"kind":"center","id":14,"lat":77.0,"lon":30.25,"mslp":979.0,"hvtl":-12.8,"hvtu":-221.9,"hb":25.6,"idx":-1.2,"cls":4,"psfc":979.0,"terrain":false,"radius_km":200,"name":"asym cold","track":"T02"},"geometry":{"type":"Point","coordinates":[30.25,77.0]}},{"type":"Feature","properties":{"kind":"center","id":15,"lat":49.75,"lon":-46.25,"mslp":979.9,"hvtl":39.6,"hvtu":-20.2,"hb":-11.3,"idx":0.6,"cls":1,"psfc":979.9,"terrain":false,"radius_km":200,"name":"sym shallow warm","track":"T44"},"geometry":{"type":"Point","coordinates":[-46.25,49.75]}},{"type":"Feature","properties":{"kind":"center","id":16,"lat":55.5,"lon":-41.75,"mslp":980.1,"hvtl":-347.7,"hvtu":-257.5,"hb":84.8,"idx":-3.0,"cls":4,"psfc":980.1,"terrain":false,"radius_km":200,"name":"asym cold","track":"T41"},"geometry":{"type":"Point","coordinates":[-41.75,55.5]}},{"type":"Feature","properties":{"kind":"center","id":17,"lat":55.5,"lon":152.5,"mslp":980.1,"hvtl":113.3,"hvtu":-18.3,"hb":-0.6,"idx":1.4,"cls":1,"psfc":980.1,"terrain":false,"radius_km":200,"name":"sym shallow warm","track":"T30"},"geometry":{"type":"Point","coordinates":[152.5,55.5]}},{"type":"Feature","properties":{"kind":"center","id":18,"lat":11.75,"lon":-97.25,"mslp":980.4,"hvtl":102.0,"hvtu":147.8,"hb":0.8,"idx":2.4,"cls":0,"psfc":980.4,"terrain":false,"radius_km":200,"name":"sym deep warm","track":"T24"},"geometry":{"type":"Point","coordinates":[-97.25,11.75]}},{"type":"Feature","properties":{"kind":"center","id":19,"lat":-70.0,"lon":12.75,"mslp":980.6,"hvtl":20.0,"hvtu":-147.1,"hb":6.0,"idx":-0.5,"cls":1,"psfc":978.7,"terrain":false,"radius_km":200,"name":"sym shallow warm"},"geometry":{"type":"Point","coordinates":[12.75,-70.0]}},{"type":"Feature","properties":{"kind":"center","id":20,"lat":86.25,"lon":-112.75,"mslp":982.8,"hvtl":52.1,"hvtu":-61.4,"hb":-16.4,"idx":0.4,"cls":1,"psfc":982.8,"terrain":false,"radius_km":200,"name":"sym shallow warm","track":"T59"},"geometry":{"type":"Point","coordinates":[-112.75,86.25]}},{"type":"Feature","properties":{"kind":"center","id":21,"lat":80.0,"lon":153.0,"mslp":983.3,"hvtl":8.6,"hvtu":-94.8,"hb":27.7,"idx":-0.6,"cls":3,"psfc":983.3,"terrain":false,"radius_km":200,"name":"asym shallow warm","track":"T58"},"geometry":{"type":"Point","coordinates":[153.0,80.0]}},{"type":"Feature","properties":{"kind":"center","id":22,"lat":-78.0,"lon":-78.5,"mslp":990.7,"hvtl":219.2,"hvtu":-44.5,"hb":20.7,"idx":1.5,"cls":3,"psfc":971.5,"terrain":false,"radius_km":200,"name":"asym shallow warm","track":"T39"},"geometry":{"type":"Point","coordinates":[-78.5,-78.0]}},{"type":"Feature","properties":{"kind":"center","id":23,"lat":63.0,"lon":-78.5,"mslp":992.2,"hvtl":-26.9,"hvtu":23.8,"hb":19.6,"idx":-0.3,"cls":6,"psfc":992.2,"terrain":false,"radius_km":200,"name":"shallow cold","track":"T71"},"geometry":{"type":"Point","coordinates":[-78.5,63.0]}},{"type":"Feature","properties":{"kind":"center","id":24,"lat":60.0,"lon":157.25,"mslp":995.3,"hvtl":131.1,"hvtu":-35.3,"hb":4.2,"idx":1.4,"cls":1,"psfc":995.3,"terrain":false,"radius_km":200,"name":"sym shallow warm","track":"T75"},"geometry":{"type":"Point","coordinates":[157.25,60.0]}},{"type":"Feature","properties":{"kind":"center","id":25,"lat":46.5,"lon":-81.5,"mslp":995.7,"hvtl":-355.0,"hvtu":-463.1,"hb":112.3,"idx":-3.0,"cls":4,"psfc":958.5,"terrain":false,"radius_km":200,"name":"asym cold","track":"T78"},"geometry":{"type":"Point","coordinates":[-81.5,46.5]}},{"type":"Feature","properties":{"kind":"center","id":26,"lat":13.0,"lon":149.0,"mslp":997.2,"hvtl":34.9,"hvtu":43.7,"hb":10.4,"idx":1.1,"cls":2,"psfc":997.2,"terrain":false,"radius_km":200,"name":"asym deep warm","track":"T50"},"geometry":{"type":"Point","coordinates":[149.0,13.0]}},{"type":"Feature","properties":{"kind":"center","id":27,"lat":69.5,"lon":-64.25,"mslp":997.4,"hvtl":-57.4,"hvtu":-219.7,"hb":24.9,"idx":-2.0,"cls":4,"psfc":997.4,"terrain":false,"radius_km":200,"name":"asym cold","track":"T73"},"geometry":{"type":"Point","coordinates":[-64.25,69.5]}},{"type":"Feature","properties":{"kind":"center","id":28,"lat":57.75,"lon":-71.0,"mslp":998.5,"hvtl":-354.3,"hvtu":-419.1,"hb":73.4,"idx":-3.0,"cls":4,"psfc":960.0,"terrain":false,"radius_km":200,"name":"asym cold","track":"T84"},"geometry":{"type":"Point","coordinates":[-71.0,57.75]}},{"type":"Feature","properties":{"kind":"center","id":29,"lat":62.0,"lon":-154.5,"mslp":998.7,"hvtl":29.9,"hvtu":-198.4,"hb":-19.5,"idx":-0.4,"cls":1,"psfc":908.7,"terrain":true,"radius_km":200,"name":"sym shallow warm"},"geometry":{"type":"Point","coordinates":[-154.5,62.0]}},{"type":"Feature","properties":{"kind":"center","id":30,"lat":63.75,"lon":-145.75,"mslp":998.8,"hvtl":-106.7,"hvtu":-180.3,"hb":9.7,"idx":-2.5,"cls":5,"psfc":907.3,"terrain":true,"radius_km":200,"name":"sym cold"},"geometry":{"type":"Point","coordinates":[-145.75,63.75]}},{"type":"Feature","properties":{"kind":"center","id":31,"lat":61.75,"lon":-152.0,"mslp":998.9,"hvtl":-59.3,"hvtu":-164.8,"hb":1.5,"idx":-2.0,"cls":5,"psfc":902.5,"terrain":true,"radius_km":200,"name":"sym cold"},"geometry":{"type":"Point","coordinates":[-152.0,61.75]}},{"type":"Feature","properties":{"kind":"center","id":32,"lat":-27.75,"lon":-40.0,"mslp":999.4,"hvtl":43.4,"hvtu":-173.0,"hb":68.2,"idx":-0.1,"cls":3,"psfc":999.4,"terrain":false,"radius_km":200,"name":"asym shallow warm","track":"T76"},"geometry":{"type":"Point","coordinates":[-40.0,-27.75]}},{"type":"Feature","properties":{"kind":"center","id":33,"lat":52.0,"lon":-78.75,"mslp":1000.4,"hvtl":66.1,"hvtu":-410.2,"hb":92.3,"idx":0.2,"cls":3,"psfc":1000.2,"terrain":false,"radius_km":200,"name":"asym shallow warm"},"geometry":{"type":"Point","coordinates":[-78.75,52.0]}},{"type":"Feature","properties":{"kind":"center","id":34,"lat":45.5,"lon":-177.25,"mslp":1002.0,"hvtl":-228.8,"hvtu":-245.5,"hb":86.7,"idx":-2.9,"cls":4,"psfc":1002.0,"terrain":false,"radius_km":200,"name":"asym cold","track":"T09"},"geometry":{"type":"Point","coordinates":[-177.25,45.5]}},{"type":"Feature","properties":{"kind":"center","id":35,"lat":62.25,"lon":-145.25,"mslp":1002.5,"hvtl":-83.7,"hvtu":-203.1,"hb":7.3,"idx":-2.3,"cls":5,"psfc":935.3,"terrain":false,"radius_km":200,"name":"sym cold"},"geometry":{"type":"Point","coordinates":[-145.25,62.25]}},{"type":"Feature","properties":{"kind":"center","id":36,"lat":-11.75,"lon":-168.5,"mslp":1002.8,"hvtl":8.0,"hvtu":35.2,"hb":9.0,"idx":0.5,"cls":0,"psfc":1002.8,"terrain":false,"radius_km":200,"name":"sym deep warm","track":"T88"},"geometry":{"type":"Point","coordinates":[-168.5,-11.75]}},{"type":"Feature","properties":{"kind":"center","id":37,"lat":65.5,"lon":-130.25,"mslp":1003.8,"hvtl":-146.5,"hvtu":-199.1,"hb":55.6,"idx":-2.8,"cls":4,"psfc":934.1,"terrain":false,"radius_km":200,"name":"asym cold","track":"T77"},"geometry":{"type":"Point","coordinates":[-130.25,65.5]}},{"type":"Feature","properties":{"kind":"center","id":38,"lat":-11.75,"lon":-74.0,"mslp":1004.1,"hvtl":31.1,"hvtu":-8.5,"hb":28.7,"idx":0.5,"cls":3,"psfc":931.6,"terrain":false,"radius_km":200,"name":"asym shallow warm"},"geometry":{"type":"Point","coordinates":[-74.0,-11.75]}},{"type":"Feature","properties":{"kind":"center","id":39,"lat":-10.75,"lon":-73.25,"mslp":1004.7,"hvtl":31.1,"hvtu":1.7,"hb":21.1,"idx":0.6,"cls":2,"psfc":971.5,"terrain":false,"radius_km":200,"name":"asym deep warm"},"geometry":{"type":"Point","coordinates":[-73.25,-10.75]}},{"type":"Feature","properties":{"kind":"center","id":40,"lat":-25.75,"lon":18.0,"mslp":1006.1,"hvtl":60.8,"hvtu":-84.9,"hb":35.8,"idx":0.4,"cls":3,"psfc":900.2,"terrain":true,"radius_km":200,"name":"asym shallow warm"},"geometry":{"type":"Point","coordinates":[18.0,-25.75]}},{"type":"Feature","properties":{"kind":"center","id":41,"lat":12.5,"lon":-99.0,"mslp":1006.6,"hvtl":95.0,"hvtu":152.3,"hb":4.0,"idx":2.4,"cls":0,"psfc":1006.6,"terrain":false,"radius_km":200,"name":"sym deep warm"},"geometry":{"type":"Point","coordinates":[-99.0,12.5]}},{"type":"Feature","properties":{"kind":"center","id":42,"lat":-11.25,"lon":-74.25,"mslp":1006.7,"hvtl":29.4,"hvtu":-7.6,"hb":26.7,"idx":0.5,"cls":3,"psfc":901.6,"terrain":true,"radius_km":200,"name":"asym shallow warm"},"geometry":{"type":"Point","coordinates":[-74.25,-11.25]}},{"type":"Feature","properties":{"kind":"center","id":43,"lat":43.5,"lon":37.0,"mslp":1006.8,"hvtl":-13.5,"hvtu":-62.3,"hb":19.6,"idx":-0.8,"cls":4,"psfc":1006.8,"terrain":false,"radius_km":200,"name":"asym cold","track":"T98"},"geometry":{"type":"Point","coordinates":[37.0,43.5]}},{"type":"Feature","properties":{"kind":"center","id":44,"lat":37.0,"lon":54.0,"mslp":1007.8,"hvtl":64.9,"hvtu":-27.1,"hb":34.6,"idx":0.9,"cls":3,"psfc":1010.8,"terrain":false,"radius_km":200,"name":"asym shallow warm"},"geometry":{"type":"Point","coordinates":[54.0,37.0]}},{"type":"Feature","properties":{"kind":"center","id":45,"lat":44.75,"lon":162.5,"mslp":1007.9,"hvtl":-339.8,"hvtu":-384.2,"hb":61.0,"idx":-3.0,"cls":4,"psfc":1007.9,"terrain":false,"radius_km":200,"name":"asym cold","track":"T81"},"geometry":{"type":"Point","coordinates":[162.5,44.75]}},{"type":"Feature","properties":{"kind":"center","id":46,"lat":2.75,"lon":36.75,"mslp":1008.0,"hvtl":99.4,"hvtu":22.1,"hb":14.8,"idx":1.7,"cls":2,"psfc":938.9,"terrain":false,"radius_km":200,"name":"asym deep warm"},"geometry":{"type":"Point","coordinates":[36.75,2.75]}},{"type":"Feature","properties":{"kind":"center","id":47,"lat":-36.75,"lon":-96.75,"mslp":1008.0,"hvtl":-82.8,"hvtu":-165.5,"hb":14.9,"idx":-2.3,"cls":4,"psfc":1008.1,"terrain":false,"radius_km":200,"name":"asym cold","track":"T102"},"geometry":{"type":"Point","coordinates":[-96.75,-36.75]}},{"type":"Feature","properties":{"kind":"center","id":48,"lat":42.5,"lon":49.25,"mslp":1008.1,"hvtl":-1.3,"hvtu":-142.4,"hb":43.1,"idx":-0.9,"cls":4,"psfc":1011.2,"terrain":false,"radius_km":200,"name":"asym cold","track":"T99"},"geometry":{"type":"Point","coordinates":[49.25,42.5]}},{"type":"Feature","properties":{"kind":"center","id":49,"lat":3.75,"lon":35.75,"mslp":1008.6,"hvtl":101.6,"hvtu":23.0,"hb":16.4,"idx":1.8,"cls":2,"psfc":952.3,"terrain":false,"radius_km":200,"name":"asym deep warm"},"geometry":{"type":"Point","coordinates":[35.75,3.75]}},{"type":"Feature","properties":{"kind":"center","id":50,"lat":-29.0,"lon":31.75,"mslp":1008.6,"hvtl":83.2,"hvtu":-31.7,"hb":-4.3,"idx":1.1,"cls":1,"psfc":1005.0,"terrain":false,"radius_km":200,"name":"sym shallow warm"},"geometry":{"type":"Point","coordinates":[31.75,-29.0]}},{"type":"Feature","properties":{"kind":"center","id":51,"lat":15.25,"lon":41.0,"mslp":1008.7,"hvtl":133.0,"hvtu":-9.2,"hb":10.2,"idx":1.6,"cls":3,"psfc":1008.7,"terrain":false,"radius_km":200,"name":"asym shallow warm"},"geometry":{"type":"Point","coordinates":[41.0,15.25]}},{"type":"Feature","properties":{"kind":"center","id":52,"lat":25.0,"lon":-107.75,"mslp":1008.8,"hvtl":-3.7,"hvtu":-126.1,"hb":10.9,"idx":-0.9,"cls":4,"psfc":1001.6,"terrain":false,"radius_km":200,"name":"asym cold","track":"T106"},"geometry":{"type":"Point","coordinates":[-107.75,25.0]}},{"type":"Feature","properties":{"kind":"center","id":53,"lat":11.25,"lon":41.5,"mslp":1008.9,"hvtl":83.5,"hvtu":-4.0,"hb":21.4,"idx":1.3,"cls":3,"psfc":963.7,"terrain":false,"radius_km":200,"name":"asym shallow warm"},"geometry":{"type":"Point","coordinates":[41.5,11.25]}},{"type":"Feature","properties":{"kind":"center","id":54,"lat":15.0,"lon":40.25,"mslp":1009.1,"hvtl":132.9,"hvtu":-6.9,"hb":11.2,"idx":1.7,"cls":3,"psfc":1006.3,"terrain":false,"radius_km":200,"name":"asym shallow warm"},"geometry":{"type":"Point","coordinates":[40.25,15.0]}},{"type":"Feature","properties":{"kind":"center","id":55,"lat":-13.25,"lon":-70.5,"mslp":1009.5,"hvtl":53.4,"hvtu":-22.2,"hb":52.2,"idx":0.8,"cls":3,"psfc":940.1,"terrain":false,"radius_km":200,"name":"asym shallow warm"},"geometry":{"type":"Point","coordinates":[-70.5,-13.25]}},{"type":"Feature","properties":{"kind":"center","id":56,"lat":11.5,"lon":42.0,"mslp":1009.8,"hvtl":75.8,"hvtu":-3.8,"hb":22.4,"idx":1.2,"cls":3,"psfc":964.1,"terrain":false,"radius_km":200,"name":"asym shallow warm"},"geometry":{"type":"Point","coordinates":[42.0,11.5]}},{"type":"Feature","properties":{"kind":"center","id":57,"lat":41.5,"lon":46.75,"mslp":1011.2,"hvtl":-127.8,"hvtu":-145.7,"hb":75.5,"idx":-2.6,"cls":4,"psfc":956.5,"terrain":false,"radius_km":200,"name":"asym cold"},"geometry":{"type":"Point","coordinates":[46.75,41.5]}},{"type":"Feature","properties":{"kind":"center","id":58,"lat":26.75,"lon":93.0,"mslp":1011.2,"hvtl":11.5,"hvtu":-176.3,"hb":7.0,"idx":-0.7,"cls":1,"psfc":1001.5,"terrain":false,"radius_km":200,"name":"sym shallow warm","track":"T111"},"geometry":{"type":"Point","coordinates":[93.0,26.75]}},{"type":"Feature","properties":{"kind":"center","id":59,"lat":-27.75,"lon":-66.5,"mslp":1011.2,"hvtl":-12.6,"hvtu":-326.8,"hb":31.8,"idx":-1.2,"cls":4,"psfc":918.2,"terrain":true,"radius_km":200,"name":"asym cold"},"geometry":{"type":"Point","coordinates":[-66.5,-27.75]}},{"type":"Feature","properties":{"kind":"center","id":60,"lat":-26.25,"lon":16.25,"mslp":1011.3,"hvtl":42.6,"hvtu":-90.4,"hb":47.5,"idx":0.1,"cls":3,"psfc":900.3,"terrain":true,"radius_km":200,"name":"asym shallow warm"},"geometry":{"type":"Point","coordinates":[16.25,-26.25]}},{"type":"Feature","properties":{"kind":"center","id":61,"lat":35.5,"lon":55.75,"mslp":1011.3,"hvtl":56.3,"hvtu":-37.3,"hb":51.6,"idx":0.7,"cls":3,"psfc":927.6,"terrain":false,"radius_km":200,"name":"asym shallow warm"},"geometry":{"type":"Point","coordinates":[55.75,35.5]}},{"type":"Feature","properties":{"kind":"center","id":62,"lat":25.5,"lon":95.5,"mslp":1011.4,"hvtl":-26.3,"hvtu":-135.2,"hb":9.9,"idx":-1.4,"cls":5,"psfc":987.6,"terrain":false,"radius_km":200,"name":"sym cold","track":"T109"},"geometry":{"type":"Point","coordinates":[95.5,25.5]}},{"type":"Feature","properties":{"kind":"center","id":63,"lat":30.5,"lon":61.5,"mslp":1011.6,"hvtl":1.8,"hvtu":-48.0,"hb":24.7,"idx":-0.4,"cls":3,"psfc":954.7,"terrain":false,"radius_km":200,"name":"asym shallow warm"},"geometry":{"type":"Point","coordinates":[61.5,30.5]}},{"type":"Feature","properties":{"kind":"center","id":64,"lat":-17.0,"lon":-64.5,"mslp":1012.6,"hvtl":-194.5,"hvtu":-71.9,"hb":38.5,"idx":-2.5,"cls":4,"psfc":986.7,"terrain":false,"radius_km":200,"name":"asym cold"},"geometry":{"type":"Point","coordinates":[-64.5,-17.0]}},{"type":"Feature","properties":{"kind":"center","id":65,"lat":-21.75,"lon":-63.5,"mslp":1013.2,"hvtl":-185.2,"hvtu":-289.9,"hb":9.1,"idx":-2.9,"cls":5,"psfc":942.7,"terrain":false,"radius_km":200,"name":"sym cold"},"geometry":{"type":"Point","coordinates":[-63.5,-21.75]}},{"type":"Feature","properties":{"kind":"center","id":66,"lat":-30.25,"lon":-71.0,"mslp":1013.5,"hvtl":5.7,"hvtu":-326.5,"hb":39.8,"idx":-0.9,"cls":3,"psfc":900.6,"terrain":true,"radius_km":200,"name":"asym shallow warm"},"geometry":{"type":"Point","coordinates":[-71.0,-30.25]}},{"type":"Feature","properties":{"kind":"center","id":67,"lat":33.5,"lon":61.5,"mslp":1013.7,"hvtl":51.4,"hvtu":-71.8,"hb":49.3,"idx":0.3,"cls":3,"psfc":904.5,"terrain":true,"radius_km":200,"name":"asym shallow warm"},"geometry":{"type":"Point","coordinates":[61.5,33.5]}},{"type":"Feature","properties":{"kind":"center","id":68,"lat":-32.25,"lon":-71.0,"mslp":1015.5,"hvtl":42.8,"hvtu":-297.6,"hb":33.9,"idx":-0.2,"cls":3,"psfc":912.1,"terrain":true,"radius_km":200,"name":"asym shallow warm"},"geometry":{"type":"Point","coordinates":[-71.0,-32.25]}},{"type":"Feature","properties":{"kind":"center","id":69,"lat":-30.0,"lon":-68.25,"mslp":1015.7,"hvtl":30.7,"hvtu":-308.6,"hb":39.1,"idx":-0.4,"cls":3,"psfc":909.5,"terrain":true,"radius_km":200,"name":"asym shallow warm"},"geometry":{"type":"Point","coordinates":[-68.25,-30.0]}},{"type":"Feature","properties":{"kind":"center","id":70,"lat":-27.25,"lon":-65.75,"mslp":1015.7,"hvtl":-12.6,"hvtu":-365.9,"hb":29.0,"idx":-1.2,"cls":4,"psfc":929.3,"terrain":false,"radius_km":200,"name":"asym cold"},"geometry":{"type":"Point","coordinates":[-65.75,-27.25]}},{"type":"Feature","properties":{"kind":"center","id":71,"lat":-30.5,"lon":-67.5,"mslp":1015.9,"hvtl":55.5,"hvtu":-284.8,"hb":34.8,"idx":0.0,"cls":3,"psfc":903.2,"terrain":true,"radius_km":200,"name":"asym shallow warm"},"geometry":{"type":"Point","coordinates":[-67.5,-30.5]}},{"type":"Feature","properties":{"kind":"center","id":72,"lat":58.5,"lon":10.75,"mslp":1016.5,"hvtl":121.4,"hvtu":-247.5,"hb":36.7,"idx":0.7,"cls":3,"psfc":1016.5,"terrain":false,"radius_km":200,"name":"asym shallow warm","track":"T116"},"geometry":{"type":"Point","coordinates":[10.75,58.5]}},{"type":"Feature","properties":{"kind":"center","id":73,"lat":54.5,"lon":-119.0,"mslp":1023.6,"hvtl":48.4,"hvtu":-116.4,"hb":3.3,"idx":0.1,"cls":1,"psfc":901.7,"terrain":true,"radius_km":200,"name":"sym shallow warm"},"geometry":{"type":"Point","coordinates":[-119.0,54.5]}},{"type":"Feature","properties":{"kind":"center","id":74,"lat":53.75,"lon":-121.25,"mslp":1027.1,"hvtl":-19.0,"hvtu":-139.0,"hb":18.4,"idx":-1.3,"cls":4,"psfc":902.5,"terrain":true,"radius_km":200,"name":"asym cold"},"geometry":{"type":"Point","coordinates":[-121.25,53.75]}}]}