{"type":"FeatureCollection","features":[{"type":"Feature","properties":{"kind":"blob","cls":1,"id":1},"geometry":{"type":"Polygon","coordinates":[[[-133.75,-61.12],[-132.0,-60.62],[-130.88,-59.25],[-131.12,-58.5],[-132.0,-57.62],[-133.75,-57.12],[-137.25,-57.62],[-138.62,-59.25],[-137.5,-60.62],[-133.75,-61.12]]]}},{"type":"Feature","properties":{"kind":"blob","cls":4,"id":2},"geometry":{"type":"Polygon","coordinates":[[[160.0,-65.62],[161.88,-64.25],[161.88,-63.75],[160.25,-61.88],[159.0,-61.12],[156.0,-60.38],[152.75,-60.62],[150.88,-61.75],[150.62,-62.75],[151.75,-64.12],[155.25,-65.62],[160.0,-65.62]]]}},{"type":"Feature","properties":{"kind":"blob","cls":1,"id":3},"geometry":{"type":"Polygon","coordinates":[[[129.75,-58.88],[133.25,-58.88],[134.62,-58.0],[134.88,-57.0],[134.25,-56.12],[132.5,-55.62],[131.0,-54.38],[128.5,-53.88],[125.75,-54.12],[124.38,-55.25],[124.38,-56.5],[125.75,-57.62],[126.75,-57.88],[127.75,-57.12],[130.0,-57.12],[131.0,-57.38],[131.62,-58.0],[131.25,-58.38],[128.38,-58.5],[129.75,-58.88]]]}},{"type":"Feature","properties":{"kind":"blob","cls":2,"id":4},"geometry":{"type":"Polygon","coordinates":[[[44.75,-66.12],[48.75,-64.62],[50.75,-64.62],[50.88,-64.0],[49.0,-62.88],[47.5,-62.62],[44.0,-62.88],[42.12,-64.0],[42.12,-65.0],[44.75,-66.12]]]}},{"type":"Feature","properties":{"kind":"blob","cls":3,"id":5},"geometry":{"type":"Polygon","coordinates":[[[75.5,-67.38],[78.25,-66.38],[79.12,-65.25],[78.25,-64.12],[75.0,-63.12],[71.0,-62.88],[68.75,-63.38],[67.12,-64.75],[66.88,-65.75],[68.5,-67.12],[75.5,-67.38]]]}},{"type":"Feature","properties":{"kind":"blob","cls":1,"id":6},"geometry":{"type":"Polygon","coordinates":[[[179.75,55.38],[180.0,59.88],[177.0,60.12],[175.0,59.38],[174.12,58.5],[173.88,57.25],[175.5,55.62],[177.25,55.12],[179.75,55.38]]]}},{"type":"Feature","properties":{"kind":"blob","cls":1,"id":6},"geometry":{"type":"Polygon","coordinates":[[[-179.75,59.88],[-180.0,55.38],[-177.5,56.62],[-176.88,57.5],[-177.5,58.88],[-179.75,59.88]]]}},{"type":"Feature","properties":{"kind":"blob","cls":4,"id":7},"geometry":{"type":"Polygon","coordinates":[[[-11.75,-73.38],[-9.5,-71.88],[-8.0,-72.12],[-5.0,-71.38],[-1.75,-71.62],[3.75,-70.88],[12.5,-70.88],[14.12,-69.75],[14.12,-69.25],[13.25,-68.38],[9.0,-67.38],[0.25,-67.62],[-3.0,-68.38],[-3.75,-69.12],[-7.0,-68.88],[-13.0,-70.12],[-14.88,-71.25],[-14.88,-72.25],[-14.25,-72.88],[-11.75,-73.38]]]}},{"type":"Feature","properties":{"kind":"blob","cls":0,"id":8},"geometry":{"type":"Polygon","coordinates":[[[160.25,13.38],[161.75,13.38],[162.62,14.5],[162.38,16.0],[161.0,16.88],[159.75,16.62],[158.88,15.5],[159.12,14.0],[160.25,13.38]],[[159.38,14.5],[159.38,15.0],[160.0,15.38],[161.12,15.0],[160.5,14.38],[159.38,14.5]]]}},{"type":"Feature","properties":{"kind":"blob","cls":0,"id":9},"geometry":{"type":"Polygon","coordinates":[[[143.5,15.88],[144.38,17.0],[144.12,18.5],[142.75,19.38],[141.5,19.12],[140.62,18.0],[140.62,17.25],[142.25,16.88],[143.5,15.88]]]}},{"type":"Feature","properties":{"kind":"blob","cls":1,"id":10},"geometry":{"type":"Polygon","coordinates":[[[34.25,-69.38],[35.5,-69.62],[41.88,-68.5],[38.0,-68.12],[35.25,-68.62],[34.25,-69.38]]]}},{"type":"Feature","properties":{"kind":"blob","cls":4,"id":11},"geometry":{"type":"Polygon","coordinates":[[[20.75,-70.38],[28.75,-70.38],[31.5,-70.12],[31.88,-69.5],[29.5,-68.38],[25.75,-68.12],[23.0,-68.62],[20.75,-70.38]]]}},{"type":"Feature","properties":{"kind":"blob","cls":4,"id":12},"geometry":{"type":"Polygon","coordinates":[[[-95.25,-60.62],[-92.75,-59.62],[-91.62,-58.5],[-91.88,-56.5],[-94.25,-55.38],[-96.5,-55.38],[-99.0,-56.38],[-100.12,-57.5],[-100.12,-59.0],[-99.25,-59.88],[-95.25,-60.62]]]}},{"type":"Feature","properties":{"kind":"blob","cls":4,"id":13},"geometry":{"type":"Polygon","coordinates":[[[-54.5,-69.38],[-52.25,-68.38],[-51.88,-68.0],[-51.88,-67.0],[-54.75,-65.62],[-60.75,-65.38],[-63.0,-65.88],[-64.38,-67.0],[-64.38,-68.0],[-64.0,-68.38],[-61.75,-69.38],[-54.5,-69.38]]]}},{"type":"Feature","properties":{"kind":"blob","cls":4,"id":14},"geometry":{"type":"Polygon","coordinates":[[[-58.75,-81.12],[-47.75,-81.38],[-46.62,-81.0],[-54.0,-80.88],[-58.75,-81.12]]]}},{"type":"Feature","properties":{"kind":"blob","cls":4,"id":15},"geometry":{"type":"Polygon","coordinates":[[[-63.5,-81.38],[-60.88,-81.25],[-61.0,-81.12],[-63.5,-81.38]]]}},{"type":"Feature","properties":{"kind":"blob","cls":1,"id":16},"geometry":{"type":"Polygon","coordinates":[[[-9.25,62.88],[-7.38,64.0],[-7.38,65.0],[-9.25,66.12],[-12.75,66.38],[-14.25,66.12],[-16.12,65.0],[-15.38,64.75],[-16.12,64.25],[-15.75,63.62],[-14.25,62.88],[-9.25,62.88]]]}},{"type":"Feature","properties":{"kind":"blob","cls":4,"id":17},"geometry":{"type":"Polygon","coordinates":[[[-78.75,-79.38],[-77.5,-79.62],[-75.62,-78.5],[-77.25,-77.38],[-78.5,-77.38],[-78.75,-79.38]]]}},{"type":"Feature","properties":{"kind":"blob","cls":4,"id":18},"geometry":{"type":"Polygon","coordinates":[[[170.5,-78.88],[171.12,-78.25],[170.75,-77.38],[167.25,-76.12],[165.12,-76.0],[166.5,-77.38],[169.12,-77.5],[167.25,-77.88],[170.5,-78.88]]]}},{"type":"Feature","properties":{"kind":"blob","cls":1,"id":19},"geometry":{"type":"Polygon","coordinates":[[[2.5,62.62],[5.5,63.38],[7.0,64.12],[8.12,65.25],[8.12,66.75],[6.0,68.12],[0.0,69.88],[-3.75,69.62],[-6.25,68.62],[-6.88,68.0],[-7.12,66.5],[-6.0,65.12],[-3.25,64.12],[-1.25,62.88],[2.5,62.62]],[[-3.0,65.38],[-4.38,66.0],[-3.75,66.62],[-2.5,66.88],[-0.88,66.25],[-1.25,65.62],[-3.0,65.38]]]}},{"type":"Feature","properties":{"kind":"blob","cls":4,"id":20},"geometry":{"type":"Polygon","coordinates":[[[-5.25,83.38],[16.25,83.38],[25.25,84.38],[27.38,85.25],[26.5,85.88],[24.25,86.38],[16.0,87.12],[-6.5,87.38],[-20.5,86.62],[-24.25,85.88],[-25.12,85.25],[-24.25,84.62],[-19.0,83.88],[-5.25,83.38]]]}},{"type":"Feature","properties":{"kind":"blob","cls":4,"id":21},"geometry":{"type":"Polygon","coordinates":[[[36.25,60.62],[38.25,61.12],[40.88,63.5],[40.88,64.0],[39.5,65.12],[37.5,65.62],[34.0,65.12],[31.88,63.75],[31.38,62.25],[32.5,61.12],[36.25,60.62]]]}},{"type":"Feature","properties":{"kind":"blob","cls":5,"id":22},"geometry":{"type":"Polygon","coordinates":[[[36.75,53.88],[38.5,54.38],[39.62,55.5],[39.62,56.5],[38.5,57.62],[36.75,58.12],[33.5,57.62],[32.38,56.5],[32.38,55.5],[33.5,54.38],[36.75,53.88]]]}},{"type":"Feature","properties":{"kind":"blob","cls":6,"id":23},"geometry":{"type":"Polygon","coordinates":[[[65.0,76.88],[69.25,77.88],[70.12,78.5],[70.12,79.0],[69.0,79.88],[65.25,80.88],[58.75,81.62],[48.0,81.38],[44.5,80.62],[43.38,79.75],[43.38,79.25],[44.25,78.62],[46.75,77.62],[50.5,76.88],[65.0,76.88]]]}},{"type":"Feature","properties":{"kind":"blob","cls":2,"id":24},"geometry":{"type":"Polygon","coordinates":[[[-125.0,21.12],[-123.88,22.75],[-123.88,24.25],[-125.75,25.62],[-126.25,25.62],[-127.25,24.62],[-127.5,24.88],[-128.38,23.75],[-128.38,22.25],[-127.25,21.12],[-125.0,21.12]]]}},{"type":"Feature","properties":{"kind":"blob","cls":4,"id":25},"geometry":{"type":"MultiPolygon","coordinates":[[[[-111.25,50.12],[-110.12,50.0],[-110.12,51.5],[-111.25,52.38],[-113.25,52.62],[-111.88,51.5],[-112.38,51.25],[-111.25,50.12]]],[[[-113.12,51.75],[-112.75,51.38],[-112.62,51.5],[-112.75,51.88],[-113.12,51.75]]]]}},{"type":"Feature","properties":{"kind":"blob","cls":4,"id":26},"geometry":{"type":"Polygon","coordinates":[[[21.5,55.38],[23.12,56.75],[23.12,57.25],[22.0,58.38],[20.0,59.12],[17.5,59.12],[15.5,58.38],[14.88,57.5],[15.12,56.5],[16.75,55.38],[21.5,55.38]]]}},{"type":"Feature","properties":{"kind":"blob","cls":0,"id":27},"geometry":{"type":"Polygon","coordinates":[[[-95.75,17.62],[-94.25,17.62],[-93.38,18.75],[-93.62,20.25],[-95.0,21.12],[-96.25,20.88],[-96.88,20.25],[-96.88,18.25],[-95.75,17.62]]]}},{"type":"Feature","properties":{"kind":"blob","cls":4,"id":28},"geometry":{"type":"Polygon","coordinates":[[[-84.0,-43.88],[-82.38,-43.0],[-82.12,-41.0],[-83.25,-39.88],[-85.0,-39.62],[-86.88,-40.75],[-86.88,-42.75],[-84.0,-43.88]]]}},{"type":"Feature","properties":{"kind":"blob","cls":4,"id":29},"geometry":{"type":"Polygon","coordinates":[[[-50.0,49.62],[-48.38,51.0],[-48.38,52.75],[-49.5,53.88],[-51.0,54.38],[-53.0,54.12],[-55.12,52.25],[-55.12,51.25],[-53.75,49.88],[-50.0,49.62]]]}},{"type":"Feature","properties":{"kind":"blob","cls":4,"id":30},"geometry":{"type":"Polygon","coordinates":[[[-121.5,37.38],[-120.75,37.62],[-120.38,38.25],[-121.88,40.25],[-122.0,41.12],[-122.88,40.5],[-122.75,39.12],[-123.62,40.5],[-123.38,41.5],[-124.0,41.62],[-124.88,40.75],[-124.88,39.75],[-124.38,38.5],[-123.5,37.62],[-121.5,37.38]]]}},{"type":"Feature","properties":{"kind":"blob","cls":4,"id":31},"geometry":{"type":"Polygon","coordinates":[[[-116.25,34.12],[-115.12,34.75],[-116.5,35.62],[-117.25,35.12],[-116.62,35.75],[-117.75,35.88],[-118.38,34.75],[-116.75,34.88],[-116.25,34.12]]]}},{"type":"Feature","properties":{"kind":"blob","cls":0,"id":32},"geometry":{"type":"MultiPolygon","coordinates":[[[[-101.5,14.12],[-101.62,14.0],[-101.5,13.88],[-101.5,14.12]]],[[[-103.0,12.62],[-101.62,13.5],[-101.75,13.88],[-102.5,13.38],[-103.5,13.38],[-103.88,13.75],[-103.88,15.0],[-103.0,16.38],[-104.25,16.12],[-105.12,15.0],[-104.88,13.5],[-103.0,12.62]]]]}},{"type":"Feature","properties":{"kind":"blob","cls":3,"id":33},"geometry":{"type":"Polygon","coordinates":[[[-155.5,75.38],[-151.5,76.12],[-150.5,76.62],[-149.88,77.5],[-150.75,78.38],[-154.5,79.38],[-164.25,79.62],[-169.5,78.88],[-170.5,78.38],[-171.12,77.5],[-169.25,76.12],[-165.0,75.38],[-155.5,75.38]]]}},{"type":"Feature","properties":{"kind":"blob","cls":3,"id":34},"geometry":{"type":"Polygon","coordinates":[[[-175.25,29.62],[-173.62,30.5],[-173.38,32.25],[-174.25,33.38],[-176.0,33.88],[-177.88,32.75],[-178.12,31.0],[-177.5,30.12],[-175.25,29.62]]]}},{"type":"Feature","properties":{"kind":"blob","cls":3,"id":35},"geometry":{"type":"Polygon","coordinates":[[[149.5,68.38],[152.5,68.88],[154.5,69.62],[155.88,71.0],[155.0,72.12],[153.5,72.88],[150.75,73.38],[144.5,73.12],[142.5,72.38],[141.62,71.5],[141.88,70.25],[142.75,69.38],[144.75,68.62],[149.5,68.38]]]}},{"type":"Feature","properties":{"kind":"blob","cls":5,"id":36},"geometry":{"type":"Polygon","coordinates":[[[168.5,-36.88],[169.5,-36.88],[170.38,-36.25],[170.38,-34.25],[168.75,-33.38],[166.5,-33.88],[165.88,-34.75],[166.12,-36.25],[167.25,-36.88],[168.25,-36.12],[168.5,-36.88]]]}},{"type":"Feature","properties":{"kind":"blob","cls":4,"id":37},"geometry":{"type":"Polygon","coordinates":[[[-118.75,35.12],[-118.62,36.0],[-119.0,36.62],[-119.12,35.75],[-118.75,35.12]]]}},{"type":"Feature","properties":{"kind":"blob","cls":3,"id":38},"geometry":{"type":"Polygon","coordinates":[[[-122.62,41.75],[-122.5,41.62],[-122.38,41.75],[-122.62,41.75]]]}},{"type":"Feature","properties":{"kind":"blob","cls":4,"id":39},"geometry":{"type":"Polygon","coordinates":[[[-37.25,59.12],[-36.0,59.88],[-32.25,60.88],[-29.88,62.75],[-29.88,63.75],[-31.75,65.38],[-34.25,66.38],[-36.0,66.38],[-39.5,64.62],[-41.5,64.38],[-41.62,64.0],[-40.62,63.0],[-42.88,61.75],[-43.12,60.25],[-41.5,59.12],[-37.25,59.12]]]}},{"type":"Feature","properties":{"kind":"blob","cls":4,"id":40},"geometry":{"type":"Polygon","coordinates":[[[-48.0,36.62],[-46.38,37.75],[-46.12,39.0],[-47.25,40.38],[-49.25,40.62],[-51.12,39.25],[-51.12,37.75],[-50.25,36.88],[-48.0,36.62]]]}},{"type":"Feature","properties":{"kind":"blob","cls":4,"id":41},"geometry":{"type":"MultiPolygon","coordinates":[[[[114.38,48.0],[113.75,49.12],[113.12,48.75],[113.5,48.38],[114.38,48.0]]],[[[112.88,49.25],[113.62,49.25],[113.5,49.38],[112.88,49.25]]]]}},{"type":"Feature","properties":{"kind":"blob","cls":3,"id":42},"geometry":{"type":"Polygon","coordinates":[[[164.75,31.88],[166.62,33.0],[166.88,35.25],[166.25,36.12],[164.5,36.62],[162.38,35.5],[162.12,33.25],[162.75,32.38],[164.75,31.88]]]}},{"type":"Feature","properties":{"kind":"blob","cls":4,"id":43},"geometry":{"type":"Polygon","coordinates":[[[-122.88,42.25],[-122.75,42.12],[-122.62,42.25],[-122.88,42.25]]]}},{"type":"Feature","properties":{"kind":"blob","cls":4,"id":44},"geometry":{"type":"Polygon","coordinates":[[[-67.5,75.88],[-65.25,76.38],[-66.88,76.75],[-64.62,77.5],[-65.5,77.88],[-67.75,77.62],[-69.62,78.0],[-69.0,78.38],[-67.0,78.38],[-66.25,78.88],[-72.0,79.38],[-78.75,77.62],[-81.38,77.5],[-79.75,76.38],[-77.5,75.88],[-67.5,75.88]],[[-71.62,78.25],[-70.12,78.25],[-70.25,78.12],[-71.62,78.25]],[[-68.12,77.0],[-67.38,77.0],[-67.5,76.88],[-68.12,77.0]]]}},{"type":"Feature","properties":{"kind":"blob","cls":3,"id":45},"geometry":{"type":"Polygon","coordinates":[[[-121.75,47.38],[-121.38,47.75],[-122.0,49.12],[-122.12,48.0],[-121.75,47.38]]]}},{"type":"Feature","properties":{"kind":"blob","cls":3,"id":46},"geometry":{"type":"Polygon","coordinates":[[[-52.25,33.62],[-50.38,34.75],[-50.38,36.25],[-52.25,37.62],[-53.5,37.62],[-55.12,36.5],[-55.12,34.75],[-54.5,34.12],[-52.25,33.62]]]}},{"type":"Feature","properties":{"kind":"blob","cls":0,"id":47},"geometry":{"type":"Polygon","coordinates":[[[92.0,61.62],[94.5,62.12],[95.75,62.62],[96.62,63.5],[96.62,64.0],[95.75,65.12],[94.25,65.88],[93.88,65.5],[93.62,63.75],[93.25,63.38],[92.25,63.38],[90.5,64.12],[88.0,66.62],[86.25,66.38],[84.38,65.0],[84.12,64.0],[85.5,62.62],[88.0,61.88],[92.0,61.62]]]}},{"type":"Feature","properties":{"kind":"blob","cls":4,"id":48},"geometry":{"type":"Polygon","coordinates":[[[-56.75,69.62],[-54.75,70.38],[-53.88,71.25],[-53.88,71.75],[-55.5,73.12],[-59.0,73.88],[-65.25,73.62],[-68.0,72.88],[-68.88,72.25],[-68.88,71.25],[-68.25,70.62],[-65.5,69.62],[-56.75,69.62]]]}},{"type":"Feature","properties":{"kind":"blob","cls":4,"id":49},"geometry":{"type":"Polygon","coordinates":[[[-21.5,-33.12],[-19.75,-33.12],[-18.62,-32.0],[-18.88,-30.5],[-21.0,-29.38],[-23.0,-29.88],[-23.62,-30.75],[-23.62,-31.75],[-23.12,-32.5],[-21.5,-33.12]]]}},{"type":"Feature","properties":{"kind":"blob","cls":5,"id":50},"geometry":{"type":"Polygon","coordinates":[[[-70.38,-25.75],[-70.62,-24.5],[-70.12,-23.75],[-70.12,-21.0],[-70.5,-20.62],[-71.5,-20.88],[-72.88,-22.25],[-72.88,-24.25],[-71.75,-25.62],[-70.38,-25.75]]]}},{"type":"Feature","properties":{"kind":"blob","cls":4,"id":51},"geometry":{"type":"Polygon","coordinates":[[[-34.5,46.12],[-32.0,47.38],[-31.62,48.0],[-31.88,49.5],[-34.0,50.62],[-35.75,50.62],[-37.5,49.88],[-37.88,49.25],[-37.88,47.75],[-36.75,46.62],[-34.5,46.12]]]}},{"type":"Feature","properties":{"kind":"blob","cls":4,"id":52},"geometry":{"type":"Polygon","coordinates":[[[-63.62,-20.0],[-63.5,-20.12],[-63.38,-20.0],[-63.62,-20.0]]]}},{"type":"Feature","properties":{"kind":"blob","cls":4,"id":53},"geometry":{"type":"Polygon","coordinates":[[[-64.38,-22.25],[-64.0,-22.62],[-63.38,-22.0],[-63.25,-20.38],[-63.5,-20.88],[-64.12,-20.75],[-64.12,-21.25],[-63.62,-21.5],[-64.38,-22.25]]]}},{"type":"Feature","properties":{"kind":"center","id":1,"lat":-59.5,"lon":-134.0,"mslp":954.0,"hvtl":17.2,"hvtu":-67.6,"hb":-5.5,"idx":-0.2,"cls":1,"psfc":954.0,"terrain":false,"radius_km":200,"name":"sym shallow warm","track":"T14"},"geometry":{"type":"Point","coordinates":[-134.0,-59.5]}},{"type":"Feature","properties":{"kind":"center","id":2,"lat":-63.25,"lon":156.0,"mslp":955.3,"hvtl":-90.2,"hvtu":-191.0,"hb":55.9,"idx":-2.4,"cls":4,"psfc":955.3,"terrain":false,"radius_km":200,"name":"asym cold","track":"T17"},"geometry":{"type":"Point","coordinates":[156.0,-63.25]}},{"type":"Feature","properties":{"kind":"center","id":3,"lat":-57.25,"lon":131.25,"mslp":961.9,"hvtl":119.3,"hvtu":-50.6,"hb":-10.7,"idx":1.2,"cls":1,"psfc":961.9,"terrain":false,"radius_km":200,"name":"sym shallow warm","track":"T22"},"geometry":{"type":"Point","coordinates":[131.25,-57.25]}},{"type":"Feature","properties":{"kind":"center","id":4,"lat":-64.5,"lon":46.5,"mslp":963.1,"hvtl":90.5,"hvtu":9.4,"hb":31.5,"idx":1.5,"cls":2,"psfc":963.1,"terrain":false,"radius_km":200,"name":"asym deep warm","track":"T16"},"geometry":{"type":"Point","coordinates":[46.5,-64.5]}},{"type":"Feature","properties":{"kind":"center","id":5,"lat":-65.75,"lon":72.5,"mslp":968.2,"hvtl":194.1,"hvtu":-214.0,"hb":72.9,"idx":0.9,"cls":3,"psfc":968.2,"terrain":false,"radius_km":200,"name":"asym shallow warm","track":"T20"},"geometry":{"type":"Point","coordinates":[72.5,-65.75]}},{"type":"Feature","properties":{"kind":"center","id":6,"lat":58.0,"lon":178.0,"mslp":973.5,"hvtl":49.1,"hvtu":-284.7,"hb":3.3,"idx":-0.1,"cls":1,"psfc":973.5,"terrain":false,"radius_km":200,"name":"sym shallow warm","track":"T07"},"geometry":{"type":"Point","coordinates":[178.0,58.0]}},{"type":"Feature","properties":{"kind":"center","id":7,"lat":-69.75,"lon":4.0,"mslp":974.3,"hvtl":-146.1,"hvtu":-36.5,"hb":14.0,"idx":-2.1,"cls":4,"psfc":974.3,"terrain":false,"radius_km":200,"name":"asym cold","track":"T46"},"geometry":{"type":"Point","coordinates":[4.0,-69.75]}},{"type":"Feature","properties":{"kind":"center","id":8,"lat":14.75,"lon":161.0,"mslp":974.5,"hvtl":100.8,"hvtu":166.9,"hb":-0.2,"idx":2.5,"cls":0,"psfc":974.5,"terrain":false,"radius_km":200,"name":"sym deep warm","track":"T02"},"geometry":{"type":"Point","coordinates":[161.0,14.75]}},{"type":"Feature","properties":{"kind":"center","id":9,"lat":17.5,"lon":142.5,"mslp":975.3,"hvtl":55.1,"hvtu":160.7,"hb":3.8,"idx":1.9,"cls":0,"psfc":975.3,"terrain":false,"radius_km":200,"name":"sym deep warm","track":"T08"},"geometry":{"type":"Point","coordinates":[142.5,17.5]}},{"type":"Feature","properties":{"kind":"center","id":10,"lat":-68.5,"lon":41.0,"mslp":975.4,"hvtl":106.1,"hvtu":-61.2,"hb":-0.4,"idx":1.0,"cls":1,"psfc":969.9,"terrain":false,"radius_km":200,"name":"sym shallow warm","track":"T36"},"geometry":{"type":"Point","coordinates":[41.0,-68.5]}},{"type":"Feature","properties":{"kind":"center","id":11,"lat":-69.75,"lon":28.0,"mslp":977.1,"hvtl":-96.3,"hvtu":-87.1,"hb":26.1,"idx":-2.2,"cls":4,"psfc":976.9,"terrain":false,"radius_km":200,"name":"asym cold"},"geometry":{"type":"Point","coordinates":[28.0,-69.75]}},{"type":"Feature","properties":{"kind":"center","id":12,"lat":-58.0,"lon":-96.0,"mslp":977.5,"hvtl":-81.4,"hvtu":-219.2,"hb":34.1,"idx":-2.3,"cls":4,"psfc":977.5,"terrain":false,"radius_km":200,"name":"asym cold","track":"T39"},"geometry":{"type":"Point","coordinates":[-96.0,-58.0]}},{"type":"Feature","properties":{"kind":"center","id":13,"lat":-67.5,"lon":-58.75,"mslp":978.6,"hvtl":-205.8,"hvtu":-436.7,"hb":48.1,"idx":-2.9,"cls":4,"psfc":978.6,"terrain":false,"radius_km":200,"name":"asym cold","track":"T32"},"geometry":{"type":"Point","coordinates":[-58.75,-67.5]}},{"type":"Feature","properties":{"kind":"center","id":14,"lat":-81.25,"lon":-58.25,"mslp":981.4,"hvtl":-371.3,"hvtu":-9.4,"hb":48.0,"idx":-2.1,"cls":4,"psfc":963.6,"terrain":false,"radius_km":200,"name":"asym cold","track":"T60"},"geometry":{"type":"Point","coordinates":[-58.25,-81.25]}},{"type":"Feature","properties":{"kind":"center","id":15,"lat":-81.25,"lon":-61.0,"mslp":981.5,"hvtl":-371.7,"hvtu":-3.1,"hb":49.4,"idx":-2.0,"cls":4,"psfc":965.4,"terrain":false,"radius_km":200,"name":"asym cold"},"geometry":{"type":"Point","coordinates":[-61.0,-81.25]}},{"type":"Feature","properties":{"kind":"center","id":16,"lat":64.5,"lon":-11.75,"mslp":984.9,"hvtl":134.4,"hvtu":-111.7,"hb":-1.3,"idx":0.9,"cls":1,"psfc":984.9,"terrain":false,"radius_km":200,"name":"sym shallow warm","track":"T53"},"geometry":{"type":"Point","coordinates":[-11.75,64.5]}},{"type":"Feature","properties":{"kind":"center","id":17,"lat":-77.5,"lon":-78.5,"mslp":985.0,"hvtl":-161.8,"hvtu":-94.4,"hb":29.2,"idx":-2.6,"cls":4,"psfc":907.9,"terrain":false,"radius_km":200,"name":"asym cold","track":"T43"},"geometry":{"type":"Point","coordinates":[-78.5,-77.5]}},{"type":"Feature","properties":{"kind":"center","id":18,"lat":-76.0,"lon":166.0,"mslp":985.2,"hvtl":-74.5,"hvtu":-106.0,"hb":41.9,"idx":-2.0,"cls":4,"psfc":985.2,"terrain":false,"radius_km":200,"name":"asym cold","track":"T64"},"geometry":{"type":"Point","coordinates":[166.0,-76.0]}},{"type":"Feature","properties":{"kind":"center","id":19,"lat":66.5,"lon":0.0,"mslp":985.2,"hvtl":95.2,"hvtu":-91.0,"hb":6.2,"idx":0.8,"cls":1,"psfc":985.2,"terrain":false,"radius_km":200,"name":"sym shallow warm","track":"T66"},"geometry":{"type":"Point","coordinates":[0.0,66.5]}},{"type":"Feature","properties":{"kind":"center","id":20,"lat":85.25,"lon":3.25,"mslp":989.2,"hvtl":-69.9,"hvtu":-66.2,"hb":69.9,"idx":-1.8,"cls":4,"psfc":989.2,"terrain":false,"radius_km":200,"name":"asym cold","track":"T73"},"geometry":{"type":"Point","coordinates":[3.25,85.25]}},{"type":"Feature","properties":{"kind":"center","id":21,"lat":61.0,"lon":37.25,"mslp":992.3,"hvtl":-160.3,"hvtu":-147.5,"hb":32.0,"idx":-2.7,"cls":4,"psfc":970.4,"terrain":false,"radius_km":200,"name":"asym cold","track":"T70"},"geometry":{"type":"Point","coordinates":[37.25,61.0]}},{"type":"Feature","properties":{"kind":"center","id":22,"lat":56.0,"lon":35.75,"mslp":992.7,"hvtl":-13.3,"hvtu":-172.2,"hb":-10.6,"idx":-1.2,"cls":5,"psfc":968.0,"terrain":false,"radius_km":200,"name":"sym cold","track":"T67"},"geometry":{"type":"Point","coordinates":[35.75,56.0]}},{"type":"Feature","properties":{"kind":"center","id":23,"lat":78.75,"lon":57.0,"mslp":994.1,"hvtl":-81.9,"hvtu":7.3,"hb":24.6,"idx":-1.3,"cls":6,"psfc":994.1,"terrain":false,"radius_km":200,"name":"shallow cold","track":"T41"},"geometry":{"type":"Point","coordinates":[57.0,78.75]}},{"type":"Feature","properties":{"kind":"center","id":24,"lat":23.0,"lon":-126.25,"mslp":994.4,"hvtl":55.6,"hvtu":33.3,"hb":11.0,"idx":1.3,"cls":2,"psfc":994.4,"terrain":false,"radius_km":200,"name":"asym deep warm","track":"T48"},"geometry":{"type":"Point","coordinates":[-126.25,23.0]}},{"type":"Feature","properties":{"kind":"center","id":25,"lat":51.5,"lon":-112.75,"mslp":994.4,"hvtl":-17.1,"hvtu":-173.9,"hb":111.1,"idx":-1.3,"cls":4,"psfc":904.5,"terrain":false,"radius_km":200,"name":"asym cold"},"geometry":{"type":"Point","coordinates":[-112.75,51.5]}},{"type":"Feature","properties":{"kind":"center","id":26,"lat":57.25,"lon":18.75,"mslp":994.5,"hvtl":-100.4,"hvtu":-175.9,"hb":35.1,"idx":-2.5,"cls":4,"psfc":994.1,"terrain":false,"radius_km":200,"name":"asym cold","track":"T83"},"geometry":{"type":"Point","coordinates":[18.75,57.25]}},{"type":"Feature","properties":{"kind":"center","id":27,"lat":19.25,"lon":-95.25,"mslp":998.3,"hvtl":70.8,"hvtu":37.6,"hb":5.2,"idx":1.6,"cls":0,"psfc":998.3,"terrain":false,"radius_km":200,"name":"sym deep warm","track":"T90"},"geometry":{"type":"Point","coordinates":[-95.25,19.25]}},{"type":"Feature","properties":{"kind":"center","id":28,"lat":-42.0,"lon":-84.5,"mslp":999.0,"hvtl":-62.0,"hvtu":-211.8,"hb":18.3,"idx":-2.1,"cls":4,"psfc":998.9,"terrain":false,"radius_km":200,"name":"asym cold","track":"T94"},"geometry":{"type":"Point","coordinates":[-84.5,-42.0]}},{"type":"Feature","properties":{"kind":"center","id":29,"lat":51.75,"lon":-51.75,"mslp":1000.3,"hvtl":-178.5,"hvtu":-315.1,"hb":51.4,"idx":-2.9,"cls":4,"psfc":1000.3,"terrain":false,"radius_km":200,"name":"asym cold","track":"T47"},"geometry":{"type":"Point","coordinates":[-51.75,51.75]}},{"type":"Feature","properties":{"kind":"center","id":30,"lat":40.25,"lon":-122.25,"mslp":1001.3,"hvtl":-65.6,"hvtu":-122.7,"hb":110.5,"idx":-2.0,"cls":4,"psfc":985.6,"terrain":false,"radius_km":200,"name":"asym cold"},"geometry":{"type":"Point","coordinates":[-122.25,40.25]}},{"type":"Feature","properties":{"kind":"center","id":31,"lat":35.75,"lon":-116.75,"mslp":1002.8,"hvtl":-68.8,"hvtu":-186.4,"hb":45.2,"idx":-2.1,"cls":4,"psfc":930.8,"terrain":false,"radius_km":200,"name":"asym cold","track":"T95"},"geometry":{"type":"Point","coordinates":[-116.75,35.75]}},{"type":"Feature","properties":{"kind":"center","id":32,"lat":14.0,"lon":-101.5,"mslp":1003.1,"hvtl":11.2,"hvtu":37.1,"hb":-6.3,"idx":0.6,"cls":0,"psfc":1003.1,"terrain":false,"radius_km":200,"name":"sym deep warm"},"geometry":{"type":"Point","coordinates":[-101.5,14.0]}},{"type":"Feature","properties":{"kind":"center","id":33,"lat":77.25,"lon":-160.25,"mslp":1003.3,"hvtl":102.8,"hvtu":-181.5,"hb":25.7,"idx":0.6,"cls":3,"psfc":1003.3,"terrain":false,"radius_km":200,"name":"asym shallow warm","track":"T101"},"geometry":{"type":"Point","coordinates":[-160.25,77.25]}},{"type":"Feature","properties":{"kind":"center","id":34,"lat":31.75,"lon":-175.75,"mslp":1003.5,"hvtl":36.4,"hvtu":-277.3,"hb":15.7,"idx":-0.3,"cls":3,"psfc":1003.5,"terrain":false,"radius_km":200,"name":"asym shallow warm","track":"T81"},"geometry":{"type":"Point","coordinates":[-175.75,31.75]}},{"type":"Feature","properties":{"kind":"center","id":35,"lat":71.0,"lon":148.5,"mslp":1004.3,"hvtl":31.5,"hvtu":-55.8,"hb":17.1,"idx":0.1,"cls":3,"psfc":1002.0,"terrain":false,"radius_km":200,"name":"asym shallow warm","track":"T110"},"geometry":{"type":"Point","coordinates":[148.5,71.0]}},{"type":"Feature","properties":{"kind":"center","id":36,"lat":-35.25,"lon":168.25,"mslp":1004.3,"hvtl":-9.4,"hvtu":-51.7,"hb":9.1,"idx":-0.7,"cls":5,"psfc":1004.3,"terrain":false,"radius_km":200,"name":"sym cold","track":"T107"},"geometry":{"type":"Point","coordinates":[168.25,-35.25]}},{"type":"Feature","properties":{"kind":"center","id":37,"lat":36.0,"lon":-119.0,"mslp":1005.1,"hvtl":-61.7,"hvtu":-171.6,"hb":46.5,"idx":-2.0,"cls":4,"psfc":983.7,"terrain":false,"radius_km":200,"name":"asym cold","track":"T96"},"geometry":{"type":"Point","coordinates":[-119.0,36.0]}},{"type":"Feature","properties":{"kind":"center","id":38,"lat":41.75,"lon":-122.5,"mslp":1005.5,"hvtl":9.6,"hvtu":-120.1,"hb":109.3,"idx":-0.6,"cls":3,"psfc":905.1,"terrain":true,"radius_km":200,"name":"asym shallow warm"},"geometry":{"type":"Point","coordinates":[-122.5,41.75]}},{"type":"Feature","properties":{"kind":"center","id":39,"lat":64.25,"lon":-36.0,"mslp":1005.9,"hvtl":-33.1,"hvtu":-102.8,"hb":22.1,"idx":-1.4,"cls":4,"psfc":1005.9,"terrain":false,"radius_km":200,"name":"asym cold","track":"T62"},"geometry":{"type":"Point","coordinates":[-36.0,64.25]}},{"type":"Feature","properties":{"kind":"center","id":40,"lat":38.75,"lon":-48.75,"mslp":1006.1,"hvtl":-28.8,"hvtu":-265.3,"hb":35.5,"idx":-1.6,"cls":4,"psfc":1006.0,"terrain":false,"radius_km":200,"name":"asym cold"},"geometry":{"type":"Point","coordinates":[-48.75,38.75]}},{"type":"Feature","properties":{"kind":"center","id":41,"lat":48.5,"lon":113.5,"mslp":1006.3,"hvtl":-137.9,"hvtu":-261.9,"hb":64.3,"idx":-2.8,"cls":4,"psfc":909.8,"terrain":true,"radius_km":200,"name":"asym cold"},"geometry":{"type":"Point","coordinates":[113.5,48.5]}},{"type":"Feature","properties":{"kind":"center","id":42,"lat":34.0,"lon":164.25,"mslp":1006.7,"hvtl":123.5,"hvtu":-144.6,"hb":31.2,"idx":0.8,"cls":3,"psfc":1006.7,"terrain":false,"radius_km":200,"name":"asym shallow warm","track":"T40"},"geometry":{"type":"Point","coordinates":[164.25,34.0]}},{"type":"Feature","properties":{"kind":"center","id":43,"lat":42.25,"lon":-122.75,"mslp":1007.3,"hvtl":-0.8,"hvtu":-116.0,"hb":100.3,"idx":-0.8,"cls":4,"psfc":906.4,"terrain":true,"radius_km":200,"name":"asym cold"},"geometry":{"type":"Point","coordinates":[-122.75,42.25]}},{"type":"Feature","properties":{"kind":"center","id":44,"lat":77.5,"lon":-72.75,"mslp":1007.7,"hvtl":-75.1,"hvtu":-23.5,"hb":28.2,"idx":-1.5,"cls":4,"psfc":1007.5,"terrain":false,"radius_km":200,"name":"asym cold","track":"T115"},"geometry":{"type":"Point","coordinates":[-72.75,77.5]}},{"type":"Feature","properties":{"kind":"center","id":45,"lat":49.0,"lon":-122.0,"mslp":1008.0,"hvtl":53.3,"hvtu":-279.7,"hb":81.5,"idx":-0.0,"cls":3,"psfc":936.9,"terrain":false,"radius_km":200,"name":"asym shallow warm","track":"T68"},"geometry":{"type":"Point","coordinates":[-122.0,49.0]}},{"type":"Feature","properties":{"kind":"center","id":46,"lat":35.5,"lon":-52.75,"mslp":1008.1,"hvtl":26.8,"hvtu":-180.0,"hb":20.8,"idx":-0.4,"cls":3,"psfc":1008.1,"terrain":false,"radius_km":200,"name":"asym shallow warm","track":"T113"},"geometry":{"type":"Point","coordinates":[-52.75,35.5]}},{"type":"Feature","properties":{"kind":"center","id":47,"lat":64.25,"lon":89.75,"mslp":1009.8,"hvtl":16.4,"hvtu":4.3,"hb":-16.5,"idx":0.4,"cls":0,"psfc":955.5,"terrain":false,"radius_km":200,"name":"sym deep warm","track":"T103"},"geometry":{"type":"Point","coordinates":[89.75,64.25]}},{"type":"Feature","properties":{"kind":"center","id":48,"lat":71.75,"lon":-63.0,"mslp":1010.2,"hvtl":-289.8,"hvtu":-241.0,"hb":59.7,"idx":-3.0,"cls":4,"psfc":1010.2,"terrain":false,"radius_km":200,"name":"asym cold","track":"T123"},"geometry":{"type":"Point","coordinates":[-63.0,71.75]}},{"type":"Feature","properties":{"kind":"center","id":49,"lat":-31.5,"lon":-21.0,"mslp":1010.5,"hvtl":-228.7,"hvtu":-325.4,"hb":77.4,"idx":-3.0,"cls":4,"psfc":1010.5,"terrain":false,"radius_km":200,"name":"asym cold","track":"T76"},"geometry":{"type":"Point","coordinates":[-21.0,-31.5]}},{"type":"Feature","properties":{"kind":"center","id":50,"lat":-23.0,"lon":-70.5,"mslp":1012.7,"hvtl":-91.1,"hvtu":-182.6,"hb":2.0,"idx":-2.4,"cls":5,"psfc":1011.2,"terrain":false,"radius_km":200,"name":"sym cold","track":"T119"},"geometry":{"type":"Point","coordinates":[-70.5,-23.0]}},{"type":"Feature","properties":{"kind":"center","id":51,"lat":48.5,"lon":-34.75,"mslp":1013.0,"hvtl":-97.9,"hvtu":-241.8,"hb":25.1,"idx":-2.5,"cls":4,"psfc":1013.0,"terrain":false,"radius_km":200,"name":"asym cold","track":"T42"},"geometry":{"type":"Point","coordinates":[-34.75,48.5]}},{"type":"Feature","properties":{"kind":"center","id":52,"lat":-20.0,"lon":-63.5,"mslp":1015.9,"hvtl":-40.6,"hvtu":-178.7,"hb":53.3,"idx":-1.7,"cls":4,"psfc":904.3,"terrain":true,"radius_km":200,"name":"asym cold"},"geometry":{"type":"Point","coordinates":[-63.5,-20.0]}},{"type":"Feature","properties":{"kind":"center","id":53,"lat":-20.75,"lon":-64.0,"mslp":1016.2,"hvtl":-62.7,"hvtu":-175.8,"hb":45.9,"idx":-2.1,"cls":4,"psfc":904.9,"terrain":true,"radius_km":200,"name":"asym cold"},"geometry":{"type":"Point","coordinates":[-64.0,-20.75]}}]}