{"type":"FeatureCollection","features":[{"type":"Feature","properties":{"kind":"blob","cls":0,"id":1},"geometry":{"type":"Polygon","coordinates":[[[-131.75,-69.62],[-130.0,-68.88],[-129.38,-68.0],[-130.0,-67.12],[-131.0,-66.62],[-133.25,-66.12],[-137.5,-66.38],[-139.62,-67.5],[-139.88,-68.0],[-139.25,-68.88],[-137.5,-69.62],[-131.75,-69.62]],[[-137.0,-68.88],[-137.12,-68.5],[-135.25,-68.38],[-134.62,-68.75],[-135.0,-69.12],[-137.0,-68.88]]]}},{"type":"Feature","properties":{"kind":"blob","cls":5,"id":2},"geometry":{"type":"Polygon","coordinates":[[[81.75,-63.62],[86.5,-63.12],[87.5,-62.62],[88.38,-61.5],[88.0,-61.12],[84.5,-61.12],[84.12,-60.75],[85.25,-60.38],[90.0,-60.38],[91.38,-59.25],[91.38,-58.25],[89.75,-57.12],[86.25,-56.88],[84.0,-57.88],[79.5,-58.12],[76.75,-59.12],[76.12,-60.0],[76.12,-61.5],[77.25,-62.62],[78.75,-63.38],[81.75,-63.62]]]}},{"type":"Feature","properties":{"kind":"blob","cls":4,"id":3},"geometry":{"type":"Polygon","coordinates":[[[179.75,-66.62],[180.0,-61.62],[175.0,-62.38],[172.12,-64.0],[172.12,-65.0],[173.5,-66.12],[175.75,-66.62],[179.75,-66.62]]]}},{"type":"Feature","properties":{"kind":"blob","cls":4,"id":3},"geometry":{"type":"Polygon","coordinates":[[[-179.75,-61.62],[-180.0,-66.62],[-176.75,-65.88],[-175.12,-65.0],[-174.88,-63.75],[-175.75,-62.88],[-178.0,-61.88],[-179.75,-61.62]]]}},{"type":"Feature","properties":{"kind":"blob","cls":0,"id":4},"geometry":{"type":"MultiPolygon","coordinates":[[[[-97.25,11.12],[-97.38,11.0],[-97.25,10.88],[-97.25,11.12]]],[[[-97.0,11.12],[-96.38,12.0],[-96.38,13.0],[-97.25,14.12],[-98.5,14.38],[-99.88,13.5],[-100.0,11.88],[-99.0,12.62],[-98.0,12.62],[-97.0,11.12]]]]}},{"type":"Feature","properties":{"kind":"blob","cls":4,"id":5},"geometry":{"type":"Polygon","coordinates":[[[-49.75,-73.38],[-48.75,-72.12],[-46.5,-71.12],[-42.75,-71.12],[-39.25,-72.62],[-38.25,-72.62],[-36.62,-71.5],[-36.62,-71.0],[-38.25,-69.88],[-41.0,-69.38],[-50.0,-69.88],[-52.0,-70.62],[-52.62,-71.25],[-52.5,-72.38],[-49.75,-73.38]]]}},{"type":"Feature","properties":{"kind":"blob","cls":1,"id":6},"geometry":{"type":"Polygon","coordinates":[[[35.25,-65.62],[37.75,-64.88],[38.62,-64.0],[38.38,-62.75],[36.0,-60.88],[34.0,-60.38],[30.25,-60.62],[28.62,-61.5],[28.62,-63.0],[30.75,-64.88],[33.0,-64.88],[35.25,-65.62]]]}},{"type":"Feature","properties":{"kind":"blob","cls":1,"id":7},"geometry":{"type":"Polygon","coordinates":[[[177.75,-82.88],[179.38,-82.75],[179.25,-82.62],[177.75,-82.88]]]}},{"type":"Feature","properties":{"kind":"blob","cls":4,"id":8},"geometry":{"type":"Polygon","coordinates":[[[-6.75,-71.88],[-3.25,-71.38],[-0.75,-70.62],[0.38,-69.5],[0.38,-69.0],[-2.0,-67.62],[-8.5,-67.12],[-11.0,-67.62],[-13.75,-69.12],[-14.38,-70.0],[-13.75,-70.88],[-12.75,-71.38],[-6.75,-71.88]]]}},{"type":"Feature","properties":{"kind":"blob","cls":1,"id":9},"geometry":{"type":"Polygon","coordinates":[[[174.75,-82.62],[176.38,-82.5],[176.25,-82.38],[174.75,-82.62]]]}},{"type":"Feature","properties":{"kind":"blob","cls":1,"id":10},"geometry":{"type":"Polygon","coordinates":[[[164.75,-75.38],[165.75,-75.38],[167.5,-74.88],[168.62,-74.0],[168.62,-73.5],[168.25,-73.12],[166.75,-73.12],[166.5,-73.62],[164.75,-73.88],[164.75,-75.38]]]}},{"type":"Feature","properties":{"kind":"blob","cls":4,"id":11},"geometry":{"type":"Polygon","coordinates":[[[121.25,76.88],[125.75,77.38],[128.25,78.12],[137.75,77.38],[143.75,77.38],[149.75,78.12],[152.25,79.12],[152.62,79.75],[150.75,80.88],[146.5,81.62],[132.0,81.88],[127.0,81.38],[125.5,80.88],[121.0,81.38],[109.0,81.12],[105.0,80.38],[103.38,79.5],[104.0,78.38],[105.25,77.88],[109.75,77.12],[121.25,76.88]]]}},{"type":"Feature","properties":{"kind":"blob","cls":4,"id":12},"geometry":{"type":"MultiPolygon","coordinates":[[[[-80.5,-73.62],[-80.62,-73.75],[-80.5,-73.88],[-80.5,-73.62]]],[[[-74.25,-74.12],[-71.0,-73.38],[-68.5,-73.38],[-67.0,-73.12],[-66.62,-72.25],[-68.5,-71.88],[-73.25,-71.88],[-79.0,-72.88],[-80.38,-73.5],[-74.25,-74.12]]]]}},{"type":"Feature","properties":{"kind":"blob","cls":4,"id":13},"geometry":{"type":"Polygon","coordinates":[[[114.25,-66.62],[121.5,-66.88],[121.62,-65.75],[119.0,-64.38],[115.75,-64.12],[112.75,-64.88],[111.38,-65.75],[111.5,-66.12],[113.5,-66.12],[114.25,-66.62]]]}},{"type":"Feature","properties":{"kind":"blob","cls":0,"id":14},"geometry":{"type":"Polygon","coordinates":[[[89.0,16.88],[90.5,16.88],[91.38,18.0],[91.12,19.75],[89.75,20.62],[88.5,20.38],[87.62,19.25],[87.88,17.5],[89.0,16.88]]]}},{"type":"Feature","properties":{"kind":"blob","cls":4,"id":15},"geometry":{"type":"Polygon","coordinates":[[[-79.0,-79.38],[-77.5,-79.38],[-76.38,-78.5],[-77.0,-77.88],[-78.5,-77.38],[-79.0,-79.38]]]}},{"type":"Feature","properties":{"kind":"blob","cls":4,"id":16},"geometry":{"type":"Polygon","coordinates":[[[-73.5,-76.12],[-72.62,-75.5],[-76.0,-74.88],[-78.75,-74.88],[-79.38,-75.25],[-77.75,-75.88],[-73.5,-76.12]]]}},{"type":"Feature","properties":{"kind":"blob","cls":6,"id":17},"geometry":{"type":"Polygon","coordinates":[[[-71.75,59.62],[-68.25,59.62],[-66.38,61.0],[-66.5,61.38],[-67.25,61.38],[-68.12,62.0],[-67.75,62.88],[-66.5,62.88],[-65.25,61.88],[-62.75,62.62],[-61.88,63.5],[-61.88,64.0],[-63.25,65.12],[-65.25,65.62],[-69.0,65.12],[-70.5,63.62],[-72.75,63.38],[-74.62,62.0],[-74.38,60.75],[-73.75,60.12],[-71.75,59.62]],[[-66.0,63.88],[-66.12,64.0],[-66.0,64.12],[-66.0,63.88]]]}},{"type":"Feature","properties":{"kind":"blob","cls":3,"id":18},"geometry":{"type":"Polygon","coordinates":[[[-140.0,55.62],[-138.62,56.5],[-138.38,57.75],[-139.25,58.88],[-140.25,59.38],[-141.0,59.38],[-143.5,58.12],[-144.5,58.38],[-145.0,59.12],[-145.5,58.88],[-146.12,58.0],[-145.88,56.75],[-144.25,55.62],[-140.0,55.62]]]}},{"type":"Feature","properties":{"kind":"blob","cls":0,"id":19},"geometry":{"type":"Polygon","coordinates":[[[143.25,11.62],[144.75,11.62],[145.62,12.75],[145.38,14.5],[144.0,15.38],[142.75,15.12],[141.88,14.0],[142.0,12.62],[143.38,12.75],[143.25,11.62]]]}},{"type":"Feature","properties":{"kind":"blob","cls":3,"id":20},"geometry":{"type":"Polygon","coordinates":[[[162.75,52.62],[166.5,52.62],[167.88,53.5],[168.12,54.75],[167.25,55.88],[166.25,56.38],[162.0,56.38],[160.88,55.75],[161.12,55.0],[160.25,54.88],[160.12,54.25],[161.0,53.12],[162.75,52.62]]]}},{"type":"Feature","properties":{"kind":"blob","cls":4,"id":21},"geometry":{"type":"Polygon","coordinates":[[[-105.25,65.12],[-103.5,65.88],[-102.62,66.75],[-102.62,67.5],[-103.25,68.38],[-104.75,69.12],[-107.75,69.88],[-114.5,69.62],[-117.38,68.25],[-117.38,67.25],[-117.0,66.88],[-115.5,66.38],[-114.25,65.38],[-105.25,65.12]]]}},{"type":"Feature","properties":{"kind":"blob","cls":3,"id":22},"geometry":{"type":"Polygon","coordinates":[[[179.75,48.12],[180.0,51.88],[177.5,51.62],[176.38,50.75],[176.12,49.75],[177.0,48.62],[179.75,48.12]]]}},{"type":"Feature","properties":{"kind":"blob","cls":3,"id":22},"geometry":{"type":"Polygon","coordinates":[[[-179.88,51.75],[-180.0,48.12],[-178.5,48.62],[-177.62,49.75],[-177.88,50.75],[-178.5,51.38],[-179.88,51.75]]]}},{"type":"Feature","properties":{"kind":"blob","cls":4,"id":23},"geometry":{"type":"Polygon","coordinates":[[[-33.25,58.38],[-31.5,58.88],[-30.62,59.5],[-30.38,60.5],[-31.25,61.62],[-32.25,62.12],[-37.0,62.12],[-38.62,61.0],[-38.62,60.0],[-38.0,59.12],[-33.25,58.38]]]}},{"type":"Feature","properties":{"kind":"blob","cls":4,"id":24},"geometry":{"type":"Polygon","coordinates":[[[114.75,-41.88],[116.62,-40.5],[116.62,-39.25],[115.88,-37.75],[115.0,-36.88],[113.75,-36.38],[112.0,-36.62],[110.62,-38.5],[111.38,-40.5],[112.5,-41.62],[114.75,-41.88]]]}},{"type":"Feature","properties":{"kind":"blob","cls":4,"id":25},"geometry":{"type":"Polygon","coordinates":[[[-16.0,69.62],[-13.25,70.12],[-11.62,71.25],[-11.38,72.25],[-12.5,73.12],[-14.25,73.62],[-19.25,73.88],[-22.75,73.12],[-23.88,72.25],[-23.88,71.25],[-23.0,70.62],[-20.5,69.88],[-16.0,69.62]]]}},{"type":"Feature","properties":{"kind":"blob","cls":4,"id":26},"geometry":{"type":"Polygon","coordinates":[[[-30.0,-35.12],[-28.38,-34.25],[-28.12,-32.0],[-30.25,-29.38],[-32.0,-28.88],[-33.62,-29.75],[-34.12,-30.5],[-34.12,-31.5],[-33.12,-33.25],[-31.75,-34.62],[-30.0,-35.12]]]}},{"type":"Feature","properties":{"kind":"blob","cls":3,"id":27},"geometry":{"type":"Polygon","coordinates":[[[-125.75,-26.12],[-124.88,-25.25],[-124.88,-23.75],[-125.75,-22.88],[-127.0,-22.38],[-128.75,-22.62],[-129.62,-23.5],[-129.62,-25.25],[-128.75,-26.12],[-125.75,-26.12]]]}},{"type":"Feature","properties":{"kind":"blob","cls":4,"id":28},"geometry":{"type":"MultiPolygon","coordinates":[[[[-69.5,37.62],[-67.25,37.62],[-66.12,39.0],[-66.38,40.0],[-65.88,40.5],[-65.88,41.5],[-67.25,42.88],[-69.75,42.88],[-71.12,41.5],[-71.12,40.25],[-70.62,39.75],[-70.88,39.0],[-69.5,37.62]]],[[[-65.25,42.62],[-64.0,43.12],[-63.12,44.5],[-63.38,45.25],[-65.25,46.38],[-67.5,45.88],[-68.38,44.5],[-67.5,43.12],[-65.25,42.62]]]]}},{"type":"Feature","properties":{"kind":"blob","cls":1,"id":29},"geometry":{"type":"MultiPolygon","coordinates":[[[[-106.5,19.62],[-105.25,19.38],[-104.38,19.75],[-105.12,20.5],[-104.38,21.5],[-106.25,23.88],[-107.62,22.5],[-107.62,20.5],[-106.5,19.62]]],[[[-109.25,23.38],[-108.0,23.12],[-106.38,24.25],[-106.62,25.0],[-108.12,26.5],[-107.88,27.0],[-108.62,27.25],[-108.38,27.5],[-108.75,27.88],[-110.25,27.62],[-111.12,26.75],[-111.12,25.0],[-109.25,23.38]]]]}},{"type":"Feature","properties":{"kind":"blob","cls":6,"id":30},"geometry":{"type":"Polygon","coordinates":[[[-101.0,17.12],[-100.62,17.5],[-101.38,18.25],[-100.5,17.88],[-100.12,18.25],[-100.38,19.0],[-100.75,19.38],[-101.75,18.88],[-102.75,19.62],[-103.12,19.25],[-102.38,18.5],[-103.25,18.38],[-103.5,19.38],[-104.25,19.38],[-104.12,18.0],[-103.5,17.38],[-101.0,17.12]]]}},{"type":"Feature","properties":{"kind":"blob","cls":4,"id":31},"geometry":{"type":"Polygon","coordinates":[[[21.75,-30.38],[21.88,-30.0],[21.5,-29.88],[21.75,-30.38]]]}},{"type":"Feature","properties":{"kind":"blob","cls":4,"id":32},"geometry":{"type":"MultiPolygon","coordinates":[[[[23.38,-32.5],[24.12,-32.5],[24.0,-32.38],[23.38,-32.5]]],[[[24.25,-32.12],[24.12,-32.25],[24.5,-32.38],[24.25,-32.12]]]]}},{"type":"Feature","properties":{"kind":"blob","cls":4,"id":33},"geometry":{"type":"Polygon","coordinates":[[[75.5,30.38],[76.88,31.25],[75.25,32.38],[72.25,32.38],[70.12,31.5],[71.25,30.88],[75.5,30.38]]]}},{"type":"Feature","properties":{"kind":"blob","cls":5,"id":34},"geometry":{"type":"Polygon","coordinates":[[[-104.75,45.38],[-104.62,46.0],[-105.5,46.38],[-106.88,46.25],[-106.5,45.62],[-104.75,45.38]]]}},{"type":"Feature","properties":{"kind":"blob","cls":4,"id":35},"geometry":{"type":"Polygon","coordinates":[[[-25.75,41.88],[-23.88,43.0],[-23.62,44.25],[-24.75,46.12],[-27.0,46.62],[-28.88,45.5],[-29.38,44.25],[-29.12,43.5],[-28.25,42.38],[-25.75,41.88]]]}},{"type":"Feature","properties":{"kind":"blob","cls":3,"id":36},"geometry":{"type":"Polygon","coordinates":[[[-67.0,-27.88],[-66.5,-28.12],[-66.12,-27.75],[-66.5,-27.62],[-67.0,-27.88]]]}},{"type":"Feature","properties":{"kind":"blob","cls":4,"id":37},"geometry":{"type":"Polygon","coordinates":[[[-64.12,-21.0],[-64.0,-21.12],[-63.88,-20.75],[-64.12,-21.0]]]}},{"type":"Feature","properties":{"kind":"blob","cls":1,"id":38},"geometry":{"type":"MultiPolygon","coordinates":[[[[-103.5,44.62],[-103.62,44.5],[-103.5,44.38],[-103.5,44.62]]],[[[-104.38,45.25],[-104.0,44.62],[-103.62,44.75],[-104.0,45.62],[-104.38,45.25]]],[[[-104.12,45.75],[-104.25,45.88],[-104.38,45.75],[-104.12,45.75]]]]}},{"type":"Feature","properties":{"kind":"blob","cls":4,"id":39},"geometry":{"type":"Polygon","coordinates":[[[4.0,49.62],[6.0,50.38],[6.88,51.25],[6.88,52.5],[6.0,53.38],[4.5,53.88],[1.5,53.38],[0.38,52.25],[0.38,51.0],[1.25,50.12],[4.0,49.62]]]}},{"type":"Feature","properties":{"kind":"blob","cls":3,"id":40},"geometry":{"type":"Polygon","coordinates":[[[-65.88,-27.25],[-65.75,-27.38],[-65.62,-27.25],[-65.88,-27.25]]]}},{"type":"Feature","properties":{"kind":"blob","cls":5,"id":41},"geometry":{"type":"Polygon","coordinates":[[[83.75,47.62],[86.0,47.38],[86.88,48.0],[84.25,48.88],[85.12,49.5],[84.0,50.12],[83.12,49.25],[83.12,48.25],[83.75,47.62]]]}},{"type":"Feature","properties":{"kind":"center","id":1,"lat":-68.0,"lon":-134.75,"mslp":922.2,"hvtl":97.5,"hvtu":38.2,"hb":-1.7,"idx":1.9,"cls":0,"psfc":922.2,"terrain":false,"radius_km":200,"name":"sym deep warm","track":"T01"},"geometry":{"type":"Point","coordinates":[-134.75,-68.0]}},{"type":"Feature","properties":{"kind":"center","id":2,"lat":-59.0,"lon":87.5,"mslp":952.9,"hvtl":-17.7,"hvtu":-137.8,"hb":-7.6,"idx":-1.2,"cls":5,"psfc":952.9,"terrain":false,"radius_km":200,"name":"sym cold","track":"T05"},"geometry":{"type":"Point","coordinates":[87.5,-59.0]}},{"type":"Feature","properties":{"kind":"center","id":3,"lat":-64.5,"lon":179.0,"mslp":958.1,"hvtl":-97.3,"hvtu":-131.8,"hb":81.0,"idx":-2.4,"cls":4,"psfc":958.1,"terrain":false,"radius_km":200,"name":"asym cold","track":"T08"},"geometry":{"type":"Point","coordinates":[179.0,-64.5]}},{"type":"Feature","properties":{"kind":"center","id":4,"lat":12.75,"lon":-98.25,"mslp":965.0,"hvtl":213.3,"hvtu":263.3,"hb":3.1,"idx":2.9,"cls":0,"psfc":965.0,"terrain":false,"radius_km":200,"name":"sym deep warm","track":"T24"},"geometry":{"type":"Point","coordinates":[-98.25,12.75]}},{"type":"Feature","properties":{"kind":"center","id":5,"lat":-69.75,"lon":-40.0,"mslp":967.1,"hvtl":-64.6,"hvtu":-141.0,"hb":26.9,"idx":-2.0,"cls":4,"psfc":967.1,"terrain":false,"radius_km":200,"name":"asym cold","track":"T22"},"geometry":{"type":"Point","coordinates":[-40.0,-69.75]}},{"type":"Feature","properties":{"kind":"center","id":6,"lat":-62.5,"lon":32.75,"mslp":972.2,"hvtl":65.8,"hvtu":-84.9,"hb":7.4,"idx":0.5,"cls":1,"psfc":972.2,"terrain":false,"radius_km":200,"name":"sym shallow warm","track":"T35"},"geometry":{"type":"Point","coordinates":[32.75,-62.5]}},{"type":"Feature","properties":{"kind":"center","id":7,"lat":-82.75,"lon":179.25,"mslp":974.3,"hvtl":48.1,"hvtu":-40.6,"hb":0.8,"idx":0.5,"cls":1,"psfc":965.8,"terrain":false,"radius_km":200,"name":"sym shallow warm","track":"T25"},"geometry":{"type":"Point","coordinates":[179.25,-82.75]}},{"type":"Feature","properties":{"kind":"center","id":8,"lat":-69.75,"lon":-8.0,"mslp":974.3,"hvtl":-78.9,"hvtu":-180.7,"hb":42.4,"idx":-2.3,"cls":4,"psfc":974.3,"terrain":false,"radius_km":200,"name":"asym cold"},"geometry":{"type":"Point","coordinates":[-8.0,-69.75]}},{"type":"Feature","properties":{"kind":"center","id":9,"lat":-82.5,"lon":176.25,"mslp":974.7,"hvtl":52.0,"hvtu":-38.6,"hb":0.8,"idx":0.6,"cls":1,"psfc":967.3,"terrain":false,"radius_km":200,"name":"sym shallow warm"},"geometry":{"type":"Point","coordinates":[176.25,-82.5]}},{"type":"Feature","properties":{"kind":"center","id":10,"lat":-74.75,"lon":167.5,"mslp":976.8,"hvtl":19.7,"hvtu":-16.0,"hb":-18.6,"idx":0.2,"cls":1,"psfc":976.8,"terrain":false,"radius_km":200,"name":"sym shallow warm"},"geometry":{"type":"Point","coordinates":[167.5,-74.75]}},{"type":"Feature","properties":{"kind":"center","id":11,"lat":79.75,"lon":136.75,"mslp":977.2,"hvtl":-23.5,"hvtu":-181.5,"hb":51.6,"idx":-1.4,"cls":4,"psfc":977.3,"terrain":false,"radius_km":200,"name":"asym cold","track":"T45"},"geometry":{"type":"Point","coordinates":[136.75,79.75]}},{"type":"Feature","properties":{"kind":"center","id":12,"lat":-73.5,"lon":-71.5,"mslp":978.1,"hvtl":-144.8,"hvtu":-234.5,"hb":74.4,"idx":-2.8,"cls":4,"psfc":905.0,"terrain":false,"radius_km":200,"name":"asym cold","track":"T52"},"geometry":{"type":"Point","coordinates":[-71.5,-73.5]}},{"type":"Feature","properties":{"kind":"center","id":13,"lat":-66.25,"lon":116.75,"mslp":979.1,"hvtl":-45.2,"hvtu":-136.3,"hb":13.9,"idx":-1.7,"cls":4,"psfc":979.1,"terrain":false,"radius_km":200,"name":"asym cold","track":"T20"},"geometry":{"type":"Point","coordinates":[116.75,-66.25]}},{"type":"Feature","properties":{"kind":"center","id":14,"lat":18.5,"lon":89.5,"mslp":985.6,"hvtl":90.7,"hvtu":144.2,"hb":4.9,"idx":2.3,"cls":0,"psfc":985.6,"terrain":false,"radius_km":200,"name":"sym deep warm","track":"T42"},"geometry":{"type":"Point","coordinates":[89.5,18.5]}},{"type":"Feature","properties":{"kind":"center","id":15,"lat":-79.0,"lon":-79.0,"mslp":986.1,"hvtl":-104.1,"hvtu":-72.9,"hb":11.5,"idx":-2.2,"cls":4,"psfc":966.8,"terrain":false,"radius_km":200,"name":"asym cold"},"geometry":{"type":"Point","coordinates":[-79.0,-79.0]}},{"type":"Feature","properties":{"kind":"center","id":16,"lat":-75.0,"lon":-77.0,"mslp":986.3,"hvtl":-144.6,"hvtu":-195.4,"hb":83.4,"idx":-2.8,"cls":4,"psfc":916.2,"terrain":false,"radius_km":200,"name":"asym cold","track":"T16"},"geometry":{"type":"Point","coordinates":[-77.0,-75.0]}},{"type":"Feature","properties":{"kind":"center","id":17,"lat":61.5,"lon":-70.5,"mslp":989.0,"hvtl":-20.4,"hvtu":32.9,"hb":10.4,"idx":-0.1,"cls":6,"psfc":989.0,"terrain":false,"radius_km":200,"name":"shallow cold","track":"T71"},"geometry":{"type":"Point","coordinates":[-70.5,61.5]}},{"type":"Feature","properties":{"kind":"center","id":18,"lat":57.5,"lon":-142.5,"mslp":990.6,"hvtl":49.5,"hvtu":-140.9,"hb":12.0,"idx":0.0,"cls":3,"psfc":990.6,"terrain":false,"radius_km":200,"name":"asym shallow warm","track":"T34"},"geometry":{"type":"Point","coordinates":[-142.5,57.5]}},{"type":"Feature","properties":{"kind":"center","id":19,"lat":13.25,"lon":143.75,"mslp":991.1,"hvtl":61.5,"hvtu":79.0,"hb":2.7,"idx":1.8,"cls":0,"psfc":991.1,"terrain":false,"radius_km":200,"name":"sym deep warm","track":"T50"},"geometry":{"type":"Point","coordinates":[143.75,13.25]}},{"type":"Feature","properties":{"kind":"center","id":20,"lat":54.75,"lon":164.0,"mslp":993.9,"hvtl":26.4,"hvtu":-132.1,"hb":11.2,"idx":-0.4,"cls":3,"psfc":993.9,"terrain":false,"radius_km":200,"name":"asym shallow warm","track":"T75"},"geometry":{"type":"Point","coordinates":[164.0,54.75]}},{"type":"Feature","properties":{"kind":"center","id":21,"lat":67.75,"lon":-109.25,"mslp":994.0,"hvtl":-7.1,"hvtu":-154.2,"hb":52.7,"idx":-1.1,"cls":4,"psfc":990.8,"terrain":false,"radius_km":200,"name":"asym cold","track":"T77"},"geometry":{"type":"Point","coordinates":[-109.25,67.75]}},{"type":"Feature","properties":{"kind":"center","id":22,"lat":50.0,"lon":179.25,"mslp":995.5,"hvtl":57.2,"hvtu":-228.0,"hb":23.7,"idx":0.1,"cls":3,"psfc":995.5,"terrain":false,"radius_km":200,"name":"asym shallow warm","track":"T81"},"geometry":{"type":"Point","coordinates":[179.25,50.0]}},{"type":"Feature","properties":{"kind":"center","id":23,"lat":60.25,"lon":-34.5,"mslp":995.9,"hvtl":-195.1,"hvtu":-269.0,"hb":24.6,"idx":-2.9,"cls":4,"psfc":995.9,"terrain":false,"radius_km":200,"name":"asym cold","track":"T41"},"geometry":{"type":"Point","coordinates":[-34.5,60.25]}},{"type":"Feature","properties":{"kind":"center","id":24,"lat":-39.25,"lon":113.5,"mslp":998.2,"hvtl":-37.2,"hvtu":-111.8,"hb":61.9,"idx":-1.5,"cls":4,"psfc":998.2,"terrain":false,"radius_km":200,"name":"asym cold","track":"T53"},"geometry":{"type":"Point","coordinates":[113.5,-39.25]}},{"type":"Feature","properties":{"kind":"center","id":25,"lat":70.25,"lon":-20.0,"mslp":998.8,"hvtl":-540.8,"hvtu":-384.6,"hb":79.2,"idx":-3.0,"cls":4,"psfc":998.8,"terrain":false,"radius_km":200,"name":"asym cold"},"geometry":{"type":"Point","coordinates":[-20.0,70.25]}},{"type":"Feature","properties":{"kind":"center","id":26,"lat":-32.25,"lon":-31.0,"mslp":998.9,"hvtl":-38.3,"hvtu":-287.1,"hb":82.8,"idx":-1.7,"cls":4,"psfc":998.9,"terrain":false,"radius_km":200,"name":"asym cold","track":"T76"},"geometry":{"type":"Point","coordinates":[-31.0,-32.25]}},{"type":"Feature","properties":{"kind":"center","id":27,"lat":-24.5,"lon":-127.75,"mslp":1003.2,"hvtl":27.0,"hvtu":-218.3,"hb":34.7,"idx":-0.4,"cls":3,"psfc":1003.2,"terrain":false,"radius_km":200,"name":"asym shallow warm","track":"T85"},"geometry":{"type":"Point","coordinates":[-127.75,-24.5]}},{"type":"Feature","properties":{"kind":"center","id":28,"lat":39.25,"lon":-68.5,"mslp":1004.4,"hvtl":-374.7,"hvtu":-114.4,"hb":74.3,"idx":-2.8,"cls":4,"psfc":1004.5,"terrain":false,"radius_km":200,"name":"asym cold"},"geometry":{"type":"Point","coordinates":[-68.5,39.25]}},{"type":"Feature","properties":{"kind":"center","id":29,"lat":22.0,"lon":-105.25,"mslp":1006.9,"hvtl":320.4,"hvtu":-106.2,"hb":2.7,"idx":1.2,"cls":1,"psfc":1004.8,"terrain":false,"radius_km":200,"name":"sym shallow warm","track":"T106"},"geometry":{"type":"Point","coordinates":[-105.25,22.0]}},{"type":"Feature","properties":{"kind":"center","id":30,"lat":17.75,"lon":-102.75,"mslp":1007.5,"hvtl":-65.1,"hvtu":7.7,"hb":11.4,"idx":-1.1,"cls":6,"psfc":1007.5,"terrain":false,"radius_km":200,"name":"shallow cold","track":"T107"},"geometry":{"type":"Point","coordinates":[-102.75,17.75]}},{"type":"Feature","properties":{"kind":"center","id":31,"lat":-30.25,"lon":21.75,"mslp":1009.2,"hvtl":-251.3,"hvtu":-168.2,"hb":82.5,"idx":-2.9,"cls":4,"psfc":901.4,"terrain":true,"radius_km":200,"name":"asym cold"},"geometry":{"type":"Point","coordinates":[21.75,-30.25]}},{"type":"Feature","properties":{"kind":"center","id":32,"lat":-32.25,"lon":24.5,"mslp":1010.7,"hvtl":-313.2,"hvtu":-198.2,"hb":89.7,"idx":-3.0,"cls":4,"psfc":913.4,"terrain":true,"radius_km":200,"name":"asym cold"},"geometry":{"type":"Point","coordinates":[24.5,-32.25]}},{"type":"Feature","properties":{"kind":"center","id":33,"lat":31.25,"lon":75.5,"mslp":1011.2,"hvtl":-15.4,"hvtu":-237.1,"hb":18.4,"idx":-1.3,"cls":4,"psfc":984.6,"terrain":false,"radius_km":200,"name":"asym cold"},"geometry":{"type":"Point","coordinates":[75.5,31.25]}},{"type":"Feature","properties":{"kind":"center","id":34,"lat":46.25,"lon":-106.5,"mslp":1014.7,"hvtl":-64.2,"hvtu":-111.2,"hb":8.2,"idx":-1.9,"cls":5,"psfc":919.4,"terrain":true,"radius_km":200,"name":"sym cold"},"geometry":{"type":"Point","coordinates":[-106.5,46.25]}},{"type":"Feature","properties":{"kind":"center","id":35,"lat":44.0,"lon":-26.5,"mslp":1016.2,"hvtl":-139.3,"hvtu":-126.8,"hb":57.8,"idx":-2.6,"cls":4,"psfc":1016.2,"terrain":false,"radius_km":200,"name":"asym cold"},"geometry":{"type":"Point","coordinates":[-26.5,44.0]}},{"type":"Feature","properties":{"kind":"center","id":36,"lat":-28.0,"lon":-66.5,"mslp":1016.8,"hvtl":108.6,"hvtu":-243.4,"hb":35.6,"idx":0.6,"cls":3,"psfc":929.0,"terrain":false,"radius_km":200,"name":"asym shallow warm"},"geometry":{"type":"Point","coordinates":[-66.5,-28.0]}},{"type":"Feature","properties":{"kind":"center","id":37,"lat":-21.0,"lon":-64.0,"mslp":1017.2,"hvtl":-67.4,"hvtu":-196.4,"hb":26.5,"idx":-2.1,"cls":4,"psfc":925.4,"terrain":true,"radius_km":200,"name":"asym cold"},"geometry":{"type":"Point","coordinates":[-64.0,-21.0]}},{"type":"Feature","properties":{"kind":"center","id":38,"lat":45.0,"lon":-104.0,"mslp":1017.6,"hvtl":72.6,"hvtu":-120.8,"hb":-2.7,"idx":0.4,"cls":1,"psfc":904.3,"terrain":true,"radius_km":200,"name":"sym shallow warm"},"geometry":{"type":"Point","coordinates":[-104.0,45.0]}},{"type":"Feature","properties":{"kind":"center","id":39,"lat":52.0,"lon":3.75,"mslp":1020.8,"hvtl":-60.9,"hvtu":-242.1,"hb":15.8,"idx":-2.1,"cls":4,"psfc":1020.8,"terrain":false,"radius_km":200,"name":"asym cold","track":"T116"},"geometry":{"type":"Point","coordinates":[3.75,52.0]}},{"type":"Feature","properties":{"kind":"center","id":40,"lat":-27.25,"lon":-65.75,"mslp":1021.0,"hvtl":96.6,"hvtu":-261.9,"hb":29.3,"idx":0.5,"cls":3,"psfc":933.2,"terrain":false,"radius_km":200,"name":"asym shallow warm"},"geometry":{"type":"Point","coordinates":[-65.75,-27.25]}},{"type":"Feature","properties":{"kind":"center","id":41,"lat":48.5,"lon":83.5,"mslp":1033.1,"hvtl":-51.0,"hvtu":-69.6,"hb":8.3,"idx":-1.5,"cls":5,"psfc":983.4,"terrain":false,"radius_km":200,"name":"sym cold","track":"T117"},"geometry":{"type":"Point","coordinates":[83.5,48.5]}}]}