{"type":"FeatureCollection","features":[{"type":"Feature","properties":{"kind":"blob","cls":1,"id":1},"geometry":{"type":"Polygon","coordinates":[[[115.25,-62.88],[115.75,-62.12],[117.5,-62.12],[118.12,-61.5],[118.12,-60.0],[116.5,-58.88],[115.25,-58.62],[113.25,-58.62],[111.0,-59.38],[110.12,-60.25],[110.12,-61.25],[112.0,-62.62],[115.25,-62.88]]]}},{"type":"Feature","properties":{"kind":"blob","cls":3,"id":2},"geometry":{"type":"Polygon","coordinates":[[[5.5,-68.38],[10.75,-68.38],[12.0,-67.88],[12.88,-67.0],[12.88,-66.5],[12.5,-66.12],[4.25,-65.62],[2.75,-65.62],[2.38,-66.0],[2.12,-67.0],[3.0,-67.88],[5.5,-68.38]]]}},{"type":"Feature","properties":{"kind":"blob","cls":1,"id":3},"geometry":{"type":"Polygon","coordinates":[[[4.5,-65.12],[10.62,-65.0],[9.25,-64.62],[4.5,-65.12]]]}},{"type":"Feature","properties":{"kind":"blob","cls":6,"id":4},"geometry":{"type":"Polygon","coordinates":[[[-8.5,-66.62],[-6.25,-66.12],[-5.88,-65.75],[-6.25,-65.38],[-7.25,-65.38],[-7.62,-65.0],[-7.0,-64.62],[-4.75,-64.62],[-4.62,-63.75],[-6.0,-62.38],[-7.25,-61.88],[-10.0,-61.62],[-12.0,-62.12],[-14.12,-64.0],[-14.12,-65.25],[-13.0,-66.12],[-8.5,-66.62]]]}},{"type":"Feature","properties":{"kind":"blob","cls":1,"id":5},"geometry":{"type":"Polygon","coordinates":[[[26.0,-67.12],[28.25,-66.62],[29.62,-65.5],[29.62,-64.25],[27.75,-63.12],[24.0,-62.88],[21.75,-63.38],[20.38,-64.5],[20.25,-65.12],[22.62,-65.5],[22.25,-66.12],[21.25,-66.38],[26.0,-67.12]]]}},{"type":"Feature","properties":{"kind":"blob","cls":2,"id":6},"geometry":{"type":"Polygon","coordinates":[[[147.75,35.12],[149.5,34.88],[150.5,35.38],[151.38,36.25],[151.38,37.75],[149.5,39.12],[148.5,39.12],[147.0,38.38],[146.38,37.75],[146.38,36.0],[147.75,35.12]]]}},{"type":"Feature","properties":{"kind":"blob","cls":6,"id":7},"geometry":{"type":"Polygon","coordinates":[[[-114.5,-66.12],[-112.62,-65.0],[-112.62,-64.0],[-113.0,-63.38],[-114.5,-62.62],[-115.88,-62.5],[-114.38,-61.25],[-114.38,-60.25],[-115.25,-59.38],[-117.5,-58.62],[-120.5,-58.88],[-122.38,-60.25],[-122.38,-61.25],[-120.75,-62.38],[-119.75,-62.38],[-119.38,-62.75],[-119.88,-63.25],[-118.62,-64.5],[-118.88,-66.0],[-114.5,-66.12]]]}},{"type":"Feature","properties":{"kind":"blob","cls":3,"id":8},"geometry":{"type":"Polygon","coordinates":[[[164.75,-67.38],[166.0,-66.88],[167.12,-65.75],[167.12,-65.25],[165.0,-63.62],[162.75,-63.12],[158.5,-63.38],[156.62,-64.5],[156.38,-65.75],[157.25,-66.62],[159.25,-67.38],[164.75,-67.38]]]}},{"type":"Feature","properties":{"kind":"blob","cls":4,"id":9},"geometry":{"type":"Polygon","coordinates":[[[-126.0,-55.12],[-124.5,-54.62],[-123.38,-53.25],[-123.62,-52.5],[-124.5,-51.62],[-126.0,-51.12],[-128.75,-51.62],[-129.88,-53.25],[-128.75,-54.62],[-126.0,-55.12]]]}},{"type":"Feature","properties":{"kind":"blob","cls":4,"id":10},"geometry":{"type":"Polygon","coordinates":[[[179.75,-70.12],[180.0,-67.12],[179.5,-66.88],[174.0,-66.88],[172.5,-67.38],[171.38,-68.25],[171.38,-69.25],[171.75,-69.62],[173.75,-70.38],[177.5,-70.62],[179.75,-70.12]]]}},{"type":"Feature","properties":{"kind":"blob","cls":4,"id":10},"geometry":{"type":"Polygon","coordinates":[[[-179.75,-67.12],[-180.0,-70.12],[-178.12,-68.75],[-178.12,-68.25],[-179.0,-67.38],[-179.75,-67.12]]]}},{"type":"Feature","properties":{"kind":"blob","cls":4,"id":11},"geometry":{"type":"Polygon","coordinates":[[[-110.0,-68.62],[-106.0,-68.62],[-104.75,-68.12],[-103.88,-67.25],[-103.88,-66.75],[-105.5,-65.38],[-107.75,-64.88],[-111.25,-65.12],[-112.5,-65.62],[-113.38,-66.5],[-113.38,-67.25],[-112.5,-68.12],[-110.0,-68.62]]]}},{"type":"Feature","properties":{"kind":"blob","cls":1,"id":12},"geometry":{"type":"Polygon","coordinates":[[[-113.5,-74.88],[-102.62,-74.25],[-106.5,-72.88],[-112.0,-72.62],[-114.25,-73.12],[-121.0,-73.38],[-124.62,-74.5],[-113.5,-74.88]]]}},{"type":"Feature","properties":{"kind":"blob","cls":1,"id":13},"geometry":{"type":"Polygon","coordinates":[[[49.75,67.38],[51.5,68.12],[52.12,69.0],[51.5,69.88],[50.25,70.62],[46.25,71.62],[40.75,71.12],[39.25,70.62],[38.38,69.75],[38.38,69.0],[39.0,68.38],[41.5,67.38],[49.75,67.38]]]}},{"type":"Feature","properties":{"kind":"blob","cls":4,"id":14},"geometry":{"type":"Polygon","coordinates":[[[176.5,-64.12],[178.5,-63.62],[179.38,-63.0],[179.62,-61.5],[177.25,-59.62],[173.25,-59.62],[171.38,-61.0],[171.12,-62.0],[172.75,-63.62],[176.5,-64.12]]]}},{"type":"Feature","properties":{"kind":"blob","cls":4,"id":15},"geometry":{"type":"Polygon","coordinates":[[[-161.5,-81.88],[-160.0,-82.12],[-155.5,-81.38],[-153.75,-80.62],[-152.88,-79.75],[-152.88,-79.25],[-155.5,-78.12],[-159.5,-77.38],[-168.25,-77.12],[-175.5,-78.12],[-178.75,-79.12],[-179.88,-80.0],[-179.75,-80.62],[-178.25,-81.38],[-177.0,-81.38],[-160.25,-79.62],[-155.0,-79.62],[-154.38,-80.0],[-154.75,-80.62],[-155.5,-80.88],[-161.5,-81.88]]]}},{"type":"Feature","properties":{"kind":"blob","cls":3,"id":16},"geometry":{"type":"Polygon","coordinates":[[[152.0,56.38],[153.62,57.5],[153.62,58.5],[153.0,59.12],[151.0,59.88],[148.0,59.62],[146.38,58.5],[146.38,57.5],[148.0,56.38],[152.0,56.38]]]}},{"type":"Feature","properties":{"kind":"blob","cls":1,"id":17},"geometry":{"type":"Polygon","coordinates":[[[162.62,-71.5],[162.12,-70.75],[162.38,-70.5],[161.5,-70.38],[161.12,-70.75],[162.62,-71.5]]]}},{"type":"Feature","properties":{"kind":"blob","cls":1,"id":18},"geometry":{"type":"Polygon","coordinates":[[[164.5,-71.12],[164.62,-70.75],[164.25,-70.38],[162.62,-70.5],[164.5,-71.12]]]}},{"type":"Feature","properties":{"kind":"blob","cls":3,"id":19},"geometry":{"type":"Polygon","coordinates":[[[-51.5,54.62],[-49.62,56.5],[-51.25,58.12],[-55.25,58.12],[-56.88,56.75],[-56.88,55.75],[-55.5,54.62],[-51.5,54.62]]]}},{"type":"Feature","properties":{"kind":"blob","cls":0,"id":20},"geometry":{"type":"Polygon","coordinates":[[[-119.62,19.5],[-119.5,19.12],[-118.0,19.38],[-117.12,20.5],[-117.12,22.0],[-118.0,22.88],[-119.5,23.12],[-121.12,22.0],[-121.0,20.38],[-120.5,20.88],[-119.25,20.88],[-118.88,20.5],[-118.88,20.0],[-119.62,19.5]]]}},{"type":"Feature","properties":{"kind":"blob","cls":4,"id":21},"geometry":{"type":"Polygon","coordinates":[[[-6.5,-47.88],[-3.25,-47.88],[-2.12,-47.0],[-1.88,-46.0],[-3.0,-44.62],[-4.25,-44.12],[-7.5,-44.38],[-8.62,-45.25],[-8.88,-46.25],[-8.0,-47.38],[-6.5,-47.88]]]}},{"type":"Feature","properties":{"kind":"blob","cls":4,"id":22},"geometry":{"type":"Polygon","coordinates":[[[-86.5,-65.88],[-84.88,-65.0],[-84.62,-64.0],[-85.75,-62.88],[-88.25,-62.12],[-91.75,-62.38],[-93.62,-63.5],[-93.88,-64.5],[-93.5,-65.12],[-92.0,-65.88],[-86.5,-65.88]]]}},{"type":"Feature","properties":{"kind":"blob","cls":4,"id":23},"geometry":{"type":"Polygon","coordinates":[[[-58.0,48.12],[-56.38,49.5],[-56.38,51.25],[-57.0,51.88],[-58.5,52.38],[-60.5,52.38],[-62.0,51.88],[-62.88,51.0],[-63.38,49.5],[-62.0,48.12],[-58.0,48.12]]]}},{"type":"Feature","properties":{"kind":"blob","cls":4,"id":24},"geometry":{"type":"Polygon","coordinates":[[[-49.75,-81.62],[-44.38,-81.25],[-47.75,-80.88],[-56.5,-80.88],[-61.38,-81.25],[-49.75,-81.62]]]}},{"type":"Feature","properties":{"kind":"blob","cls":0,"id":25},"geometry":{"type":"Polygon","coordinates":[[[165.75,24.62],[166.88,25.75],[166.88,27.25],[166.0,28.12],[164.25,28.38],[162.62,27.25],[162.62,25.75],[163.75,24.62],[165.75,24.62]]]}},{"type":"Feature","properties":{"kind":"blob","cls":4,"id":26},"geometry":{"type":"Polygon","coordinates":[[[162.5,50.88],[164.5,51.62],[165.38,52.5],[165.38,53.75],[164.5,54.62],[163.0,55.12],[160.5,54.62],[159.12,53.25],[159.12,52.25],[160.0,51.38],[162.5,50.88]]]}},{"type":"Feature","properties":{"kind":"blob","cls":4,"id":27},"geometry":{"type":"Polygon","coordinates":[[[-93.25,56.62],[-91.25,57.38],[-90.38,58.5],[-90.38,59.75],[-91.5,60.88],[-93.75,61.62],[-96.0,61.62],[-97.75,61.12],[-98.88,60.0],[-98.62,58.75],[-97.5,57.62],[-93.25,56.62]]]}},{"type":"Feature","properties":{"kind":"blob","cls":4,"id":28},"geometry":{"type":"Polygon","coordinates":[[[-67.0,-32.38],[-65.88,-31.25],[-66.12,-29.5],[-65.5,-29.38],[-64.38,-28.0],[-64.62,-27.0],[-65.25,-26.38],[-65.88,-27.25],[-65.38,-28.75],[-65.75,-28.38],[-66.38,-28.75],[-66.5,-27.62],[-66.88,-28.0],[-66.62,-29.0],[-67.38,-30.25],[-67.38,-31.25],[-68.12,-31.5],[-67.62,-31.0],[-68.25,-30.12],[-68.88,-32.25],[-67.0,-32.38]],[[-66.62,-31.0],[-66.5,-30.62],[-66.38,-30.75],[-66.62,-31.0]]]}},{"type":"Feature","properties":{"kind":"blob","cls":4,"id":29},"geometry":{"type":"Polygon","coordinates":[[[155.25,42.12],[156.5,42.62],[157.12,43.25],[157.12,44.75],[155.25,45.88],[153.0,45.38],[152.38,44.75],[152.38,43.25],[153.0,42.62],[155.25,42.12]]]}},{"type":"Feature","properties":{"kind":"blob","cls":3,"id":30},"geometry":{"type":"Polygon","coordinates":[[[-145.75,57.12],[-144.0,57.62],[-142.88,59.25],[-144.0,60.62],[-144.75,60.88],[-145.25,60.62],[-146.0,61.12],[-147.75,61.12],[-149.5,60.62],[-150.62,59.25],[-150.38,58.75],[-149.25,57.62],[-145.75,57.12]],[[-148.75,60.12],[-148.88,60.25],[-148.75,60.38],[-148.75,60.12]]]}},{"type":"Feature","properties":{"kind":"blob","cls":4,"id":31},"geometry":{"type":"MultiPolygon","coordinates":[[[[-64.75,-24.38],[-64.88,-24.5],[-64.75,-24.62],[-64.75,-24.38]]],[[[-64.5,-25.62],[-62.75,-25.62],[-61.62,-24.25],[-61.62,-22.25],[-62.5,-21.38],[-63.75,-20.88],[-64.12,-21.25],[-63.62,-21.75],[-64.62,-23.75],[-64.12,-24.25],[-64.88,-25.25],[-64.5,-25.62]]]]}},{"type":"Feature","properties":{"kind":"blob","cls":4,"id":32},"geometry":{"type":"Polygon","coordinates":[[[-65.75,-16.38],[-64.88,-15.25],[-64.88,-13.75],[-66.25,-12.12],[-70.25,-12.12],[-71.38,-12.5],[-71.25,-13.12],[-68.5,-13.88],[-67.88,-15.25],[-65.75,-16.38]]]}},{"type":"Feature","properties":{"kind":"blob","cls":5,"id":33},"geometry":{"type":"Polygon","coordinates":[[[80.25,57.12],[84.0,57.12],[85.88,58.5],[86.12,59.25],[84.75,60.88],[83.0,61.38],[80.75,61.38],[79.0,60.88],[77.62,59.75],[77.62,58.5],[78.5,57.62],[80.25,57.12]],[[79.88,59.0],[79.88,59.75],[80.5,60.38],[81.75,60.38],[81.88,59.25],[81.25,58.62],[79.88,59.0]]]}},{"type":"Feature","properties":{"kind":"blob","cls":1,"id":34},"geometry":{"type":"Polygon","coordinates":[[[-77.12,-39.0],[-77.12,-38.0],[-76.75,-37.62],[-75.5,-38.88],[-74.38,-38.0],[-74.38,-36.25],[-75.0,-35.62],[-76.0,-35.12],[-77.25,-35.12],[-78.88,-36.25],[-78.88,-38.0],[-77.12,-39.0]]]}},{"type":"Feature","properties":{"kind":"blob","cls":3,"id":35},"geometry":{"type":"Polygon","coordinates":[[[71.75,28.62],[73.38,29.75],[73.88,30.5],[73.88,31.75],[73.25,32.38],[71.25,32.12],[70.12,31.5],[70.12,30.0],[68.88,29.5],[69.75,28.62],[71.75,28.62]]]}},{"type":"Feature","properties":{"kind":"blob","cls":1,"id":36},"geometry":{"type":"Polygon","coordinates":[[[-121.5,37.62],[-120.38,38.25],[-121.88,40.25],[-122.0,41.12],[-123.12,40.75],[-122.62,39.5],[-123.12,39.5],[-123.62,40.5],[-123.5,41.88],[-124.62,41.0],[-124.62,39.25],[-123.5,37.88],[-121.5,37.62]]]}},{"type":"Feature","properties":{"kind":"blob","cls":4,"id":37},"geometry":{"type":"Polygon","coordinates":[[[167.5,-44.38],[168.75,-43.88],[169.38,-43.0],[169.12,-41.25],[167.0,-40.12],[165.75,-40.12],[164.25,-40.88],[163.88,-41.5],[164.12,-43.25],[167.5,-44.38]]]}},{"type":"Feature","properties":{"kind":"blob","cls":4,"id":38},"geometry":{"type":"Polygon","coordinates":[[[-31.75,63.62],[-26.0,63.62],[-24.12,64.75],[-23.88,65.75],[-24.75,66.62],[-26.0,67.12],[-31.25,67.38],[-33.5,66.88],[-34.88,65.75],[-35.12,65.25],[-34.25,64.12],[-31.75,63.62]]]}},{"type":"Feature","properties":{"kind":"blob","cls":4,"id":39},"geometry":{"type":"Polygon","coordinates":[[[-110.75,75.62],[-105.75,76.38],[-104.12,77.5],[-105.0,78.38],[-106.75,79.12],[-115.25,80.38],[-122.75,80.38],[-123.5,79.88],[-128.0,78.88],[-134.12,78.25],[-133.75,77.38],[-132.25,76.62],[-129.0,75.88],[-110.75,75.62]]]}},{"type":"Feature","properties":{"kind":"blob","cls":3,"id":40},"geometry":{"type":"Polygon","coordinates":[[[-1.25,44.88],[0.0,45.38],[0.88,46.25],[0.88,47.5],[-0.25,48.62],[-1.5,49.12],[-3.25,49.12],[-4.5,48.62],[-5.38,47.75],[-5.38,46.5],[-4.25,45.38],[-1.25,44.88]]]}},{"type":"Feature","properties":{"kind":"blob","cls":5,"id":41},"geometry":{"type":"Polygon","coordinates":[[[47.75,28.62],[49.25,28.62],[50.62,30.0],[50.62,30.75],[49.88,31.25],[49.5,32.38],[48.0,32.88],[47.75,33.38],[47.25,32.88],[45.75,34.12],[44.62,33.0],[45.12,30.25],[45.75,29.38],[47.75,28.62]]]}},{"type":"Feature","properties":{"kind":"blob","cls":3,"id":42},"geometry":{"type":"Polygon","coordinates":[[[-122.62,41.75],[-122.5,41.62],[-122.38,41.75],[-122.62,41.75]]]}},{"type":"Feature","properties":{"kind":"blob","cls":4,"id":43},"geometry":{"type":"Polygon","coordinates":[[[40.75,-43.12],[41.88,-42.0],[41.88,-41.0],[38.75,-37.88],[36.0,-37.88],[35.12,-38.75],[34.88,-40.0],[37.75,-43.12],[40.75,-43.12]]]}},{"type":"Feature","properties":{"kind":"blob","cls":5,"id":44},"geometry":{"type":"Polygon","coordinates":[[[68.62,30.0],[68.75,29.88],[68.88,30.0],[68.62,30.0]]]}},{"type":"Feature","properties":{"kind":"blob","cls":3,"id":45},"geometry":{"type":"Polygon","coordinates":[[[-122.88,42.25],[-122.75,42.12],[-122.62,42.25],[-122.88,42.25]]]}},{"type":"Feature","properties":{"kind":"blob","cls":3,"id":46},"geometry":{"type":"Polygon","coordinates":[[[179.75,-36.38],[180.0,-32.88],[178.62,-34.25],[178.88,-35.75],[179.75,-36.38]]]}},{"type":"Feature","properties":{"kind":"blob","cls":3,"id":46},"geometry":{"type":"Polygon","coordinates":[[[-179.75,-32.88],[-180.0,-36.38],[-178.5,-36.62],[-177.25,-36.12],[-176.62,-35.25],[-176.88,-33.5],[-178.5,-32.62],[-179.75,-32.88]]]}},{"type":"Feature","properties":{"kind":"blob","cls":3,"id":47},"geometry":{"type":"Polygon","coordinates":[[[63.0,29.62],[63.38,30.0],[62.25,30.38],[61.88,31.25],[60.75,32.12],[60.88,30.75],[63.0,29.62]]]}},{"type":"Feature","properties":{"kind":"blob","cls":3,"id":48},"geometry":{"type":"Polygon","coordinates":[[[62.12,32.25],[61.5,33.62],[60.62,32.5],[62.12,32.25]]]}},{"type":"Feature","properties":{"kind":"center","id":1,"lat":-60.75,"lon":114.25,"mslp":934.1,"hvtl":163.1,"hvtu":-17.0,"hb":-34.1,"idx":1.7,"cls":1,"psfc":934.1,"terrain":false,"radius_km":200,"name":"sym shallow warm","track":"T01"},"geometry":{"type":"Point","coordinates":[114.25,-60.75]}},{"type":"Feature","properties":{"kind":"center","id":2,"lat":-66.75,"lon":8.0,"mslp":952.5,"hvtl":81.4,"hvtu":-28.8,"hb":14.0,"idx":1.1,"cls":3,"psfc":952.5,"terrain":false,"radius_km":200,"name":"asym shallow warm","track":"T04"},"geometry":{"type":"Point","coordinates":[8.0,-66.75]}},{"type":"Feature","properties":{"kind":"center","id":3,"lat":-65.0,"lon":8.75,"mslp":956.1,"hvtl":134.2,"hvtu":-120.7,"hb":-10.9,"idx":0.9,"cls":1,"psfc":956.1,"terrain":false,"radius_km":200,"name":"sym shallow warm","track":"T03"},"geometry":{"type":"Point","coordinates":[8.75,-65.0]}},{"type":"Feature","properties":{"kind":"center","id":4,"lat":-64.5,"lon":-9.5,"mslp":957.8,"hvtl":-38.4,"hvtu":2.8,"hb":-18.5,"idx":-0.7,"cls":6,"psfc":957.8,"terrain":false,"radius_km":200,"name":"shallow cold","track":"T23"},"geometry":{"type":"Point","coordinates":[-9.5,-64.5]}},{"type":"Feature","properties":{"kind":"center","id":5,"lat":-65.0,"lon":25.0,"mslp":958.3,"hvtl":30.8,"hvtu":-79.6,"hb":2.2,"idx":-0.1,"cls":1,"psfc":958.2,"terrain":false,"radius_km":200,"name":"sym shallow warm","track":"T19"},"geometry":{"type":"Point","coordinates":[25.0,-65.0]}},{"type":"Feature","properties":{"kind":"center","id":6,"lat":37.0,"lon":148.75,"mslp":959.6,"hvtl":95.4,"hvtu":172.4,"hb":49.2,"idx":2.4,"cls":2,"psfc":959.6,"terrain":false,"radius_km":200,"name":"asym deep warm","track":"T07"},"geometry":{"type":"Point","coordinates":[148.75,37.0]}},{"type":"Feature","properties":{"kind":"center","id":7,"lat":-60.75,"lon":-118.25,"mslp":959.9,"hvtl":-7.4,"hvtu":31.2,"hb":12.8,"idx":0.2,"cls":6,"psfc":959.9,"terrain":false,"radius_km":200,"name":"shallow cold","track":"T18"},"geometry":{"type":"Point","coordinates":[-118.25,-60.75]}},{"type":"Feature","properties":{"kind":"center","id":8,"lat":-65.25,"lon":161.25,"mslp":961.8,"hvtl":24.7,"hvtu":-163.2,"hb":21.3,"idx":-0.4,"cls":3,"psfc":961.8,"terrain":false,"radius_km":200,"name":"asym shallow warm","track":"T06"},"geometry":{"type":"Point","coordinates":[161.25,-65.25]}},{"type":"Feature","properties":{"kind":"center","id":9,"lat":-53.25,"lon":-126.75,"mslp":966.5,"hvtl":-28.5,"hvtu":-118.8,"hb":25.2,"idx":-1.4,"cls":4,"psfc":966.5,"terrain":false,"radius_km":200,"name":"asym cold","track":"T33"},"geometry":{"type":"Point","coordinates":[-126.75,-53.25]}},{"type":"Feature","properties":{"kind":"center","id":10,"lat":-68.5,"lon":172.75,"mslp":967.1,"hvtl":-12.9,"hvtu":-185.8,"hb":62.7,"idx":-1.2,"cls":4,"psfc":967.1,"terrain":false,"radius_km":200,"name":"asym cold"},"geometry":{"type":"Point","coordinates":[172.75,-68.5]}},{"type":"Feature","properties":{"kind":"center","id":11,"lat":-66.75,"lon":-109.0,"mslp":968.9,"hvtl":-6.6,"hvtu":-8.3,"hb":29.5,"idx":-0.2,"cls":4,"psfc":968.9,"terrain":false,"radius_km":200,"name":"asym cold","track":"T10"},"geometry":{"type":"Point","coordinates":[-109.0,-66.75]}},{"type":"Feature","properties":{"kind":"center","id":12,"lat":-74.5,"lon":-110.25,"mslp":969.9,"hvtl":69.1,"hvtu":-100.9,"hb":-4.6,"idx":0.4,"cls":1,"psfc":947.0,"terrain":false,"radius_km":200,"name":"sym shallow warm","track":"T34"},"geometry":{"type":"Point","coordinates":[-110.25,-74.5]}},{"type":"Feature","properties":{"kind":"center","id":13,"lat":69.25,"lon":45.5,"mslp":970.9,"hvtl":20.6,"hvtu":-73.4,"hb":1.8,"idx":-0.2,"cls":1,"psfc":970.9,"terrain":false,"radius_km":200,"name":"sym shallow warm","track":"T41"},"geometry":{"type":"Point","coordinates":[45.5,69.25]}},{"type":"Feature","properties":{"kind":"center","id":14,"lat":-62.25,"lon":175.5,"mslp":971.4,"hvtl":-311.0,"hvtu":-326.7,"hb":69.4,"idx":-3.0,"cls":4,"psfc":971.4,"terrain":false,"radius_km":200,"name":"asym cold","track":"T15"},"geometry":{"type":"Point","coordinates":[175.5,-62.25]}},{"type":"Feature","properties":{"kind":"center","id":15,"lat":-79.75,"lon":-165.25,"mslp":972.7,"hvtl":-4.8,"hvtu":-100.8,"hb":28.2,"idx":-0.9,"cls":4,"psfc":964.6,"terrain":false,"radius_km":200,"name":"asym cold","track":"T05"},"geometry":{"type":"Point","coordinates":[-165.25,-79.75]}},{"type":"Feature","properties":{"kind":"center","id":16,"lat":58.0,"lon":150.0,"mslp":973.8,"hvtl":243.5,"hvtu":-320.0,"hb":37.6,"idx":1.0,"cls":3,"psfc":973.8,"terrain":false,"radius_km":200,"name":"asym shallow warm","track":"T26"},"geometry":{"type":"Point","coordinates":[150.0,58.0]}},{"type":"Feature","properties":{"kind":"center","id":17,"lat":-71.5,"lon":162.25,"mslp":974.0,"hvtl":79.1,"hvtu":-33.2,"hb":-37.5,"idx":1.0,"cls":1,"psfc":915.2,"terrain":false,"radius_km":200,"name":"sym shallow warm"},"geometry":{"type":"Point","coordinates":[162.25,-71.5]}},{"type":"Feature","properties":{"kind":"center","id":18,"lat":-71.0,"lon":164.5,"mslp":974.8,"hvtl":131.0,"hvtu":-47.7,"hb":-45.6,"idx":1.3,"cls":1,"psfc":915.0,"terrain":false,"radius_km":200,"name":"sym shallow warm"},"geometry":{"type":"Point","coordinates":[164.5,-71.0]}},{"type":"Feature","properties":{"kind":"center","id":19,"lat":56.25,"lon":-53.5,"mslp":975.4,"hvtl":108.1,"hvtu":-241.7,"hb":28.9,"idx":0.6,"cls":3,"psfc":975.4,"terrain":false,"radius_km":200,"name":"asym shallow warm","track":"T44"},"geometry":{"type":"Point","coordinates":[-53.5,56.25]}},{"type":"Feature","properties":{"kind":"center","id":20,"lat":21.25,"lon":-119.25,"mslp":977.3,"hvtl":61.2,"hvtu":180.4,"hb":2.4,"idx":2.0,"cls":0,"psfc":977.3,"terrain":false,"radius_km":200,"name":"sym deep warm","track":"T48"},"geometry":{"type":"Point","coordinates":[-119.25,21.25]}},{"type":"Feature","properties":{"kind":"center","id":21,"lat":-46.0,"lon":-6.0,"mslp":978.1,"hvtl":-153.2,"hvtu":-270.6,"hb":95.7,"idx":-2.8,"cls":4,"psfc":978.1,"terrain":false,"radius_km":200,"name":"asym cold","track":"T16"},"geometry":{"type":"Point","coordinates":[-6.0,-46.0]}},{"type":"Feature","properties":{"kind":"center","id":22,"lat":-64.25,"lon":-89.5,"mslp":983.7,"hvtl":-58.6,"hvtu":-155.3,"hb":18.1,"idx":-2.0,"cls":4,"psfc":983.7,"terrain":false,"radius_km":200,"name":"asym cold","track":"T65"},"geometry":{"type":"Point","coordinates":[-89.5,-64.25]}},{"type":"Feature","properties":{"kind":"center","id":23,"lat":50.0,"lon":-59.75,"mslp":986.1,"hvtl":-73.7,"hvtu":-153.9,"hb":13.3,"idx":-2.2,"cls":4,"psfc":986.1,"terrain":false,"radius_km":200,"name":"asym cold","track":"T57"},"geometry":{"type":"Point","coordinates":[-59.75,50.0]}},{"type":"Feature","properties":{"kind":"center","id":24,"lat":-81.25,"lon":-44.5,"mslp":993.9,"hvtl":-195.7,"hvtu":-173.1,"hb":21.2,"idx":-2.9,"cls":4,"psfc":977.5,"terrain":false,"radius_km":200,"name":"asym cold","track":"T58"},"geometry":{"type":"Point","coordinates":[-44.5,-81.25]}},{"type":"Feature","properties":{"kind":"center","id":25,"lat":26.5,"lon":164.75,"mslp":994.0,"hvtl":118.4,"hvtu":91.5,"hb":-1.3,"idx":2.4,"cls":0,"psfc":994.0,"terrain":false,"radius_km":200,"name":"sym deep warm","track":"T40"},"geometry":{"type":"Point","coordinates":[164.75,26.5]}},{"type":"Feature","properties":{"kind":"center","id":26,"lat":53.5,"lon":160.75,"mslp":995.8,"hvtl":-226.2,"hvtu":-468.8,"hb":75.6,"idx":-3.0,"cls":4,"psfc":995.8,"terrain":false,"radius_km":200,"name":"asym cold"},"geometry":{"type":"Point","coordinates":[160.75,53.5]}},{"type":"Feature","properties":{"kind":"center","id":27,"lat":58.75,"lon":-94.5,"mslp":998.9,"hvtl":-68.0,"hvtu":-29.5,"hb":36.2,"idx":-1.5,"cls":4,"psfc":997.6,"terrain":false,"radius_km":200,"name":"asym cold","track":"T89"},"geometry":{"type":"Point","coordinates":[-94.5,58.75]}},{"type":"Feature","properties":{"kind":"center","id":28,"lat":-30.5,"lon":-68.25,"mslp":999.3,"hvtl":-17.5,"hvtu":-309.8,"hb":65.9,"idx":-1.3,"cls":4,"psfc":917.3,"terrain":false,"radius_km":200,"name":"asym cold"},"geometry":{"type":"Point","coordinates":[-68.25,-30.5]}},{"type":"Feature","properties":{"kind":"center","id":29,"lat":44.0,"lon":154.75,"mslp":999.9,"hvtl":-225.5,"hvtu":-176.3,"hb":71.8,"idx":-2.9,"cls":4,"psfc":999.9,"terrain":false,"radius_km":200,"name":"asym cold"},"geometry":{"type":"Point","coordinates":[154.75,44.0]}},{"type":"Feature","properties":{"kind":"center","id":30,"lat":59.25,"lon":-146.75,"mslp":1001.6,"hvtl":19.2,"hvtu":-185.9,"hb":13.2,"idx":-0.6,"cls":3,"psfc":1001.6,"terrain":false,"radius_km":200,"name":"asym shallow warm","track":"T35"},"geometry":{"type":"Point","coordinates":[-146.75,59.25]}},{"type":"Feature","properties":{"kind":"center","id":31,"lat":-23.25,"lon":-63.75,"mslp":1002.5,"hvtl":-188.0,"hvtu":-149.4,"hb":14.1,"idx":-2.8,"cls":4,"psfc":971.8,"terrain":false,"radius_km":200,"name":"asym cold"},"geometry":{"type":"Point","coordinates":[-63.75,-23.25]}},{"type":"Feature","properties":{"kind":"center","id":32,"lat":-14.25,"lon":-67.0,"mslp":1002.6,"hvtl":-134.6,"hvtu":-97.7,"hb":12.0,"idx":-2.5,"cls":4,"psfc":983.2,"terrain":false,"radius_km":200,"name":"asym cold","track":"T87"},"geometry":{"type":"Point","coordinates":[-67.0,-14.25]}},{"type":"Feature","properties":{"kind":"center","id":33,"lat":59.25,"lon":82.0,"mslp":1002.9,"hvtl":-47.7,"hvtu":-91.2,"hb":4.7,"idx":-1.6,"cls":5,"psfc":992.7,"terrain":false,"radius_km":200,"name":"sym cold","track":"T77"},"geometry":{"type":"Point","coordinates":[82.0,59.25]}},{"type":"Feature","properties":{"kind":"center","id":34,"lat":-37.25,"lon":-76.75,"mslp":1004.5,"hvtl":18.4,"hvtu":-2.8,"hb":9.1,"idx":0.3,"cls":1,"psfc":1004.5,"terrain":false,"radius_km":200,"name":"sym shallow warm","track":"T92"},"geometry":{"type":"Point","coordinates":[-76.75,-37.25]}},{"type":"Feature","properties":{"kind":"center","id":35,"lat":31.25,"lon":70.75,"mslp":1006.8,"hvtl":9.5,"hvtu":-117.5,"hb":13.6,"idx":-0.6,"cls":3,"psfc":988.5,"terrain":false,"radius_km":200,"name":"asym shallow warm","track":"T105"},"geometry":{"type":"Point","coordinates":[70.75,31.25]}},{"type":"Feature","properties":{"kind":"center","id":36,"lat":39.75,"lon":-122.0,"mslp":1007.2,"hvtl":83.1,"hvtu":-163.4,"hb":7.4,"idx":0.4,"cls":1,"psfc":1002.2,"terrain":false,"radius_km":200,"name":"sym shallow warm"},"geometry":{"type":"Point","coordinates":[-122.0,39.75]}},{"type":"Feature","properties":{"kind":"center","id":37,"lat":-42.5,"lon":167.0,"mslp":1007.2,"hvtl":-119.3,"hvtu":-135.8,"hb":48.5,"idx":-2.5,"cls":4,"psfc":1007.2,"terrain":false,"radius_km":200,"name":"asym cold","track":"T107"},"geometry":{"type":"Point","coordinates":[167.0,-42.5]}},{"type":"Feature","properties":{"kind":"center","id":38,"lat":64.75,"lon":-26.0,"mslp":1008.3,"hvtl":-57.2,"hvtu":-418.5,"hb":14.4,"idx":-2.0,"cls":4,"psfc":1008.3,"terrain":false,"radius_km":200,"name":"asym cold","track":"T78"},"geometry":{"type":"Point","coordinates":[-26.0,64.75]}},{"type":"Feature","properties":{"kind":"center","id":39,"lat":78.0,"lon":-119.0,"mslp":1009.4,"hvtl":-117.6,"hvtu":-173.5,"hb":40.4,"idx":-2.6,"cls":4,"psfc":1009.4,"terrain":false,"radius_km":200,"name":"asym cold","track":"T116"},"geometry":{"type":"Point","coordinates":[-119.0,78.0]}},{"type":"Feature","properties":{"kind":"center","id":40,"lat":47.0,"lon":-2.25,"mslp":1009.4,"hvtl":32.0,"hvtu":-111.7,"hb":34.7,"idx":-0.2,"cls":3,"psfc":1009.4,"terrain":false,"radius_km":200,"name":"asym shallow warm","track":"T121"},"geometry":{"type":"Point","coordinates":[-2.25,47.0]}},{"type":"Feature","properties":{"kind":"center","id":41,"lat":30.75,"lon":49.5,"mslp":1009.5,"hvtl":-21.1,"hvtu":-58.0,"hb":8.4,"idx":-0.9,"cls":5,"psfc":1007.4,"terrain":false,"radius_km":200,"name":"sym cold"},"geometry":{"type":"Point","coordinates":[49.5,30.75]}},{"type":"Feature","properties":{"kind":"center","id":42,"lat":41.75,"lon":-122.5,"mslp":1009.9,"hvtl":124.1,"hvtu":-125.2,"hb":40.8,"idx":0.8,"cls":3,"psfc":911.7,"terrain":true,"radius_km":200,"name":"asym shallow warm"},"geometry":{"type":"Point","coordinates":[-122.5,41.75]}},{"type":"Feature","properties":{"kind":"center","id":43,"lat":-39.75,"lon":37.25,"mslp":1011.1,"hvtl":-232.6,"hvtu":-222.5,"hb":78.8,"idx":-2.9,"cls":4,"psfc":1011.1,"terrain":false,"radius_km":200,"name":"asym cold"},"geometry":{"type":"Point","coordinates":[37.25,-39.75]}},{"type":"Feature","properties":{"kind":"center","id":44,"lat":30.0,"lon":68.75,"mslp":1012.0,"hvtl":-2.3,"hvtu":-65.6,"hb":1.1,"idx":-0.6,"cls":5,"psfc":901.6,"terrain":true,"radius_km":200,"name":"sym cold"},"geometry":{"type":"Point","coordinates":[68.75,30.0]}},{"type":"Feature","properties":{"kind":"center","id":45,"lat":42.25,"lon":-122.75,"mslp":1012.3,"hvtl":132.4,"hvtu":-115.1,"hb":45.7,"idx":0.9,"cls":3,"psfc":913.3,"terrain":true,"radius_km":200,"name":"asym shallow warm"},"geometry":{"type":"Point","coordinates":[-122.75,42.25]}},{"type":"Feature","properties":{"kind":"center","id":46,"lat":-34.75,"lon":-179.0,"mslp":1013.5,"hvtl":48.4,"hvtu":-133.8,"hb":10.6,"idx":0.0,"cls":3,"psfc":1013.5,"terrain":false,"radius_km":200,"name":"asym shallow warm","track":"T130"},"geometry":{"type":"Point","coordinates":[-179.0,-34.75]}},{"type":"Feature","properties":{"kind":"center","id":47,"lat":31.25,"lon":61.75,"mslp":1014.9,"hvtl":54.3,"hvtu":-45.6,"hb":26.8,"idx":0.6,"cls":3,"psfc":960.0,"terrain":false,"radius_km":200,"name":"asym shallow warm","track":"T129"},"geometry":{"type":"Point","coordinates":[61.75,31.25]}},{"type":"Feature","properties":{"kind":"center","id":48,"lat":32.25,"lon":62.0,"mslp":1015.0,"hvtl":65.0,"hvtu":-75.1,"hb":50.3,"idx":0.5,"cls":3,"psfc":942.8,"terrain":false,"radius_km":200,"name":"asym shallow warm","track":"T125"},"geometry":{"type":"Point","coordinates":[62.0,32.25]}}]}