{"type":"FeatureCollection","features":[{"type":"Feature","properties":{"kind":"blob","cls":0,"id":1},"geometry":{"type":"MultiPolygon","coordinates":[[[[157.25,16.12],[157.12,16.0],[157.25,15.88],[157.25,16.12]]],[[[159.25,15.12],[160.62,16.0],[160.88,17.5],[160.0,18.62],[158.5,18.88],[157.12,18.0],[156.88,16.5],[157.25,16.88],[158.12,16.75],[158.12,16.25],[157.38,15.75],[159.25,15.12]]]]}},{"type":"Feature","properties":{"kind":"blob","cls":0,"id":2},"geometry":{"type":"Polygon","coordinates":[[[138.25,16.88],[139.0,17.12],[139.62,17.75],[139.88,19.25],[139.0,20.38],[137.75,20.62],[136.38,19.75],[136.12,18.25],[137.75,17.88],[138.25,16.88]]]}},{"type":"Feature","properties":{"kind":"blob","cls":0,"id":3},"geometry":{"type":"Polygon","coordinates":[[[-114.25,-61.88],[-112.5,-61.38],[-111.62,-60.75],[-111.12,-59.5],[-112.25,-58.38],[-114.0,-57.88],[-116.0,-57.88],[-117.75,-58.38],[-118.88,-59.5],[-118.62,-60.75],[-117.75,-61.38],[-114.25,-61.88]]]}},{"type":"Feature","properties":{"kind":"blob","cls":3,"id":4},"geometry":{"type":"Polygon","coordinates":[[[-179.88,-66.75],[-179.75,-68.62],[-176.5,-69.62],[-170.25,-69.38],[-167.88,-68.0],[-167.88,-67.0],[-168.25,-66.62],[-171.5,-65.62],[-176.5,-65.62],[-179.88,-66.75]]]}},{"type":"Feature","properties":{"kind":"blob","cls":3,"id":5},"geometry":{"type":"Polygon","coordinates":[[[89.75,-64.38],[93.75,-63.62],[96.5,-62.62],[97.38,-61.5],[96.5,-60.12],[94.25,-59.38],[89.0,-59.38],[86.25,-59.88],[83.5,-60.88],[82.38,-61.75],[84.25,-61.88],[84.25,-62.38],[82.75,-62.62],[82.38,-63.25],[84.0,-64.12],[89.75,-64.38]]]}},{"type":"Feature","properties":{"kind":"blob","cls":4,"id":6},"geometry":{"type":"Polygon","coordinates":[[[-21.25,-62.62],[-19.25,-62.12],[-17.38,-61.0],[-17.12,-59.5],[-18.25,-58.38],[-20.0,-57.88],[-23.5,-57.88],[-25.25,-58.38],[-26.88,-59.5],[-27.12,-60.5],[-26.0,-61.88],[-21.25,-62.62]]]}},{"type":"Feature","properties":{"kind":"blob","cls":3,"id":7},"geometry":{"type":"Polygon","coordinates":[[[-102.25,-68.38],[-94.75,-68.38],[-93.5,-67.88],[-92.38,-66.5],[-93.0,-65.62],[-95.25,-64.62],[-100.0,-64.12],[-103.5,-64.88],[-105.62,-66.5],[-105.62,-67.0],[-104.75,-67.88],[-102.25,-68.38]]]}},{"type":"Feature","properties":{"kind":"blob","cls":1,"id":8},"geometry":{"type":"Polygon","coordinates":[[[-47.5,53.12],[-45.5,53.88],[-44.88,54.5],[-44.88,55.75],[-45.75,56.62],[-47.5,57.12],[-50.75,56.62],[-51.62,55.75],[-51.62,54.5],[-50.0,53.38],[-47.5,53.12]],[[-48.75,54.88],[-49.88,55.5],[-49.5,56.38],[-48.5,56.38],[-47.62,55.75],[-48.0,55.12],[-48.75,54.88]]]}},{"type":"Feature","properties":{"kind":"blob","cls":5,"id":9},"geometry":{"type":"Polygon","coordinates":[[[140.0,-59.62],[141.75,-59.12],[143.38,-58.0],[143.62,-57.0],[143.0,-56.12],[141.0,-55.12],[138.0,-54.88],[136.0,-55.38],[134.12,-56.75],[133.88,-57.75],[134.75,-58.88],[140.0,-59.62]]]}},{"type":"Feature","properties":{"kind":"blob","cls":3,"id":10},"geometry":{"type":"Polygon","coordinates":[[[-19.5,-69.88],[-19.12,-69.5],[-19.88,-68.25],[-19.75,-65.62],[-24.25,-65.88],[-26.62,-67.25],[-26.62,-68.25],[-26.0,-68.88],[-24.25,-69.62],[-19.5,-69.88]]]}},{"type":"Feature","properties":{"kind":"blob","cls":1,"id":11},"geometry":{"type":"Polygon","coordinates":[[[-15.75,-68.88],[-14.62,-68.0],[-14.62,-67.0],[-16.0,-66.12],[-17.25,-65.88],[-17.38,-66.0],[-15.75,-68.88]]]}},{"type":"Feature","properties":{"kind":"blob","cls":4,"id":12},"geometry":{"type":"Polygon","coordinates":[[[160.0,-69.62],[160.38,-69.25],[160.38,-68.25],[158.75,-67.12],[156.25,-66.38],[151.25,-66.12],[149.0,-66.62],[147.62,-67.5],[148.25,-68.12],[152.25,-68.88],[160.0,-69.62]]]}},{"type":"Feature","properties":{"kind":"blob","cls":4,"id":13},"geometry":{"type":"Polygon","coordinates":[[[122.75,-66.62],[126.25,-66.88],[130.5,-66.38],[134.38,-66.5],[133.75,-65.62],[132.0,-64.88],[127.0,-64.38],[123.25,-65.62],[122.75,-66.62]]]}},{"type":"Feature","properties":{"kind":"blob","cls":4,"id":14},"geometry":{"type":"MultiPolygon","coordinates":[[[[-30.38,-78.5],[-29.62,-78.5],[-29.75,-78.38],[-30.38,-78.5]]],[[[-36.75,-80.12],[-30.5,-78.88],[-35.38,-78.5],[-33.75,-77.62],[-31.25,-77.38],[-29.62,-76.75],[-38.5,-76.88],[-41.75,-77.62],[-42.88,-78.5],[-41.75,-79.38],[-36.75,-80.12]]]]}},{"type":"Feature","properties":{"kind":"blob","cls":4,"id":15},"geometry":{"type":"Polygon","coordinates":[[[-36.75,55.38],[-35.12,56.75],[-35.12,57.25],[-36.75,58.62],[-41.0,58.62],[-42.62,57.25],[-42.62,56.75],[-41.5,55.62],[-36.75,55.38]]]}},{"type":"Feature","properties":{"kind":"blob","cls":4,"id":16},"geometry":{"type":"Polygon","coordinates":[[[7.75,-54.62],[12.75,-54.62],[14.38,-53.25],[14.38,-52.25],[12.25,-50.62],[8.0,-49.38],[6.25,-49.38],[4.75,-49.88],[3.88,-50.75],[4.12,-52.5],[6.0,-54.12],[7.75,-54.62]]]}},{"type":"Feature","properties":{"kind":"blob","cls":1,"id":17},"geometry":{"type":"Polygon","coordinates":[[[-168.25,59.88],[-165.75,60.38],[-163.88,61.75],[-163.88,62.75],[-164.25,63.38],[-166.25,64.38],[-167.25,64.38],[-168.0,63.88],[-169.75,63.88],[-171.0,64.38],[-172.25,64.12],[-173.88,63.0],[-174.12,61.75],[-173.0,60.62],[-168.25,59.88]]]}},{"type":"Feature","properties":{"kind":"blob","cls":3,"id":18},"geometry":{"type":"MultiPolygon","coordinates":[[[[175.12,-82.5],[171.5,-81.62],[169.12,-81.75],[172.25,-82.38],[175.12,-82.5]]],[[[168.12,-81.5],[169.12,-81.5],[169.0,-81.38],[168.12,-81.5]]]]}},{"type":"Feature","properties":{"kind":"blob","cls":4,"id":19},"geometry":{"type":"Polygon","coordinates":[[[20.5,-70.38],[26.5,-70.62],[32.5,-70.12],[33.25,-69.88],[33.88,-69.0],[33.25,-67.88],[31.75,-67.12],[27.5,-66.12],[20.5,-66.62],[18.5,-67.12],[17.12,-68.25],[17.12,-68.75],[18.0,-69.62],[20.5,-70.38]]]}},{"type":"Feature","properties":{"kind":"blob","cls":5,"id":20},"geometry":{"type":"Polygon","coordinates":[[[-2.25,-50.38],[-0.5,-49.62],[-0.12,-47.75],[-1.0,-46.88],[-2.25,-46.38],[-3.75,-46.38],[-5.0,-46.88],[-5.88,-47.75],[-5.88,-49.0],[-5.5,-49.62],[-2.25,-50.38]]]}},{"type":"Feature","properties":{"kind":"blob","cls":4,"id":21},"geometry":{"type":"Polygon","coordinates":[[[-61.75,-74.12],[-58.25,-73.38],[-57.12,-72.5],[-57.12,-72.0],[-59.0,-70.88],[-62.75,-70.38],[-61.62,-71.25],[-62.88,-72.0],[-61.38,-73.0],[-62.12,-73.25],[-61.75,-74.12]]]}},{"type":"Feature","properties":{"kind":"blob","cls":1,"id":22},"geometry":{"type":"Polygon","coordinates":[[[162.0,-79.12],[164.62,-78.75],[162.0,-78.62],[162.0,-79.12]]]}},{"type":"Feature","properties":{"kind":"blob","cls":4,"id":23},"geometry":{"type":"Polygon","coordinates":[[[-102.75,45.62],[-101.62,47.0],[-101.62,48.5],[-103.0,49.62],[-106.0,49.88],[-106.88,49.5],[-105.88,49.25],[-106.0,48.38],[-106.75,49.12],[-107.5,49.12],[-108.12,48.5],[-106.5,47.12],[-105.25,47.38],[-105.62,46.75],[-105.25,46.38],[-104.0,46.88],[-103.75,46.38],[-103.12,46.5],[-102.75,45.62]]]}},{"type":"Feature","properties":{"kind":"blob","cls":1,"id":24},"geometry":{"type":"Polygon","coordinates":[[[3.75,63.62],[8.12,64.5],[1.5,68.88],[-1.75,67.88],[-3.12,66.25],[-3.12,65.5],[-2.0,64.38],[3.75,63.62]]]}},{"type":"Feature","properties":{"kind":"blob","cls":0,"id":25},"geometry":{"type":"Polygon","coordinates":[[[32.25,83.38],[40.5,84.12],[43.25,84.62],[44.12,85.25],[41.75,86.38],[91.5,86.88],[105.75,87.62],[108.12,88.25],[107.5,88.62],[102.5,89.12],[81.5,89.88],[39.5,89.88],[34.25,87.12],[29.5,85.62],[23.25,85.12],[21.75,84.38],[20.0,84.12],[9.25,83.62],[-1.5,83.88],[-2.12,84.25],[0.12,85.0],[-11.75,85.62],[-13.75,86.38],[-14.38,87.0],[-13.5,88.38],[-12.12,89.25],[-12.5,89.88],[-46.5,89.38],[-56.5,88.88],[-60.5,88.38],[-61.12,88.0],[-59.0,87.38],[-48.75,86.12],[-26.0,85.38],[-9.75,85.38],[-8.75,84.62],[-4.25,83.88],[1.5,83.38],[32.25,83.38]]]}},{"type":"Feature","properties":{"kind":"blob","cls":3,"id":26},"geometry":{"type":"Polygon","coordinates":[[[-47.5,-36.62],[-45.88,-35.75],[-45.62,-33.75],[-46.5,-32.62],[-48.25,-32.12],[-50.25,-32.88],[-50.88,-33.5],[-51.12,-35.25],[-50.5,-36.12],[-47.5,-36.62]]]}},{"type":"Feature","properties":{"kind":"blob","cls":4,"id":27},"geometry":{"type":"Polygon","coordinates":[[[142.75,-48.62],[144.0,-48.12],[144.88,-47.25],[144.88,-46.25],[143.25,-44.62],[142.0,-44.12],[140.0,-44.38],[138.62,-45.75],[138.88,-47.0],[139.75,-47.88],[142.75,-48.62]]]}},{"type":"Feature","properties":{"kind":"blob","cls":3,"id":28},"geometry":{"type":"Polygon","coordinates":[[[-121.25,22.38],[-119.62,23.5],[-119.62,25.5],[-121.0,26.88],[-121.75,27.12],[-123.0,26.88],[-124.12,25.5],[-124.12,23.75],[-123.0,22.62],[-121.25,22.38]]]}},{"type":"Feature","properties":{"kind":"blob","cls":1,"id":29},"geometry":{"type":"Polygon","coordinates":[[[10.0,66.12],[10.62,66.0],[10.62,66.75],[8.25,68.12],[8.12,68.0],[10.0,66.12]]]}},{"type":"Feature","properties":{"kind":"blob","cls":4,"id":30},"geometry":{"type":"Polygon","coordinates":[[[-68.5,-72.88],[-66.62,-73.0],[-66.12,-72.0],[-66.88,-71.5],[-66.75,-70.88],[-68.25,-71.38],[-68.88,-72.0],[-68.5,-72.88]]]}},{"type":"Feature","properties":{"kind":"blob","cls":3,"id":31},"geometry":{"type":"Polygon","coordinates":[[[-130.75,70.12],[-128.25,71.12],[-127.62,71.75],[-127.62,72.5],[-128.75,73.38],[-131.5,74.12],[-138.75,74.38],[-141.75,73.88],[-143.62,72.5],[-143.0,71.38],[-142.0,70.88],[-139.25,70.12],[-130.75,70.12]]]}},{"type":"Feature","properties":{"kind":"blob","cls":3,"id":32},"geometry":{"type":"Polygon","coordinates":[[[-75.5,-46.88],[-74.25,-46.38],[-73.38,-45.25],[-73.62,-44.25],[-75.5,-43.12],[-78.0,-43.62],[-78.62,-44.25],[-78.88,-45.25],[-78.0,-46.38],[-75.5,-46.88]]]}},{"type":"Feature","properties":{"kind":"blob","cls":2,"id":33},"geometry":{"type":"MultiPolygon","coordinates":[[[[-102.75,12.62],[-101.38,13.5],[-101.12,15.0],[-102.0,16.12],[-103.25,16.38],[-104.38,15.75],[-102.75,15.62],[-102.38,15.25],[-102.62,14.25],[-104.12,13.0],[-102.75,12.62]]],[[[-104.5,15.62],[-104.62,15.5],[-104.5,15.38],[-104.5,15.62]]]]}},{"type":"Feature","properties":{"kind":"blob","cls":4,"id":34},"geometry":{"type":"Polygon","coordinates":[[[76.5,68.12],[83.0,68.12],[84.5,68.62],[85.62,70.0],[84.75,71.12],[83.75,71.62],[80.25,72.38],[74.75,72.12],[72.25,71.12],[71.62,70.5],[71.88,69.5],[73.25,68.62],[76.5,68.12]]]}},{"type":"Feature","properties":{"kind":"blob","cls":4,"id":35},"geometry":{"type":"Polygon","coordinates":[[[-116.5,34.62],[-115.88,35.25],[-116.5,35.62],[-117.25,35.12],[-116.88,35.75],[-117.75,35.88],[-118.12,35.0],[-116.5,34.62]]]}},{"type":"Feature","properties":{"kind":"blob","cls":1,"id":36},"geometry":{"type":"Polygon","coordinates":[[[-124.25,61.62],[-123.25,61.38],[-122.0,61.88],[-121.38,62.5],[-121.38,63.5],[-123.25,64.62],[-126.5,64.62],[-126.38,63.75],[-124.62,62.5],[-124.25,61.62]]]}},{"type":"Feature","properties":{"kind":"blob","cls":3,"id":37},"geometry":{"type":"MultiPolygon","coordinates":[[[[121.12,47.5],[121.5,47.38],[121.62,47.5],[121.12,47.5]]],[[[124.5,46.38],[127.25,46.12],[128.5,46.62],[130.62,48.5],[130.62,50.0],[129.5,50.88],[127.25,51.12],[123.5,49.88],[123.12,49.25],[123.12,47.5],[124.5,46.38]]],[[[121.75,47.62],[122.38,48.0],[123.12,49.5],[122.5,50.88],[121.88,50.25],[122.38,49.75],[121.75,47.62]]],[[[119.5,47.12],[119.62,47.75],[120.75,48.88],[121.62,49.0],[121.38,49.25],[121.88,49.75],[121.38,50.25],[122.12,51.0],[120.62,51.0],[121.5,51.62],[119.25,51.88],[117.5,51.12],[117.5,50.62],[117.12,50.75],[116.88,49.5],[117.62,48.0],[119.5,47.12]]]]}},{"type":"Feature","properties":{"kind":"blob","cls":4,"id":38},"geometry":{"type":"Polygon","coordinates":[[[0.75,-35.88],[2.0,-35.38],[2.62,-34.5],[2.62,-33.5],[1.75,-32.38],[-0.5,-31.88],[-2.12,-32.75],[-2.38,-34.25],[-1.75,-35.12],[0.75,-35.88]]]}},{"type":"Feature","properties":{"kind":"blob","cls":3,"id":39},"geometry":{"type":"Polygon","coordinates":[[[-118.62,35.25],[-118.62,36.0],[-119.75,37.38],[-119.88,36.0],[-118.62,35.25]]]}},{"type":"Feature","properties":{"kind":"blob","cls":4,"id":40},"geometry":{"type":"Polygon","coordinates":[[[131.75,-30.88],[132.88,-29.5],[132.62,-28.25],[131.0,-27.12],[129.75,-27.38],[128.62,-28.75],[128.88,-30.0],[129.75,-30.88],[131.75,-30.88]]]}},{"type":"Feature","properties":{"kind":"blob","cls":6,"id":41},"geometry":{"type":"Polygon","coordinates":[[[175.75,15.38],[177.25,15.38],[178.12,16.5],[177.88,18.0],[176.5,18.88],[175.25,18.62],[174.38,17.5],[174.62,16.0],[175.75,15.38]]]}},{"type":"Feature","properties":{"kind":"blob","cls":1,"id":42},"geometry":{"type":"Polygon","coordinates":[[[-124.62,61.25],[-124.5,61.12],[-124.38,61.25],[-124.62,61.25]]]}},{"type":"Feature","properties":{"kind":"blob","cls":1,"id":43},"geometry":{"type":"Polygon","coordinates":[[[-125.75,61.38],[-125.12,61.5],[-125.25,61.62],[-125.75,61.38]]]}},{"type":"Feature","properties":{"kind":"blob","cls":3,"id":44},"geometry":{"type":"Polygon","coordinates":[[[179.88,27.5],[180.0,30.62],[178.88,29.25],[179.12,28.25],[179.88,27.5]]]}},{"type":"Feature","properties":{"kind":"blob","cls":3,"id":44},"geometry":{"type":"Polygon","coordinates":[[[-179.75,30.62],[-180.0,27.38],[-177.75,27.38],[-176.62,28.75],[-176.88,29.75],[-178.5,30.88],[-179.75,30.62]]]}},{"type":"Feature","properties":{"kind":"blob","cls":4,"id":45},"geometry":{"type":"Polygon","coordinates":[[[-68.38,-33.75],[-68.25,-34.12],[-67.25,-34.12],[-65.62,-33.25],[-66.38,-33.0],[-65.75,-32.38],[-65.38,-32.75],[-65.38,-31.75],[-65.88,-31.0],[-65.0,-30.62],[-63.88,-29.25],[-64.12,-27.5],[-65.25,-26.12],[-65.88,-27.25],[-65.38,-28.5],[-66.38,-28.75],[-66.25,-27.62],[-67.12,-28.25],[-66.62,-29.0],[-67.38,-29.75],[-67.38,-31.25],[-68.0,-31.62],[-68.12,-31.25],[-67.62,-31.0],[-67.88,-30.5],[-68.25,-30.12],[-68.62,-30.5],[-69.12,-33.75],[-68.38,-33.75]],[[-66.62,-31.0],[-66.5,-30.62],[-66.38,-30.75],[-66.62,-31.0]]]}},{"type":"Feature","properties":{"kind":"blob","cls":5,"id":46},"geometry":{"type":"Polygon","coordinates":[[[169.5,-38.38],[172.75,-38.38],[173.62,-37.5],[173.62,-36.0],[171.75,-34.62],[170.25,-34.62],[169.25,-35.12],[168.38,-36.0],[168.38,-37.5],[169.5,-38.38]]]}},{"type":"Feature","properties":{"kind":"blob","cls":3,"id":47},"geometry":{"type":"Polygon","coordinates":[[[164.75,29.38],[166.62,30.5],[166.88,32.25],[166.25,33.12],[163.75,33.62],[162.12,32.75],[161.88,30.75],[162.5,29.88],[164.75,29.38]]]}},{"type":"Feature","properties":{"kind":"blob","cls":1,"id":48},"geometry":{"type":"Polygon","coordinates":[[[156.75,65.88],[159.5,67.12],[160.62,68.25],[160.62,68.75],[159.0,69.12],[158.62,69.5],[158.88,70.0],[158.0,70.38],[152.75,70.62],[149.5,69.88],[147.62,68.5],[147.88,67.25],[148.5,66.62],[150.25,65.88],[156.75,65.88]]]}},{"type":"Feature","properties":{"kind":"blob","cls":4,"id":49},"geometry":{"type":"Polygon","coordinates":[[[-64.0,-21.38],[-63.62,-21.0],[-64.0,-20.62],[-64.0,-21.38]]]}},{"type":"Feature","properties":{"kind":"blob","cls":4,"id":50},"geometry":{"type":"Polygon","coordinates":[[[-61.0,73.38],[-56.62,74.0],[-58.5,74.88],[-60.0,76.38],[-66.88,76.75],[-65.0,77.12],[-64.75,77.62],[-67.5,77.38],[-67.5,76.88],[-70.0,76.88],[-71.88,75.75],[-71.25,74.62],[-69.75,74.12],[-61.0,73.38]]]}},{"type":"Feature","properties":{"kind":"blob","cls":3,"id":51},"geometry":{"type":"Polygon","coordinates":[[[61.75,32.12],[62.12,32.75],[61.62,33.0],[61.5,33.62],[60.88,32.75],[61.75,32.12]]]}},{"type":"Feature","properties":{"kind":"blob","cls":3,"id":52},"geometry":{"type":"MultiPolygon","coordinates":[[[[61.75,30.88],[61.62,30.75],[61.75,30.62],[61.75,30.88]]],[[[61.62,31.0],[61.5,31.12],[61.38,31.0],[61.62,31.0]]],[[[61.38,31.25],[61.25,31.38],[61.12,31.25],[61.38,31.25]]]]}},{"type":"Feature","properties":{"kind":"blob","cls":4,"id":53},"geometry":{"type":"Polygon","coordinates":[[[-16.0,71.62],[-13.75,72.38],[-13.12,73.0],[-13.12,73.75],[-15.0,74.88],[-18.25,75.38],[-21.5,75.38],[-22.12,75.0],[-21.62,74.75],[-22.25,74.38],[-24.62,74.25],[-25.25,72.38],[-23.5,71.62],[-16.0,71.62]]]}},{"type":"Feature","properties":{"kind":"center","id":1,"lat":17.0,"lon":159.0,"mslp":944.0,"hvtl":89.8,"hvtu":251.4,"hb":4.5,"idx":2.4,"cls":0,"psfc":944.0,"terrain":false,"radius_km":200,"name":"sym deep warm","track":"T02"},"geometry":{"type":"Point","coordinates":[159.0,17.0]}},{"type":"Feature","properties":{"kind":"center","id":2,"lat":18.75,"lon":138.0,"mslp":946.1,"hvtl":71.3,"hvtu":244.8,"hb":-0.3,"idx":2.2,"cls":0,"psfc":946.1,"terrain":false,"radius_km":200,"name":"sym deep warm","track":"T08"},"geometry":{"type":"Point","coordinates":[138.0,18.75]}},{"type":"Feature","properties":{"kind":"center","id":3,"lat":-59.75,"lon":-115.0,"mslp":948.5,"hvtl":46.7,"hvtu":48.6,"hb":9.2,"idx":1.3,"cls":0,"psfc":948.5,"terrain":false,"radius_km":200,"name":"sym deep warm","track":"T11"},"geometry":{"type":"Point","coordinates":[-115.0,-59.75]}},{"type":"Feature","properties":{"kind":"center","id":4,"lat":-67.5,"lon":-173.25,"mslp":950.4,"hvtl":53.2,"hvtu":-47.5,"hb":35.7,"idx":0.5,"cls":3,"psfc":950.4,"terrain":false,"radius_km":200,"name":"asym shallow warm","track":"T17"},"geometry":{"type":"Point","coordinates":[-173.25,-67.5]}},{"type":"Feature","properties":{"kind":"center","id":5,"lat":-62.0,"lon":89.25,"mslp":956.0,"hvtl":163.8,"hvtu":-155.3,"hb":10.2,"idx":0.9,"cls":3,"psfc":956.0,"terrain":false,"radius_km":200,"name":"asym shallow warm","track":"T20"},"geometry":{"type":"Point","coordinates":[89.25,-62.0]}},{"type":"Feature","properties":{"kind":"center","id":6,"lat":-60.25,"lon":-22.0,"mslp":968.1,"hvtl":-4.6,"hvtu":-313.5,"hb":23.7,"idx":-1.1,"cls":4,"psfc":968.1,"terrain":false,"radius_km":200,"name":"asym cold","track":"T32"},"geometry":{"type":"Point","coordinates":[-22.0,-60.25]}},{"type":"Feature","properties":{"kind":"center","id":7,"lat":-66.25,"lon":-99.75,"mslp":968.9,"hvtl":21.6,"hvtu":-116.7,"hb":20.5,"idx":-0.4,"cls":3,"psfc":968.9,"terrain":false,"radius_km":200,"name":"asym shallow warm","track":"T39"},"geometry":{"type":"Point","coordinates":[-99.75,-66.25]}},{"type":"Feature","properties":{"kind":"center","id":8,"lat":55.0,"lon":-48.25,"mslp":974.0,"hvtl":208.9,"hvtu":-32.5,"hb":-5.0,"idx":1.6,"cls":1,"psfc":974.0,"terrain":false,"radius_km":200,"name":"sym shallow warm","track":"T47"},"geometry":{"type":"Point","coordinates":[-48.25,55.0]}},{"type":"Feature","properties":{"kind":"center","id":9,"lat":-57.5,"lon":138.25,"mslp":974.5,"hvtl":-1.6,"hvtu":-73.3,"hb":8.0,"idx":-0.7,"cls":5,"psfc":974.5,"terrain":false,"radius_km":200,"name":"sym cold","track":"T22"},"geometry":{"type":"Point","coordinates":[138.25,-57.5]}},{"type":"Feature","properties":{"kind":"center","id":10,"lat":-66.75,"lon":-21.0,"mslp":978.2,"hvtl":62.7,"hvtu":-5.4,"hb":11.2,"idx":1.1,"cls":3,"psfc":978.2,"terrain":false,"radius_km":200,"name":"asym shallow warm","track":"T45"},"geometry":{"type":"Point","coordinates":[-21.0,-66.75]}},{"type":"Feature","properties":{"kind":"center","id":11,"lat":-66.0,"lon":-17.25,"mslp":978.3,"hvtl":85.2,"hvtu":-3.6,"hb":7.5,"idx":1.3,"cls":1,"psfc":978.3,"terrain":false,"radius_km":200,"name":"sym shallow warm"},"geometry":{"type":"Point","coordinates":[-17.25,-66.0]}},{"type":"Feature","properties":{"kind":"center","id":12,"lat":-68.5,"lon":159.5,"mslp":978.5,"hvtl":-312.7,"hvtu":-61.4,"hb":50.4,"idx":-2.5,"cls":4,"psfc":978.5,"terrain":false,"radius_km":200,"name":"asym cold"},"geometry":{"type":"Point","coordinates":[159.5,-68.5]}},{"type":"Feature","properties":{"kind":"center","id":13,"lat":-66.25,"lon":128.25,"mslp":981.8,"hvtl":-203.1,"hvtu":-139.5,"hb":25.6,"idx":-2.8,"cls":4,"psfc":981.8,"terrain":false,"radius_km":200,"name":"asym cold"},"geometry":{"type":"Point","coordinates":[128.25,-66.25]}},{"type":"Feature","properties":{"kind":"center","id":14,"lat":-78.75,"lon":-34.75,"mslp":986.5,"hvtl":-373.6,"hvtu":-40.0,"hb":83.2,"idx":-2.4,"cls":4,"psfc":923.8,"terrain":false,"radius_km":200,"name":"asym cold","track":"T60"},"geometry":{"type":"Point","coordinates":[-34.75,-78.75]}},{"type":"Feature","properties":{"kind":"center","id":15,"lat":56.5,"lon":-41.0,"mslp":986.5,"hvtl":-93.5,"hvtu":-234.7,"hb":57.4,"idx":-2.4,"cls":4,"psfc":986.5,"terrain":false,"radius_km":200,"name":"asym cold","track":"T42"},"geometry":{"type":"Point","coordinates":[-41.0,56.5]}},{"type":"Feature","properties":{"kind":"center","id":16,"lat":-52.0,"lon":8.5,"mslp":986.7,"hvtl":-136.5,"hvtu":-287.4,"hb":35.9,"idx":-2.7,"cls":4,"psfc":986.7,"terrain":false,"radius_km":200,"name":"asym cold","track":"T63"},"geometry":{"type":"Point","coordinates":[8.5,-52.0]}},{"type":"Feature","properties":{"kind":"center","id":17,"lat":62.0,"lon":-168.0,"mslp":987.0,"hvtl":53.1,"hvtu":-383.0,"hb":9.7,"idx":-0.0,"cls":1,"psfc":987.0,"terrain":false,"radius_km":200,"name":"sym shallow warm","track":"T07"},"geometry":{"type":"Point","coordinates":[-168.0,62.0]}},{"type":"Feature","properties":{"kind":"center","id":18,"lat":-82.25,"lon":174.25,"mslp":987.0,"hvtl":94.3,"hvtu":-138.6,"hb":40.0,"idx":0.6,"cls":3,"psfc":979.6,"terrain":false,"radius_km":200,"name":"asym shallow warm"},"geometry":{"type":"Point","coordinates":[174.25,-82.25]}},{"type":"Feature","properties":{"kind":"center","id":19,"lat":-69.0,"lon":25.75,"mslp":987.2,"hvtl":-153.0,"hvtu":-77.5,"hb":38.5,"idx":-2.5,"cls":4,"psfc":987.2,"terrain":false,"radius_km":200,"name":"asym cold","track":"T36"},"geometry":{"type":"Point","coordinates":[25.75,-69.0]}},{"type":"Feature","properties":{"kind":"center","id":20,"lat":-48.5,"lon":-3.0,"mslp":988.2,"hvtl":-79.2,"hvtu":-159.1,"hb":9.1,"idx":-2.2,"cls":5,"psfc":988.2,"terrain":false,"radius_km":200,"name":"sym cold","track":"T72"},"geometry":{"type":"Point","coordinates":[-3.0,-48.5]}},{"type":"Feature","properties":{"kind":"center","id":21,"lat":-73.75,"lon":-60.5,"mslp":989.4,"hvtl":-344.3,"hvtu":-339.7,"hb":72.3,"idx":-3.0,"cls":4,"psfc":987.6,"terrain":false,"radius_km":200,"name":"asym cold","track":"T43"},"geometry":{"type":"Point","coordinates":[-60.5,-73.75]}},{"type":"Feature","properties":{"kind":"center","id":22,"lat":-78.75,"lon":164.5,"mslp":989.6,"hvtl":152.8,"hvtu":-17.0,"hb":-14.0,"idx":1.7,"cls":1,"psfc":975.6,"terrain":false,"radius_km":200,"name":"sym shallow warm"},"geometry":{"type":"Point","coordinates":[164.5,-78.75]}},{"type":"Feature","properties":{"kind":"center","id":23,"lat":47.75,"lon":-105.0,"mslp":991.7,"hvtl":-106.5,"hvtu":-135.4,"hb":102.7,"idx":-2.5,"cls":4,"psfc":910.3,"terrain":false,"radius_km":200,"name":"asym cold","track":"T68"},"geometry":{"type":"Point","coordinates":[-105.0,47.75]}},{"type":"Feature","properties":{"kind":"center","id":24,"lat":66.25,"lon":4.5,"mslp":993.1,"hvtl":125.8,"hvtu":-57.9,"hb":4.6,"idx":1.2,"cls":1,"psfc":993.1,"terrain":false,"radius_km":200,"name":"sym shallow warm","track":"T66"},"geometry":{"type":"Point","coordinates":[4.5,66.25]}},{"type":"Feature","properties":{"kind":"center","id":25,"lat":85.0,"lon":23.25,"mslp":994.2,"hvtl":58.5,"hvtu":25.7,"hb":-2.8,"idx":1.3,"cls":0,"psfc":994.3,"terrain":false,"radius_km":200,"name":"sym deep warm","track":"T73"},"geometry":{"type":"Point","coordinates":[23.25,85.0]}},{"type":"Feature","properties":{"kind":"center","id":26,"lat":-34.5,"lon":-48.75,"mslp":994.6,"hvtl":57.4,"hvtu":-104.8,"hb":65.2,"idx":0.3,"cls":3,"psfc":994.6,"terrain":false,"radius_km":200,"name":"asym shallow warm","track":"T84"},"geometry":{"type":"Point","coordinates":[-48.75,-34.5]}},{"type":"Feature","properties":{"kind":"center","id":27,"lat":-46.0,"lon":141.25,"mslp":995.0,"hvtl":-279.9,"hvtu":-337.5,"hb":73.0,"idx":-3.0,"cls":4,"psfc":995.1,"terrain":false,"radius_km":200,"name":"asym cold"},"geometry":{"type":"Point","coordinates":[141.25,-46.0]}},{"type":"Feature","properties":{"kind":"center","id":28,"lat":24.75,"lon":-122.0,"mslp":996.1,"hvtl":38.9,"hvtu":-80.2,"hb":23.8,"idx":0.1,"cls":3,"psfc":996.1,"terrain":false,"radius_km":200,"name":"asym shallow warm","track":"T48"},"geometry":{"type":"Point","coordinates":[-122.0,24.75]}},{"type":"Feature","properties":{"kind":"center","id":29,"lat":66.5,"lon":9.75,"mslp":996.6,"hvtl":80.8,"hvtu":-203.1,"hb":-24.2,"idx":0.4,"cls":1,"psfc":996.6,"terrain":false,"radius_km":200,"name":"sym shallow warm"},"geometry":{"type":"Point","coordinates":[9.75,66.5]}},{"type":"Feature","properties":{"kind":"center","id":30,"lat":-71.5,"lon":-67.0,"mslp":997.6,"hvtl":-299.2,"hvtu":-232.5,"hb":54.1,"idx":-3.0,"cls":4,"psfc":911.1,"terrain":false,"radius_km":200,"name":"asym cold"},"geometry":{"type":"Point","coordinates":[-67.0,-71.5]}},{"type":"Feature","properties":{"kind":"center","id":31,"lat":71.75,"lon":-135.25,"mslp":1000.2,"hvtl":62.6,"hvtu":-189.2,"hb":39.5,"idx":0.2,"cls":3,"psfc":1000.2,"terrain":false,"radius_km":200,"name":"asym shallow warm","track":"T97"},"geometry":{"type":"Point","coordinates":[-135.25,71.75]}},{"type":"Feature","properties":{"kind":"center","id":32,"lat":-45.0,"lon":-76.0,"mslp":1000.5,"hvtl":17.2,"hvtu":-116.9,"hb":11.7,"idx":-0.5,"cls":3,"psfc":1000.5,"terrain":false,"radius_km":200,"name":"asym shallow warm","track":"T94"},"geometry":{"type":"Point","coordinates":[-76.0,-45.0]}},{"type":"Feature","properties":{"kind":"center","id":33,"lat":15.75,"lon":-103.0,"mslp":1001.1,"hvtl":55.8,"hvtu":88.8,"hb":11.0,"idx":1.7,"cls":2,"psfc":1001.1,"terrain":false,"radius_km":200,"name":"asym deep warm","track":"T80"},"geometry":{"type":"Point","coordinates":[-103.0,15.75]}},{"type":"Feature","properties":{"kind":"center","id":34,"lat":70.0,"lon":78.75,"mslp":1001.3,"hvtl":-120.2,"hvtu":-245.5,"hb":53.7,"idx":-2.7,"cls":4,"psfc":998.3,"terrain":false,"radius_km":200,"name":"asym cold","track":"T103"},"geometry":{"type":"Point","coordinates":[78.75,70.0]}},{"type":"Feature","properties":{"kind":"center","id":35,"lat":35.0,"lon":-116.25,"mslp":1001.5,"hvtl":-101.6,"hvtu":-325.9,"hb":78.9,"idx":-2.5,"cls":4,"psfc":941.0,"terrain":false,"radius_km":200,"name":"asym cold","track":"T96"},"geometry":{"type":"Point","coordinates":[-116.25,35.0]}},{"type":"Feature","properties":{"kind":"center","id":36,"lat":64.75,"lon":-126.0,"mslp":1001.8,"hvtl":49.6,"hvtu":-73.7,"hb":-13.9,"idx":0.3,"cls":1,"psfc":970.0,"terrain":false,"radius_km":200,"name":"sym shallow warm"},"geometry":{"type":"Point","coordinates":[-126.0,64.75]}},{"type":"Feature","properties":{"kind":"center","id":37,"lat":49.5,"lon":120.0,"mslp":1002.0,"hvtl":2.5,"hvtu":-321.2,"hb":34.7,"idx":-0.9,"cls":3,"psfc":922.5,"terrain":false,"radius_km":200,"name":"asym shallow warm"},"geometry":{"type":"Point","coordinates":[120.0,49.5]}},{"type":"Feature","properties":{"kind":"center","id":38,"lat":-33.75,"lon":0.0,"mslp":1002.1,"hvtl":-328.9,"hvtu":-374.0,"hb":72.6,"idx":-3.0,"cls":4,"psfc":1002.1,"terrain":false,"radius_km":200,"name":"asym cold","track":"T76"},"geometry":{"type":"Point","coordinates":[0.0,-33.75]}},{"type":"Feature","properties":{"kind":"center","id":39,"lat":36.0,"lon":-119.25,"mslp":1003.7,"hvtl":1.1,"hvtu":-327.5,"hb":63.0,"idx":-1.0,"cls":3,"psfc":993.1,"terrain":false,"radius_km":200,"name":"asym shallow warm","track":"T95"},"geometry":{"type":"Point","coordinates":[-119.25,36.0]}},{"type":"Feature","properties":{"kind":"center","id":40,"lat":-29.0,"lon":130.75,"mslp":1003.8,"hvtl":-121.2,"hvtu":-261.3,"hb":77.2,"idx":-2.7,"cls":4,"psfc":976.6,"terrain":false,"radius_km":200,"name":"asym cold"},"geometry":{"type":"Point","coordinates":[130.75,-29.0]}},{"type":"Feature","properties":{"kind":"center","id":41,"lat":17.0,"lon":176.25,"mslp":1004.9,"hvtl":-20.2,"hvtu":53.1,"hb":9.1,"idx":0.1,"cls":6,"psfc":1004.9,"terrain":false,"radius_km":200,"name":"shallow cold"},"geometry":{"type":"Point","coordinates":[176.25,17.0]}},{"type":"Feature","properties":{"kind":"center","id":42,"lat":61.25,"lon":-124.5,"mslp":1006.5,"hvtl":85.8,"hvtu":-41.7,"hb":-9.8,"idx":1.0,"cls":1,"psfc":902.5,"terrain":true,"radius_km":200,"name":"sym shallow warm"},"geometry":{"type":"Point","coordinates":[-124.5,61.25]}},{"type":"Feature","properties":{"kind":"center","id":43,"lat":61.5,"lon":-125.25,"mslp":1006.7,"hvtl":76.7,"hvtu":-44.9,"hb":-8.9,"idx":0.9,"cls":1,"psfc":903.1,"terrain":true,"radius_km":200,"name":"sym shallow warm"},"geometry":{"type":"Point","coordinates":[-125.25,61.5]}},{"type":"Feature","properties":{"kind":"center","id":44,"lat":29.0,"lon":-178.75,"mslp":1007.4,"hvtl":3.8,"hvtu":-274.0,"hb":25.3,"idx":-0.9,"cls":3,"psfc":1007.4,"terrain":false,"radius_km":200,"name":"asym shallow warm","track":"T81"},"geometry":{"type":"Point","coordinates":[-178.75,29.0]}},{"type":"Feature","properties":{"kind":"center","id":45,"lat":-28.0,"lon":-66.5,"mslp":1008.9,"hvtl":-128.9,"hvtu":-293.6,"hb":15.0,"idx":-2.7,"cls":4,"psfc":922.2,"terrain":false,"radius_km":200,"name":"asym cold"},"geometry":{"type":"Point","coordinates":[-66.5,-28.0]}},{"type":"Feature","properties":{"kind":"center","id":46,"lat":-36.75,"lon":171.0,"mslp":1009.7,"hvtl":-23.9,"hvtu":-163.0,"hb":4.8,"idx":-1.4,"cls":5,"psfc":1009.7,"terrain":false,"radius_km":200,"name":"sym cold","track":"T107"},"geometry":{"type":"Point","coordinates":[171.0,-36.75]}},{"type":"Feature","properties":{"kind":"center","id":47,"lat":31.5,"lon":164.5,"mslp":1010.6,"hvtl":175.3,"hvtu":-147.3,"hb":25.5,"idx":1.0,"cls":3,"psfc":1010.6,"terrain":false,"radius_km":200,"name":"asym shallow warm","track":"T40"},"geometry":{"type":"Point","coordinates":[164.5,31.5]}},{"type":"Feature","properties":{"kind":"center","id":48,"lat":68.5,"lon":155.25,"mslp":1011.0,"hvtl":35.9,"hvtu":-33.7,"hb":1.6,"idx":0.4,"cls":1,"psfc":1007.6,"terrain":false,"radius_km":200,"name":"sym shallow warm","track":"T110"},"geometry":{"type":"Point","coordinates":[155.25,68.5]}},{"type":"Feature","properties":{"kind":"center","id":49,"lat":-21.0,"lon":-64.0,"mslp":1011.8,"hvtl":-183.5,"hvtu":-141.7,"hb":32.4,"idx":-2.8,"cls":4,"psfc":920.6,"terrain":true,"radius_km":200,"name":"asym cold"},"geometry":{"type":"Point","coordinates":[-64.0,-21.0]}},{"type":"Feature","properties":{"kind":"center","id":50,"lat":75.5,"lon":-64.75,"mslp":1012.4,"hvtl":-207.3,"hvtu":-83.2,"hb":59.9,"idx":-2.6,"cls":4,"psfc":1012.4,"terrain":false,"radius_km":200,"name":"asym cold","track":"T123"},"geometry":{"type":"Point","coordinates":[-64.75,75.5]}},{"type":"Feature","properties":{"kind":"center","id":51,"lat":32.25,"lon":61.75,"mslp":1013.5,"hvtl":105.8,"hvtu":-133.1,"hb":66.9,"idx":0.7,"cls":3,"psfc":944.3,"terrain":false,"radius_km":200,"name":"asym shallow warm","track":"T106"},"geometry":{"type":"Point","coordinates":[61.75,32.25]}},{"type":"Feature","properties":{"kind":"center","id":52,"lat":30.75,"lon":61.75,"mslp":1013.7,"hvtl":90.3,"hvtu":-108.1,"hb":23.3,"idx":0.6,"cls":3,"psfc":956.4,"terrain":false,"radius_km":200,"name":"asym shallow warm","track":"T114"},"geometry":{"type":"Point","coordinates":[61.75,30.75]}},{"type":"Feature","properties":{"kind":"center","id":53,"lat":74.25,"lon":-15.75,"mslp":1014.0,"hvtl":-17.2,"hvtu":-142.0,"hb":18.8,"idx":-1.2,"cls":4,"psfc":1014.0,"terrain":false,"radius_km":200,"name":"asym cold"},"geometry":{"type":"Point","coordinates":[-15.75,74.25]}}]}