{"type":"FeatureCollection","features":[{"type":"Feature","properties":{"kind":"blob","cls":3,"id":1},"geometry":{"type":"Polygon","coordinates":[[[4.75,-64.38],[6.75,-63.88],[7.62,-63.25],[7.88,-62.25],[6.75,-61.12],[4.75,-60.62],[1.5,-60.88],[-0.12,-61.75],[-0.38,-62.75],[0.0,-63.38],[1.5,-64.12],[4.75,-64.38]]]}},{"type":"Feature","properties":{"kind":"blob","cls":3,"id":2},"geometry":{"type":"Polygon","coordinates":[[[141.0,-64.62],[143.5,-63.88],[144.12,-63.25],[144.12,-61.5],[143.0,-60.38],[140.75,-59.62],[138.75,-59.62],[136.5,-60.38],[135.38,-61.5],[135.12,-62.5],[135.5,-62.88],[136.25,-62.62],[136.88,-63.0],[136.25,-63.88],[141.0,-64.62]]]}},{"type":"Feature","properties":{"kind":"blob","cls":0,"id":3},"geometry":{"type":"Polygon","coordinates":[[[145.75,25.62],[146.62,26.5],[146.88,27.5],[145.75,28.88],[144.25,29.12],[142.62,28.0],[142.62,26.5],[143.5,25.62],[145.75,25.62]],[[143.12,26.75],[143.25,27.62],[143.88,27.25],[143.88,26.75],[143.12,26.75]]]}},{"type":"Feature","properties":{"kind":"blob","cls":3,"id":4},"geometry":{"type":"Polygon","coordinates":[[[18.5,-66.88],[20.75,-66.38],[22.38,-65.25],[22.38,-64.0],[20.25,-62.62],[18.75,-62.38],[15.25,-62.38],[12.25,-63.38],[11.62,-64.25],[11.62,-65.25],[13.0,-66.38],[18.5,-66.88]]]}},{"type":"Feature","properties":{"kind":"blob","cls":3,"id":5},"geometry":{"type":"Polygon","coordinates":[[[94.5,-55.88],[96.5,-55.12],[97.38,-54.0],[97.12,-53.0],[94.75,-51.88],[93.25,-51.88],[91.25,-52.62],[90.62,-53.5],[90.88,-54.75],[92.25,-55.62],[94.5,-55.88]]]}},{"type":"Feature","properties":{"kind":"blob","cls":0,"id":6},"geometry":{"type":"Polygon","coordinates":[[[-132.5,-59.88],[-130.75,-59.38],[-129.38,-58.5],[-129.12,-57.5],[-129.75,-56.62],[-131.25,-55.88],[-135.0,-55.88],[-136.62,-57.0],[-136.88,-58.0],[-136.0,-59.12],[-132.5,-59.88]]]}},{"type":"Feature","properties":{"kind":"blob","cls":3,"id":7},"geometry":{"type":"Polygon","coordinates":[[[-144.75,-77.62],[-144.88,-76.75],[-145.38,-76.5],[-145.25,-75.88],[-140.75,-75.88],[-139.75,-75.38],[-136.0,-74.88],[-134.0,-75.12],[-132.62,-74.0],[-133.0,-73.38],[-135.75,-72.38],[-143.25,-72.12],[-146.5,-72.62],[-148.0,-73.38],[-154.5,-73.88],[-158.75,-75.62],[-159.12,-76.25],[-158.75,-76.88],[-156.75,-77.62],[-155.0,-77.12],[-153.75,-77.62],[-144.75,-77.62]]]}},{"type":"Feature","properties":{"kind":"blob","cls":4,"id":8},"geometry":{"type":"Polygon","coordinates":[[[-158.5,-69.88],[-153.75,-69.88],[-152.25,-69.38],[-151.12,-68.0],[-151.75,-67.12],[-153.25,-66.38],[-155.5,-65.88],[-159.25,-66.12],[-161.88,-67.5],[-162.12,-68.5],[-161.25,-69.38],[-158.5,-69.88]]]}},{"type":"Feature","properties":{"kind":"blob","cls":4,"id":9},"geometry":{"type":"Polygon","coordinates":[[[-128.5,-68.38],[-126.5,-67.88],[-124.62,-66.75],[-124.38,-65.75],[-125.75,-64.62],[-128.0,-64.12],[-132.0,-64.38],[-133.75,-65.12],[-134.38,-66.5],[-134.12,-67.0],[-132.75,-67.88],[-128.5,-68.38]]]}},{"type":"Feature","properties":{"kind":"blob","cls":4,"id":10},"geometry":{"type":"Polygon","coordinates":[[[-152.0,-63.88],[-150.0,-63.38],[-146.62,-61.25],[-146.62,-60.0],[-148.25,-58.88],[-149.5,-58.62],[-153.0,-58.88],[-155.75,-60.38],[-156.88,-61.75],[-156.88,-62.25],[-156.0,-63.12],[-152.0,-63.88]]]}},{"type":"Feature","properties":{"kind":"blob","cls":4,"id":11},"geometry":{"type":"Polygon","coordinates":[[[-24.5,-75.88],[-21.75,-76.12],[-19.0,-74.62],[-14.62,-73.75],[-15.5,-73.38],[-12.0,-73.38],[-10.38,-72.5],[-14.25,-71.62],[-20.0,-72.12],[-21.75,-73.12],[-23.75,-73.38],[-25.5,-74.12],[-25.88,-75.0],[-24.5,-75.88]]]}},{"type":"Feature","properties":{"kind":"blob","cls":4,"id":12},"geometry":{"type":"Polygon","coordinates":[[[92.0,-66.88],[103.75,-66.12],[107.0,-66.62],[111.25,-66.62],[111.25,-66.12],[114.0,-66.38],[114.38,-65.25],[113.0,-64.12],[110.75,-63.62],[106.75,-64.12],[105.75,-63.38],[103.5,-62.88],[99.5,-63.12],[97.75,-62.62],[92.0,-62.62],[89.0,-63.62],[88.12,-65.0],[89.0,-66.12],[92.0,-66.88]]]}},{"type":"Feature","properties":{"kind":"blob","cls":4,"id":13},"geometry":{"type":"Polygon","coordinates":[[[-102.75,-69.62],[-100.5,-69.12],[-99.5,-68.62],[-98.62,-67.5],[-98.75,-65.62],[-95.0,-65.62],[-93.25,-64.88],[-92.38,-64.0],[-92.38,-63.5],[-93.25,-62.38],[-94.5,-61.88],[-98.0,-61.62],[-101.0,-62.62],[-102.0,-63.62],[-104.75,-63.38],[-107.0,-63.88],[-110.12,-66.0],[-110.38,-67.5],[-109.5,-68.62],[-108.5,-69.12],[-102.75,-69.62]]]}},{"type":"Feature","properties":{"kind":"blob","cls":3,"id":14},"geometry":{"type":"Polygon","coordinates":[[[15.25,68.88],[19.5,69.88],[20.88,71.0],[20.88,72.25],[18.25,73.38],[15.0,73.12],[14.0,73.62],[12.0,73.62],[8.5,72.88],[6.62,71.5],[7.25,70.38],[8.25,69.88],[15.25,68.88]]]}},{"type":"Feature","properties":{"kind":"blob","cls":1,"id":15},"geometry":{"type":"Polygon","coordinates":[[[7.0,64.12],[9.25,64.62],[10.75,65.38],[11.88,66.5],[11.88,67.0],[11.0,67.88],[9.25,68.62],[5.0,68.88],[1.75,68.12],[-0.12,66.75],[-0.12,65.75],[0.25,65.38],[2.75,64.38],[7.0,64.12]]]}},{"type":"Feature","properties":{"kind":"blob","cls":0,"id":16},"geometry":{"type":"Polygon","coordinates":[[[176.0,24.12],[176.88,25.0],[176.88,26.5],[176.0,27.38],[174.5,27.62],[172.88,26.5],[172.88,25.0],[173.75,24.12],[176.0,24.12]]]}},{"type":"Feature","properties":{"kind":"blob","cls":0,"id":17},"geometry":{"type":"Polygon","coordinates":[[[-115.75,18.88],[-114.75,18.88],[-114.12,19.5],[-113.88,21.25],[-114.75,22.38],[-116.0,22.62],[-117.38,21.75],[-117.62,20.0],[-117.25,19.62],[-116.25,20.12],[-115.62,19.5],[-115.75,18.88]]]}},{"type":"Feature","properties":{"kind":"blob","cls":3,"id":18},"geometry":{"type":"Polygon","coordinates":[[[56.0,80.12],[63.75,80.62],[69.25,81.62],[70.38,82.5],[70.38,83.0],[51.25,82.62],[40.75,81.88],[31.88,80.75],[56.0,80.12]]]}},{"type":"Feature","properties":{"kind":"blob","cls":1,"id":19},"geometry":{"type":"Polygon","coordinates":[[[26.25,82.62],[27.25,82.38],[42.0,84.12],[54.62,84.75],[43.75,84.88],[35.25,84.38],[29.25,83.62],[26.25,82.62]]]}},{"type":"Feature","properties":{"kind":"blob","cls":4,"id":20},"geometry":{"type":"Polygon","coordinates":[[[-102.5,-55.38],[-100.38,-54.5],[-99.88,-53.5],[-100.12,-52.0],[-101.25,-50.88],[-104.25,-50.38],[-105.75,-50.88],[-106.88,-52.0],[-106.88,-53.5],[-105.75,-54.62],[-102.5,-55.38]]]}},{"type":"Feature","properties":{"kind":"blob","cls":4,"id":21},"geometry":{"type":"Polygon","coordinates":[[[-154.25,53.88],[-152.62,55.0],[-151.62,56.5],[-152.5,58.38],[-155.0,59.12],[-155.75,58.62],[-158.25,58.62],[-159.88,57.25],[-160.12,56.75],[-159.62,55.75],[-158.0,54.12],[-154.25,53.88]],[[-155.0,58.12],[-155.12,58.25],[-155.0,58.38],[-155.0,58.12]]]}},{"type":"Feature","properties":{"kind":"blob","cls":4,"id":22},"geometry":{"type":"Polygon","coordinates":[[[-35.5,-45.38],[-34.25,-44.88],[-33.38,-43.75],[-33.62,-42.0],[-35.75,-40.88],[-38.25,-41.38],[-39.38,-42.75],[-39.38,-44.25],[-38.75,-44.88],[-35.5,-45.38]]]}},{"type":"Feature","properties":{"kind":"blob","cls":3,"id":23},"geometry":{"type":"Polygon","coordinates":[[[-123.25,65.62],[-117.75,65.62],[-116.5,66.12],[-115.62,67.0],[-115.62,67.5],[-116.5,68.38],[-117.75,68.88],[-123.0,69.12],[-125.25,68.62],[-126.62,67.5],[-126.62,67.0],[-125.75,66.12],[-123.25,65.62]]]}},{"type":"Feature","properties":{"kind":"blob","cls":3,"id":24},"geometry":{"type":"Polygon","coordinates":[[[-16.0,61.38],[-14.0,61.88],[-12.88,62.75],[-12.88,63.75],[-14.75,64.88],[-15.5,64.88],[-16.25,64.12],[-18.0,64.12],[-18.0,64.88],[-15.88,65.0],[-18.25,65.12],[-18.5,64.62],[-19.5,64.88],[-21.38,63.75],[-21.38,62.75],[-20.75,62.12],[-16.0,61.38]]]}},{"type":"Feature","properties":{"kind":"blob","cls":4,"id":25},"geometry":{"type":"Polygon","coordinates":[[[-67.25,48.38],[-65.75,48.88],[-65.12,49.5],[-64.88,50.75],[-66.12,53.0],[-67.5,54.12],[-70.0,54.88],[-72.75,54.38],[-73.62,53.5],[-73.62,52.5],[-70.88,50.25],[-70.0,48.88],[-67.25,48.38]]]}},{"type":"Feature","properties":{"kind":"blob","cls":4,"id":26},"geometry":{"type":"Polygon","coordinates":[[[139.5,43.38],[140.75,43.88],[142.12,45.0],[142.12,46.5],[140.25,47.62],[138.25,47.62],[137.62,47.25],[137.75,46.88],[136.75,46.88],[136.38,46.5],[136.88,46.0],[136.12,46.25],[135.88,45.0],[136.75,43.88],[139.5,43.38]]]}},{"type":"Feature","properties":{"kind":"blob","cls":5,"id":27},"geometry":{"type":"Polygon","coordinates":[[[68.0,52.62],[71.5,53.88],[72.38,54.75],[72.38,55.75],[71.25,56.88],[68.75,56.62],[69.12,57.25],[68.5,57.62],[64.75,56.88],[63.38,55.75],[63.38,54.5],[64.25,53.38],[68.0,52.62]]]}},{"type":"Feature","properties":{"kind":"blob","cls":4,"id":28},"geometry":{"type":"Polygon","coordinates":[[[72.25,59.62],[75.75,60.38],[77.62,61.75],[77.62,62.25],[76.25,63.62],[74.25,64.12],[71.5,64.12],[69.25,63.62],[67.75,62.88],[66.88,62.0],[66.88,61.5],[68.0,60.38],[72.25,59.62]]]}},{"type":"Feature","properties":{"kind":"blob","cls":4,"id":29},"geometry":{"type":"Polygon","coordinates":[[[-63.75,-19.12],[-63.25,-19.38],[-62.88,-19.0],[-62.88,-18.0],[-64.25,-16.38],[-65.38,-16.0],[-64.88,-15.25],[-65.12,-13.75],[-66.5,-12.88],[-68.0,-13.12],[-68.62,-13.75],[-67.88,-15.25],[-65.5,-17.12],[-64.0,-17.62],[-63.38,-18.25],[-63.75,-19.12]]]}},{"type":"Feature","properties":{"kind":"blob","cls":4,"id":30},"geometry":{"type":"Polygon","coordinates":[[[130.75,59.12],[133.0,59.88],[134.38,61.5],[134.12,63.25],[132.5,64.12],[129.75,64.38],[127.75,63.88],[126.5,63.12],[125.38,61.5],[125.62,60.75],[127.5,59.38],[130.75,59.12]]]}},{"type":"Feature","properties":{"kind":"blob","cls":1,"id":31},"geometry":{"type":"Polygon","coordinates":[[[-58.25,-54.38],[-56.75,-53.88],[-56.25,-53.12],[-58.0,-52.88],[-58.62,-52.5],[-58.62,-52.0],[-57.75,-51.38],[-56.12,-51.25],[-56.75,-50.62],[-58.25,-50.12],[-60.0,-50.12],[-61.5,-50.62],[-62.38,-51.5],[-62.38,-52.75],[-61.25,-53.88],[-58.25,-54.38]]]}},{"type":"Feature","properties":{"kind":"blob","cls":4,"id":32},"geometry":{"type":"Polygon","coordinates":[[[-33.25,62.62],[-30.5,63.38],[-29.38,64.25],[-29.12,65.75],[-31.0,67.12],[-33.5,67.38],[-39.88,64.5],[-37.0,62.88],[-33.25,62.62]]]}},{"type":"Feature","properties":{"kind":"blob","cls":4,"id":33},"geometry":{"type":"Polygon","coordinates":[[[-83.75,-40.88],[-84.0,-39.12],[-83.25,-39.12],[-81.75,-40.62],[-79.0,-40.12],[-78.12,-39.25],[-77.88,-38.0],[-79.0,-36.62],[-80.25,-36.12],[-81.5,-36.12],[-82.75,-36.88],[-84.0,-36.62],[-84.12,-34.75],[-85.25,-33.88],[-88.25,-33.88],[-89.38,-34.75],[-89.38,-36.75],[-87.62,-38.0],[-87.62,-39.25],[-86.25,-40.62],[-83.75,-40.88]]]}},{"type":"Feature","properties":{"kind":"blob","cls":4,"id":34},"geometry":{"type":"Polygon","coordinates":[[[84.25,60.62],[86.25,61.12],[87.12,61.75],[87.38,62.75],[86.25,63.88],[84.25,64.38],[81.0,64.12],[79.38,63.25],[79.12,62.25],[79.5,61.62],[81.0,60.88],[84.25,60.62]]]}},{"type":"Feature","properties":{"kind":"blob","cls":4,"id":35},"geometry":{"type":"Polygon","coordinates":[[[-27.75,70.12],[-24.5,70.12],[-23.88,70.75],[-25.75,70.88],[-27.75,70.12]]]}},{"type":"Feature","properties":{"kind":"blob","cls":6,"id":36},"geometry":{"type":"Polygon","coordinates":[[[167.75,10.88],[169.25,10.88],[170.62,13.0],[170.62,14.0],[169.75,15.12],[167.75,15.12],[166.38,13.0],[166.62,11.5],[167.75,10.88]]]}},{"type":"Feature","properties":{"kind":"blob","cls":4,"id":37},"geometry":{"type":"Polygon","coordinates":[[[-54.5,69.12],[-53.38,69.5],[-53.75,70.12],[-52.25,69.88],[-51.62,70.25],[-51.62,70.75],[-53.75,72.62],[-56.0,73.12],[-61.5,72.62],[-63.25,71.88],[-63.88,71.0],[-62.75,69.88],[-60.25,69.12],[-54.5,69.12]],[[-52.88,70.5],[-52.12,70.5],[-52.25,70.38],[-52.88,70.5]]]}},{"type":"Feature","properties":{"kind":"blob","cls":3,"id":38},"geometry":{"type":"Polygon","coordinates":[[[68.5,25.38],[69.62,26.5],[70.25,28.88],[71.0,28.62],[72.88,29.5],[73.38,30.25],[73.38,32.0],[73.0,32.38],[70.5,31.88],[69.75,29.62],[68.75,29.62],[68.0,30.12],[67.38,29.75],[66.88,27.0],[65.62,26.75],[65.62,26.25],[66.5,25.38],[68.5,25.38]]]}},{"type":"Feature","properties":{"kind":"blob","cls":4,"id":39},"geometry":{"type":"MultiPolygon","coordinates":[[[[-64.75,-26.38],[-64.38,-26.0],[-64.5,-24.62],[-65.12,-25.75],[-64.75,-26.38]]],[[[-64.75,-24.38],[-64.88,-24.5],[-64.75,-24.62],[-64.75,-24.38]]]]}},{"type":"Feature","properties":{"kind":"blob","cls":4,"id":40},"geometry":{"type":"Polygon","coordinates":[[[-65.25,-26.88],[-65.25,-26.12],[-65.38,-26.25],[-65.25,-26.88]]]}},{"type":"Feature","properties":{"kind":"blob","cls":1,"id":41},"geometry":{"type":"Polygon","coordinates":[[[51.5,27.62],[52.62,28.5],[51.12,30.0],[51.25,30.38],[50.75,30.38],[49.88,31.25],[49.75,32.12],[48.12,31.0],[47.88,29.5],[49.0,28.12],[51.5,27.62]]]}},{"type":"Feature","properties":{"kind":"blob","cls":4,"id":42},"geometry":{"type":"Polygon","coordinates":[[[158.75,-41.62],[159.88,-40.5],[160.12,-39.5],[159.0,-38.12],[156.75,-37.88],[155.12,-39.0],[155.12,-40.5],[156.25,-41.62],[158.75,-41.62]]]}},{"type":"Feature","properties":{"kind":"blob","cls":3,"id":43},"geometry":{"type":"Polygon","coordinates":[[[29.5,-18.38],[29.88,-17.75],[29.5,-17.38],[28.62,-18.0],[29.5,-18.38]]]}},{"type":"Feature","properties":{"kind":"blob","cls":3,"id":44},"geometry":{"type":"Polygon","coordinates":[[[58.75,28.88],[59.88,29.5],[59.88,31.0],[59.5,31.38],[58.12,30.75],[57.88,29.75],[58.75,28.88]]]}},{"type":"Feature","properties":{"kind":"blob","cls":4,"id":45},"geometry":{"type":"Polygon","coordinates":[[[97.25,22.38],[98.0,22.62],[98.12,23.25],[97.5,23.38],[96.75,22.62],[97.38,24.0],[95.25,25.62],[94.88,25.0],[94.88,23.5],[95.75,22.62],[97.25,22.38]]]}},{"type":"Feature","properties":{"kind":"blob","cls":1,"id":46},"geometry":{"type":"Polygon","coordinates":[[[65.5,28.12],[65.5,28.88],[65.38,28.75],[65.5,28.12]]]}},{"type":"Feature","properties":{"kind":"blob","cls":1,"id":47},"geometry":{"type":"Polygon","coordinates":[[[65.88,29.25],[65.75,29.88],[65.62,29.5],[65.88,29.25]]]}},{"type":"Feature","properties":{"kind":"blob","cls":1,"id":48},"geometry":{"type":"Polygon","coordinates":[[[98.38,23.25],[98.5,23.12],[98.62,23.25],[98.38,23.25]]]}},{"type":"Feature","properties":{"kind":"blob","cls":3,"id":49},"geometry":{"type":"Polygon","coordinates":[[[179.88,-32.75],[180.0,-29.88],[179.38,-30.75],[179.38,-32.0],[179.88,-32.75]]]}},{"type":"Feature","properties":{"kind":"blob","cls":3,"id":49},"geometry":{"type":"Polygon","coordinates":[[[-179.88,-29.75],[-180.0,-32.88],[-178.0,-33.38],[-176.38,-32.5],[-176.12,-30.5],[-176.75,-29.62],[-178.5,-29.12],[-179.88,-29.75]]]}},{"type":"Feature","properties":{"kind":"blob","cls":3,"id":50},"geometry":{"type":"Polygon","coordinates":[[[60.38,31.0],[60.5,30.88],[60.62,31.25],[60.38,31.0]]]}},{"type":"Feature","properties":{"kind":"center","id":1,"lat":-62.5,"lon":3.75,"mslp":938.0,"hvtl":187.7,"hvtu":-45.2,"hb":17.1,"idx":1.5,"cls":3,"psfc":938.0,"terrain":false,"radius_km":200,"name":"asym shallow warm","track":"T03"},"geometry":{"type":"Point","coordinates":[3.75,-62.5]}},{"type":"Feature","properties":{"kind":"center","id":2,"lat":-62.0,"lon":139.5,"mslp":939.1,"hvtl":190.5,"hvtu":-72.4,"hb":54.8,"idx":1.3,"cls":3,"psfc":939.1,"terrain":false,"radius_km":200,"name":"asym shallow warm","track":"T06"},"geometry":{"type":"Point","coordinates":[139.5,-62.0]}},{"type":"Feature","properties":{"kind":"center","id":3,"lat":27.25,"lon":144.75,"mslp":943.8,"hvtl":138.5,"hvtu":232.2,"hb":-1.6,"idx":2.7,"cls":0,"psfc":943.8,"terrain":false,"radius_km":200,"name":"sym deep warm","track":"T07"},"geometry":{"type":"Point","coordinates":[144.75,27.25]}},{"type":"Feature","properties":{"kind":"center","id":4,"lat":-64.25,"lon":14.0,"mslp":944.3,"hvtl":129.5,"hvtu":-7.4,"hb":32.2,"idx":1.6,"cls":3,"psfc":944.3,"terrain":false,"radius_km":200,"name":"asym shallow warm","track":"T04"},"geometry":{"type":"Point","coordinates":[14.0,-64.25]}},{"type":"Feature","properties":{"kind":"center","id":5,"lat":-53.75,"lon":94.0,"mslp":948.7,"hvtl":126.1,"hvtu":-202.1,"hb":15.0,"idx":0.7,"cls":3,"psfc":948.7,"terrain":false,"radius_km":200,"name":"asym shallow warm","track":"T12"},"geometry":{"type":"Point","coordinates":[94.0,-53.75]}},{"type":"Feature","properties":{"kind":"center","id":6,"lat":-57.75,"lon":-133.5,"mslp":954.5,"hvtl":219.1,"hvtu":7.9,"hb":-44.0,"idx":2.0,"cls":0,"psfc":954.5,"terrain":false,"radius_km":200,"name":"sym deep warm","track":"T18"},"geometry":{"type":"Point","coordinates":[-133.5,-57.75]}},{"type":"Feature","properties":{"kind":"center","id":7,"lat":-75.5,"lon":-148.75,"mslp":957.0,"hvtl":37.8,"hvtu":-16.5,"hb":40.3,"idx":0.6,"cls":3,"psfc":957.0,"terrain":false,"radius_km":200,"name":"asym shallow warm","track":"T05"},"geometry":{"type":"Point","coordinates":[-148.75,-75.5]}},{"type":"Feature","properties":{"kind":"center","id":8,"lat":-68.0,"lon":-156.75,"mslp":962.6,"hvtl":-184.8,"hvtu":-241.1,"hb":61.1,"idx":-2.9,"cls":4,"psfc":962.6,"terrain":false,"radius_km":200,"name":"asym cold","track":"T28"},"geometry":{"type":"Point","coordinates":[-156.75,-68.0]}},{"type":"Feature","properties":{"kind":"center","id":9,"lat":-66.25,"lon":-129.5,"mslp":966.6,"hvtl":-137.2,"hvtu":-15.3,"hb":49.5,"idx":-1.9,"cls":4,"psfc":966.6,"terrain":false,"radius_km":200,"name":"asym cold","track":"T10"},"geometry":{"type":"Point","coordinates":[-129.5,-66.25]}},{"type":"Feature","properties":{"kind":"center","id":10,"lat":-61.0,"lon":-151.0,"mslp":969.3,"hvtl":-307.1,"hvtu":-225.3,"hb":78.4,"idx":-3.0,"cls":4,"psfc":969.3,"terrain":false,"radius_km":200,"name":"asym cold","track":"T33"},"geometry":{"type":"Point","coordinates":[-151.0,-61.0]}},{"type":"Feature","properties":{"kind":"center","id":11,"lat":-74.5,"lon":-19.0,"mslp":972.3,"hvtl":-100.6,"hvtu":-148.4,"hb":42.5,"idx":-2.4,"cls":4,"psfc":964.8,"terrain":false,"radius_km":200,"name":"asym cold","track":"T23"},"geometry":{"type":"Point","coordinates":[-19.0,-74.5]}},{"type":"Feature","properties":{"kind":"center","id":12,"lat":-66.0,"lon":114.25,"mslp":973.5,"hvtl":-105.2,"hvtu":-168.1,"hb":13.9,"idx":-2.5,"cls":4,"psfc":972.7,"terrain":false,"radius_km":200,"name":"asym cold","track":"T01"},"geometry":{"type":"Point","coordinates":[114.25,-66.0]}},{"type":"Feature","properties":{"kind":"center","id":13,"lat":-66.5,"lon":-105.0,"mslp":973.6,"hvtl":-140.2,"hvtu":-204.4,"hb":68.2,"idx":-2.7,"cls":4,"psfc":973.6,"terrain":false,"radius_km":200,"name":"asym cold","track":"T34"},"geometry":{"type":"Point","coordinates":[-105.0,-66.5]}},{"type":"Feature","properties":{"kind":"center","id":14,"lat":71.25,"lon":14.0,"mslp":974.5,"hvtl":67.4,"hvtu":-109.9,"hb":10.6,"idx":0.4,"cls":3,"psfc":974.5,"terrain":false,"radius_km":200,"name":"asym shallow warm","track":"T41"},"geometry":{"type":"Point","coordinates":[14.0,71.25]}},{"type":"Feature","properties":{"kind":"center","id":15,"lat":66.5,"lon":5.5,"mslp":977.8,"hvtl":40.3,"hvtu":-366.4,"hb":4.3,"idx":-0.2,"cls":1,"psfc":977.8,"terrain":false,"radius_km":200,"name":"sym shallow warm","track":"T55"},"geometry":{"type":"Point","coordinates":[5.5,66.5]}},{"type":"Feature","properties":{"kind":"center","id":16,"lat":25.75,"lon":175.0,"mslp":977.9,"hvtl":103.0,"hvtu":232.1,"hb":-1.1,"idx":2.5,"cls":0,"psfc":977.9,"terrain":false,"radius_km":200,"name":"sym deep warm","track":"T40"},"geometry":{"type":"Point","coordinates":[175.0,25.75]}},{"type":"Feature","properties":{"kind":"center","id":17,"lat":20.75,"lon":-115.75,"mslp":978.4,"hvtl":77.6,"hvtu":184.4,"hb":2.2,"idx":2.3,"cls":0,"psfc":978.4,"terrain":false,"radius_km":200,"name":"sym deep warm","track":"T48"},"geometry":{"type":"Point","coordinates":[-115.75,20.75]}},{"type":"Feature","properties":{"kind":"center","id":18,"lat":82.25,"lon":48.0,"mslp":982.7,"hvtl":99.1,"hvtu":-164.8,"hb":15.6,"idx":0.6,"cls":3,"psfc":982.7,"terrain":false,"radius_km":200,"name":"asym shallow warm","track":"T61"},"geometry":{"type":"Point","coordinates":[48.0,82.25]}},{"type":"Feature","properties":{"kind":"center","id":19,"lat":82.5,"lon":27.25,"mslp":985.1,"hvtl":221.4,"hvtu":-133.6,"hb":-28.3,"idx":1.1,"cls":1,"psfc":985.1,"terrain":false,"radius_km":200,"name":"sym shallow warm"},"geometry":{"type":"Point","coordinates":[27.25,82.5]}},{"type":"Feature","properties":{"kind":"center","id":20,"lat":-52.75,"lon":-103.75,"mslp":987.3,"hvtl":-118.6,"hvtu":-200.9,"hb":31.1,"idx":-2.6,"cls":4,"psfc":987.3,"terrain":false,"radius_km":200,"name":"asym cold","track":"T65"},"geometry":{"type":"Point","coordinates":[-103.75,-52.75]}},{"type":"Feature","properties":{"kind":"center","id":21,"lat":56.75,"lon":-156.0,"mslp":988.5,"hvtl":-19.3,"hvtu":-154.4,"hb":11.2,"idx":-1.3,"cls":4,"psfc":988.5,"terrain":false,"radius_km":200,"name":"asym cold","track":"T35"},"geometry":{"type":"Point","coordinates":[-156.0,56.75]}},{"type":"Feature","properties":{"kind":"center","id":22,"lat":-43.0,"lon":-36.25,"mslp":990.2,"hvtl":-45.7,"hvtu":-267.6,"hb":48.9,"idx":-1.8,"cls":4,"psfc":990.2,"terrain":false,"radius_km":200,"name":"asym cold","track":"T16"},"geometry":{"type":"Point","coordinates":[-36.25,-43.0]}},{"type":"Feature","properties":{"kind":"center","id":23,"lat":67.25,"lon":-121.5,"mslp":995.0,"hvtl":19.0,"hvtu":-47.8,"hb":29.2,"idx":-0.1,"cls":3,"psfc":945.1,"terrain":false,"radius_km":200,"name":"asym shallow warm","track":"T85"},"geometry":{"type":"Point","coordinates":[-121.5,67.25]}},{"type":"Feature","properties":{"kind":"center","id":24,"lat":63.75,"lon":-14.25,"mslp":996.2,"hvtl":59.0,"hvtu":-286.7,"hb":19.8,"idx":0.1,"cls":3,"psfc":996.1,"terrain":false,"radius_km":200,"name":"asym shallow warm"},"geometry":{"type":"Point","coordinates":[-14.25,63.75]}},{"type":"Feature","properties":{"kind":"center","id":25,"lat":52.25,"lon":-69.5,"mslp":997.4,"hvtl":-73.3,"hvtu":-176.8,"hb":36.3,"idx":-2.2,"cls":4,"psfc":926.8,"terrain":false,"radius_km":200,"name":"asym cold","track":"T57"},"geometry":{"type":"Point","coordinates":[-69.5,52.25]}},{"type":"Feature","properties":{"kind":"center","id":26,"lat":45.5,"lon":138.75,"mslp":999.1,"hvtl":-144.8,"hvtu":-378.6,"hb":61.1,"idx":-2.8,"cls":4,"psfc":999.0,"terrain":false,"radius_km":200,"name":"asym cold","track":"T26"},"geometry":{"type":"Point","coordinates":[138.75,45.5]}},{"type":"Feature","properties":{"kind":"center","id":27,"lat":55.0,"lon":67.75,"mslp":999.2,"hvtl":-76.0,"hvtu":-49.3,"hb":5.7,"idx":-1.7,"cls":5,"psfc":982.4,"terrain":false,"radius_km":200,"name":"sym cold","track":"T77"},"geometry":{"type":"Point","coordinates":[67.75,55.0]}},{"type":"Feature","properties":{"kind":"center","id":28,"lat":61.75,"lon":71.75,"mslp":999.7,"hvtl":-119.3,"hvtu":-190.4,"hb":41.6,"idx":-2.6,"cls":4,"psfc":991.6,"terrain":false,"radius_km":200,"name":"asym cold"},"geometry":{"type":"Point","coordinates":[71.75,61.75]}},{"type":"Feature","properties":{"kind":"center","id":29,"lat":-18.5,"lon":-63.0,"mslp":999.7,"hvtl":-89.8,"hvtu":-44.0,"hb":36.9,"idx":-1.8,"cls":4,"psfc":955.9,"terrain":false,"radius_km":200,"name":"asym cold","track":"T87"},"geometry":{"type":"Point","coordinates":[-63.0,-18.5]}},{"type":"Feature","properties":{"kind":"center","id":30,"lat":61.75,"lon":129.75,"mslp":1000.9,"hvtl":-4.1,"hvtu":-111.1,"hb":48.7,"idx":-0.9,"cls":4,"psfc":983.2,"terrain":false,"radius_km":200,"name":"asym cold","track":"T82"},"geometry":{"type":"Point","coordinates":[129.75,61.75]}},{"type":"Feature","properties":{"kind":"center","id":31,"lat":-52.0,"lon":-59.0,"mslp":1000.9,"hvtl":44.5,"hvtu":-25.2,"hb":-14.6,"idx":0.6,"cls":1,"psfc":998.2,"terrain":false,"radius_km":200,"name":"sym shallow warm","track":"T86"},"geometry":{"type":"Point","coordinates":[-59.0,-52.0]}},{"type":"Feature","properties":{"kind":"center","id":32,"lat":65.25,"lon":-35.25,"mslp":1001.0,"hvtl":-134.0,"hvtu":-88.2,"hb":17.1,"idx":-2.5,"cls":4,"psfc":1001.0,"terrain":false,"radius_km":200,"name":"asym cold","track":"T78"},"geometry":{"type":"Point","coordinates":[-35.25,65.25]}},{"type":"Feature","properties":{"kind":"center","id":33,"lat":-35.75,"lon":-86.75,"mslp":1001.4,"hvtl":-61.9,"hvtu":-126.5,"hb":10.4,"idx":-2.0,"cls":4,"psfc":1001.4,"terrain":false,"radius_km":200,"name":"asym cold","track":"T92"},"geometry":{"type":"Point","coordinates":[-86.75,-35.75]}},{"type":"Feature","properties":{"kind":"center","id":34,"lat":62.5,"lon":83.0,"mslp":1002.1,"hvtl":-1.6,"hvtu":-156.9,"hb":28.5,"idx":-0.9,"cls":4,"psfc":984.1,"terrain":false,"radius_km":200,"name":"asym cold","track":"T91"},"geometry":{"type":"Point","coordinates":[83.0,62.5]}},{"type":"Feature","properties":{"kind":"center","id":35,"lat":70.5,"lon":-24.5,"mslp":1003.2,"hvtl":-34.7,"hvtu":-61.6,"hb":18.3,"idx":-1.2,"cls":4,"psfc":1003.2,"terrain":false,"radius_km":200,"name":"asym cold","track":"T102"},"geometry":{"type":"Point","coordinates":[-24.5,70.5]}},{"type":"Feature","properties":{"kind":"center","id":36,"lat":13.5,"lon":168.75,"mslp":1003.5,"hvtl":-34.4,"hvtu":39.3,"hb":2.7,"idx":-0.3,"cls":6,"psfc":1003.5,"terrain":false,"radius_km":200,"name":"shallow cold"},"geometry":{"type":"Point","coordinates":[168.75,13.5]}},{"type":"Feature","properties":{"kind":"center","id":37,"lat":71.0,"lon":-57.5,"mslp":1004.3,"hvtl":-98.2,"hvtu":-105.7,"hb":12.0,"idx":-2.3,"cls":4,"psfc":1004.3,"terrain":false,"radius_km":200,"name":"asym cold","track":"T69"},"geometry":{"type":"Point","coordinates":[-57.5,71.0]}},{"type":"Feature","properties":{"kind":"center","id":38,"lat":31.0,"lon":70.75,"mslp":1004.3,"hvtl":18.7,"hvtu":-120.8,"hb":10.1,"idx":-0.5,"cls":3,"psfc":987.1,"terrain":false,"radius_km":200,"name":"asym shallow warm","track":"T105"},"geometry":{"type":"Point","coordinates":[70.75,31.0]}},{"type":"Feature","properties":{"kind":"center","id":39,"lat":-24.5,"lon":-64.75,"mslp":1006.7,"hvtl":-140.3,"hvtu":-105.3,"hb":26.9,"idx":-2.6,"cls":4,"psfc":921.6,"terrain":false,"radius_km":200,"name":"asym cold","track":"T98"},"geometry":{"type":"Point","coordinates":[-64.75,-24.5]}},{"type":"Feature","properties":{"kind":"center","id":40,"lat":-26.25,"lon":-65.25,"mslp":1008.0,"hvtl":-75.9,"hvtu":-120.5,"hb":29.4,"idx":-2.1,"cls":4,"psfc":913.8,"terrain":true,"radius_km":200,"name":"asym cold"},"geometry":{"type":"Point","coordinates":[-65.25,-26.25]}},{"type":"Feature","properties":{"kind":"center","id":41,"lat":29.5,"lon":50.75,"mslp":1008.8,"hvtl":63.6,"hvtu":-122.2,"hb":7.1,"idx":0.3,"cls":1,"psfc":1006.5,"terrain":false,"radius_km":200,"name":"sym shallow warm"},"geometry":{"type":"Point","coordinates":[50.75,29.5]}},{"type":"Feature","properties":{"kind":"center","id":42,"lat":-39.75,"lon":157.5,"mslp":1009.8,"hvtl":-32.1,"hvtu":-59.5,"hb":16.7,"idx":-1.2,"cls":4,"psfc":1009.9,"terrain":false,"radius_km":200,"name":"asym cold"},"geometry":{"type":"Point","coordinates":[157.5,-39.75]}},{"type":"Feature","properties":{"kind":"center","id":43,"lat":-17.5,"lon":29.5,"mslp":1010.0,"hvtl":75.6,"hvtu":-166.9,"hb":44.9,"idx":0.3,"cls":3,"psfc":911.7,"terrain":true,"radius_km":200,"name":"asym shallow warm"},"geometry":{"type":"Point","coordinates":[29.5,-17.5]}},{"type":"Feature","properties":{"kind":"center","id":44,"lat":30.75,"lon":58.5,"mslp":1010.4,"hvtl":179.2,"hvtu":-101.0,"hb":53.8,"idx":1.1,"cls":3,"psfc":977.7,"terrain":false,"radius_km":200,"name":"asym shallow warm","track":"T125"},"geometry":{"type":"Point","coordinates":[58.5,30.75]}},{"type":"Feature","properties":{"kind":"center","id":45,"lat":23.0,"lon":95.5,"mslp":1010.6,"hvtl":-1.3,"hvtu":-62.7,"hb":12.1,"idx":-0.6,"cls":4,"psfc":995.3,"terrain":false,"radius_km":200,"name":"asym cold","track":"T118"},"geometry":{"type":"Point","coordinates":[95.5,23.0]}},{"type":"Feature","properties":{"kind":"center","id":46,"lat":28.5,"lon":65.5,"mslp":1010.9,"hvtl":82.5,"hvtu":-72.9,"hb":0.8,"idx":0.7,"cls":1,"psfc":930.7,"terrain":false,"radius_km":200,"name":"sym shallow warm","track":"T109"},"geometry":{"type":"Point","coordinates":[65.5,28.5]}},{"type":"Feature","properties":{"kind":"center","id":47,"lat":29.25,"lon":65.5,"mslp":1012.4,"hvtl":81.6,"hvtu":-82.7,"hb":2.7,"idx":0.7,"cls":1,"psfc":914.6,"terrain":true,"radius_km":200,"name":"sym shallow warm"},"geometry":{"type":"Point","coordinates":[65.5,29.25]}},{"type":"Feature","properties":{"kind":"center","id":48,"lat":23.25,"lon":98.5,"mslp":1014.6,"hvtl":116.4,"hvtu":-71.2,"hb":-14.5,"idx":1.0,"cls":1,"psfc":904.6,"terrain":true,"radius_km":200,"name":"sym shallow warm"},"geometry":{"type":"Point","coordinates":[98.5,23.25]}},{"type":"Feature","properties":{"kind":"center","id":49,"lat":-31.25,"lon":-178.5,"mslp":1015.8,"hvtl":36.5,"hvtu":-139.9,"hb":45.6,"idx":-0.2,"cls":3,"psfc":1015.8,"terrain":false,"radius_km":200,"name":"asym shallow warm","track":"T130"},"geometry":{"type":"Point","coordinates":[-178.5,-31.25]}},{"type":"Feature","properties":{"kind":"center","id":50,"lat":31.0,"lon":60.5,"mslp":1016.5,"hvtl":234.7,"hvtu":-92.8,"hb":52.6,"idx":1.2,"cls":3,"psfc":915.6,"terrain":true,"radius_km":200,"name":"asym shallow warm"},"geometry":{"type":"Point","coordinates":[60.5,31.0]}}]}