{"type":"FeatureCollection","features":[{"type":"Feature","properties":{"kind":"blob","cls":2,"id":1},"geometry":{"type":"Polygon","coordinates":[[[179.75,-67.38],[180.0,-63.62],[179.0,-63.62],[177.75,-64.12],[176.62,-65.25],[176.62,-65.75],[177.75,-66.88],[179.75,-67.38]]]}},{"type":"Feature","properties":{"kind":"blob","cls":2,"id":1},"geometry":{"type":"Polygon","coordinates":[[[-179.75,-63.62],[-180.0,-67.38],[-179.5,-67.62],[-175.25,-67.38],[-174.0,-66.88],[-173.12,-66.0],[-173.12,-65.25],[-175.0,-63.88],[-177.25,-63.38],[-179.75,-63.62]]]}},{"type":"Feature","properties":{"kind":"blob","cls":6,"id":2},"geometry":{"type":"MultiPolygon","coordinates":[[[[-121.25,-70.12],[-121.38,-70.25],[-121.25,-70.38],[-121.25,-70.12]]],[[[-112.25,-71.38],[-110.75,-70.88],[-109.88,-70.0],[-109.88,-69.25],[-110.75,-68.38],[-114.0,-67.62],[-117.5,-67.62],[-120.0,-68.12],[-118.62,-69.0],[-118.62,-70.0],[-121.12,-70.5],[-119.25,-71.38],[-112.25,-71.38]]]]}},{"type":"Feature","properties":{"kind":"blob","cls":1,"id":3},"geometry":{"type":"Polygon","coordinates":[[[0.0,-61.12],[2.5,-60.38],[4.12,-59.25],[4.12,-58.25],[3.0,-57.12],[1.0,-56.38],[-3.0,-56.62],[-4.62,-57.75],[-4.88,-59.5],[-3.5,-60.62],[0.0,-61.12]],[[-0.75,-59.12],[-1.62,-58.5],[-0.75,-57.62],[0.0,-57.62],[0.38,-58.5],[-0.75,-59.12]]]}},{"type":"Feature","properties":{"kind":"blob","cls":2,"id":4},"geometry":{"type":"MultiPolygon","coordinates":[[[[-42.75,61.62],[-42.88,61.5],[-42.75,61.38],[-42.75,61.62]]],[[[-39.5,59.88],[-38.5,60.38],[-37.75,61.38],[-35.0,61.38],[-32.25,62.12],[-30.88,63.5],[-31.75,64.62],[-33.0,65.12],[-38.5,65.12],[-41.0,63.38],[-42.88,62.75],[-42.5,61.62],[-39.5,61.62],[-39.12,61.25],[-40.25,60.62],[-43.25,60.88],[-43.62,60.5],[-43.38,60.25],[-43.88,60.0],[-39.5,59.88]]]]}},{"type":"Feature","properties":{"kind":"blob","cls":3,"id":5},"geometry":{"type":"Polygon","coordinates":[[[29.0,-52.38],[30.5,-51.88],[31.62,-50.5],[31.38,-49.5],[30.75,-48.88],[29.25,-48.38],[26.25,-48.88],[25.62,-49.5],[25.38,-50.5],[26.5,-51.88],[29.0,-52.38]]]}},{"type":"Feature","properties":{"kind":"blob","cls":1,"id":6},"geometry":{"type":"Polygon","coordinates":[[[-108.5,-55.88],[-107.5,-55.38],[-106.88,-54.5],[-107.12,-53.5],[-108.12,-52.25],[-106.88,-50.75],[-106.88,-49.75],[-108.25,-48.38],[-110.75,-48.12],[-112.25,-48.62],[-113.38,-50.0],[-112.88,-51.5],[-114.38,-52.5],[-114.88,-53.5],[-114.25,-54.62],[-112.25,-55.62],[-108.5,-55.88]]]}},{"type":"Feature","properties":{"kind":"blob","cls":4,"id":7},"geometry":{"type":"Polygon","coordinates":[[[111.0,-66.62],[111.25,-66.12],[113.0,-65.88],[114.5,-66.62],[115.38,-65.75],[115.38,-65.25],[114.62,-64.5],[116.5,-63.88],[117.12,-63.25],[117.12,-62.25],[116.0,-61.38],[114.0,-60.88],[109.25,-60.62],[107.25,-61.12],[106.38,-61.75],[106.12,-62.75],[107.62,-64.0],[105.75,-64.62],[104.88,-65.5],[104.88,-66.0],[105.25,-66.38],[111.0,-66.62]]]}},{"type":"Feature","properties":{"kind":"blob","cls":1,"id":8},"geometry":{"type":"Polygon","coordinates":[[[-45.38,61.0],[-45.25,60.88],[-45.12,61.0],[-45.38,61.0]]]}},{"type":"Feature","properties":{"kind":"blob","cls":4,"id":9},"geometry":{"type":"Polygon","coordinates":[[[-137.25,-59.62],[-134.0,-58.38],[-131.88,-56.5],[-131.88,-55.5],[-131.5,-55.12],[-129.75,-54.62],[-128.88,-53.75],[-128.62,-52.25],[-129.5,-51.38],[-131.0,-50.88],[-132.25,-50.88],[-134.25,-51.62],[-135.38,-52.5],[-135.88,-53.5],[-135.75,-54.12],[-136.75,-54.12],[-138.5,-55.38],[-140.5,-55.88],[-142.12,-57.0],[-142.12,-58.5],[-140.75,-59.38],[-137.25,-59.62]]]}},{"type":"Feature","properties":{"kind":"blob","cls":4,"id":10},"geometry":{"type":"Polygon","coordinates":[[[66.75,-56.38],[69.5,-55.38],[70.38,-54.0],[70.12,-53.0],[69.5,-52.38],[67.5,-51.62],[64.25,-52.12],[62.75,-52.88],[62.12,-53.75],[62.38,-55.0],[63.75,-55.88],[66.75,-56.38]]]}},{"type":"Feature","properties":{"kind":"blob","cls":2,"id":11},"geometry":{"type":"Polygon","coordinates":[[[149.75,30.62],[150.88,31.75],[150.62,33.5],[149.0,34.38],[147.0,33.88],[146.38,33.0],[146.62,31.5],[147.25,30.88],[149.75,30.62]]]}},{"type":"Feature","properties":{"kind":"blob","cls":4,"id":12},"geometry":{"type":"Polygon","coordinates":[[[-13.5,56.62],[-11.0,57.62],[-10.38,58.25],[-10.38,59.5],[-11.25,60.38],[-13.0,60.88],[-15.25,60.88],[-17.0,60.38],[-17.88,59.5],[-17.88,58.25],[-17.0,57.38],[-13.5,56.62]]]}},{"type":"Feature","properties":{"kind":"blob","cls":0,"id":13},"geometry":{"type":"Polygon","coordinates":[[[80.0,67.12],[83.25,67.88],[84.88,69.0],[85.38,70.0],[84.5,71.12],[83.5,71.62],[81.75,70.62],[79.75,70.62],[78.75,71.12],[78.0,72.12],[74.5,71.62],[72.88,70.5],[72.88,69.25],[73.75,68.38],[76.0,67.38],[80.0,67.12]]]}},{"type":"Feature","properties":{"kind":"blob","cls":6,"id":14},"geometry":{"type":"Polygon","coordinates":[[[38.25,-68.62],[39.0,-68.62],[48.38,-66.5],[46.0,-65.88],[41.0,-66.12],[38.5,-67.12],[37.88,-68.0],[38.25,-68.62]]]}},{"type":"Feature","properties":{"kind":"blob","cls":4,"id":15},"geometry":{"type":"Polygon","coordinates":[[[32.25,85.38],[44.5,86.12],[49.5,86.88],[49.88,87.25],[49.5,87.62],[46.5,88.12],[33.0,88.88],[-3.5,89.12],[-14.0,88.88],[-30.38,86.75],[-29.25,86.38],[-19.75,85.62],[32.25,85.38]]]}},{"type":"Feature","properties":{"kind":"blob","cls":4,"id":16},"geometry":{"type":"Polygon","coordinates":[[[-84.75,72.12],[-82.5,72.88],[-81.62,74.0],[-82.0,74.62],[-84.5,75.12],[-84.5,75.62],[-85.75,76.12],[-90.75,76.88],[-96.75,76.62],[-98.75,76.12],[-100.38,75.0],[-100.0,74.12],[-98.0,73.12],[-93.0,72.12],[-84.75,72.12]]]}},{"type":"Feature","properties":{"kind":"blob","cls":4,"id":17},"geometry":{"type":"Polygon","coordinates":[[[-130.5,78.38],[-123.25,79.12],[-118.75,80.38],[-118.38,81.25],[-119.0,81.88],[-121.25,82.62],[-130.25,83.62],[-146.0,83.38],[-150.5,82.62],[-151.88,81.75],[-151.25,81.12],[-149.75,80.62],[-144.75,79.88],[-143.0,79.12],[-140.0,78.62],[-130.5,78.38]]]}},{"type":"Feature","properties":{"kind":"blob","cls":4,"id":18},"geometry":{"type":"Polygon","coordinates":[[[-34.62,-77.75],[-34.25,-78.12],[-32.75,-77.38],[-31.25,-77.38],[-28.0,-76.38],[-21.5,-76.12],[-20.62,-75.75],[-21.0,-75.38],[-25.5,-75.38],[-30.5,-75.88],[-33.5,-76.62],[-34.62,-77.75]]]}},{"type":"Feature","properties":{"kind":"blob","cls":4,"id":19},"geometry":{"type":"Polygon","coordinates":[[[-50.75,46.88],[-46.75,47.88],[-45.62,48.75],[-45.62,50.25],[-47.75,51.38],[-52.75,51.38],[-54.62,50.0],[-54.88,49.25],[-54.25,47.88],[-50.75,46.88]]]}},{"type":"Feature","properties":{"kind":"blob","cls":1,"id":20},"geometry":{"type":"Polygon","coordinates":[[[-167.5,60.62],[-165.5,61.12],[-163.88,62.5],[-163.88,63.75],[-165.0,64.62],[-167.75,65.38],[-169.75,63.38],[-172.88,61.5],[-171.75,60.88],[-167.5,60.62]]]}},{"type":"Feature","properties":{"kind":"blob","cls":4,"id":21},"geometry":{"type":"Polygon","coordinates":[[[-31.0,-79.12],[-28.88,-78.5],[-33.38,-78.75],[-31.0,-79.12]]]}},{"type":"Feature","properties":{"kind":"blob","cls":1,"id":22},"geometry":{"type":"Polygon","coordinates":[[[146.5,-49.88],[149.5,-48.62],[150.38,-47.75],[150.38,-46.5],[149.5,-45.62],[148.25,-45.12],[145.25,-45.38],[143.0,-46.12],[141.88,-47.25],[141.88,-48.25],[142.75,-49.12],[146.5,-49.88]]]}},{"type":"Feature","properties":{"kind":"blob","cls":4,"id":23},"geometry":{"type":"Polygon","coordinates":[[[-61.0,39.88],[-59.0,40.88],[-58.62,41.5],[-58.88,43.0],[-60.5,43.88],[-62.0,43.88],[-63.5,43.12],[-63.88,41.25],[-63.5,40.62],[-61.0,39.88]]]}},{"type":"Feature","properties":{"kind":"blob","cls":3,"id":24},"geometry":{"type":"Polygon","coordinates":[[[130.75,52.38],[132.62,53.5],[132.88,54.5],[132.5,54.88],[131.25,54.62],[131.0,55.12],[128.75,55.62],[128.0,54.88],[126.5,54.62],[125.75,55.62],[125.12,54.75],[125.62,54.5],[125.12,54.25],[125.38,53.25],[126.75,52.38],[130.75,52.38]],[[131.25,53.62],[131.12,53.75],[131.5,53.88],[131.25,53.62]]]}},{"type":"Feature","properties":{"kind":"blob","cls":0,"id":25},"geometry":{"type":"Polygon","coordinates":[[[-25.5,14.62],[-24.12,15.5],[-23.88,17.0],[-24.75,18.12],[-26.25,18.38],[-27.62,17.5],[-27.88,16.0],[-27.0,14.88],[-25.5,14.62]]]}},{"type":"Feature","properties":{"kind":"blob","cls":4,"id":26},"geometry":{"type":"Polygon","coordinates":[[[-64.38,-22.75],[-64.25,-23.12],[-63.75,-23.12],[-62.88,-22.25],[-62.88,-20.5],[-63.25,-20.12],[-63.5,-20.88],[-64.12,-21.0],[-63.62,-21.75],[-64.38,-22.75]]]}},{"type":"Feature","properties":{"kind":"blob","cls":4,"id":27},"geometry":{"type":"Polygon","coordinates":[[[-23.0,-38.62],[-19.0,-38.88],[-16.62,-37.25],[-16.62,-35.75],[-19.0,-34.12],[-20.0,-34.12],[-22.75,-35.12],[-24.38,-36.25],[-24.38,-37.75],[-23.0,-38.62]]]}},{"type":"Feature","properties":{"kind":"blob","cls":4,"id":28},"geometry":{"type":"MultiPolygon","coordinates":[[[[-63.5,-17.88],[-63.62,-18.0],[-63.5,-18.12],[-63.5,-17.88]]],[[[-63.62,-17.75],[-64.25,-16.88],[-66.12,-16.5],[-65.5,-17.12],[-63.62,-17.75]]]]}},{"type":"Feature","properties":{"kind":"blob","cls":4,"id":29},"geometry":{"type":"Polygon","coordinates":[[[-63.5,-19.12],[-63.38,-18.75],[-63.5,-18.62],[-63.5,-19.12]]]}},{"type":"Feature","properties":{"kind":"blob","cls":4,"id":30},"geometry":{"type":"Polygon","coordinates":[[[-66.38,-28.75],[-66.12,-28.0],[-66.5,-27.62],[-66.88,-28.0],[-66.38,-28.75]]]}},{"type":"Feature","properties":{"kind":"blob","cls":4,"id":31},"geometry":{"type":"MultiPolygon","coordinates":[[[[-65.25,-28.62],[-64.12,-27.0],[-64.12,-25.0],[-64.5,-24.62],[-65.12,-25.75],[-64.88,-26.5],[-65.25,-26.12],[-65.88,-27.25],[-65.25,-28.62]]],[[[-64.75,-24.38],[-64.88,-24.5],[-64.75,-24.62],[-64.75,-24.38]]]]}},{"type":"Feature","properties":{"kind":"blob","cls":3,"id":32},"geometry":{"type":"Polygon","coordinates":[[[-68.75,-33.12],[-68.0,-32.88],[-67.38,-32.0],[-67.5,-31.38],[-68.12,-31.5],[-67.62,-31.0],[-68.25,-30.12],[-68.62,-30.75],[-68.38,-31.0],[-68.75,-33.12]]]}},{"type":"Feature","properties":{"kind":"blob","cls":3,"id":33},"geometry":{"type":"MultiPolygon","coordinates":[[[[-66.0,-28.62],[-66.12,-28.75],[-66.0,-28.88],[-66.0,-28.62]]],[[[-65.75,-28.38],[-65.88,-28.5],[-65.75,-28.62],[-65.75,-28.38]]]]}},{"type":"Feature","properties":{"kind":"blob","cls":4,"id":34},"geometry":{"type":"Polygon","coordinates":[[[-68.25,-51.88],[-66.25,-51.38],[-64.62,-50.0],[-64.62,-48.25],[-66.25,-46.38],[-68.75,-45.88],[-71.38,-47.5],[-71.38,-48.5],[-72.12,-50.0],[-71.0,-51.38],[-68.25,-51.88]]]}},{"type":"Feature","properties":{"kind":"blob","cls":3,"id":35},"geometry":{"type":"Polygon","coordinates":[[[-70.12,-13.5],[-70.0,-13.62],[-69.88,-13.5],[-70.12,-13.5]]]}},{"type":"Feature","properties":{"kind":"blob","cls":2,"id":36},"geometry":{"type":"Polygon","coordinates":[[[37.75,0.62],[38.38,1.75],[38.12,3.0],[36.75,4.12],[35.25,3.62],[35.12,3.0],[36.38,2.5],[36.5,1.62],[36.75,2.38],[37.38,1.75],[37.75,0.62]]]}},{"type":"Feature","properties":{"kind":"blob","cls":3,"id":37},"geometry":{"type":"Polygon","coordinates":[[[129.88,56.25],[130.0,56.12],[130.12,56.25],[129.88,56.25]]]}},{"type":"Feature","properties":{"kind":"blob","cls":5,"id":38},"geometry":{"type":"Polygon","coordinates":[[[-113.0,50.62],[-112.38,51.25],[-112.38,52.25],[-113.5,53.38],[-115.25,54.38],[-117.62,54.5],[-116.25,54.12],[-116.25,53.38],[-114.5,52.88],[-113.0,50.62]]]}},{"type":"Feature","properties":{"kind":"blob","cls":4,"id":39},"geometry":{"type":"Polygon","coordinates":[[[29.75,-34.38],[31.25,-34.38],[32.38,-33.25],[32.12,-31.0],[31.0,-29.88],[30.25,-29.88],[29.5,-30.88],[29.0,-30.88],[28.5,-31.62],[27.62,-32.0],[28.38,-33.75],[29.75,-34.38]]]}},{"type":"Feature","properties":{"kind":"blob","cls":4,"id":40},"geometry":{"type":"Polygon","coordinates":[[[-76.5,-35.62],[-74.88,-34.75],[-74.62,-33.25],[-75.25,-32.38],[-77.0,-31.88],[-78.62,-32.75],[-78.62,-34.75],[-76.5,-35.62]]]}},{"type":"Feature","properties":{"kind":"blob","cls":5,"id":41},"geometry":{"type":"Polygon","coordinates":[[[37.0,40.38],[37.0,40.88],[40.75,40.88],[42.38,42.0],[41.75,42.88],[40.75,43.38],[37.75,43.62],[36.25,42.88],[35.88,42.25],[35.88,41.0],[37.0,40.38]]]}},{"type":"Feature","properties":{"kind":"blob","cls":4,"id":42},"geometry":{"type":"Polygon","coordinates":[[[-71.25,-32.62],[-70.62,-32.75],[-71.12,-32.0],[-71.0,-30.38],[-71.62,-31.0],[-71.25,-32.62]]]}},{"type":"Feature","properties":{"kind":"blob","cls":5,"id":43},"geometry":{"type":"Polygon","coordinates":[[[97.25,22.38],[98.0,22.62],[98.12,23.25],[97.5,23.38],[97.0,22.62],[96.88,23.25],[97.38,23.5],[97.38,24.0],[95.5,25.62],[94.88,25.0],[94.88,23.5],[95.75,22.62],[97.25,22.38]]]}},{"type":"Feature","properties":{"kind":"blob","cls":1,"id":44},"geometry":{"type":"Polygon","coordinates":[[[98.38,23.25],[98.5,23.12],[98.62,23.25],[98.38,23.25]]]}},{"type":"Feature","properties":{"kind":"center","id":1,"lat":-65.5,"lon":-178.25,"mslp":945.4,"hvtl":45.3,"hvtu":0.7,"hb":11.4,"idx":0.9,"cls":2,"psfc":945.4,"terrain":false,"radius_km":200,"name":"asym deep warm","track":"T04"},"geometry":{"type":"Point","coordinates":[-178.25,-65.5]}},{"type":"Feature","properties":{"kind":"center","id":2,"lat":-69.75,"lon":-115.5,"mslp":955.9,"hvtl":-9.1,"hvtu":3.0,"hb":13.2,"idx":-0.2,"cls":6,"psfc":955.9,"terrain":false,"radius_km":200,"name":"shallow cold","track":"T12"},"geometry":{"type":"Point","coordinates":[-115.5,-69.75]}},{"type":"Feature","properties":{"kind":"center","id":3,"lat":-59.0,"lon":-1.25,"mslp":958.9,"hvtl":118.0,"hvtu":-67.1,"hb":-7.9,"idx":1.1,"cls":1,"psfc":958.9,"terrain":false,"radius_km":200,"name":"sym shallow warm","track":"T19"},"geometry":{"type":"Point","coordinates":[-1.25,-59.0]}},{"type":"Feature","properties":{"kind":"center","id":4,"lat":61.75,"lon":-41.5,"mslp":962.7,"hvtl":118.4,"hvtu":41.4,"hb":27.5,"idx":2.0,"cls":2,"psfc":962.7,"terrain":false,"radius_km":200,"name":"asym deep warm","track":"T14"},"geometry":{"type":"Point","coordinates":[-41.5,61.75]}},{"type":"Feature","properties":{"kind":"center","id":5,"lat":-50.25,"lon":28.5,"mslp":964.4,"hvtl":5.9,"hvtu":-332.0,"hb":45.6,"idx":-0.9,"cls":3,"psfc":964.4,"terrain":false,"radius_km":200,"name":"asym shallow warm","track":"T29"},"geometry":{"type":"Point","coordinates":[28.5,-50.25]}},{"type":"Feature","properties":{"kind":"center","id":6,"lat":-50.25,"lon":-110.25,"mslp":965.3,"hvtl":4.1,"hvtu":-216.1,"hb":-0.8,"idx":-0.9,"cls":1,"psfc":965.3,"terrain":false,"radius_km":200,"name":"sym shallow warm","track":"T26"},"geometry":{"type":"Point","coordinates":[-110.25,-50.25]}},{"type":"Feature","properties":{"kind":"center","id":7,"lat":-65.75,"lon":110.5,"mslp":967.1,"hvtl":-299.2,"hvtu":-54.8,"hb":72.5,"idx":-2.5,"cls":4,"psfc":967.1,"terrain":false,"radius_km":200,"name":"asym cold","track":"T33"},"geometry":{"type":"Point","coordinates":[110.5,-65.75]}},{"type":"Feature","properties":{"kind":"center","id":8,"lat":61.0,"lon":-45.25,"mslp":968.5,"hvtl":276.6,"hvtu":-43.0,"hb":-24.9,"idx":1.6,"cls":1,"psfc":915.1,"terrain":false,"radius_km":200,"name":"sym shallow warm","track":"T17"},"geometry":{"type":"Point","coordinates":[-45.25,61.0]}},{"type":"Feature","properties":{"kind":"center","id":9,"lat":-57.5,"lon":-137.75,"mslp":973.5,"hvtl":-65.8,"hvtu":-15.4,"hb":40.0,"idx":-1.3,"cls":4,"psfc":973.5,"terrain":false,"radius_km":200,"name":"asym cold"},"geometry":{"type":"Point","coordinates":[-137.75,-57.5]}},{"type":"Feature","properties":{"kind":"center","id":10,"lat":-54.0,"lon":66.25,"mslp":978.0,"hvtl":-315.1,"hvtu":-350.8,"hb":52.1,"idx":-3.0,"cls":4,"psfc":978.0,"terrain":false,"radius_km":200,"name":"asym cold","track":"T13"},"geometry":{"type":"Point","coordinates":[66.25,-54.0]}},{"type":"Feature","properties":{"kind":"center","id":11,"lat":32.5,"lon":148.75,"mslp":982.1,"hvtl":62.8,"hvtu":171.6,"hb":13.1,"idx":2.1,"cls":2,"psfc":982.1,"terrain":false,"radius_km":200,"name":"asym deep warm","track":"T09"},"geometry":{"type":"Point","coordinates":[148.75,32.5]}},{"type":"Feature","properties":{"kind":"center","id":12,"lat":59.0,"lon":-14.25,"mslp":983.3,"hvtl":-331.8,"hvtu":-488.5,"hb":79.4,"idx":-3.0,"cls":4,"psfc":983.3,"terrain":false,"radius_km":200,"name":"asym cold","track":"T32"},"geometry":{"type":"Point","coordinates":[-14.25,59.0]}},{"type":"Feature","properties":{"kind":"center","id":13,"lat":69.75,"lon":79.0,"mslp":985.1,"hvtl":80.6,"hvtu":11.8,"hb":-10.6,"idx":1.5,"cls":0,"psfc":981.9,"terrain":false,"radius_km":200,"name":"sym deep warm","track":"T57"},"geometry":{"type":"Point","coordinates":[79.0,69.75]}},{"type":"Feature","properties":{"kind":"center","id":14,"lat":-66.75,"lon":47.5,"mslp":989.6,"hvtl":-54.5,"hvtu":9.1,"hb":5.8,"idx":-0.9,"cls":6,"psfc":989.6,"terrain":false,"radius_km":200,"name":"shallow cold"},"geometry":{"type":"Point","coordinates":[47.5,-66.75]}},{"type":"Feature","properties":{"kind":"center","id":15,"lat":87.0,"lon":8.75,"mslp":990.1,"hvtl":-71.1,"hvtu":-73.4,"hb":23.4,"idx":-1.8,"cls":4,"psfc":990.1,"terrain":false,"radius_km":200,"name":"asym cold","track":"T59"},"geometry":{"type":"Point","coordinates":[8.75,87.0]}},{"type":"Feature","properties":{"kind":"center","id":16,"lat":74.75,"lon":-92.5,"mslp":990.4,"hvtl":-153.6,"hvtu":-208.6,"hb":58.6,"idx":-2.8,"cls":4,"psfc":990.3,"terrain":false,"radius_km":200,"name":"asym cold","track":"T68"},"geometry":{"type":"Point","coordinates":[-92.5,74.75]}},{"type":"Feature","properties":{"kind":"center","id":17,"lat":81.25,"lon":-133.0,"mslp":991.9,"hvtl":-22.7,"hvtu":-67.7,"hb":24.0,"idx":-1.0,"cls":4,"psfc":991.9,"terrain":false,"radius_km":200,"name":"asym cold","track":"T72"},"geometry":{"type":"Point","coordinates":[-133.0,81.25]}},{"type":"Feature","properties":{"kind":"center","id":18,"lat":-76.0,"lon":-23.25,"mslp":992.0,"hvtl":-241.9,"hvtu":-24.4,"hb":54.5,"idx":-2.2,"cls":4,"psfc":909.4,"terrain":false,"radius_km":200,"name":"asym cold","track":"T56"},"geometry":{"type":"Point","coordinates":[-23.25,-76.0]}},{"type":"Feature","properties":{"kind":"center","id":19,"lat":49.25,"lon":-51.5,"mslp":992.5,"hvtl":-419.5,"hvtu":-474.4,"hb":126.8,"idx":-3.0,"cls":4,"psfc":992.5,"terrain":false,"radius_km":200,"name":"asym cold","track":"T10"},"geometry":{"type":"Point","coordinates":[-51.5,49.25]}},{"type":"Feature","properties":{"kind":"center","id":20,"lat":63.0,"lon":-169.5,"mslp":993.0,"hvtl":99.3,"hvtu":-190.6,"hb":8.5,"idx":0.6,"cls":1,"psfc":992.5,"terrain":false,"radius_km":200,"name":"sym shallow warm","track":"T48"},"geometry":{"type":"Point","coordinates":[-169.5,63.0]}},{"type":"Feature","properties":{"kind":"center","id":21,"lat":-78.5,"lon":-30.75,"mslp":994.8,"hvtl":-120.1,"hvtu":-76.7,"hb":11.7,"idx":-2.3,"cls":4,"psfc":903.4,"terrain":true,"radius_km":200,"name":"asym cold"},"geometry":{"type":"Point","coordinates":[-30.75,-78.5]}},{"type":"Feature","properties":{"kind":"center","id":22,"lat":-47.5,"lon":146.25,"mslp":995.7,"hvtl":32.7,"hvtu":-337.1,"hb":-3.6,"idx":-0.4,"cls":1,"psfc":995.7,"terrain":false,"radius_km":200,"name":"sym shallow warm","track":"T55"},"geometry":{"type":"Point","coordinates":[146.25,-47.5]}},{"type":"Feature","properties":{"kind":"center","id":23,"lat":42.0,"lon":-61.5,"mslp":996.6,"hvtl":-177.4,"hvtu":-258.8,"hb":61.9,"idx":-2.9,"cls":4,"psfc":996.6,"terrain":false,"radius_km":200,"name":"asym cold","track":"T64"},"geometry":{"type":"Point","coordinates":[-61.5,42.0]}},{"type":"Feature","properties":{"kind":"center","id":24,"lat":54.25,"lon":128.75,"mslp":999.8,"hvtl":175.1,"hvtu":-156.4,"hb":36.4,"idx":1.0,"cls":3,"psfc":955.8,"terrain":false,"radius_km":200,"name":"asym shallow warm","track":"T83"},"geometry":{"type":"Point","coordinates":[128.75,54.25]}},{"type":"Feature","properties":{"kind":"center","id":25,"lat":16.5,"lon":-26.0,"mslp":1000.5,"hvtl":136.5,"hvtu":36.9,"hb":0.2,"idx":2.1,"cls":0,"psfc":1000.5,"terrain":false,"radius_km":200,"name":"sym deep warm","track":"T86"},"geometry":{"type":"Point","coordinates":[-26.0,16.5]}},{"type":"Feature","properties":{"kind":"center","id":26,"lat":-21.0,"lon":-64.0,"mslp":1002.8,"hvtl":-127.9,"hvtu":-258.4,"hb":51.4,"idx":-2.7,"cls":4,"psfc":913.5,"terrain":false,"radius_km":200,"name":"asym cold"},"geometry":{"type":"Point","coordinates":[-64.0,-21.0]}},{"type":"Feature","properties":{"kind":"center","id":27,"lat":-36.5,"lon":-20.0,"mslp":1002.9,"hvtl":-241.6,"hvtu":-329.1,"hb":84.7,"idx":-3.0,"cls":4,"psfc":1002.9,"terrain":false,"radius_km":200,"name":"asym cold","track":"T05"},"geometry":{"type":"Point","coordinates":[-20.0,-36.5]}},{"type":"Feature","properties":{"kind":"center","id":28,"lat":-17.25,"lon":-64.0,"mslp":1003.4,"hvtl":-161.3,"hvtu":-142.2,"hb":38.7,"idx":-2.7,"cls":4,"psfc":972.6,"terrain":false,"radius_km":200,"name":"asym cold","track":"T92"},"geometry":{"type":"Point","coordinates":[-64.0,-17.25]}},{"type":"Feature","properties":{"kind":"center","id":29,"lat":-18.75,"lon":-63.5,"mslp":1003.4,"hvtl":-152.1,"hvtu":-202.3,"hb":55.0,"idx":-2.8,"cls":4,"psfc":927.2,"terrain":false,"radius_km":200,"name":"asym cold"},"geometry":{"type":"Point","coordinates":[-63.5,-18.75]}},{"type":"Feature","properties":{"kind":"center","id":30,"lat":-27.75,"lon":-66.5,"mslp":1003.5,"hvtl":-37.7,"hvtu":-252.6,"hb":23.5,"idx":-1.7,"cls":4,"psfc":911.1,"terrain":true,"radius_km":200,"name":"asym cold"},"geometry":{"type":"Point","coordinates":[-66.5,-27.75]}},{"type":"Feature","properties":{"kind":"center","id":31,"lat":-24.5,"lon":-64.75,"mslp":1003.7,"hvtl":-125.1,"hvtu":-302.3,"hb":49.4,"idx":-2.7,"cls":4,"psfc":919.1,"terrain":false,"radius_km":200,"name":"asym cold","track":"T96"},"geometry":{"type":"Point","coordinates":[-64.75,-24.5]}},{"type":"Feature","properties":{"kind":"center","id":32,"lat":-30.25,"lon":-68.25,"mslp":1003.8,"hvtl":16.4,"hvtu":-186.2,"hb":21.6,"idx":-0.6,"cls":3,"psfc":911.9,"terrain":true,"radius_km":200,"name":"asym shallow warm"},"geometry":{"type":"Point","coordinates":[-68.25,-30.25]}},{"type":"Feature","properties":{"kind":"center","id":33,"lat":-28.5,"lon":-65.75,"mslp":1006.4,"hvtl":22.8,"hvtu":-186.2,"hb":22.6,"idx":-0.5,"cls":3,"psfc":928.3,"terrain":false,"radius_km":200,"name":"asym shallow warm","track":"T101"},"geometry":{"type":"Point","coordinates":[-65.75,-28.5]}},{"type":"Feature","properties":{"kind":"center","id":34,"lat":-49.25,"lon":-67.75,"mslp":1007.2,"hvtl":-55.5,"hvtu":-165.1,"hb":22.5,"idx":-1.9,"cls":4,"psfc":998.2,"terrain":false,"radius_km":200,"name":"asym cold","track":"T105"},"geometry":{"type":"Point","coordinates":[-67.75,-49.25]}},{"type":"Feature","properties":{"kind":"center","id":35,"lat":-13.5,"lon":-70.0,"mslp":1008.0,"hvtl":29.8,"hvtu":-52.8,"hb":23.2,"idx":0.1,"cls":3,"psfc":907.0,"terrain":true,"radius_km":200,"name":"asym shallow warm"},"geometry":{"type":"Point","coordinates":[-70.0,-13.5]}},{"type":"Feature","properties":{"kind":"center","id":36,"lat":2.0,"lon":36.5,"mslp":1008.8,"hvtl":98.9,"hvtu":4.2,"hb":13.1,"idx":1.6,"cls":2,"psfc":950.7,"terrain":false,"radius_km":200,"name":"asym deep warm"},"geometry":{"type":"Point","coordinates":[36.5,2.0]}},{"type":"Feature","properties":{"kind":"center","id":37,"lat":56.25,"lon":130.0,"mslp":1008.9,"hvtl":174.2,"hvtu":-109.3,"hb":24.0,"idx":1.1,"cls":3,"psfc":904.6,"terrain":true,"radius_km":200,"name":"asym shallow warm"},"geometry":{"type":"Point","coordinates":[130.0,56.25]}},{"type":"Feature","properties":{"kind":"center","id":38,"lat":54.5,"lon":-117.5,"mslp":1009.9,"hvtl":-4.1,"hvtu":-179.5,"hb":1.2,"idx":-1.0,"cls":5,"psfc":907.8,"terrain":true,"radius_km":200,"name":"sym cold"},"geometry":{"type":"Point","coordinates":[-117.5,54.5]}},{"type":"Feature","properties":{"kind":"center","id":39,"lat":-31.5,"lon":30.0,"mslp":1010.0,"hvtl":-105.1,"hvtu":-39.0,"hb":63.6,"idx":-1.9,"cls":4,"psfc":1009.9,"terrain":false,"radius_km":200,"name":"asym cold"},"geometry":{"type":"Point","coordinates":[30.0,-31.5]}},{"type":"Feature","properties":{"kind":"center","id":40,"lat":-33.75,"lon":-75.5,"mslp":1010.0,"hvtl":-15.8,"hvtu":-181.9,"hb":21.8,"idx":-1.3,"cls":4,"psfc":1010.0,"terrain":false,"radius_km":200,"name":"asym cold"},"geometry":{"type":"Point","coordinates":[-75.5,-33.75]}},{"type":"Feature","properties":{"kind":"center","id":41,"lat":41.25,"lon":38.25,"mslp":1011.0,"hvtl":-7.4,"hvtu":-96.2,"hb":4.5,"idx":-0.9,"cls":5,"psfc":1011.0,"terrain":false,"radius_km":200,"name":"sym cold"},"geometry":{"type":"Point","coordinates":[38.25,41.25]}},{"type":"Feature","properties":{"kind":"center","id":42,"lat":-30.5,"lon":-71.0,"mslp":1011.1,"hvtl":-44.1,"hvtu":-200.5,"hb":37.9,"idx":-1.8,"cls":4,"psfc":915.6,"terrain":true,"radius_km":200,"name":"asym cold"},"geometry":{"type":"Point","coordinates":[-71.0,-30.5]}},{"type":"Feature","properties":{"kind":"center","id":43,"lat":23.0,"lon":95.5,"mslp":1012.0,"hvtl":-16.3,"hvtu":-108.0,"hb":0.2,"idx":-1.1,"cls":5,"psfc":996.7,"terrain":false,"radius_km":200,"name":"sym cold","track":"T113"},"geometry":{"type":"Point","coordinates":[95.5,23.0]}},{"type":"Feature","properties":{"kind":"center","id":44,"lat":23.25,"lon":98.5,"mslp":1015.9,"hvtl":0.8,"hvtu":-91.9,"hb":-3.2,"idx":-0.7,"cls":1,"psfc":905.9,"terrain":true,"radius_km":200,"name":"sym shallow warm"},"geometry":{"type":"Point","coordinates":[98.5,23.25]}}]}