{"type":"FeatureCollection","features":[{"type":"Feature","properties":{"kind":"blob","cls":1,"id":1},"geometry":{"type":"Polygon","coordinates":[[[114.25,-63.38],[116.12,-62.0],[116.12,-61.5],[115.25,-60.38],[112.5,-59.38],[110.75,-59.38],[108.5,-60.12],[107.62,-61.5],[107.88,-62.0],[109.75,-63.38],[114.25,-63.38]],[[112.5,-61.88],[112.12,-61.5],[112.75,-61.12],[114.38,-61.5],[114.25,-61.88],[112.5,-61.88]]]}},{"type":"Feature","properties":{"kind":"blob","cls":3,"id":2},"geometry":{"type":"Polygon","coordinates":[[[11.5,-68.62],[13.25,-67.88],[14.12,-67.0],[14.12,-66.5],[13.25,-65.62],[12.0,-65.38],[9.25,-65.88],[5.75,-65.88],[4.0,-66.12],[3.62,-66.5],[3.62,-67.0],[4.5,-67.88],[6.25,-68.62],[11.5,-68.62]]]}},{"type":"Feature","properties":{"kind":"blob","cls":3,"id":3},"geometry":{"type":"Polygon","coordinates":[[[159.75,-66.88],[160.75,-66.38],[161.88,-65.0],[161.0,-63.88],[159.75,-63.38],[155.5,-63.12],[152.25,-64.12],[151.38,-65.25],[153.0,-66.88],[159.75,-66.88]]]}},{"type":"Feature","properties":{"kind":"blob","cls":1,"id":4},"geometry":{"type":"Polygon","coordinates":[[[28.0,-66.12],[29.88,-65.0],[29.88,-64.0],[27.5,-62.62],[24.5,-62.38],[23.0,-62.62],[20.88,-64.0],[20.88,-65.0],[21.25,-65.38],[22.75,-66.12],[28.0,-66.12]]]}},{"type":"Feature","properties":{"kind":"blob","cls":0,"id":5},"geometry":{"type":"Polygon","coordinates":[[[-121.0,-60.88],[-119.25,-60.38],[-118.38,-59.5],[-118.38,-58.5],[-119.25,-57.62],[-121.0,-57.12],[-123.0,-57.12],[-124.75,-57.62],[-125.62,-58.5],[-125.62,-59.5],[-124.75,-60.38],[-121.0,-60.88]]]}},{"type":"Feature","properties":{"kind":"blob","cls":2,"id":6},"geometry":{"type":"Polygon","coordinates":[[[147.25,31.88],[149.12,33.0],[149.38,34.5],[148.75,35.38],[146.5,35.88],[144.88,35.0],[144.62,33.25],[145.25,32.38],[147.25,31.88]]]}},{"type":"Feature","properties":{"kind":"blob","cls":5,"id":7},"geometry":{"type":"Polygon","coordinates":[[[-11.5,-68.88],[-9.25,-68.38],[-7.88,-67.25],[-8.38,-67.0],[-8.0,-66.38],[-7.12,-66.25],[-7.12,-65.25],[-8.5,-64.12],[-10.75,-63.62],[-15.0,-64.12],[-16.88,-65.25],[-17.38,-67.25],[-16.0,-68.38],[-11.5,-68.88]]]}},{"type":"Feature","properties":{"kind":"blob","cls":0,"id":8},"geometry":{"type":"Polygon","coordinates":[[[-116.75,-65.12],[-113.0,-65.12],[-111.75,-64.62],[-110.88,-63.5],[-112.5,-61.88],[-117.5,-60.88],[-120.75,-61.12],[-122.62,-62.25],[-122.62,-63.25],[-121.25,-64.38],[-116.75,-65.12]]]}},{"type":"Feature","properties":{"kind":"blob","cls":4,"id":9},"geometry":{"type":"Polygon","coordinates":[[[-126.25,-54.88],[-124.62,-53.25],[-126.25,-51.62],[-130.5,-51.62],[-132.12,-53.25],[-131.0,-54.62],[-126.25,-54.88]]]}},{"type":"Feature","properties":{"kind":"blob","cls":4,"id":10},"geometry":{"type":"Polygon","coordinates":[[[-113.75,-74.88],[-99.75,-74.38],[-99.62,-74.0],[-100.25,-73.38],[-102.75,-72.62],[-112.5,-72.38],[-118.0,-73.38],[-120.0,-73.38],[-123.62,-74.5],[-113.75,-74.88]]]}},{"type":"Feature","properties":{"kind":"blob","cls":3,"id":11},"geometry":{"type":"Polygon","coordinates":[[[180.0,-80.62],[180.0,-78.88],[179.12,-79.75],[180.0,-80.62]]]}},{"type":"Feature","properties":{"kind":"blob","cls":3,"id":11},"geometry":{"type":"Polygon","coordinates":[[[-179.75,-78.88],[-179.75,-80.88],[-178.5,-81.38],[-176.75,-81.38],[-174.75,-80.88],[-168.5,-80.38],[-162.0,-79.12],[-156.62,-78.75],[-158.5,-77.88],[-161.25,-77.38],[-171.0,-77.12],[-175.75,-77.62],[-179.75,-78.88]]]}},{"type":"Feature","properties":{"kind":"blob","cls":1,"id":12},"geometry":{"type":"Polygon","coordinates":[[[46.5,65.88],[48.62,67.0],[48.62,68.0],[47.0,69.38],[42.5,70.12],[42.0,70.88],[41.0,71.38],[38.25,71.88],[33.0,71.38],[31.12,70.0],[31.12,69.5],[32.25,68.38],[35.5,67.62],[37.75,67.62],[38.25,66.88],[39.75,66.12],[46.5,65.88]]]}},{"type":"Feature","properties":{"kind":"blob","cls":4,"id":13},"geometry":{"type":"Polygon","coordinates":[[[71.75,-69.12],[78.25,-68.88],[79.75,-68.12],[83.12,-67.75],[82.5,-67.12],[81.0,-66.62],[77.5,-66.38],[73.0,-67.38],[71.62,-68.25],[71.75,-69.12]]]}},{"type":"Feature","properties":{"kind":"blob","cls":1,"id":14},"geometry":{"type":"Polygon","coordinates":[[[-171.0,-82.12],[-160.75,-82.12],[-157.5,-81.62],[-155.38,-80.5],[-164.0,-81.88],[-171.0,-82.12]]]}},{"type":"Feature","properties":{"kind":"blob","cls":4,"id":15},"geometry":{"type":"Polygon","coordinates":[[[170.75,-61.12],[172.5,-60.62],[173.62,-59.25],[173.38,-58.5],[172.0,-57.12],[170.0,-56.38],[168.25,-56.38],[166.25,-57.12],[165.62,-57.75],[165.62,-59.0],[167.25,-60.62],[170.75,-61.12]]]}},{"type":"Feature","properties":{"kind":"blob","cls":0,"id":16},"geometry":{"type":"Polygon","coordinates":[[[-118.75,19.12],[-117.5,19.12],[-116.62,20.25],[-116.88,22.0],[-118.25,22.88],[-119.5,22.62],[-120.38,21.5],[-120.25,20.12],[-119.25,20.62],[-118.38,20.0],[-118.75,19.12]]]}},{"type":"Feature","properties":{"kind":"blob","cls":3,"id":17},"geometry":{"type":"Polygon","coordinates":[[[152.75,54.38],[154.12,55.5],[154.38,56.5],[152.75,58.12],[148.5,58.12],[146.62,56.5],[146.62,55.5],[148.0,54.38],[152.75,54.38]]]}},{"type":"Feature","properties":{"kind":"blob","cls":6,"id":18},"geometry":{"type":"Polygon","coordinates":[[[-61.75,48.62],[-60.62,49.5],[-60.38,50.75],[-61.25,51.88],[-62.25,52.38],[-66.5,52.38],[-67.62,51.5],[-67.88,50.25],[-66.75,48.88],[-61.75,48.62]],[[-64.5,51.38],[-64.62,51.5],[-64.5,51.62],[-64.5,51.38]]]}},{"type":"Feature","properties":{"kind":"blob","cls":4,"id":19},"geometry":{"type":"Polygon","coordinates":[[[-11.75,-47.38],[-10.0,-46.62],[-9.12,-45.5],[-9.38,-44.5],[-10.0,-43.88],[-12.0,-43.12],[-13.75,-43.12],[-15.0,-43.62],[-15.88,-44.5],[-16.12,-45.5],[-15.25,-46.62],[-11.75,-47.38]]]}},{"type":"Feature","properties":{"kind":"blob","cls":3,"id":20},"geometry":{"type":"Polygon","coordinates":[[[-55.75,52.12],[-54.5,52.62],[-51.0,52.62],[-49.62,53.5],[-49.38,54.5],[-50.0,55.38],[-51.0,55.88],[-54.75,56.62],[-58.0,56.62],[-60.0,55.88],[-60.88,54.75],[-60.62,53.5],[-59.25,52.62],[-55.75,52.12]]]}},{"type":"Feature","properties":{"kind":"blob","cls":4,"id":21},"geometry":{"type":"Polygon","coordinates":[[[-90.5,-64.62],[-88.5,-64.12],[-87.12,-63.25],[-86.88,-62.0],[-88.0,-60.88],[-90.5,-60.12],[-92.75,-60.12],[-95.0,-60.88],[-95.88,-61.75],[-95.62,-63.25],[-94.25,-64.12],[-90.5,-64.62]]]}},{"type":"Feature","properties":{"kind":"blob","cls":0,"id":22},"geometry":{"type":"Polygon","coordinates":[[[168.25,24.38],[169.12,25.25],[169.12,27.0],[168.25,27.88],[166.75,28.12],[165.12,27.0],[165.12,25.25],[166.0,24.38],[168.25,24.38]]]}},{"type":"Feature","properties":{"kind":"blob","cls":4,"id":23},"geometry":{"type":"Polygon","coordinates":[[[-95.0,57.12],[-93.25,57.62],[-92.12,59.25],[-93.25,60.62],[-95.0,61.12],[-97.0,61.12],[-98.75,60.62],[-99.88,59.25],[-99.62,58.75],[-98.5,57.62],[-95.0,57.12]]]}},{"type":"Feature","properties":{"kind":"blob","cls":3,"id":24},"geometry":{"type":"Polygon","coordinates":[[[-68.25,-31.62],[-67.62,-31.0],[-68.25,-30.12],[-68.38,-31.25],[-68.25,-31.62]]]}},{"type":"Feature","properties":{"kind":"blob","cls":3,"id":25},"geometry":{"type":"Polygon","coordinates":[[[-145.25,56.88],[-143.62,58.0],[-143.62,59.25],[-144.25,59.88],[-146.25,60.62],[-148.25,60.62],[-148.75,60.12],[-149.25,60.38],[-150.88,59.25],[-150.88,58.0],[-149.25,56.88],[-145.25,56.88]]]}},{"type":"Feature","properties":{"kind":"blob","cls":4,"id":26},"geometry":{"type":"Polygon","coordinates":[[[-60.75,-81.62],[-51.88,-81.5],[-52.0,-81.38],[-60.75,-81.62]]]}},{"type":"Feature","properties":{"kind":"blob","cls":3,"id":27},"geometry":{"type":"Polygon","coordinates":[[[-67.0,-31.38],[-65.88,-30.0],[-66.5,-27.62],[-66.88,-28.0],[-66.62,-29.0],[-67.38,-30.25],[-67.0,-31.38]]]}},{"type":"Feature","properties":{"kind":"blob","cls":3,"id":28},"geometry":{"type":"Polygon","coordinates":[[[-67.88,-31.5],[-67.75,-31.62],[-67.62,-31.5],[-67.88,-31.5]]]}},{"type":"Feature","properties":{"kind":"blob","cls":3,"id":29},"geometry":{"type":"Polygon","coordinates":[[[-65.88,-28.5],[-65.75,-28.62],[-65.62,-28.5],[-65.88,-28.5]]]}},{"type":"Feature","properties":{"kind":"blob","cls":4,"id":30},"geometry":{"type":"MultiPolygon","coordinates":[[[[-65.25,-28.38],[-64.38,-27.0],[-64.5,-24.62],[-65.12,-25.75],[-64.88,-26.5],[-65.25,-26.12],[-65.88,-27.25],[-65.25,-28.38]]],[[[-64.75,-24.38],[-64.88,-24.5],[-64.75,-24.62],[-64.75,-24.38]]]]}},{"type":"Feature","properties":{"kind":"blob","cls":4,"id":31},"geometry":{"type":"Polygon","coordinates":[[[-76.75,-38.88],[-76.0,-38.88],[-74.38,-37.75],[-74.38,-36.0],[-76.0,-34.88],[-77.25,-34.88],[-78.88,-36.0],[-78.88,-37.75],[-78.25,-38.38],[-77.75,-37.38],[-77.12,-37.75],[-76.75,-38.88]]]}},{"type":"Feature","properties":{"kind":"blob","cls":4,"id":32},"geometry":{"type":"Polygon","coordinates":[[[80.5,55.12],[84.0,56.12],[86.12,57.75],[86.12,58.75],[84.25,60.38],[82.5,60.88],[79.5,60.62],[76.0,59.38],[75.38,58.75],[75.38,57.75],[77.25,55.62],[80.5,55.12]],[[77.38,58.0],[77.38,58.5],[78.25,59.38],[79.62,59.25],[78.75,57.88],[77.38,58.0]]]}},{"type":"Feature","properties":{"kind":"blob","cls":1,"id":33},"geometry":{"type":"Polygon","coordinates":[[[155.25,69.62],[158.0,70.12],[159.62,71.25],[159.62,71.75],[158.5,72.88],[155.0,73.62],[150.25,73.38],[147.62,72.25],[147.62,71.25],[148.5,70.62],[151.0,69.88],[155.25,69.62]]]}},{"type":"Feature","properties":{"kind":"blob","cls":4,"id":34},"geometry":{"type":"MultiPolygon","coordinates":[[[[-64.25,-22.62],[-64.38,-22.75],[-64.25,-22.88],[-64.25,-22.62]]],[[[-64.12,-22.0],[-64.0,-22.62],[-63.38,-22.0],[-63.5,-20.88],[-64.12,-21.0],[-63.62,-21.75],[-64.12,-22.0]]]]}},{"type":"Feature","properties":{"kind":"blob","cls":4,"id":35},"geometry":{"type":"Polygon","coordinates":[[[-63.75,-19.12],[-63.5,-19.38],[-63.12,-19.0],[-63.38,-17.5],[-64.5,-16.88],[-65.25,-15.88],[-66.5,-15.62],[-66.62,-16.0],[-65.5,-17.12],[-64.0,-17.62],[-63.38,-18.25],[-63.75,-19.12]]]}},{"type":"Feature","properties":{"kind":"blob","cls":5,"id":36},"geometry":{"type":"Polygon","coordinates":[[[-32.5,61.62],[-30.5,62.12],[-29.0,63.12],[-25.25,63.38],[-24.0,63.88],[-23.12,65.25],[-24.0,66.38],[-25.25,66.88],[-28.0,67.38],[-32.25,67.12],[-35.0,65.38],[-37.25,64.88],[-38.12,64.0],[-38.12,63.5],[-37.0,62.38],[-32.5,61.62]]]}},{"type":"Feature","properties":{"kind":"blob","cls":1,"id":37},"geometry":{"type":"MultiPolygon","coordinates":[[[[66.75,25.12],[68.5,25.12],[69.88,27.0],[69.62,28.5],[71.75,28.62],[73.88,30.75],[74.12,32.25],[72.25,32.38],[70.5,31.88],[69.75,29.62],[68.75,29.62],[67.75,30.12],[67.38,29.75],[66.88,27.0],[65.38,26.75],[65.62,26.0],[66.75,25.12]]],[[[68.75,30.12],[68.62,30.0],[68.75,29.88],[68.75,30.12]]]]}},{"type":"Feature","properties":{"kind":"blob","cls":0,"id":38},"geometry":{"type":"Polygon","coordinates":[[[41.75,11.62],[42.62,12.5],[42.88,14.0],[41.75,15.38],[40.5,15.62],[39.62,15.25],[40.38,13.0],[39.88,12.0],[41.75,11.62]]]}},{"type":"Feature","properties":{"kind":"blob","cls":4,"id":39},"geometry":{"type":"Polygon","coordinates":[[[36.0,-41.88],[37.12,-40.75],[37.12,-39.75],[35.75,-38.38],[34.0,-38.12],[32.12,-39.5],[32.12,-40.75],[33.25,-41.88],[36.0,-41.88]]]}},{"type":"Feature","properties":{"kind":"blob","cls":0,"id":40},"geometry":{"type":"MultiPolygon","coordinates":[[[[107.12,15.0],[107.25,14.88],[107.38,15.25],[107.12,15.0]]],[[[109.25,13.62],[110.62,14.5],[110.88,16.0],[110.0,17.12],[108.75,17.38],[107.38,16.5],[107.38,15.5],[108.38,14.75],[107.5,14.88],[107.38,14.5],[109.25,13.62]]]]}},{"type":"Feature","properties":{"kind":"blob","cls":3,"id":41},"geometry":{"type":"Polygon","coordinates":[[[-50.5,61.62],[-48.88,62.25],[-49.62,62.75],[-49.75,63.62],[-50.62,63.75],[-49.38,64.25],[-50.0,65.12],[-53.25,65.12],[-55.12,64.0],[-55.38,63.5],[-54.5,62.38],[-50.5,61.62]]]}},{"type":"Feature","properties":{"kind":"blob","cls":4,"id":42},"geometry":{"type":"Polygon","coordinates":[[[-2.25,44.62],[-1.0,45.12],[-0.12,46.0],[-0.12,47.0],[-1.0,47.88],[-2.25,48.38],[-4.75,47.88],[-5.62,47.0],[-5.62,46.0],[-4.75,45.12],[-2.25,44.62]]]}},{"type":"Feature","properties":{"kind":"blob","cls":5,"id":43},"geometry":{"type":"Polygon","coordinates":[[[65.5,28.12],[65.5,28.88],[65.38,28.75],[65.5,28.12]]]}},{"type":"Feature","properties":{"kind":"blob","cls":5,"id":44},"geometry":{"type":"MultiPolygon","coordinates":[[[[-28.12,70.0],[-25.25,70.12],[-23.62,71.25],[-23.62,71.75],[-24.0,72.12],[-24.75,71.62],[-26.25,71.62],[-25.88,71.25],[-26.62,71.0],[-26.0,70.62],[-28.12,70.0]]],[[[-24.5,72.38],[-24.62,72.25],[-24.25,72.12],[-24.5,72.38]]],[[[-25.0,72.62],[-25.12,72.5],[-24.75,72.38],[-25.0,72.62]]]]}},{"type":"Feature","properties":{"kind":"blob","cls":1,"id":45},"geometry":{"type":"MultiPolygon","coordinates":[[[[97.5,23.38],[97.38,23.25],[97.5,23.12],[97.5,23.38]]],[[[97.0,23.12],[97.38,23.5],[97.38,24.25],[95.75,25.62],[94.12,24.75],[94.75,24.12],[97.0,23.12]]]]}},{"type":"Feature","properties":{"kind":"blob","cls":3,"id":46},"geometry":{"type":"Polygon","coordinates":[[[179.75,-34.62],[180.0,-32.38],[179.25,-32.62],[178.62,-33.5],[178.75,-34.88],[179.75,-34.62]]]}},{"type":"Feature","properties":{"kind":"blob","cls":3,"id":46},"geometry":{"type":"Polygon","coordinates":[[[-179.75,-32.38],[-180.0,-34.62],[-179.62,-35.0],[-179.62,-36.0],[-178.75,-36.12],[-177.5,-35.62],[-176.88,-34.75],[-177.12,-33.0],[-178.75,-32.12],[-179.75,-32.38]]]}},{"type":"Feature","properties":{"kind":"blob","cls":5,"id":47},"geometry":{"type":"Polygon","coordinates":[[[93.0,25.38],[93.75,25.38],[94.38,26.25],[93.25,26.88],[92.25,26.88],[92.12,26.25],[93.0,25.38]]]}},{"type":"Feature","properties":{"kind":"blob","cls":3,"id":48},"geometry":{"type":"Polygon","coordinates":[[[61.88,32.25],[62.0,32.12],[62.12,32.25],[61.88,32.25]]]}},{"type":"Feature","properties":{"kind":"blob","cls":4,"id":49},"geometry":{"type":"Polygon","coordinates":[[[-27.38,70.75],[-27.25,70.62],[-27.12,70.75],[-27.38,70.75]]]}},{"type":"Feature","properties":{"kind":"blob","cls":5,"id":50},"geometry":{"type":"Polygon","coordinates":[[[65.62,29.25],[65.75,29.12],[65.88,29.5],[65.62,29.25]]]}},{"type":"Feature","properties":{"kind":"blob","cls":3,"id":51},"geometry":{"type":"Polygon","coordinates":[[[62.38,30.25],[62.5,30.12],[62.62,30.25],[62.38,30.25]]]}},{"type":"Feature","properties":{"kind":"blob","cls":3,"id":52},"geometry":{"type":"Polygon","coordinates":[[[63.0,29.88],[63.38,30.0],[63.25,30.12],[63.0,29.88]]]}},{"type":"Feature","properties":{"kind":"blob","cls":3,"id":53},"geometry":{"type":"Polygon","coordinates":[[[87.88,42.75],[88.0,42.62],[88.12,42.75],[87.88,42.75]]]}},{"type":"Feature","properties":{"kind":"blob","cls":4,"id":54},"geometry":{"type":"Polygon","coordinates":[[[-55.88,73.75],[-58.0,74.62],[-59.75,76.38],[-61.12,76.25],[-61.38,75.75],[-60.5,74.62],[-55.88,73.75]]]}},{"type":"Feature","properties":{"kind":"center","id":1,"lat":-61.5,"lon":111.75,"mslp":932.6,"hvtl":256.5,"hvtu":-58.9,"hb":-49.7,"idx":1.4,"cls":1,"psfc":932.6,"terrain":false,"radius_km":200,"name":"sym shallow warm","track":"T01"},"geometry":{"type":"Point","coordinates":[111.75,-61.5]}},{"type":"Feature","properties":{"kind":"center","id":2,"lat":-66.75,"lon":9.0,"mslp":949.5,"hvtl":50.4,"hvtu":-34.3,"hb":18.2,"idx":0.6,"cls":3,"psfc":949.5,"terrain":false,"radius_km":200,"name":"asym shallow warm","track":"T04"},"geometry":{"type":"Point","coordinates":[9.0,-66.75]}},{"type":"Feature","properties":{"kind":"center","id":3,"lat":-65.25,"lon":156.5,"mslp":955.2,"hvtl":112.3,"hvtu":-48.3,"hb":20.5,"idx":1.2,"cls":3,"psfc":955.2,"terrain":false,"radius_km":200,"name":"asym shallow warm","track":"T06"},"geometry":{"type":"Point","coordinates":[156.5,-65.25]}},{"type":"Feature","properties":{"kind":"center","id":4,"lat":-64.5,"lon":25.5,"mslp":955.7,"hvtl":24.0,"hvtu":-39.8,"hb":-1.5,"idx":0.1,"cls":1,"psfc":955.7,"terrain":false,"radius_km":200,"name":"sym shallow warm","track":"T19"},"geometry":{"type":"Point","coordinates":[25.5,-64.5]}},{"type":"Feature","properties":{"kind":"center","id":5,"lat":-59.0,"lon":-122.0,"mslp":956.1,"hvtl":15.0,"hvtu":34.1,"hb":-2.6,"idx":0.6,"cls":0,"psfc":956.1,"terrain":false,"radius_km":200,"name":"sym deep warm","track":"T18"},"geometry":{"type":"Point","coordinates":[-122.0,-59.0]}},{"type":"Feature","properties":{"kind":"center","id":6,"lat":34.0,"lon":147.0,"mslp":956.5,"hvtl":111.9,"hvtu":181.3,"hb":15.8,"idx":2.6,"cls":2,"psfc":956.5,"terrain":false,"radius_km":200,"name":"asym deep warm","track":"T07"},"geometry":{"type":"Point","coordinates":[147.0,34.0]}},{"type":"Feature","properties":{"kind":"center","id":7,"lat":-66.5,"lon":-12.0,"mslp":959.3,"hvtl":-100.9,"hvtu":-26.7,"hb":-8.2,"idx":-1.8,"cls":5,"psfc":959.3,"terrain":false,"radius_km":200,"name":"sym cold","track":"T23"},"geometry":{"type":"Point","coordinates":[-12.0,-66.5]}},{"type":"Feature","properties":{"kind":"center","id":8,"lat":-62.75,"lon":-119.0,"mslp":960.9,"hvtl":26.1,"hvtu":84.9,"hb":5.0,"idx":1.2,"cls":0,"psfc":960.9,"terrain":false,"radius_km":200,"name":"sym deep warm"},"geometry":{"type":"Point","coordinates":[-119.0,-62.75]}},{"type":"Feature","properties":{"kind":"center","id":9,"lat":-53.25,"lon":-128.75,"mslp":967.3,"hvtl":-56.2,"hvtu":-103.2,"hb":28.0,"idx":-1.8,"cls":4,"psfc":967.3,"terrain":false,"radius_km":200,"name":"asym cold","track":"T33"},"geometry":{"type":"Point","coordinates":[-128.75,-53.25]}},{"type":"Feature","properties":{"kind":"center","id":10,"lat":-74.5,"lon":-109.25,"mslp":969.2,"hvtl":-52.8,"hvtu":-160.3,"hb":19.7,"idx":-1.9,"cls":4,"psfc":969.2,"terrain":false,"radius_km":200,"name":"asym cold","track":"T34"},"geometry":{"type":"Point","coordinates":[-109.25,-74.5]}},{"type":"Feature","properties":{"kind":"center","id":11,"lat":-79.75,"lon":-167.75,"mslp":971.6,"hvtl":20.5,"hvtu":-52.8,"hb":27.2,"idx":-0.1,"cls":3,"psfc":963.8,"terrain":false,"radius_km":200,"name":"asym shallow warm","track":"T05"},"geometry":{"type":"Point","coordinates":[-167.75,-79.75]}},{"type":"Feature","properties":{"kind":"center","id":12,"lat":69.75,"lon":37.0,"mslp":971.9,"hvtl":13.6,"hvtu":-92.0,"hb":3.4,"idx":-0.5,"cls":1,"psfc":971.9,"terrain":false,"radius_km":200,"name":"sym shallow warm","track":"T41"},"geometry":{"type":"Point","coordinates":[37.0,69.75]}},{"type":"Feature","properties":{"kind":"center","id":13,"lat":-67.25,"lon":82.5,"mslp":974.0,"hvtl":-144.5,"hvtu":-140.3,"hb":29.1,"idx":-2.7,"cls":4,"psfc":970.0,"terrain":false,"radius_km":200,"name":"asym cold"},"geometry":{"type":"Point","coordinates":[82.5,-67.25]}},{"type":"Feature","properties":{"kind":"center","id":14,"lat":-82.0,"lon":-167.0,"mslp":974.3,"hvtl":70.2,"hvtu":-48.9,"hb":-7.8,"idx":0.8,"cls":1,"psfc":966.4,"terrain":false,"radius_km":200,"name":"sym shallow warm"},"geometry":{"type":"Point","coordinates":[-167.0,-82.0]}},{"type":"Feature","properties":{"kind":"center","id":15,"lat":-59.5,"lon":170.0,"mslp":977.3,"hvtl":-342.5,"hvtu":-296.3,"hb":79.2,"idx":-3.0,"cls":4,"psfc":977.3,"terrain":false,"radius_km":200,"name":"asym cold","track":"T15"},"geometry":{"type":"Point","coordinates":[170.0,-59.5]}},{"type":"Feature","properties":{"kind":"center","id":16,"lat":21.0,"lon":-118.5,"mslp":979.3,"hvtl":82.4,"hvtu":174.2,"hb":1.4,"idx":2.3,"cls":0,"psfc":979.3,"terrain":false,"radius_km":200,"name":"sym deep warm","track":"T48"},"geometry":{"type":"Point","coordinates":[-118.5,21.0]}},{"type":"Feature","properties":{"kind":"center","id":17,"lat":56.25,"lon":150.5,"mslp":980.9,"hvtl":87.5,"hvtu":-367.7,"hb":37.4,"idx":0.4,"cls":3,"psfc":980.9,"terrain":false,"radius_km":200,"name":"asym shallow warm","track":"T26"},"geometry":{"type":"Point","coordinates":[150.5,56.25]}},{"type":"Feature","properties":{"kind":"center","id":18,"lat":50.5,"lon":-64.5,"mslp":982.2,"hvtl":-35.1,"hvtu":9.7,"hb":9.1,"idx":-0.6,"cls":6,"psfc":955.1,"terrain":false,"radius_km":200,"name":"shallow cold","track":"T57"},"geometry":{"type":"Point","coordinates":[-64.5,50.5]}},{"type":"Feature","properties":{"kind":"center","id":19,"lat":-45.25,"lon":-12.75,"mslp":982.5,"hvtl":-170.1,"hvtu":-304.0,"hb":86.5,"idx":-2.9,"cls":4,"psfc":982.5,"terrain":false,"radius_km":200,"name":"asym cold","track":"T16"},"geometry":{"type":"Point","coordinates":[-12.75,-45.25]}},{"type":"Feature","properties":{"kind":"center","id":20,"lat":54.75,"lon":-56.25,"mslp":983.3,"hvtl":56.9,"hvtu":-255.3,"hb":27.5,"idx":0.0,"cls":3,"psfc":983.3,"terrain":false,"radius_km":200,"name":"asym shallow warm","track":"T44"},"geometry":{"type":"Point","coordinates":[-56.25,54.75]}},{"type":"Feature","properties":{"kind":"center","id":21,"lat":-62.5,"lon":-92.25,"mslp":984.9,"hvtl":-19.0,"hvtu":-201.4,"hb":17.9,"idx":-1.3,"cls":4,"psfc":984.9,"terrain":false,"radius_km":200,"name":"asym cold","track":"T65"},"geometry":{"type":"Point","coordinates":[-92.25,-62.5]}},{"type":"Feature","properties":{"kind":"center","id":22,"lat":26.0,"lon":167.25,"mslp":991.0,"hvtl":117.4,"hvtu":141.2,"hb":-3.6,"idx":2.5,"cls":0,"psfc":991.0,"terrain":false,"radius_km":200,"name":"sym deep warm","track":"T40"},"geometry":{"type":"Point","coordinates":[167.25,26.0]}},{"type":"Feature","properties":{"kind":"center","id":23,"lat":58.75,"lon":-97.0,"mslp":997.8,"hvtl":-108.2,"hvtu":-18.6,"hb":35.9,"idx":-1.8,"cls":4,"psfc":966.4,"terrain":false,"radius_km":200,"name":"asym cold","track":"T89"},"geometry":{"type":"Point","coordinates":[-97.0,58.75]}},{"type":"Feature","properties":{"kind":"center","id":24,"lat":-30.5,"lon":-68.0,"mslp":998.0,"hvtl":30.5,"hvtu":-272.9,"hb":48.8,"idx":-0.4,"cls":3,"psfc":909.2,"terrain":false,"radius_km":200,"name":"asym shallow warm"},"geometry":{"type":"Point","coordinates":[-68.0,-30.5]}},{"type":"Feature","properties":{"kind":"center","id":25,"lat":58.75,"lon":-147.25,"mslp":998.2,"hvtl":14.1,"hvtu":-173.1,"hb":11.9,"idx":-0.7,"cls":3,"psfc":998.2,"terrain":false,"radius_km":200,"name":"asym shallow warm","track":"T35"},"geometry":{"type":"Point","coordinates":[-147.25,58.75]}},{"type":"Feature","properties":{"kind":"center","id":26,"lat":-81.5,"lon":-60.75,"mslp":998.3,"hvtl":-209.3,"hvtu":-180.4,"hb":35.3,"idx":-2.9,"cls":4,"psfc":981.8,"terrain":false,"radius_km":200,"name":"asym cold","track":"T58"},"geometry":{"type":"Point","coordinates":[-60.75,-81.5]}},{"type":"Feature","properties":{"kind":"center","id":27,"lat":-28.5,"lon":-66.5,"mslp":998.5,"hvtl":52.6,"hvtu":-261.5,"hb":23.9,"idx":-0.0,"cls":3,"psfc":917.8,"terrain":false,"radius_km":200,"name":"asym shallow warm"},"geometry":{"type":"Point","coordinates":[-66.5,-28.5]}},{"type":"Feature","properties":{"kind":"center","id":28,"lat":-31.5,"lon":-67.75,"mslp":999.6,"hvtl":50.7,"hvtu":-266.4,"hb":55.5,"idx":-0.1,"cls":3,"psfc":916.5,"terrain":false,"radius_km":200,"name":"asym shallow warm","track":"T98"},"geometry":{"type":"Point","coordinates":[-67.75,-31.5]}},{"type":"Feature","properties":{"kind":"center","id":29,"lat":-28.5,"lon":-65.75,"mslp":1001.7,"hvtl":74.5,"hvtu":-246.0,"hb":22.5,"idx":0.3,"cls":3,"psfc":924.4,"terrain":false,"radius_km":200,"name":"asym shallow warm","track":"T99"},"geometry":{"type":"Point","coordinates":[-65.75,-28.5]}},{"type":"Feature","properties":{"kind":"center","id":30,"lat":-26.75,"lon":-65.0,"mslp":1001.8,"hvtl":-19.3,"hvtu":-214.0,"hb":20.0,"idx":-1.4,"cls":4,"psfc":942.4,"terrain":false,"radius_km":200,"name":"asym cold"},"geometry":{"type":"Point","coordinates":[-65.0,-26.75]}},{"type":"Feature","properties":{"kind":"center","id":31,"lat":-36.75,"lon":-76.75,"mslp":1002.4,"hvtl":-58.7,"hvtu":-23.7,"hb":18.5,"idx":-1.3,"cls":4,"psfc":1002.4,"terrain":false,"radius_km":200,"name":"asym cold","track":"T92"},"geometry":{"type":"Point","coordinates":[-76.75,-36.75]}},{"type":"Feature","properties":{"kind":"center","id":32,"lat":58.0,"lon":81.75,"mslp":1003.3,"hvtl":-100.5,"hvtu":-89.1,"hb":15.6,"idx":-2.2,"cls":4,"psfc":990.0,"terrain":false,"radius_km":200,"name":"asym cold","track":"T77"},"geometry":{"type":"Point","coordinates":[81.75,58.0]}},{"type":"Feature","properties":{"kind":"center","id":33,"lat":73.25,"lon":150.75,"mslp":1003.5,"hvtl":27.7,"hvtu":-86.7,"hb":-8.8,"idx":-0.2,"cls":1,"psfc":1003.5,"terrain":false,"radius_km":200,"name":"sym shallow warm"},"geometry":{"type":"Point","coordinates":[150.75,73.25]}},{"type":"Feature","properties":{"kind":"center","id":34,"lat":-22.0,"lon":-63.5,"mslp":1004.4,"hvtl":-66.9,"hvtu":-104.0,"hb":10.7,"idx":-1.9,"cls":4,"psfc":945.7,"terrain":false,"radius_km":200,"name":"asym cold"},"geometry":{"type":"Point","coordinates":[-63.5,-22.0]}},{"type":"Feature","properties":{"kind":"center","id":35,"lat":-16.0,"lon":-65.25,"mslp":1004.4,"hvtl":-103.5,"hvtu":-12.6,"hb":39.7,"idx":-1.7,"cls":4,"psfc":984.1,"terrain":false,"radius_km":200,"name":"asym cold","track":"T87"},"geometry":{"type":"Point","coordinates":[-65.25,-16.0]}},{"type":"Feature","properties":{"kind":"center","id":36,"lat":65.0,"lon":-27.75,"mslp":1004.9,"hvtl":-55.6,"hvtu":-274.9,"hb":9.3,"idx":-2.0,"cls":5,"psfc":1004.9,"terrain":false,"radius_km":200,"name":"sym cold","track":"T78"},"geometry":{"type":"Point","coordinates":[-27.75,65.0]}},{"type":"Feature","properties":{"kind":"center","id":37,"lat":31.25,"lon":70.75,"mslp":1006.9,"hvtl":5.5,"hvtu":-125.8,"hb":5.0,"idx":-0.7,"cls":1,"psfc":988.7,"terrain":false,"radius_km":200,"name":"sym shallow warm","track":"T105"},"geometry":{"type":"Point","coordinates":[70.75,31.25]}},{"type":"Feature","properties":{"kind":"center","id":38,"lat":13.25,"lon":40.75,"mslp":1007.0,"hvtl":27.1,"hvtu":17.4,"hb":9.2,"idx":0.7,"cls":0,"psfc":1009.7,"terrain":false,"radius_km":200,"name":"sym deep warm"},"geometry":{"type":"Point","coordinates":[40.75,13.25]}},{"type":"Feature","properties":{"kind":"center","id":39,"lat":-40.25,"lon":34.5,"mslp":1007.7,"hvtl":-316.1,"hvtu":-216.0,"hb":98.3,"idx":-3.0,"cls":4,"psfc":1007.6,"terrain":false,"radius_km":200,"name":"asym cold"},"geometry":{"type":"Point","coordinates":[34.5,-40.25]}},{"type":"Feature","properties":{"kind":"center","id":40,"lat":15.5,"lon":109.0,"mslp":1008.3,"hvtl":39.5,"hvtu":29.9,"hb":-12.1,"idx":1.0,"cls":0,"psfc":1008.3,"terrain":false,"radius_km":200,"name":"sym deep warm"},"geometry":{"type":"Point","coordinates":[109.0,15.5]}},{"type":"Feature","properties":{"kind":"center","id":41,"lat":62.75,"lon":-50.25,"mslp":1010.2,"hvtl":158.1,"hvtu":-305.4,"hb":41.7,"idx":0.8,"cls":3,"psfc":991.1,"terrain":false,"radius_km":200,"name":"asym shallow warm"},"geometry":{"type":"Point","coordinates":[-50.25,62.75]}},{"type":"Feature","properties":{"kind":"center","id":42,"lat":46.5,"lon":-2.5,"mslp":1010.5,"hvtl":-14.1,"hvtu":-105.7,"hb":34.0,"idx":-1.1,"cls":4,"psfc":1010.5,"terrain":false,"radius_km":200,"name":"asym cold","track":"T121"},"geometry":{"type":"Point","coordinates":[-2.5,46.5]}},{"type":"Feature","properties":{"kind":"center","id":43,"lat":28.5,"lon":65.5,"mslp":1012.9,"hvtl":-4.2,"hvtu":-89.7,"hb":3.8,"idx":-0.8,"cls":5,"psfc":932.4,"terrain":false,"radius_km":200,"name":"sym cold","track":"T109"},"geometry":{"type":"Point","coordinates":[65.5,28.5]}},{"type":"Feature","properties":{"kind":"center","id":44,"lat":72.5,"lon":-24.75,"mslp":1013.0,"hvtl":-97.7,"hvtu":-100.7,"hb":4.7,"idx":-2.3,"cls":5,"psfc":967.5,"terrain":false,"radius_km":200,"name":"sym cold","track":"T102"},"geometry":{"type":"Point","coordinates":[-24.75,72.5]}},{"type":"Feature","properties":{"kind":"center","id":45,"lat":24.0,"lon":96.5,"mslp":1013.3,"hvtl":11.2,"hvtu":-113.0,"hb":2.0,"idx":-0.6,"cls":1,"psfc":997.4,"terrain":false,"radius_km":200,"name":"sym shallow warm","track":"T118"},"geometry":{"type":"Point","coordinates":[96.5,24.0]}},{"type":"Feature","properties":{"kind":"center","id":46,"lat":-34.0,"lon":-179.25,"mslp":1013.7,"hvtl":25.0,"hvtu":-68.2,"hb":12.7,"idx":-0.1,"cls":3,"psfc":1013.6,"terrain":false,"radius_km":200,"name":"asym shallow warm","track":"T130"},"geometry":{"type":"Point","coordinates":[-179.25,-34.0]}},{"type":"Feature","properties":{"kind":"center","id":47,"lat":26.5,"lon":92.5,"mslp":1013.8,"hvtl":-55.2,"hvtu":-151.0,"hb":2.9,"idx":-1.9,"cls":5,"psfc":1006.6,"terrain":false,"radius_km":200,"name":"sym cold"},"geometry":{"type":"Point","coordinates":[92.5,26.5]}},{"type":"Feature","properties":{"kind":"center","id":48,"lat":32.25,"lon":62.0,"mslp":1014.6,"hvtl":116.3,"hvtu":-114.9,"hb":55.9,"idx":0.8,"cls":3,"psfc":942.9,"terrain":false,"radius_km":200,"name":"asym shallow warm","track":"T125"},"geometry":{"type":"Point","coordinates":[62.0,32.25]}},{"type":"Feature","properties":{"kind":"center","id":49,"lat":70.75,"lon":-27.25,"mslp":1014.7,"hvtl":-115.5,"hvtu":-69.5,"hb":33.6,"idx":-2.2,"cls":4,"psfc":904.7,"terrain":true,"radius_km":200,"name":"asym cold"},"geometry":{"type":"Point","coordinates":[-27.25,70.75]}},{"type":"Feature","properties":{"kind":"center","id":50,"lat":29.5,"lon":65.75,"mslp":1014.7,"hvtl":-6.9,"hvtu":-101.4,"hb":2.3,"idx":-0.9,"cls":5,"psfc":914.4,"terrain":true,"radius_km":200,"name":"sym cold"},"geometry":{"type":"Point","coordinates":[65.75,29.5]}},{"type":"Feature","properties":{"kind":"center","id":51,"lat":30.25,"lon":62.5,"mslp":1014.7,"hvtl":53.9,"hvtu":-78.1,"hb":13.6,"idx":0.3,"cls":3,"psfc":950.3,"terrain":false,"radius_km":200,"name":"asym shallow warm","track":"T129"},"geometry":{"type":"Point","coordinates":[62.5,30.25]}},{"type":"Feature","properties":{"kind":"center","id":52,"lat":30.0,"lon":63.0,"mslp":1015.1,"hvtl":53.6,"hvtu":-85.1,"hb":12.0,"idx":0.3,"cls":3,"psfc":942.1,"terrain":false,"radius_km":200,"name":"asym shallow warm"},"geometry":{"type":"Point","coordinates":[63.0,30.0]}},{"type":"Feature","properties":{"kind":"center","id":53,"lat":42.75,"lon":88.0,"mslp":1017.9,"hvtl":133.9,"hvtu":-322.5,"hb":90.5,"idx":0.7,"cls":3,"psfc":913.0,"terrain":true,"radius_km":200,"name":"asym shallow warm"},"geometry":{"type":"Point","coordinates":[88.0,42.75]}},{"type":"Feature","properties":{"kind":"center","id":54,"lat":74.0,"lon":-58.5,"mslp":1018.2,"hvtl":-162.7,"hvtu":-120.0,"hb":33.2,"idx":-2.7,"cls":4,"psfc":1018.1,"terrain":false,"radius_km":200,"name":"asym cold","track":"T69"},"geometry":{"type":"Point","coordinates":[-58.5,74.0]}}]}