{"type":"FeatureCollection","features":[{"type":"Feature","properties":{"kind":"blob","cls":1,"id":1},"geometry":{"type":"Polygon","coordinates":[[[-156.75,-68.38],[-157.38,-68.0],[-157.0,-67.38],[-153.25,-67.12],[-152.88,-66.5],[-153.12,-65.75],[-154.5,-64.62],[-157.25,-63.88],[-161.25,-64.12],[-163.5,-65.12],[-164.12,-66.5],[-163.88,-67.0],[-162.5,-67.88],[-156.75,-68.38]]]}},{"type":"Feature","properties":{"kind":"blob","cls":1,"id":2},"geometry":{"type":"MultiPolygon","coordinates":[[[[6.25,-59.38],[6.12,-59.5],[6.5,-59.62],[6.25,-59.38]]],[[[2.25,-59.88],[6.0,-59.88],[4.0,-59.62],[3.88,-59.0],[4.5,-58.62],[6.75,-58.62],[6.62,-59.25],[7.0,-59.38],[8.38,-58.5],[8.62,-57.5],[7.75,-56.38],[6.75,-55.88],[4.75,-55.38],[2.25,-55.62],[0.38,-56.75],[-0.12,-57.5],[-0.12,-58.5],[0.75,-59.38],[2.25,-59.88]]]]}},{"type":"Feature","properties":{"kind":"blob","cls":4,"id":3},"geometry":{"type":"Polygon","coordinates":[[[-137.75,-74.88],[-133.75,-75.12],[-125.25,-74.62],[-124.12,-73.75],[-124.12,-73.25],[-125.25,-72.38],[-128.25,-71.62],[-133.5,-71.38],[-138.0,-72.12],[-139.88,-73.25],[-139.5,-74.12],[-137.75,-74.88]],[[-127.12,-73.5],[-125.88,-73.5],[-126.0,-73.62],[-127.12,-73.5]]]}},{"type":"Feature","properties":{"kind":"blob","cls":4,"id":4},"geometry":{"type":"Polygon","coordinates":[[[-8.5,71.38],[-2.5,71.38],[-0.25,72.12],[0.62,73.0],[0.62,73.5],[-1.25,74.88],[-5.25,75.62],[-11.0,75.38],[-13.25,74.62],[-14.12,73.75],[-13.75,72.88],[-12.0,71.88],[-8.5,71.38]]]}},{"type":"Feature","properties":{"kind":"blob","cls":3,"id":5},"geometry":{"type":"Polygon","coordinates":[[[-105.25,-62.12],[-102.25,-62.12],[-100.38,-61.0],[-100.12,-60.0],[-101.5,-58.62],[-103.25,-58.12],[-106.75,-58.62],[-107.88,-59.5],[-108.12,-60.5],[-107.25,-61.62],[-105.25,-62.12]]]}},{"type":"Feature","properties":{"kind":"blob","cls":3,"id":6},"geometry":{"type":"Polygon","coordinates":[[[86.25,-55.88],[88.25,-55.12],[89.12,-54.0],[88.88,-53.0],[88.25,-52.38],[86.25,-51.62],[84.5,-51.62],[82.5,-52.38],[81.88,-53.5],[82.12,-54.5],[83.75,-55.62],[86.25,-55.88]]]}},{"type":"Feature","properties":{"kind":"blob","cls":5,"id":7},"geometry":{"type":"Polygon","coordinates":[[[-154.5,-78.12],[-156.88,-77.75],[-156.25,-77.38],[-152.25,-77.62],[-151.25,-77.12],[-150.62,-76.25],[-152.0,-75.12],[-154.25,-74.62],[-161.25,-74.38],[-166.0,-75.12],[-167.62,-76.25],[-167.25,-77.12],[-165.5,-77.88],[-154.5,-78.12]]]}},{"type":"Feature","properties":{"kind":"blob","cls":4,"id":8},"geometry":{"type":"Polygon","coordinates":[[[-28.5,55.38],[-26.5,56.12],[-25.62,57.25],[-25.88,58.25],[-26.5,58.88],[-28.5,59.62],[-30.0,59.62],[-32.0,58.88],[-32.88,57.75],[-32.62,56.75],[-31.0,55.62],[-28.5,55.38]]]}},{"type":"Feature","properties":{"kind":"blob","cls":4,"id":9},"geometry":{"type":"Polygon","coordinates":[[[101.5,-66.38],[105.0,-65.88],[106.62,-65.0],[106.88,-64.0],[106.5,-63.38],[105.0,-62.62],[99.75,-62.12],[97.5,-62.62],[96.0,-63.38],[95.62,-64.0],[96.0,-65.12],[97.5,-65.88],[101.5,-66.38]]]}},{"type":"Feature","properties":{"kind":"blob","cls":4,"id":10},"geometry":{"type":"Polygon","coordinates":[[[50.5,-55.62],[55.0,-55.62],[56.88,-54.5],[57.12,-53.5],[56.25,-52.38],[54.5,-51.38],[52.75,-50.88],[50.5,-51.12],[47.88,-53.0],[47.62,-54.0],[48.25,-54.88],[50.5,-55.62]]]}},{"type":"Feature","properties":{"kind":"blob","cls":1,"id":11},"geometry":{"type":"Polygon","coordinates":[[[-42.25,56.38],[-38.0,56.38],[-36.38,57.5],[-36.12,59.0],[-37.75,60.38],[-39.75,60.12],[-41.0,60.88],[-43.0,60.62],[-44.62,59.5],[-44.88,57.75],[-44.0,56.88],[-42.25,56.38]]]}},{"type":"Feature","properties":{"kind":"blob","cls":4,"id":12},"geometry":{"type":"Polygon","coordinates":[[[-96.25,-73.88],[-94.75,-73.38],[-86.75,-73.62],[-86.12,-72.75],[-87.0,-71.38],[-88.75,-70.62],[-91.5,-70.12],[-94.75,-70.12],[-97.5,-70.62],[-99.25,-71.38],[-100.38,-72.75],[-99.75,-73.62],[-96.25,-73.88]]]}},{"type":"Feature","properties":{"kind":"blob","cls":6,"id":13},"geometry":{"type":"Polygon","coordinates":[[[-42.5,62.12],[-41.75,61.88],[-40.25,62.38],[-38.0,61.88],[-36.75,62.38],[-35.88,63.5],[-36.75,64.62],[-38.5,65.12],[-41.5,63.88],[-42.25,62.88],[-42.88,62.75],[-42.5,62.12]]]}},{"type":"Feature","properties":{"kind":"blob","cls":1,"id":14},"geometry":{"type":"Polygon","coordinates":[[[-49.38,62.5],[-49.88,62.75],[-50.0,63.38],[-50.88,63.75],[-50.75,64.12],[-50.0,63.88],[-49.62,64.25],[-50.38,65.0],[-50.12,65.5],[-50.5,65.88],[-52.5,65.62],[-53.12,66.25],[-53.0,66.62],[-53.5,66.62],[-55.38,65.5],[-55.38,64.5],[-54.25,63.38],[-52.75,62.62],[-49.38,62.5]]]}},{"type":"Feature","properties":{"kind":"blob","cls":4,"id":15},"geometry":{"type":"Polygon","coordinates":[[[-111.0,-51.62],[-109.25,-50.88],[-108.62,-50.0],[-108.88,-49.0],[-111.0,-47.38],[-112.0,-47.12],[-113.75,-47.12],[-115.5,-47.88],[-115.88,-48.5],[-115.62,-50.0],[-114.5,-50.88],[-111.0,-51.62]]]}},{"type":"Feature","properties":{"kind":"blob","cls":3,"id":16},"geometry":{"type":"Polygon","coordinates":[[[156.25,36.62],[157.88,37.75],[158.12,39.0],[157.0,40.38],[155.0,40.62],[153.38,39.5],[153.38,37.75],[154.25,36.88],[156.25,36.62]]]}},{"type":"Feature","properties":{"kind":"blob","cls":4,"id":17},"geometry":{"type":"Polygon","coordinates":[[[125.5,-66.62],[134.25,-66.62],[134.88,-65.5],[134.0,-64.62],[132.75,-64.12],[128.5,-63.88],[125.75,-64.62],[124.88,-65.5],[125.5,-66.62]]]}},{"type":"Feature","properties":{"kind":"blob","cls":4,"id":18},"geometry":{"type":"Polygon","coordinates":[[[70.5,-68.88],[75.0,-69.12],[75.38,-68.75],[71.5,-68.38],[70.5,-68.88]]]}},{"type":"Feature","properties":{"kind":"blob","cls":4,"id":19},"geometry":{"type":"Polygon","coordinates":[[[-34.0,45.62],[-32.75,46.12],[-31.62,47.25],[-31.38,48.75],[-32.25,49.62],[-33.5,50.12],[-35.75,49.62],[-37.12,48.25],[-37.12,47.0],[-36.25,46.12],[-34.0,45.62]]]}},{"type":"Feature","properties":{"kind":"blob","cls":1,"id":20},"geometry":{"type":"Polygon","coordinates":[[[65.75,-67.88],[66.62,-67.0],[66.62,-66.5],[64.25,-64.88],[60.75,-64.38],[59.0,-64.88],[55.88,-66.75],[56.0,-67.12],[57.5,-67.38],[65.75,-67.88]]]}},{"type":"Feature","properties":{"kind":"blob","cls":5,"id":21},"geometry":{"type":"Polygon","coordinates":[[[51.25,-66.88],[51.5,-66.38],[53.5,-66.12],[57.62,-64.0],[54.0,-63.88],[51.75,-64.38],[50.38,-65.5],[51.25,-66.88]]]}},{"type":"Feature","properties":{"kind":"blob","cls":4,"id":22},"geometry":{"type":"Polygon","coordinates":[[[-52.25,68.12],[-51.25,68.38],[-51.12,68.75],[-52.0,70.12],[-53.62,70.5],[-52.12,70.75],[-53.25,71.88],[-54.25,71.88],[-54.12,72.5],[-54.5,72.88],[-59.25,74.88],[-61.25,76.38],[-66.5,76.38],[-67.5,76.88],[-69.75,76.88],[-71.25,76.38],[-71.88,75.75],[-71.25,74.62],[-68.0,73.62],[-57.75,73.62],[-59.62,72.25],[-59.62,71.75],[-58.62,71.0],[-59.12,70.0],[-58.88,69.5],[-57.5,68.62],[-52.25,68.12]],[[-54.38,70.0],[-53.0,70.12],[-52.62,69.75],[-54.38,70.0]]]}},{"type":"Feature","properties":{"kind":"blob","cls":4,"id":23},"geometry":{"type":"Polygon","coordinates":[[[162.62,-71.5],[162.5,-70.62],[163.75,-71.12],[164.5,-71.12],[164.75,-70.62],[166.0,-70.62],[167.25,-71.12],[169.0,-71.12],[170.25,-70.62],[171.12,-69.75],[171.12,-69.25],[170.0,-68.12],[168.5,-67.38],[162.75,-65.88],[153.25,-66.12],[151.5,-66.88],[150.62,-68.0],[151.0,-68.62],[152.0,-68.88],[159.5,-69.62],[162.62,-71.5]]]}},{"type":"Feature","properties":{"kind":"blob","cls":4,"id":24},"geometry":{"type":"Polygon","coordinates":[[[104.0,-49.88],[105.25,-49.38],[106.12,-48.5],[106.12,-47.0],[104.12,-45.0],[104.62,-44.5],[104.62,-43.0],[103.25,-41.88],[101.25,-41.62],[99.38,-42.75],[99.38,-44.5],[100.62,-45.5],[100.12,-46.0],[100.12,-48.0],[101.5,-49.38],[104.0,-49.88]]]}},{"type":"Feature","properties":{"kind":"blob","cls":4,"id":25},"geometry":{"type":"Polygon","coordinates":[[[136.25,-62.62],[138.12,-61.25],[138.12,-60.25],[136.5,-59.12],[134.0,-58.62],[129.0,-58.88],[127.38,-60.0],[127.38,-61.0],[129.0,-62.12],[136.25,-62.62]]]}},{"type":"Feature","properties":{"kind":"blob","cls":1,"id":26},"geometry":{"type":"Polygon","coordinates":[[[-51.25,66.38],[-51.12,66.75],[-52.62,66.75],[-51.25,66.38]]]}},{"type":"Feature","properties":{"kind":"blob","cls":5,"id":27},"geometry":{"type":"Polygon","coordinates":[[[31.0,-69.88],[32.5,-70.12],[34.0,-69.62],[38.0,-69.38],[42.25,-68.62],[43.25,-68.12],[49.0,-67.62],[49.12,-67.25],[46.75,-65.88],[42.0,-65.62],[39.0,-66.38],[37.0,-67.38],[34.25,-67.12],[31.75,-67.62],[30.75,-68.12],[30.12,-69.0],[31.0,-69.88]]]}},{"type":"Feature","properties":{"kind":"blob","cls":3,"id":28},"geometry":{"type":"Polygon","coordinates":[[[162.5,-79.62],[164.5,-79.88],[168.75,-79.38],[171.0,-78.62],[171.38,-77.75],[170.5,-77.12],[167.5,-76.38],[163.25,-76.12],[162.38,-77.0],[163.88,-78.0],[163.75,-78.38],[164.62,-78.5],[161.75,-78.62],[162.5,-79.62]],[[166.62,-77.5],[169.12,-77.5],[169.0,-77.62],[166.62,-77.5]]]}},{"type":"Feature","properties":{"kind":"blob","cls":4,"id":29},"geometry":{"type":"Polygon","coordinates":[[[179.75,86.12],[180.0,87.88],[157.0,88.88],[129.25,88.62],[117.0,87.88],[113.62,87.0],[115.25,86.38],[119.5,85.88],[140.25,85.12],[168.0,85.38],[179.75,86.12]]]}},{"type":"Feature","properties":{"kind":"blob","cls":4,"id":29},"geometry":{"type":"Polygon","coordinates":[[[-179.75,87.88],[-180.0,86.12],[-176.38,87.0],[-177.0,87.38],[-179.75,87.88]]]}},{"type":"Feature","properties":{"kind":"blob","cls":3,"id":30},"geometry":{"type":"Polygon","coordinates":[[[-66.25,77.12],[-65.38,77.25],[-65.5,77.38],[-66.25,77.12]]]}},{"type":"Feature","properties":{"kind":"blob","cls":4,"id":31},"geometry":{"type":"Polygon","coordinates":[[[1.0,-40.62],[2.12,-39.25],[1.88,-38.0],[1.0,-37.12],[-1.5,-36.38],[-4.0,-36.62],[-5.12,-38.0],[-4.88,-39.0],[-3.25,-40.38],[1.0,-40.62]]]}},{"type":"Feature","properties":{"kind":"blob","cls":5,"id":32},"geometry":{"type":"Polygon","coordinates":[[[-113.25,75.88],[-109.0,76.38],[-105.25,77.38],[-103.62,78.5],[-103.62,79.0],[-104.75,79.88],[-108.25,80.62],[-119.0,80.88],[-125.5,80.12],[-128.0,79.38],[-129.12,78.5],[-127.5,77.38],[-124.75,76.62],[-113.25,75.88]]]}},{"type":"Feature","properties":{"kind":"blob","cls":4,"id":33},"geometry":{"type":"Polygon","coordinates":[[[103.0,-37.12],[104.62,-36.25],[104.88,-34.75],[104.25,-33.88],[102.0,-33.38],[100.38,-34.25],[100.38,-36.25],[103.0,-37.12]]]}},{"type":"Feature","properties":{"kind":"blob","cls":4,"id":34},"geometry":{"type":"Polygon","coordinates":[[[-63.75,-19.12],[-63.5,-19.38],[-63.12,-19.0],[-63.38,-17.5],[-64.0,-16.88],[-65.5,-16.62],[-65.5,-17.12],[-64.0,-17.62],[-63.38,-18.25],[-63.75,-19.12]]]}},{"type":"Feature","properties":{"kind":"blob","cls":3,"id":35},"geometry":{"type":"Polygon","coordinates":[[[143.25,54.38],[145.5,55.12],[146.62,56.5],[146.38,57.25],[145.25,58.38],[143.5,58.88],[140.0,58.38],[138.62,56.75],[140.25,54.88],[143.25,54.38]]]}},{"type":"Feature","properties":{"kind":"blob","cls":4,"id":36},"geometry":{"type":"Polygon","coordinates":[[[-77.75,44.62],[-76.5,45.12],[-75.12,46.5],[-75.12,47.5],[-77.0,49.12],[-78.25,49.62],[-80.5,49.12],[-81.62,48.0],[-81.88,46.0],[-81.0,45.12],[-77.75,44.62]]]}},{"type":"Feature","properties":{"kind":"blob","cls":5,"id":37},"geometry":{"type":"Polygon","coordinates":[[[90.0,63.62],[94.0,64.38],[95.38,65.5],[95.38,66.75],[93.5,67.88],[91.75,68.38],[87.75,68.62],[84.75,67.88],[82.88,66.75],[83.12,65.25],[84.0,64.62],[85.25,64.12],[90.0,63.62]]]}},{"type":"Feature","properties":{"kind":"blob","cls":1,"id":38},"geometry":{"type":"Polygon","coordinates":[[[-171.38,59.25],[-171.38,60.5],[-169.88,62.5],[-169.75,63.62],[-173.5,63.62],[-175.38,62.25],[-175.62,61.5],[-174.5,60.12],[-172.75,59.38],[-171.38,59.25]]]}},{"type":"Feature","properties":{"kind":"blob","cls":1,"id":39},"geometry":{"type":"Polygon","coordinates":[[[-166.75,60.12],[-166.12,60.75],[-166.12,61.75],[-167.75,63.12],[-167.88,62.0],[-166.75,60.12]]]}},{"type":"Feature","properties":{"kind":"blob","cls":1,"id":40},"geometry":{"type":"Polygon","coordinates":[[[-27.25,16.38],[-25.5,16.38],[-24.62,17.5],[-24.62,18.75],[-25.5,19.88],[-27.5,19.88],[-28.62,18.5],[-28.38,17.0],[-27.25,16.38]]]}},{"type":"Feature","properties":{"kind":"blob","cls":4,"id":41},"geometry":{"type":"Polygon","coordinates":[[[-36.0,-80.38],[-27.25,-78.38],[-30.25,-78.12],[-32.0,-78.62],[-34.88,-78.5],[-34.75,-78.12],[-33.25,-77.62],[-27.62,-76.5],[-28.5,-76.12],[-37.0,-76.38],[-42.25,-77.62],[-43.38,-78.5],[-42.25,-79.38],[-40.5,-79.88],[-36.0,-80.38]]]}},{"type":"Feature","properties":{"kind":"blob","cls":4,"id":42},"geometry":{"type":"Polygon","coordinates":[[[-162.75,45.38],[-161.5,45.88],[-160.62,46.75],[-160.62,47.75],[-161.5,48.62],[-162.75,49.12],[-164.25,49.12],[-165.5,48.62],[-166.38,47.75],[-166.38,46.75],[-165.5,45.88],[-162.75,45.38]]]}},{"type":"Feature","properties":{"kind":"blob","cls":4,"id":43},"geometry":{"type":"Polygon","coordinates":[[[-135.5,49.62],[-134.0,50.12],[-132.62,51.5],[-132.62,52.75],[-133.5,53.62],[-135.0,54.12],[-137.0,53.88],[-138.5,53.12],[-139.38,52.25],[-139.38,51.0],[-138.5,50.12],[-135.5,49.62]]]}},{"type":"Feature","properties":{"kind":"blob","cls":4,"id":44},"geometry":{"type":"Polygon","coordinates":[[[-66.75,-28.12],[-66.12,-28.0],[-66.5,-27.62],[-66.75,-28.12]]]}},{"type":"Feature","properties":{"kind":"blob","cls":3,"id":45},"geometry":{"type":"Polygon","coordinates":[[[162.0,-47.88],[163.12,-47.0],[163.38,-45.75],[162.5,-44.62],[161.25,-44.12],[157.25,-44.62],[156.12,-45.5],[155.88,-46.5],[156.75,-47.62],[162.0,-47.88]]]}},{"type":"Feature","properties":{"kind":"blob","cls":4,"id":46},"geometry":{"type":"Polygon","coordinates":[[[-64.38,-22.75],[-64.25,-23.12],[-63.75,-23.12],[-62.88,-22.25],[-62.88,-20.75],[-63.25,-20.38],[-63.5,-20.88],[-64.12,-21.0],[-63.62,-21.75],[-64.38,-22.75]]]}},{"type":"Feature","properties":{"kind":"blob","cls":4,"id":47},"geometry":{"type":"Polygon","coordinates":[[[136.75,37.88],[138.38,39.0],[138.62,40.5],[137.5,41.62],[135.75,41.88],[133.88,40.5],[133.88,39.0],[134.75,38.12],[136.75,37.88]]]}},{"type":"Feature","properties":{"kind":"blob","cls":4,"id":48},"geometry":{"type":"Polygon","coordinates":[[[-65.5,-28.12],[-65.0,-28.12],[-63.88,-26.5],[-64.75,-25.12],[-65.12,-25.75],[-64.88,-26.5],[-65.25,-26.12],[-65.88,-27.25],[-65.5,-28.12]]]}},{"type":"Feature","properties":{"kind":"blob","cls":4,"id":49},"geometry":{"type":"Polygon","coordinates":[[[9.0,56.62],[10.62,57.75],[10.62,58.75],[8.75,60.12],[6.75,59.12],[6.88,59.5],[6.25,60.38],[5.0,60.12],[3.38,59.0],[3.38,57.75],[5.0,56.62],[9.0,56.62]]]}},{"type":"Feature","properties":{"kind":"blob","cls":5,"id":50},"geometry":{"type":"Polygon","coordinates":[[[128.75,49.88],[130.25,50.38],[131.38,51.5],[131.38,52.75],[130.75,53.12],[129.75,52.62],[129.88,54.0],[128.75,54.38],[127.0,54.38],[125.5,53.88],[124.62,53.0],[124.62,51.75],[126.0,50.38],[128.75,49.88]]]}},{"type":"Feature","properties":{"kind":"blob","cls":3,"id":51},"geometry":{"type":"MultiPolygon","coordinates":[[[[40.25,12.88],[40.5,15.12],[39.88,15.0],[40.25,12.88]]],[[[40.75,15.38],[40.62,15.25],[40.75,15.12],[40.75,15.38]]]]}},{"type":"Feature","properties":{"kind":"blob","cls":4,"id":52},"geometry":{"type":"Polygon","coordinates":[[[-54.75,-81.62],[-47.38,-81.5],[-47.5,-81.38],[-54.75,-81.62]]]}},{"type":"Feature","properties":{"kind":"blob","cls":4,"id":53},"geometry":{"type":"MultiPolygon","coordinates":[[[[66.75,25.62],[68.75,25.62],[69.88,26.75],[70.38,28.5],[70.0,29.88],[68.75,29.62],[67.75,30.12],[67.38,29.75],[67.12,27.5],[66.5,26.88],[65.62,26.75],[66.75,25.62]]],[[[68.75,30.12],[68.62,30.0],[68.75,29.88],[68.75,30.12]]]]}},{"type":"Feature","properties":{"kind":"blob","cls":4,"id":54},"geometry":{"type":"Polygon","coordinates":[[[22.0,37.12],[23.0,38.38],[24.0,37.62],[25.75,37.38],[27.38,38.5],[27.62,39.5],[26.5,40.88],[25.75,41.12],[24.0,40.88],[23.0,39.62],[22.25,40.38],[21.25,40.62],[21.62,39.25],[22.38,38.75],[21.75,38.62],[20.0,40.88],[18.38,39.75],[18.12,38.75],[19.5,37.12],[22.0,37.12]],[[22.25,37.88],[22.12,38.0],[22.25,38.12],[22.25,37.88]]]}},{"type":"Feature","properties":{"kind":"blob","cls":6,"id":55},"geometry":{"type":"Polygon","coordinates":[[[-158.88,-5.0],[-158.75,-5.38],[-158.25,-5.38],[-157.25,-4.88],[-156.62,-3.25],[-156.75,-3.12],[-158.88,-5.0]]]}},{"type":"Feature","properties":{"kind":"blob","cls":3,"id":56},"geometry":{"type":"Polygon","coordinates":[[[-68.75,-33.12],[-68.0,-32.88],[-67.38,-32.0],[-67.5,-31.38],[-68.12,-31.5],[-67.62,-31.0],[-68.25,-29.88],[-68.62,-30.5],[-68.75,-33.12]]]}},{"type":"Feature","properties":{"kind":"blob","cls":4,"id":57},"geometry":{"type":"MultiPolygon","coordinates":[[[[-71.38,-32.5],[-70.62,-32.75],[-71.12,-32.0],[-70.88,-30.5],[-71.25,-30.12],[-71.62,-30.5],[-71.38,-32.5]]],[[[-71.12,-30.0],[-71.0,-30.12],[-70.88,-29.75],[-71.12,-30.0]]]]}},{"type":"Feature","properties":{"kind":"blob","cls":5,"id":58},"geometry":{"type":"MultiPolygon","coordinates":[[[[89.75,23.38],[91.25,23.12],[92.88,24.25],[92.88,25.75],[92.0,26.62],[90.25,26.88],[88.62,25.75],[88.62,24.25],[89.75,23.38]],[[91.12,25.5],[92.38,25.5],[92.25,25.38],[91.12,25.5]]],[[[93.75,25.38],[94.62,26.25],[92.5,26.88],[92.38,26.5],[93.75,25.38]]]]}},{"type":"Feature","properties":{"kind":"blob","cls":3,"id":59},"geometry":{"type":"Polygon","coordinates":[[[50.5,39.62],[51.62,40.75],[51.62,42.0],[51.12,42.75],[49.5,43.62],[47.75,45.38],[45.75,45.62],[44.5,45.12],[43.62,44.25],[43.75,43.12],[46.5,43.12],[47.62,42.5],[48.88,40.75],[47.25,41.12],[45.75,42.12],[44.12,42.0],[46.0,41.38],[47.75,39.62],[50.5,39.62]]]}},{"type":"Feature","properties":{"kind":"blob","cls":3,"id":60},"geometry":{"type":"Polygon","coordinates":[[[39.88,12.5],[40.0,12.38],[40.12,12.5],[39.88,12.5]]]}},{"type":"Feature","properties":{"kind":"blob","cls":4,"id":61},"geometry":{"type":"MultiPolygon","coordinates":[[[[65.5,28.12],[65.88,28.75],[65.5,29.12],[65.5,28.12]]],[[[65.62,29.25],[65.75,29.12],[65.88,29.5],[65.62,29.25]]]]}},{"type":"Feature","properties":{"kind":"blob","cls":1,"id":62},"geometry":{"type":"Polygon","coordinates":[[[95.0,25.38],[95.25,25.12],[95.88,25.5],[95.5,25.88],[95.0,25.38]]]}},{"type":"Feature","properties":{"kind":"blob","cls":3,"id":63},"geometry":{"type":"MultiPolygon","coordinates":[[[[62.25,30.62],[62.12,30.5],[62.25,30.38],[62.25,30.62]]],[[[61.38,31.0],[62.12,30.75],[61.88,31.75],[62.38,32.25],[62.38,32.75],[61.62,33.0],[61.5,33.62],[60.88,32.75],[60.88,31.75],[61.38,31.0]]]]}},{"type":"Feature","properties":{"kind":"center","id":1,"lat":-66.25,"lon":-158.75,"mslp":950.4,"hvtl":6.6,"hvtu":-5.3,"hb":-3.6,"idx":0.1,"cls":1,"psfc":950.4,"terrain":false,"radius_km":200,"name":"sym shallow warm","track":"T04"},"geometry":{"type":"Point","coordinates":[-158.75,-66.25]}},{"type":"Feature","properties":{"kind":"center","id":2,"lat":-58.0,"lon":3.75,"mslp":961.4,"hvtl":52.7,"hvtu":-49.3,"hb":-5.8,"idx":0.5,"cls":1,"psfc":961.4,"terrain":false,"radius_km":200,"name":"sym shallow warm","track":"T19"},"geometry":{"type":"Point","coordinates":[3.75,-58.0]}},{"type":"Feature","properties":{"kind":"center","id":3,"lat":-73.5,"lon":-131.25,"mslp":963.3,"hvtl":-66.7,"hvtu":-5.2,"hb":20.6,"idx":-1.2,"cls":4,"psfc":963.3,"terrain":false,"radius_km":200,"name":"asym cold","track":"T28"},"geometry":{"type":"Point","coordinates":[-131.25,-73.5]}},{"type":"Feature","properties":{"kind":"center","id":4,"lat":73.25,"lon":-7.0,"mslp":965.5,"hvtl":-12.9,"hvtu":-322.6,"hb":60.6,"idx":-1.3,"cls":4,"psfc":965.5,"terrain":false,"radius_km":200,"name":"asym cold","track":"T32"},"geometry":{"type":"Point","coordinates":[-7.0,73.25]}},{"type":"Feature","properties":{"kind":"center","id":5,"lat":-60.25,"lon":-104.25,"mslp":965.8,"hvtl":45.5,"hvtu":-153.2,"hb":29.3,"idx":-0.1,"cls":3,"psfc":965.8,"terrain":false,"radius_km":200,"name":"asym shallow warm","track":"T26"},"geometry":{"type":"Point","coordinates":[-104.25,-60.25]}},{"type":"Feature","properties":{"kind":"center","id":6,"lat":-53.75,"lon":85.25,"mslp":967.7,"hvtl":65.5,"hvtu":-306.6,"hb":15.4,"idx":0.2,"cls":3,"psfc":967.7,"terrain":false,"radius_km":200,"name":"asym shallow warm","track":"T13"},"geometry":{"type":"Point","coordinates":[85.25,-53.75]}},{"type":"Feature","properties":{"kind":"center","id":7,"lat":-75.75,"lon":-151.0,"mslp":969.5,"hvtl":-64.8,"hvtu":-143.3,"hb":0.4,"idx":-2.0,"cls":5,"psfc":969.5,"terrain":false,"radius_km":200,"name":"sym cold"},"geometry":{"type":"Point","coordinates":[-151.0,-75.75]}},{"type":"Feature","properties":{"kind":"center","id":8,"lat":57.5,"lon":-29.25,"mslp":971.2,"hvtl":-170.1,"hvtu":-382.6,"hb":84.3,"idx":-2.9,"cls":4,"psfc":971.2,"terrain":false,"radius_km":200,"name":"asym cold","track":"T10"},"geometry":{"type":"Point","coordinates":[-29.25,57.5]}},{"type":"Feature","properties":{"kind":"center","id":9,"lat":-64.25,"lon":101.25,"mslp":972.3,"hvtl":-286.4,"hvtu":-20.3,"hb":82.8,"idx":-2.2,"cls":4,"psfc":972.3,"terrain":false,"radius_km":200,"name":"asym cold","track":"T37"},"geometry":{"type":"Point","coordinates":[101.25,-64.25]}},{"type":"Feature","properties":{"kind":"center","id":10,"lat":-53.75,"lon":51.75,"mslp":974.1,"hvtl":-129.3,"hvtu":-189.8,"hb":54.6,"idx":-2.7,"cls":4,"psfc":974.1,"terrain":false,"radius_km":200,"name":"asym cold","track":"T29"},"geometry":{"type":"Point","coordinates":[51.75,-53.75]}},{"type":"Feature","properties":{"kind":"center","id":11,"lat":58.5,"lon":-41.0,"mslp":976.6,"hvtl":70.5,"hvtu":-53.5,"hb":-0.6,"idx":0.7,"cls":1,"psfc":976.6,"terrain":false,"radius_km":200,"name":"sym shallow warm","track":"T14"},"geometry":{"type":"Point","coordinates":[-41.0,58.5]}},{"type":"Feature","properties":{"kind":"center","id":12,"lat":-72.75,"lon":-93.25,"mslp":976.7,"hvtl":-162.7,"hvtu":-248.9,"hb":47.4,"idx":-2.8,"cls":4,"psfc":971.7,"terrain":false,"radius_km":200,"name":"asym cold","track":"T49"},"geometry":{"type":"Point","coordinates":[-93.25,-72.75]}},{"type":"Feature","properties":{"kind":"center","id":13,"lat":63.5,"lon":-40.25,"mslp":979.9,"hvtl":-31.8,"hvtu":75.7,"hb":9.6,"idx":0.0,"cls":6,"psfc":979.9,"terrain":false,"radius_km":200,"name":"shallow cold"},"geometry":{"type":"Point","coordinates":[-40.25,63.5]}},{"type":"Feature","properties":{"kind":"center","id":14,"lat":64.25,"lon":-50.25,"mslp":981.2,"hvtl":99.7,"hvtu":-105.6,"hb":-27.7,"idx":0.7,"cls":1,"psfc":926.9,"terrain":false,"radius_km":200,"name":"sym shallow warm"},"geometry":{"type":"Point","coordinates":[-50.25,64.25]}},{"type":"Feature","properties":{"kind":"center","id":15,"lat":-49.0,"lon":-112.75,"mslp":981.5,"hvtl":-156.2,"hvtu":-61.1,"hb":38.4,"idx":-2.4,"cls":4,"psfc":981.5,"terrain":false,"radius_km":200,"name":"asym cold","track":"T39"},"geometry":{"type":"Point","coordinates":[-112.75,-49.0]}},{"type":"Feature","properties":{"kind":"center","id":16,"lat":38.5,"lon":155.5,"mslp":982.2,"hvtl":76.4,"hvtu":-21.6,"hb":27.7,"idx":1.1,"cls":3,"psfc":982.2,"terrain":false,"radius_km":200,"name":"asym shallow warm","track":"T09"},"geometry":{"type":"Point","coordinates":[155.5,38.5]}},{"type":"Feature","properties":{"kind":"center","id":17,"lat":-65.75,"lon":130.0,"mslp":982.9,"hvtl":-109.3,"hvtu":-223.2,"hb":31.9,"idx":-2.6,"cls":4,"psfc":982.9,"terrain":false,"radius_km":200,"name":"asym cold","track":"T33"},"geometry":{"type":"Point","coordinates":[130.0,-65.75]}},{"type":"Feature","properties":{"kind":"center","id":18,"lat":-68.75,"lon":75.0,"mslp":983.6,"hvtl":-132.9,"hvtu":-60.9,"hb":30.8,"idx":-2.3,"cls":4,"psfc":983.6,"terrain":false,"radius_km":200,"name":"asym cold"},"geometry":{"type":"Point","coordinates":[75.0,-68.75]}},{"type":"Feature","properties":{"kind":"center","id":19,"lat":48.0,"lon":-34.25,"mslp":984.2,"hvtl":-324.4,"hvtu":-410.1,"hb":108.9,"idx":-3.0,"cls":4,"psfc":984.2,"terrain":false,"radius_km":200,"name":"asym cold","track":"T64"},"geometry":{"type":"Point","coordinates":[-34.25,48.0]}},{"type":"Feature","properties":{"kind":"center","id":20,"lat":-66.0,"lon":59.25,"mslp":984.9,"hvtl":21.4,"hvtu":-150.7,"hb":3.1,"idx":-0.5,"cls":1,"psfc":984.9,"terrain":false,"radius_km":200,"name":"sym shallow warm"},"geometry":{"type":"Point","coordinates":[59.25,-66.0]}},{"type":"Feature","properties":{"kind":"center","id":21,"lat":-65.75,"lon":54.0,"mslp":985.6,"hvtl":-51.6,"hvtu":-90.3,"hb":-2.9,"idx":-1.7,"cls":5,"psfc":985.4,"terrain":false,"radius_km":200,"name":"sym cold"},"geometry":{"type":"Point","coordinates":[54.0,-65.75]}},{"type":"Feature","properties":{"kind":"center","id":22,"lat":71.25,"lon":-52.75,"mslp":985.6,"hvtl":-109.8,"hvtu":-33.2,"hb":63.3,"idx":-1.9,"cls":4,"psfc":902.3,"terrain":false,"radius_km":200,"name":"asym cold","track":"T68"},"geometry":{"type":"Point","coordinates":[-52.75,71.25]}},{"type":"Feature","properties":{"kind":"center","id":23,"lat":-68.0,"lon":157.25,"mslp":986.1,"hvtl":-263.0,"hvtu":-67.8,"hb":47.2,"idx":-2.6,"cls":4,"psfc":986.1,"terrain":false,"radius_km":200,"name":"asym cold","track":"T47"},"geometry":{"type":"Point","coordinates":[157.25,-68.0]}},{"type":"Feature","properties":{"kind":"center","id":24,"lat":-47.25,"lon":103.0,"mslp":986.3,"hvtl":-220.2,"hvtu":-197.1,"hb":79.5,"idx":-2.9,"cls":4,"psfc":986.3,"terrain":false,"radius_km":200,"name":"asym cold","track":"T07"},"geometry":{"type":"Point","coordinates":[103.0,-47.25]}},{"type":"Feature","properties":{"kind":"center","id":25,"lat":-60.75,"lon":132.5,"mslp":986.4,"hvtl":-316.6,"hvtu":-295.3,"hb":74.7,"idx":-3.0,"cls":4,"psfc":986.4,"terrain":false,"radius_km":200,"name":"asym cold"},"geometry":{"type":"Point","coordinates":[132.5,-60.75]}},{"type":"Feature","properties":{"kind":"center","id":26,"lat":66.75,"lon":-52.5,"mslp":986.5,"hvtl":99.0,"hvtu":-87.3,"hb":-9.3,"idx":0.8,"cls":1,"psfc":941.2,"terrain":false,"radius_km":200,"name":"sym shallow warm"},"geometry":{"type":"Point","coordinates":[-52.5,66.75]}},{"type":"Feature","properties":{"kind":"center","id":27,"lat":-68.0,"lon":43.25,"mslp":987.0,"hvtl":-81.7,"hvtu":-127.2,"hb":9.8,"idx":-2.2,"cls":5,"psfc":978.6,"terrain":false,"radius_km":200,"name":"sym cold"},"geometry":{"type":"Point","coordinates":[43.25,-68.0]}},{"type":"Feature","properties":{"kind":"center","id":28,"lat":-77.0,"lon":167.5,"mslp":988.8,"hvtl":188.9,"hvtu":-208.1,"hb":36.4,"idx":0.9,"cls":3,"psfc":988.8,"terrain":false,"radius_km":200,"name":"asym shallow warm","track":"T67"},"geometry":{"type":"Point","coordinates":[167.5,-77.0]}},{"type":"Feature","properties":{"kind":"center","id":29,"lat":87.0,"lon":148.5,"mslp":989.6,"hvtl":-216.2,"hvtu":-111.0,"hb":53.1,"idx":-2.8,"cls":4,"psfc":989.6,"terrain":false,"radius_km":200,"name":"asym cold","track":"T59"},"geometry":{"type":"Point","coordinates":[148.5,87.0]}},{"type":"Feature","properties":{"kind":"center","id":30,"lat":77.25,"lon":-66.0,"mslp":992.8,"hvtl":74.7,"hvtu":-170.4,"hb":62.4,"idx":0.3,"cls":3,"psfc":924.3,"terrain":false,"radius_km":200,"name":"asym shallow warm","track":"T51"},"geometry":{"type":"Point","coordinates":[-66.0,77.25]}},{"type":"Feature","properties":{"kind":"center","id":31,"lat":-38.75,"lon":-1.25,"mslp":994.0,"hvtl":-289.1,"hvtu":-348.7,"hb":69.6,"idx":-3.0,"cls":4,"psfc":994.0,"terrain":false,"radius_km":200,"name":"asym cold","track":"T05"},"geometry":{"type":"Point","coordinates":[-1.25,-38.75]}},{"type":"Feature","properties":{"kind":"center","id":32,"lat":78.25,"lon":-115.0,"mslp":996.2,"hvtl":-82.2,"hvtu":-70.8,"hb":2.2,"idx":-2.0,"cls":5,"psfc":996.2,"terrain":false,"radius_km":200,"name":"sym cold","track":"T72"},"geometry":{"type":"Point","coordinates":[-115.0,78.25]}},{"type":"Feature","properties":{"kind":"center","id":33,"lat":-35.25,"lon":102.75,"mslp":997.8,"hvtl":-221.6,"hvtu":-260.2,"hb":44.2,"idx":-2.9,"cls":4,"psfc":997.8,"terrain":false,"radius_km":200,"name":"asym cold","track":"T62"},"geometry":{"type":"Point","coordinates":[102.75,-35.25]}},{"type":"Feature","properties":{"kind":"center","id":34,"lat":-18.75,"lon":-63.25,"mslp":998.8,"hvtl":-116.2,"hvtu":-120.4,"hb":68.6,"idx":-2.5,"cls":4,"psfc":945.1,"terrain":false,"radius_km":200,"name":"asym cold"},"geometry":{"type":"Point","coordinates":[-63.25,-18.75]}},{"type":"Feature","properties":{"kind":"center","id":35,"lat":56.5,"lon":142.25,"mslp":999.5,"hvtl":17.8,"hvtu":-314.3,"hb":77.9,"idx":-0.6,"cls":3,"psfc":999.5,"terrain":false,"radius_km":200,"name":"asym shallow warm","track":"T87"},"geometry":{"type":"Point","coordinates":[142.25,56.5]}},{"type":"Feature","properties":{"kind":"center","id":36,"lat":46.75,"lon":-78.5,"mslp":999.9,"hvtl":-301.2,"hvtu":-142.4,"hb":77.8,"idx":-2.9,"cls":4,"psfc":962.0,"terrain":false,"radius_km":200,"name":"asym cold","track":"T44"},"geometry":{"type":"Point","coordinates":[-78.5,46.75]}},{"type":"Feature","properties":{"kind":"center","id":37,"lat":66.0,"lon":88.5,"mslp":999.9,"hvtl":-13.7,"hvtu":-31.1,"hb":3.7,"idx":-0.6,"cls":5,"psfc":979.1,"terrain":false,"radius_km":200,"name":"sym cold","track":"T57"},"geometry":{"type":"Point","coordinates":[88.5,66.0]}},{"type":"Feature","properties":{"kind":"center","id":38,"lat":61.5,"lon":-171.0,"mslp":1000.4,"hvtl":123.6,"hvtu":-45.9,"hb":-12.9,"idx":1.3,"cls":1,"psfc":1000.4,"terrain":false,"radius_km":200,"name":"sym shallow warm","track":"T89"},"geometry":{"type":"Point","coordinates":[-171.0,61.5]}},{"type":"Feature","properties":{"kind":"center","id":39,"lat":61.5,"lon":-167.5,"mslp":1001.9,"hvtl":48.3,"hvtu":-102.8,"hb":5.6,"idx":0.1,"cls":1,"psfc":1001.9,"terrain":false,"radius_km":200,"name":"sym shallow warm","track":"T48"},"geometry":{"type":"Point","coordinates":[-167.5,61.5]}},{"type":"Feature","properties":{"kind":"center","id":40,"lat":18.0,"lon":-26.5,"mslp":1002.1,"hvtl":146.8,"hvtu":-1.0,"hb":7.7,"idx":1.8,"cls":1,"psfc":1002.1,"terrain":false,"radius_km":200,"name":"sym shallow warm","track":"T86"},"geometry":{"type":"Point","coordinates":[-26.5,18.0]}},{"type":"Feature","properties":{"kind":"center","id":41,"lat":-78.5,"lon":-31.75,"mslp":1002.2,"hvtl":-300.6,"hvtu":-209.0,"hb":50.0,"idx":-3.0,"cls":4,"psfc":901.8,"terrain":true,"radius_km":200,"name":"asym cold"},"geometry":{"type":"Point","coordinates":[-31.75,-78.5]}},{"type":"Feature","properties":{"kind":"center","id":42,"lat":47.25,"lon":-163.5,"mslp":1002.9,"hvtl":-182.2,"hvtu":-345.4,"hb":50.9,"idx":-2.9,"cls":4,"psfc":1002.9,"terrain":false,"radius_km":200,"name":"asym cold","track":"T34"},"geometry":{"type":"Point","coordinates":[-163.5,47.25]}},{"type":"Feature","properties":{"kind":"center","id":43,"lat":51.75,"lon":-136.25,"mslp":1003.3,"hvtl":-144.2,"hvtu":-350.4,"hb":74.8,"idx":-2.8,"cls":4,"psfc":1003.3,"terrain":false,"radius_km":200,"name":"asym cold","track":"T84"},"geometry":{"type":"Point","coordinates":[-136.25,51.75]}},{"type":"Feature","properties":{"kind":"center","id":44,"lat":-27.75,"lon":-66.5,"mslp":1003.6,"hvtl":-4.9,"hvtu":-336.5,"hb":44.1,"idx":-1.1,"cls":4,"psfc":911.4,"terrain":true,"radius_km":200,"name":"asym cold"},"geometry":{"type":"Point","coordinates":[-66.5,-27.75]}},{"type":"Feature","properties":{"kind":"center","id":45,"lat":-46.0,"lon":160.75,"mslp":1004.1,"hvtl":57.7,"hvtu":-150.3,"hb":23.5,"idx":0.1,"cls":3,"psfc":1004.1,"terrain":false,"radius_km":200,"name":"asym shallow warm","track":"T55"},"geometry":{"type":"Point","coordinates":[160.75,-46.0]}},{"type":"Feature","properties":{"kind":"center","id":46,"lat":-21.0,"lon":-64.0,"mslp":1004.4,"hvtl":-91.2,"hvtu":-181.9,"hb":75.9,"idx":-2.4,"cls":4,"psfc":914.6,"terrain":false,"radius_km":200,"name":"asym cold"},"geometry":{"type":"Point","coordinates":[-64.0,-21.0]}},{"type":"Feature","properties":{"kind":"center","id":47,"lat":40.5,"lon":137.0,"mslp":1004.9,"hvtl":-292.6,"hvtu":-374.4,"hb":73.6,"idx":-3.0,"cls":4,"psfc":1004.9,"terrain":false,"radius_km":200,"name":"asym cold"},"geometry":{"type":"Point","coordinates":[137.0,40.5]}},{"type":"Feature","properties":{"kind":"center","id":48,"lat":-25.25,"lon":-64.75,"mslp":1006.5,"hvtl":-82.1,"hvtu":-291.4,"hb":50.2,"idx":-2.3,"cls":4,"psfc":920.9,"terrain":false,"radius_km":200,"name":"asym cold","track":"T101"},"geometry":{"type":"Point","coordinates":[-64.75,-25.25]}},{"type":"Feature","properties":{"kind":"center","id":49,"lat":58.5,"lon":6.75,"mslp":1007.4,"hvtl":-167.9,"hvtu":-338.1,"hb":41.5,"idx":-2.9,"cls":4,"psfc":961.6,"terrain":false,"radius_km":200,"name":"asym cold","track":"T103"},"geometry":{"type":"Point","coordinates":[6.75,58.5]}},{"type":"Feature","properties":{"kind":"center","id":50,"lat":52.25,"lon":128.0,"mslp":1007.9,"hvtl":-0.4,"hvtu":-44.5,"hb":-6.3,"idx":-0.4,"cls":5,"psfc":974.3,"terrain":false,"radius_km":200,"name":"sym cold","track":"T83"},"geometry":{"type":"Point","coordinates":[128.0,52.25]}},{"type":"Feature","properties":{"kind":"center","id":51,"lat":14.0,"lon":40.5,"mslp":1008.8,"hvtl":60.0,"hvtu":-64.6,"hb":19.2,"idx":0.5,"cls":3,"psfc":1020.4,"terrain":false,"radius_km":200,"name":"asym shallow warm"},"geometry":{"type":"Point","coordinates":[40.5,14.0]}},{"type":"Feature","properties":{"kind":"center","id":52,"lat":-81.5,"lon":-53.5,"mslp":1009.3,"hvtl":-434.6,"hvtu":-215.0,"hb":81.1,"idx":-3.0,"cls":4,"psfc":992.0,"terrain":false,"radius_km":200,"name":"asym cold","track":"T61"},"geometry":{"type":"Point","coordinates":[-53.5,-81.5]}},{"type":"Feature","properties":{"kind":"center","id":53,"lat":28.75,"lon":68.0,"mslp":1009.5,"hvtl":-72.4,"hvtu":-151.2,"hb":20.1,"idx":-2.1,"cls":4,"psfc":1000.5,"terrain":false,"radius_km":200,"name":"asym cold","track":"T104"},"geometry":{"type":"Point","coordinates":[68.0,28.75]}},{"type":"Feature","properties":{"kind":"center","id":54,"lat":39.25,"lon":25.25,"mslp":1009.7,"hvtl":-1.7,"hvtu":-274.5,"hb":49.8,"idx":-1.0,"cls":4,"psfc":1009.7,"terrain":false,"radius_km":200,"name":"asym cold"},"geometry":{"type":"Point","coordinates":[25.25,39.25]}},{"type":"Feature","properties":{"kind":"center","id":55,"lat":-4.75,"lon":-158.25,"mslp":1010.0,"hvtl":-10.0,"hvtu":24.8,"hb":3.0,"idx":0.0,"cls":6,"psfc":1010.0,"terrain":false,"radius_km":200,"name":"shallow cold"},"geometry":{"type":"Point","coordinates":[-158.25,-4.75]}},{"type":"Feature","properties":{"kind":"center","id":56,"lat":-32.25,"lon":-68.0,"mslp":1010.9,"hvtl":90.5,"hvtu":-213.0,"hb":28.2,"idx":0.5,"cls":3,"psfc":948.6,"terrain":false,"radius_km":200,"name":"asym shallow warm","track":"T96"},"geometry":{"type":"Point","coordinates":[-68.0,-32.25]}},{"type":"Feature","properties":{"kind":"center","id":57,"lat":-32.75,"lon":-70.75,"mslp":1012.7,"hvtl":-121.6,"hvtu":-188.2,"hb":26.4,"idx":-2.6,"cls":4,"psfc":911.9,"terrain":true,"radius_km":200,"name":"asym cold"},"geometry":{"type":"Point","coordinates":[-70.75,-32.75]}},{"type":"Feature","properties":{"kind":"center","id":58,"lat":25.0,"lon":91.0,"mslp":1012.8,"hvtl":-56.2,"hvtu":-198.1,"hb":3.4,"idx":-2.0,"cls":5,"psfc":1011.4,"terrain":false,"radius_km":200,"name":"sym cold"},"geometry":{"type":"Point","coordinates":[91.0,25.0]}},{"type":"Feature","properties":{"kind":"center","id":59,"lat":41.5,"lon":49.0,"mslp":1013.1,"hvtl":15.7,"hvtu":-70.1,"hb":28.4,"idx":-0.3,"cls":3,"psfc":1015.9,"terrain":false,"radius_km":200,"name":"asym shallow warm","track":"T114"},"geometry":{"type":"Point","coordinates":[49.0,41.5]}},{"type":"Feature","properties":{"kind":"center","id":60,"lat":12.5,"lon":40.0,"mslp":1013.3,"hvtl":76.6,"hvtu":-37.1,"hb":26.0,"idx":0.9,"cls":3,"psfc":912.6,"terrain":true,"radius_km":200,"name":"asym shallow warm"},"geometry":{"type":"Point","coordinates":[40.0,12.5]}},{"type":"Feature","properties":{"kind":"center","id":61,"lat":28.5,"lon":65.5,"mslp":1014.9,"hvtl":-32.2,"hvtu":-139.5,"hb":22.7,"idx":-1.5,"cls":4,"psfc":934.2,"terrain":false,"radius_km":200,"name":"asym cold","track":"T94"},"geometry":{"type":"Point","coordinates":[65.5,28.5]}},{"type":"Feature","properties":{"kind":"center","id":62,"lat":25.25,"lon":95.25,"mslp":1015.6,"hvtl":5.3,"hvtu":-183.7,"hb":1.5,"idx":-0.8,"cls":1,"psfc":990.8,"terrain":false,"radius_km":200,"name":"sym shallow warm","track":"T108"},"geometry":{"type":"Point","coordinates":[95.25,25.25]}},{"type":"Feature","properties":{"kind":"center","id":63,"lat":32.25,"lon":62.25,"mslp":1016.4,"hvtl":42.2,"hvtu":-118.4,"hb":72.9,"idx":-0.0,"cls":3,"psfc":935.2,"terrain":false,"radius_km":200,"name":"asym shallow warm"},"geometry":{"type":"Point","coordinates":[62.25,32.25]}}]}