{"type":"FeatureCollection","features":[{"type":"Feature","properties":{"kind":"blob","cls":1,"id":1},"geometry":{"type":"Polygon","coordinates":[[[-153.25,-67.62],[-151.25,-67.12],[-149.38,-65.75],[-149.38,-65.25],[-150.25,-64.38],[-151.5,-63.88],[-156.25,-63.62],[-158.5,-64.12],[-159.88,-65.25],[-159.88,-65.75],[-159.0,-66.62],[-157.25,-67.38],[-153.25,-67.62]]]}},{"type":"Feature","properties":{"kind":"blob","cls":1,"id":2},"geometry":{"type":"Polygon","coordinates":[[[85.75,-55.62],[89.0,-55.62],[90.38,-54.75],[90.62,-53.75],[89.75,-52.62],[88.25,-51.88],[84.75,-51.88],[83.62,-52.5],[83.12,-54.0],[84.0,-55.12],[85.75,-55.62]]]}},{"type":"Feature","properties":{"kind":"blob","cls":4,"id":3},"geometry":{"type":"Polygon","coordinates":[[[16.75,-64.12],[19.25,-63.62],[21.0,-62.88],[22.12,-61.5],[21.25,-60.38],[20.25,-59.88],[15.0,-59.88],[12.5,-60.88],[11.62,-61.75],[12.0,-63.12],[13.5,-63.88],[16.75,-64.12]]]}},{"type":"Feature","properties":{"kind":"blob","cls":1,"id":4},"geometry":{"type":"Polygon","coordinates":[[[5.0,-59.88],[4.62,-59.25],[5.25,-58.88],[8.5,-59.12],[9.62,-58.25],[9.88,-57.25],[9.25,-56.38],[7.25,-55.62],[4.75,-55.62],[3.0,-56.12],[1.62,-57.0],[1.38,-58.0],[2.25,-59.12],[5.0,-59.88]]]}},{"type":"Feature","properties":{"kind":"blob","cls":4,"id":5},"geometry":{"type":"Polygon","coordinates":[[[-140.5,-75.88],[-139.75,-75.38],[-136.0,-74.88],[-129.0,-74.88],[-128.12,-74.0],[-129.25,-72.88],[-131.5,-72.12],[-139.0,-71.88],[-144.75,-72.62],[-146.75,-73.38],[-147.38,-74.0],[-146.75,-75.12],[-140.5,-75.88]]]}},{"type":"Feature","properties":{"kind":"blob","cls":4,"id":6},"geometry":{"type":"Polygon","coordinates":[[[-26.5,57.12],[-24.75,57.62],[-23.12,59.25],[-24.5,60.88],[-26.25,61.38],[-28.25,61.38],[-30.0,60.88],[-31.12,59.75],[-31.12,58.75],[-29.75,57.62],[-26.5,57.12]]]}},{"type":"Feature","properties":{"kind":"blob","cls":4,"id":7},"geometry":{"type":"Polygon","coordinates":[[[-104.0,-66.88],[-100.0,-66.88],[-98.75,-66.38],[-97.75,-65.38],[-95.5,-66.12],[-91.25,-65.88],[-89.75,-65.12],[-88.62,-63.5],[-89.5,-62.38],[-90.75,-61.88],[-95.0,-61.62],[-98.0,-62.62],[-99.0,-63.62],[-100.0,-63.12],[-103.25,-62.88],[-105.5,-63.38],[-107.12,-64.5],[-107.38,-65.25],[-106.5,-66.38],[-104.0,-66.88]]]}},{"type":"Feature","properties":{"kind":"blob","cls":4,"id":8},"geometry":{"type":"Polygon","coordinates":[[[-0.5,73.62],[3.0,74.12],[6.75,75.38],[7.88,76.5],[7.88,77.0],[6.5,77.88],[3.0,78.62],[-4.75,78.88],[-10.5,77.88],[-11.5,77.38],[-12.38,76.25],[-12.0,75.62],[-8.5,74.12],[-0.5,73.62]]]}},{"type":"Feature","properties":{"kind":"blob","cls":4,"id":9},"geometry":{"type":"Polygon","coordinates":[[[-99.0,-62.38],[-97.12,-61.0],[-97.12,-60.0],[-98.75,-58.88],[-100.0,-58.62],[-103.75,-58.88],[-105.38,-60.0],[-105.38,-61.25],[-103.75,-62.38],[-99.0,-62.38]]]}},{"type":"Feature","properties":{"kind":"blob","cls":4,"id":10},"geometry":{"type":"Polygon","coordinates":[[[57.0,-55.12],[61.25,-55.12],[62.25,-54.62],[63.38,-53.25],[62.0,-51.62],[60.75,-51.12],[56.5,-51.12],[54.88,-52.5],[54.62,-53.5],[55.25,-54.62],[57.0,-55.12]]]}},{"type":"Feature","properties":{"kind":"blob","cls":4,"id":11},"geometry":{"type":"Polygon","coordinates":[[[106.25,-66.62],[107.12,-65.75],[106.88,-64.75],[105.75,-63.88],[103.5,-63.38],[99.75,-63.62],[98.5,-64.12],[97.62,-65.25],[98.25,-66.12],[99.75,-66.38],[106.25,-66.62]]]}},{"type":"Feature","properties":{"kind":"blob","cls":4,"id":12},"geometry":{"type":"Polygon","coordinates":[[[106.5,-52.12],[108.12,-50.5],[107.62,-48.5],[106.5,-47.62],[104.25,-47.38],[103.25,-47.62],[101.88,-48.75],[101.88,-50.75],[103.0,-51.88],[106.5,-52.12]]]}},{"type":"Feature","properties":{"kind":"blob","cls":4,"id":13},"geometry":{"type":"Polygon","coordinates":[[[-25.0,52.12],[-23.0,52.88],[-22.38,53.75],[-22.62,54.75],[-25.0,55.88],[-28.0,55.12],[-28.62,54.25],[-28.38,53.25],[-27.0,52.38],[-25.0,52.12]]]}},{"type":"Feature","properties":{"kind":"blob","cls":1,"id":14},"geometry":{"type":"Polygon","coordinates":[[[-35.0,55.62],[-33.62,56.5],[-33.38,57.5],[-34.25,58.88],[-36.5,60.12],[-39.5,60.38],[-41.5,59.62],[-42.12,59.0],[-42.12,57.75],[-41.62,57.0],[-40.0,55.88],[-35.0,55.62]]]}},{"type":"Feature","properties":{"kind":"blob","cls":2,"id":15},"geometry":{"type":"Polygon","coordinates":[[[158.75,38.62],[159.88,39.75],[159.88,41.0],[158.0,42.38],[156.0,42.12],[154.62,40.75],[154.62,39.75],[155.75,38.62],[158.75,38.62]]]}},{"type":"Feature","properties":{"kind":"blob","cls":4,"id":16},"geometry":{"type":"Polygon","coordinates":[[[-104.0,-53.12],[-102.62,-52.0],[-102.62,-51.0],[-103.75,-49.88],[-106.5,-49.12],[-108.0,-47.88],[-109.0,-47.62],[-111.5,-47.88],[-112.62,-48.75],[-112.62,-50.25],[-111.25,-51.62],[-108.75,-52.88],[-104.0,-53.12]]]}},{"type":"Feature","properties":{"kind":"blob","cls":1,"id":17},"geometry":{"type":"Polygon","coordinates":[[[-47.0,59.12],[-45.75,59.38],[-44.38,60.25],[-45.25,61.38],[-47.5,61.12],[-49.5,62.62],[-51.0,62.12],[-51.62,61.5],[-51.62,60.5],[-50.0,59.38],[-47.0,59.12]]]}},{"type":"Feature","properties":{"kind":"blob","cls":1,"id":18},"geometry":{"type":"Polygon","coordinates":[[[33.75,-69.88],[36.0,-69.62],[41.0,-68.88],[43.25,-68.12],[51.5,-67.38],[51.38,-66.5],[52.5,-66.12],[55.0,-66.12],[55.88,-66.5],[56.0,-67.12],[57.5,-67.38],[65.75,-68.12],[68.0,-68.12],[68.88,-67.25],[68.88,-66.75],[68.0,-65.88],[65.75,-64.88],[61.5,-63.88],[50.25,-63.88],[47.5,-64.62],[46.0,-66.12],[44.0,-65.62],[41.75,-65.62],[36.75,-66.62],[34.25,-67.88],[33.75,-69.88]],[[57.12,-66.25],[57.75,-65.62],[58.75,-65.12],[59.38,-65.25],[58.0,-66.38],[57.12,-66.25]]]}},{"type":"Feature","properties":{"kind":"blob","cls":4,"id":19},"geometry":{"type":"Polygon","coordinates":[[[160.25,-69.88],[164.25,-69.88],[165.75,-69.38],[166.62,-68.5],[166.62,-68.0],[164.25,-66.38],[162.0,-65.88],[157.5,-66.12],[155.38,-67.25],[155.38,-68.25],[155.75,-68.62],[157.5,-69.38],[160.25,-69.88]]]}},{"type":"Feature","properties":{"kind":"blob","cls":3,"id":20},"geometry":{"type":"Polygon","coordinates":[[[166.75,-73.38],[169.75,-73.62],[172.5,-73.12],[174.12,-72.25],[174.12,-71.25],[172.5,-70.38],[169.75,-69.88],[167.0,-69.88],[163.38,-70.75],[164.5,-71.12],[164.75,-70.62],[166.0,-70.62],[170.62,-71.75],[168.88,-72.5],[169.62,-72.75],[169.25,-73.12],[168.25,-72.88],[166.75,-73.38]]]}},{"type":"Feature","properties":{"kind":"blob","cls":4,"id":21},"geometry":{"type":"Polygon","coordinates":[[[145.25,-63.38],[146.75,-62.62],[147.62,-61.5],[146.75,-60.38],[145.75,-59.88],[142.5,-59.38],[138.5,-59.62],[136.38,-61.0],[136.12,-61.5],[137.0,-62.62],[138.75,-63.38],[145.25,-63.38]]]}},{"type":"Feature","properties":{"kind":"blob","cls":1,"id":22},"geometry":{"type":"Polygon","coordinates":[[[-50.0,62.88],[-49.88,63.25],[-50.88,64.0],[-49.75,63.88],[-49.38,64.25],[-50.38,65.0],[-50.25,65.88],[-52.5,65.62],[-53.12,66.25],[-52.75,66.62],[-50.5,66.62],[-50.75,67.88],[-54.5,67.88],[-56.75,66.88],[-57.62,66.0],[-57.62,65.25],[-55.5,63.38],[-50.0,62.88]],[[-52.75,67.12],[-52.88,67.25],[-52.5,67.38],[-52.75,67.12]]]}},{"type":"Feature","properties":{"kind":"blob","cls":3,"id":23},"geometry":{"type":"Polygon","coordinates":[[[162.5,-79.62],[164.25,-79.88],[168.5,-79.38],[170.75,-78.62],[171.12,-77.75],[167.25,-75.62],[164.5,-75.12],[162.38,-77.0],[163.88,-78.0],[163.75,-78.38],[164.62,-78.5],[161.75,-78.62],[162.5,-79.62]],[[166.62,-77.5],[169.12,-77.5],[169.0,-77.62],[166.62,-77.5]]]}},{"type":"Feature","properties":{"kind":"blob","cls":4,"id":24},"geometry":{"type":"Polygon","coordinates":[[[-75.5,66.12],[-73.0,67.12],[-72.12,68.0],[-72.12,68.75],[-73.0,69.62],[-74.25,70.12],[-78.5,70.88],[-83.0,70.62],[-85.38,69.25],[-85.62,68.0],[-84.75,67.12],[-82.25,66.12],[-75.5,66.12]]]}},{"type":"Feature","properties":{"kind":"blob","cls":4,"id":25},"geometry":{"type":"Polygon","coordinates":[[[-51.62,69.75],[-52.25,70.38],[-53.62,70.5],[-52.12,70.75],[-53.0,71.88],[-54.25,71.88],[-54.0,72.62],[-59.25,74.88],[-61.0,76.38],[-66.5,76.38],[-67.25,76.88],[-68.25,76.88],[-70.12,75.75],[-70.12,75.25],[-68.75,74.12],[-66.25,73.38],[-56.5,73.38],[-56.75,72.88],[-58.12,72.25],[-58.12,71.25],[-57.5,70.62],[-55.5,69.88],[-51.62,69.75]]]}},{"type":"Feature","properties":{"kind":"blob","cls":4,"id":26},"geometry":{"type":"Polygon","coordinates":[[[179.75,84.62],[180.0,89.12],[130.0,88.88],[116.5,88.12],[113.5,87.62],[113.12,87.25],[113.25,86.88],[115.75,85.62],[119.75,84.62],[129.5,83.62],[146.75,83.38],[179.75,84.62]]]}},{"type":"Feature","properties":{"kind":"blob","cls":4,"id":26},"geometry":{"type":"Polygon","coordinates":[[[-179.75,89.12],[-180.0,84.62],[-173.5,84.62],[-158.75,85.62],[-152.25,86.38],[-149.88,87.25],[-151.5,87.88],[-156.25,88.38],[-179.75,89.12]]]}},{"type":"Feature","properties":{"kind":"blob","cls":2,"id":27},"geometry":{"type":"Polygon","coordinates":[[[-24.0,72.88],[-23.38,73.5],[-23.5,74.12],[-24.12,73.75],[-24.0,72.88]]]}},{"type":"Feature","properties":{"kind":"blob","cls":4,"id":28},"geometry":{"type":"Polygon","coordinates":[[[-53.88,69.75],[-53.75,69.62],[-53.62,69.75],[-53.88,69.75]]]}},{"type":"Feature","properties":{"kind":"blob","cls":4,"id":29},"geometry":{"type":"Polygon","coordinates":[[[6.0,-42.38],[7.12,-41.25],[7.12,-40.25],[5.75,-38.88],[4.25,-38.38],[2.0,-38.62],[0.88,-39.75],[0.88,-40.75],[2.5,-42.38],[6.0,-42.38]]]}},{"type":"Feature","properties":{"kind":"blob","cls":4,"id":30},"geometry":{"type":"Polygon","coordinates":[[[106.25,-40.62],[107.88,-39.5],[108.12,-38.25],[107.0,-36.88],[105.25,-36.62],[103.62,-37.75],[103.62,-39.5],[104.5,-40.38],[106.25,-40.62]]]}},{"type":"Feature","properties":{"kind":"blob","cls":3,"id":31},"geometry":{"type":"Polygon","coordinates":[[[-66.25,77.12],[-65.38,77.25],[-65.5,77.38],[-66.25,77.12]]]}},{"type":"Feature","properties":{"kind":"blob","cls":4,"id":32},"geometry":{"type":"Polygon","coordinates":[[[-161.5,46.12],[-159.25,47.38],[-158.88,48.0],[-159.12,49.5],[-161.0,50.38],[-163.0,50.38],[-164.75,49.62],[-165.12,49.0],[-165.12,47.5],[-164.25,46.62],[-161.5,46.12]]]}},{"type":"Feature","properties":{"kind":"blob","cls":4,"id":33},"geometry":{"type":"Polygon","coordinates":[[[-74.75,44.38],[-72.25,45.38],[-71.38,46.25],[-71.38,47.25],[-72.5,48.38],[-73.75,48.88],[-76.0,48.88],[-78.0,48.12],[-79.12,47.0],[-79.12,46.0],[-77.75,44.88],[-74.75,44.38]]]}},{"type":"Feature","properties":{"kind":"blob","cls":4,"id":34},"geometry":{"type":"Polygon","coordinates":[[[145.25,54.38],[147.0,54.88],[148.38,56.75],[148.12,58.0],[147.5,58.62],[145.5,59.38],[143.0,59.38],[141.0,58.62],[139.88,57.25],[139.88,56.75],[141.25,55.12],[145.25,54.38]]]}},{"type":"Feature","properties":{"kind":"blob","cls":4,"id":35},"geometry":{"type":"Polygon","coordinates":[[[-115.5,68.62],[-112.75,69.12],[-110.88,70.5],[-110.88,71.0],[-111.75,71.88],[-114.0,72.62],[-118.0,72.88],[-122.5,71.88],[-123.38,71.0],[-123.38,70.5],[-122.5,69.62],[-119.75,68.88],[-115.5,68.62]]]}},{"type":"Feature","properties":{"kind":"blob","cls":4,"id":36},"geometry":{"type":"Polygon","coordinates":[[[140.75,40.88],[142.38,41.75],[142.38,43.75],[143.5,44.12],[144.62,45.5],[144.38,46.5],[143.5,47.38],[141.25,47.88],[140.0,47.38],[139.12,46.5],[138.88,45.5],[139.62,44.5],[138.12,43.75],[137.88,42.25],[138.5,41.38],[140.75,40.88]]]}},{"type":"Feature","properties":{"kind":"blob","cls":5,"id":37},"geometry":{"type":"Polygon","coordinates":[[[-64.75,-17.38],[-63.88,-16.25],[-64.38,-13.75],[-66.5,-12.12],[-68.5,-12.12],[-69.38,-13.5],[-68.12,-14.25],[-67.5,-15.62],[-67.0,-15.62],[-64.75,-17.38]]]}},{"type":"Feature","properties":{"kind":"blob","cls":1,"id":38},"geometry":{"type":"Polygon","coordinates":[[[94.75,62.88],[96.62,64.0],[96.62,65.25],[95.25,66.62],[92.5,67.38],[88.0,67.12],[85.62,65.75],[85.38,65.0],[86.25,63.88],[88.75,62.88],[94.75,62.88]]]}},{"type":"Feature","properties":{"kind":"blob","cls":0,"id":39},"geometry":{"type":"MultiPolygon","coordinates":[[[[-166.62,60.0],[-166.75,60.12],[-166.88,60.0],[-166.62,60.0]]],[[[-173.25,58.62],[-169.75,58.38],[-168.0,58.88],[-166.88,59.75],[-167.25,59.88],[-168.5,59.12],[-170.25,59.38],[-171.12,60.5],[-170.62,63.0],[-171.5,63.12],[-173.75,62.62],[-176.12,61.0],[-176.12,60.0],[-175.5,59.38],[-173.25,58.62]]],[[[-166.5,60.12],[-166.12,60.5],[-166.12,61.5],[-166.5,61.88],[-166.62,61.5],[-166.5,60.12]]],[[[-166.62,62.0],[-166.75,62.12],[-166.88,62.0],[-166.62,62.0]]]]}},{"type":"Feature","properties":{"kind":"blob","cls":4,"id":40},"geometry":{"type":"Polygon","coordinates":[[[-133.5,50.38],[-132.0,50.88],[-129.88,53.25],[-130.38,54.5],[-132.5,55.38],[-134.0,55.38],[-136.0,54.62],[-136.88,53.0],[-136.88,51.75],[-136.0,50.88],[-133.5,50.38]]]}},{"type":"Feature","properties":{"kind":"blob","cls":5,"id":41},"geometry":{"type":"Polygon","coordinates":[[[-73.25,-12.12],[-72.0,-12.12],[-71.38,-11.5],[-71.12,-10.0],[-71.5,-9.62],[-74.12,-10.25],[-73.25,-12.12]]]}},{"type":"Feature","properties":{"kind":"blob","cls":4,"id":42},"geometry":{"type":"Polygon","coordinates":[[[169.0,-46.62],[170.25,-46.12],[171.12,-45.0],[170.88,-44.0],[170.25,-43.88],[169.88,-44.25],[170.25,-44.88],[169.25,-44.38],[169.0,-44.88],[168.5,-44.88],[169.12,-45.25],[169.0,-45.62],[168.25,-45.38],[167.88,-44.75],[170.0,-43.62],[169.75,-43.12],[168.0,-42.88],[166.75,-43.38],[166.12,-44.0],[165.88,-45.0],[166.75,-46.12],[169.0,-46.62]]]}},{"type":"Feature","properties":{"kind":"blob","cls":4,"id":43},"geometry":{"type":"Polygon","coordinates":[[[13.0,57.62],[13.75,57.88],[14.88,59.25],[13.5,60.88],[12.75,61.12],[9.0,61.12],[8.62,60.75],[8.88,60.25],[7.38,59.25],[7.38,58.75],[8.25,57.88],[13.0,57.62]]]}},{"type":"Feature","properties":{"kind":"blob","cls":3,"id":44},"geometry":{"type":"Polygon","coordinates":[[[-75.12,-10.25],[-75.0,-10.62],[-74.62,-10.5],[-74.75,-10.12],[-75.12,-10.25]]]}},{"type":"Feature","properties":{"kind":"blob","cls":3,"id":45},"geometry":{"type":"Polygon","coordinates":[[[-74.12,-12.0],[-74.0,-12.12],[-73.88,-11.75],[-74.12,-12.0]]]}},{"type":"Feature","properties":{"kind":"blob","cls":3,"id":46},"geometry":{"type":"MultiPolygon","coordinates":[[[[-101.5,36.88],[-101.62,36.75],[-101.5,36.62],[-101.5,36.88]]],[[[-101.25,36.88],[-100.62,37.75],[-101.0,38.88],[-101.38,38.0],[-101.25,36.88]]],[[[-101.12,39.0],[-101.25,39.12],[-101.38,39.0],[-101.12,39.0]]]]}},{"type":"Feature","properties":{"kind":"blob","cls":1,"id":47},"geometry":{"type":"Polygon","coordinates":[[[161.0,-47.88],[161.38,-47.5],[160.62,-46.25],[160.75,-45.88],[162.5,-47.12],[163.12,-45.75],[162.25,-44.62],[160.88,-44.0],[160.88,-42.75],[160.25,-41.88],[159.0,-41.38],[156.75,-41.62],[155.62,-42.75],[155.62,-44.25],[157.62,-45.5],[157.38,-46.25],[158.25,-47.38],[161.0,-47.88]]]}},{"type":"Feature","properties":{"kind":"blob","cls":4,"id":48},"geometry":{"type":"Polygon","coordinates":[[[166.0,-37.38],[167.25,-37.62],[168.88,-36.5],[168.88,-35.0],[168.0,-34.12],[166.75,-33.62],[165.5,-33.88],[164.38,-34.75],[164.38,-36.25],[166.0,-37.38]]]}},{"type":"Feature","properties":{"kind":"blob","cls":3,"id":49},"geometry":{"type":"Polygon","coordinates":[[[-74.5,-11.38],[-74.12,-11.25],[-74.25,-11.12],[-74.5,-11.38]]]}},{"type":"Feature","properties":{"kind":"blob","cls":5,"id":50},"geometry":{"type":"MultiPolygon","coordinates":[[[[66.75,25.38],[68.5,25.38],[69.88,26.75],[70.12,28.5],[69.25,29.62],[68.0,30.12],[67.38,29.75],[66.88,27.0],[65.62,26.75],[65.62,26.25],[66.75,25.38]]],[[[68.75,30.12],[68.62,30.0],[68.75,29.88],[68.75,30.12]]]]}},{"type":"Feature","properties":{"kind":"blob","cls":1,"id":51},"geometry":{"type":"Polygon","coordinates":[[[-27.75,16.38],[-26.0,16.38],[-25.12,17.5],[-25.12,18.5],[-26.75,17.62],[-27.75,16.38]]]}},{"type":"Feature","properties":{"kind":"blob","cls":4,"id":52},"geometry":{"type":"Polygon","coordinates":[[[-64.38,-22.5],[-64.25,-22.88],[-63.38,-22.0],[-63.5,-20.88],[-64.12,-21.0],[-63.62,-21.75],[-64.38,-22.5]]]}},{"type":"Feature","properties":{"kind":"blob","cls":4,"id":53},"geometry":{"type":"Polygon","coordinates":[[[-66.38,-28.75],[-66.25,-27.62],[-67.12,-28.25],[-66.38,-28.75]]]}},{"type":"Feature","properties":{"kind":"blob","cls":4,"id":54},"geometry":{"type":"MultiPolygon","coordinates":[[[[-65.25,-28.62],[-64.12,-27.0],[-64.5,-24.62],[-65.12,-25.75],[-64.88,-26.5],[-65.25,-26.12],[-65.88,-27.25],[-65.25,-28.62]]],[[[-64.88,-25.0],[-65.0,-24.88],[-65.12,-25.0],[-64.88,-25.0]]],[[[-64.62,-24.5],[-64.75,-24.38],[-64.88,-24.5],[-64.62,-24.5]]]]}},{"type":"Feature","properties":{"kind":"blob","cls":3,"id":55},"geometry":{"type":"Polygon","coordinates":[[[50.75,39.38],[51.88,40.5],[51.88,42.0],[51.38,42.75],[49.25,44.12],[47.5,43.88],[46.62,43.25],[48.88,41.0],[48.75,40.62],[47.25,41.12],[46.5,41.88],[46.12,41.75],[46.38,41.0],[48.0,39.38],[50.75,39.38]]]}},{"type":"Feature","properties":{"kind":"blob","cls":4,"id":56},"geometry":{"type":"Polygon","coordinates":[[[22.75,36.62],[23.88,38.0],[23.62,39.0],[22.75,39.88],[21.5,40.12],[21.62,39.25],[22.38,38.75],[21.75,38.62],[20.5,40.12],[19.75,39.88],[18.88,39.0],[18.62,38.0],[19.75,36.62],[22.75,36.62]],[[22.0,37.88],[21.88,38.0],[22.25,38.12],[22.0,37.88]]]}},{"type":"Feature","properties":{"kind":"blob","cls":5,"id":57},"geometry":{"type":"Polygon","coordinates":[[[91.0,23.62],[91.88,24.5],[91.88,25.25],[91.12,25.5],[91.88,25.75],[91.25,26.88],[88.75,27.12],[87.88,26.25],[87.88,24.75],[89.0,23.62],[91.0,23.62]]]}},{"type":"Feature","properties":{"kind":"blob","cls":4,"id":58},"geometry":{"type":"Polygon","coordinates":[[[-68.75,-33.38],[-68.0,-33.12],[-67.38,-32.25],[-67.5,-31.38],[-68.12,-31.5],[-67.62,-31.0],[-68.0,-30.38],[-68.62,-30.5],[-68.75,-33.38]]]}},{"type":"Feature","properties":{"kind":"blob","cls":4,"id":59},"geometry":{"type":"MultiPolygon","coordinates":[[[[-66.0,-28.62],[-66.12,-28.75],[-66.0,-28.88],[-66.0,-28.62]]],[[[-65.75,-28.38],[-65.88,-28.5],[-65.75,-28.62],[-65.75,-28.38]]]]}},{"type":"Feature","properties":{"kind":"blob","cls":4,"id":60},"geometry":{"type":"Polygon","coordinates":[[[65.5,28.12],[65.5,28.88],[65.38,28.75],[65.5,28.12]]]}},{"type":"Feature","properties":{"kind":"blob","cls":1,"id":61},"geometry":{"type":"Polygon","coordinates":[[[93.75,25.38],[94.62,26.25],[93.0,26.88],[92.88,26.25],[93.75,25.38]]]}},{"type":"Feature","properties":{"kind":"blob","cls":1,"id":62},"geometry":{"type":"Polygon","coordinates":[[[95.25,25.12],[95.88,25.5],[95.25,25.62],[95.25,25.12]]]}},{"type":"Feature","properties":{"kind":"blob","cls":4,"id":63},"geometry":{"type":"Polygon","coordinates":[[[-71.25,-32.88],[-70.62,-33.0],[-71.12,-32.0],[-71.0,-30.38],[-71.62,-31.25],[-71.25,-32.88]]]}},{"type":"Feature","properties":{"kind":"blob","cls":4,"id":64},"geometry":{"type":"Polygon","coordinates":[[[61.5,30.88],[62.12,30.75],[61.62,31.75],[62.38,32.75],[61.75,32.88],[61.5,33.38],[61.12,31.5],[61.5,30.88]]]}},{"type":"Feature","properties":{"kind":"blob","cls":4,"id":65},"geometry":{"type":"Polygon","coordinates":[[[65.62,29.25],[65.75,29.12],[65.88,29.25],[65.62,29.25]]]}},{"type":"Feature","properties":{"kind":"center","id":1,"lat":-65.5,"lon":-154.25,"mslp":951.0,"hvtl":23.5,"hvtu":-45.6,"hb":-2.9,"idx":0.0,"cls":1,"psfc":951.0,"terrain":false,"radius_km":200,"name":"sym shallow warm","track":"T04"},"geometry":{"type":"Point","coordinates":[-154.25,-65.5]}},{"type":"Feature","properties":{"kind":"center","id":2,"lat":-53.75,"lon":86.75,"mslp":961.7,"hvtl":157.0,"hvtu":-227.1,"hb":-28.9,"idx":0.9,"cls":1,"psfc":961.7,"terrain":false,"radius_km":200,"name":"sym shallow warm","track":"T13"},"geometry":{"type":"Point","coordinates":[86.75,-53.75]}},{"type":"Feature","properties":{"kind":"center","id":3,"lat":-62.0,"lon":14.0,"mslp":962.3,"hvtl":-55.1,"hvtu":-189.8,"hb":25.4,"idx":-2.0,"cls":4,"psfc":962.3,"terrain":false,"radius_km":200,"name":"asym cold","track":"T23"},"geometry":{"type":"Point","coordinates":[14.0,-62.0]}},{"type":"Feature","properties":{"kind":"center","id":4,"lat":-58.0,"lon":5.75,"mslp":963.0,"hvtl":58.5,"hvtu":-70.8,"hb":-7.4,"idx":0.4,"cls":1,"psfc":963.0,"terrain":false,"radius_km":200,"name":"sym shallow warm","track":"T19"},"geometry":{"type":"Point","coordinates":[5.75,-58.0]}},{"type":"Feature","properties":{"kind":"center","id":5,"lat":-74.0,"lon":-139.25,"mslp":963.1,"hvtl":-134.9,"hvtu":-55.1,"hb":20.2,"idx":-2.2,"cls":4,"psfc":963.1,"terrain":false,"radius_km":200,"name":"asym cold"},"geometry":{"type":"Point","coordinates":[-139.25,-74.0]}},{"type":"Feature","properties":{"kind":"center","id":6,"lat":59.25,"lon":-27.25,"mslp":964.6,"hvtl":-178.6,"hvtu":-432.5,"hb":82.2,"idx":-2.9,"cls":4,"psfc":964.6,"terrain":false,"radius_km":200,"name":"asym cold","track":"T10"},"geometry":{"type":"Point","coordinates":[-27.25,59.25]}},{"type":"Feature","properties":{"kind":"center","id":7,"lat":-65.0,"lon":-102.5,"mslp":965.4,"hvtl":-90.2,"hvtu":-162.0,"hb":43.5,"idx":-2.4,"cls":4,"psfc":965.4,"terrain":false,"radius_km":200,"name":"asym cold","track":"T11"},"geometry":{"type":"Point","coordinates":[-102.5,-65.0]}},{"type":"Feature","properties":{"kind":"center","id":8,"lat":76.0,"lon":-2.5,"mslp":966.6,"hvtl":-29.2,"hvtu":-276.4,"hb":59.1,"idx":-1.6,"cls":4,"psfc":966.6,"terrain":false,"radius_km":200,"name":"asym cold","track":"T32"},"geometry":{"type":"Point","coordinates":[-2.5,76.0]}},{"type":"Feature","properties":{"kind":"center","id":9,"lat":-60.5,"lon":-101.25,"mslp":968.1,"hvtl":-32.4,"hvtu":-166.5,"hb":15.9,"idx":-1.6,"cls":4,"psfc":968.1,"terrain":false,"radius_km":200,"name":"asym cold","track":"T26"},"geometry":{"type":"Point","coordinates":[-101.25,-60.5]}},{"type":"Feature","properties":{"kind":"center","id":10,"lat":-53.25,"lon":58.75,"mslp":974.5,"hvtl":-89.0,"hvtu":-142.1,"hb":50.3,"idx":-2.3,"cls":4,"psfc":974.5,"terrain":false,"radius_km":200,"name":"asym cold","track":"T29"},"geometry":{"type":"Point","coordinates":[58.75,-53.25]}},{"type":"Feature","properties":{"kind":"center","id":11,"lat":-65.25,"lon":102.25,"mslp":975.4,"hvtl":-271.2,"hvtu":-15.4,"hb":81.5,"idx":-2.1,"cls":4,"psfc":975.4,"terrain":false,"radius_km":200,"name":"asym cold","track":"T37"},"geometry":{"type":"Point","coordinates":[102.25,-65.25]}},{"type":"Feature","properties":{"kind":"center","id":12,"lat":-49.75,"lon":104.75,"mslp":977.5,"hvtl":-153.9,"hvtu":-259.2,"hb":88.0,"idx":-2.8,"cls":4,"psfc":977.5,"terrain":false,"radius_km":200,"name":"asym cold","track":"T07"},"geometry":{"type":"Point","coordinates":[104.75,-49.75]}},{"type":"Feature","properties":{"kind":"center","id":13,"lat":55.25,"lon":-24.25,"mslp":978.6,"hvtl":-148.5,"hvtu":-308.0,"hb":79.9,"idx":-2.8,"cls":4,"psfc":978.6,"terrain":false,"radius_km":200,"name":"asym cold"},"geometry":{"type":"Point","coordinates":[-24.25,55.25]}},{"type":"Feature","properties":{"kind":"center","id":14,"lat":57.75,"lon":-37.5,"mslp":979.3,"hvtl":68.5,"hvtu":-153.0,"hb":2.2,"idx":0.3,"cls":1,"psfc":979.3,"terrain":false,"radius_km":200,"name":"sym shallow warm","track":"T14"},"geometry":{"type":"Point","coordinates":[-37.5,57.75]}},{"type":"Feature","properties":{"kind":"center","id":15,"lat":40.25,"lon":157.25,"mslp":981.0,"hvtl":89.7,"hvtu":2.1,"hb":38.6,"idx":1.5,"cls":2,"psfc":981.0,"terrain":false,"radius_km":200,"name":"asym deep warm","track":"T09"},"geometry":{"type":"Point","coordinates":[157.25,40.25]}},{"type":"Feature","properties":{"kind":"center","id":16,"lat":-51.25,"lon":-106.25,"mslp":984.1,"hvtl":-203.9,"hvtu":-127.1,"hb":50.2,"idx":-2.8,"cls":4,"psfc":984.1,"terrain":false,"radius_km":200,"name":"asym cold","track":"T39"},"geometry":{"type":"Point","coordinates":[-106.25,-51.25]}},{"type":"Feature","properties":{"kind":"center","id":17,"lat":60.75,"lon":-47.0,"mslp":984.4,"hvtl":37.5,"hvtu":-103.3,"hb":-11.4,"idx":-0.1,"cls":1,"psfc":982.5,"terrain":false,"radius_km":200,"name":"sym shallow warm"},"geometry":{"type":"Point","coordinates":[-47.0,60.75]}},{"type":"Feature","properties":{"kind":"center","id":18,"lat":-66.25,"lon":61.0,"mslp":984.7,"hvtl":36.6,"hvtu":-149.9,"hb":1.5,"idx":-0.2,"cls":1,"psfc":984.7,"terrain":false,"radius_km":200,"name":"sym shallow warm"},"geometry":{"type":"Point","coordinates":[61.0,-66.25]}},{"type":"Feature","properties":{"kind":"center","id":19,"lat":-68.0,"lon":163.5,"mslp":984.9,"hvtl":-284.7,"hvtu":-106.5,"hb":63.2,"idx":-2.8,"cls":4,"psfc":984.9,"terrain":false,"radius_km":200,"name":"asym cold","track":"T47"},"geometry":{"type":"Point","coordinates":[163.5,-68.0]}},{"type":"Feature","properties":{"kind":"center","id":20,"lat":-72.25,"lon":174.0,"mslp":986.4,"hvtl":97.2,"hvtu":-120.4,"hb":42.8,"idx":0.7,"cls":3,"psfc":986.4,"terrain":false,"radius_km":200,"name":"asym shallow warm"},"geometry":{"type":"Point","coordinates":[174.0,-72.25]}},{"type":"Feature","properties":{"kind":"center","id":21,"lat":-61.5,"lon":141.5,"mslp":986.6,"hvtl":-317.4,"hvtu":-277.9,"hb":70.9,"idx":-3.0,"cls":4,"psfc":986.5,"terrain":false,"radius_km":200,"name":"asym cold","track":"T18"},"geometry":{"type":"Point","coordinates":[141.5,-61.5]}},{"type":"Feature","properties":{"kind":"center","id":22,"lat":65.25,"lon":-52.5,"mslp":986.7,"hvtl":23.5,"hvtu":-121.6,"hb":-4.4,"idx":-0.4,"cls":1,"psfc":979.6,"terrain":false,"radius_km":200,"name":"sym shallow warm"},"geometry":{"type":"Point","coordinates":[-52.5,65.25]}},{"type":"Feature","properties":{"kind":"center","id":23,"lat":-77.5,"lon":166.0,"mslp":987.4,"hvtl":88.8,"hvtu":-195.3,"hb":39.5,"idx":0.5,"cls":3,"psfc":983.4,"terrain":false,"radius_km":200,"name":"asym shallow warm","track":"T67"},"geometry":{"type":"Point","coordinates":[166.0,-77.5]}},{"type":"Feature","properties":{"kind":"center","id":24,"lat":68.5,"lon":-77.75,"mslp":987.7,"hvtl":-92.8,"hvtu":-186.3,"hb":37.3,"idx":-2.4,"cls":4,"psfc":987.7,"terrain":false,"radius_km":200,"name":"asym cold","track":"T70"},"geometry":{"type":"Point","coordinates":[-77.75,68.5]}},{"type":"Feature","properties":{"kind":"center","id":25,"lat":71.25,"lon":-52.75,"mslp":988.0,"hvtl":-172.6,"hvtu":-55.8,"hb":54.8,"idx":-2.4,"cls":4,"psfc":904.0,"terrain":false,"radius_km":200,"name":"asym cold"},"geometry":{"type":"Point","coordinates":[-52.75,71.25]}},{"type":"Feature","properties":{"kind":"center","id":26,"lat":86.0,"lon":149.0,"mslp":988.8,"hvtl":-196.2,"hvtu":-146.8,"hb":40.8,"idx":-2.8,"cls":4,"psfc":988.8,"terrain":false,"radius_km":200,"name":"asym cold","track":"T59"},"geometry":{"type":"Point","coordinates":[149.0,86.0]}},{"type":"Feature","properties":{"kind":"center","id":27,"lat":73.5,"lon":-23.5,"mslp":989.1,"hvtl":92.2,"hvtu":6.6,"hb":13.1,"idx":1.5,"cls":2,"psfc":912.1,"terrain":false,"radius_km":200,"name":"asym deep warm","track":"T02"},"geometry":{"type":"Point","coordinates":[-23.5,73.5]}},{"type":"Feature","properties":{"kind":"center","id":28,"lat":69.75,"lon":-53.75,"mslp":989.6,"hvtl":-88.8,"hvtu":-99.9,"hb":40.4,"idx":-2.2,"cls":4,"psfc":902.2,"terrain":false,"radius_km":200,"name":"asym cold","track":"T68"},"geometry":{"type":"Point","coordinates":[-53.75,69.75]}},{"type":"Feature","properties":{"kind":"center","id":29,"lat":-40.5,"lon":3.75,"mslp":990.6,"hvtl":-328.0,"hvtu":-364.2,"hb":71.8,"idx":-3.0,"cls":4,"psfc":990.6,"terrain":false,"radius_km":200,"name":"asym cold","track":"T05"},"geometry":{"type":"Point","coordinates":[3.75,-40.5]}},{"type":"Feature","properties":{"kind":"center","id":30,"lat":-38.5,"lon":105.75,"mslp":992.4,"hvtl":-198.2,"hvtu":-276.0,"hb":54.3,"idx":-2.9,"cls":4,"psfc":992.4,"terrain":false,"radius_km":200,"name":"asym cold","track":"T62"},"geometry":{"type":"Point","coordinates":[105.75,-38.5]}},{"type":"Feature","properties":{"kind":"center","id":31,"lat":77.25,"lon":-66.25,"mslp":995.3,"hvtl":51.2,"hvtu":-166.7,"hb":61.0,"idx":0.0,"cls":3,"psfc":931.1,"terrain":false,"radius_km":200,"name":"asym shallow warm","track":"T51"},"geometry":{"type":"Point","coordinates":[-66.25,77.25]}},{"type":"Feature","properties":{"kind":"center","id":32,"lat":48.25,"lon":-162.25,"mslp":998.5,"hvtl":-87.4,"hvtu":-344.0,"hb":50.4,"idx":-2.4,"cls":4,"psfc":998.5,"terrain":false,"radius_km":200,"name":"asym cold","track":"T34"},"geometry":{"type":"Point","coordinates":[-162.25,48.25]}},{"type":"Feature","properties":{"kind":"center","id":33,"lat":46.75,"lon":-75.25,"mslp":1000.0,"hvtl":-347.3,"hvtu":-167.7,"hb":79.7,"idx":-2.9,"cls":4,"psfc":964.1,"terrain":false,"radius_km":200,"name":"asym cold","track":"T44"},"geometry":{"type":"Point","coordinates":[-75.25,46.75]}},{"type":"Feature","properties":{"kind":"center","id":34,"lat":57.0,"lon":144.25,"mslp":1000.1,"hvtl":-76.2,"hvtu":-325.6,"hb":75.0,"idx":-2.3,"cls":4,"psfc":1000.1,"terrain":false,"radius_km":200,"name":"asym cold","track":"T87"},"geometry":{"type":"Point","coordinates":[144.25,57.0]}},{"type":"Feature","properties":{"kind":"center","id":35,"lat":70.75,"lon":-116.5,"mslp":1000.7,"hvtl":-364.8,"hvtu":-40.8,"hb":74.7,"idx":-2.4,"cls":4,"psfc":967.8,"terrain":false,"radius_km":200,"name":"asym cold","track":"T71"},"geometry":{"type":"Point","coordinates":[-116.5,70.75]}},{"type":"Feature","properties":{"kind":"center","id":36,"lat":45.75,"lon":141.75,"mslp":1001.3,"hvtl":-260.8,"hvtu":-386.9,"hb":79.2,"idx":-3.0,"cls":4,"psfc":1001.3,"terrain":false,"radius_km":200,"name":"asym cold","track":"T30"},"geometry":{"type":"Point","coordinates":[141.75,45.75]}},{"type":"Feature","properties":{"kind":"center","id":37,"lat":-14.75,"lon":-66.0,"mslp":1001.8,"hvtl":-74.0,"hvtu":-119.2,"hb":5.3,"idx":-2.1,"cls":5,"psfc":982.5,"terrain":false,"radius_km":200,"name":"sym cold","track":"T92"},"geometry":{"type":"Point","coordinates":[-66.0,-14.75]}},{"type":"Feature","properties":{"kind":"center","id":38,"lat":64.75,"lon":92.75,"mslp":1003.2,"hvtl":70.2,"hvtu":-51.9,"hb":-2.5,"idx":0.7,"cls":1,"psfc":964.1,"terrain":false,"radius_km":200,"name":"sym shallow warm","track":"T57"},"geometry":{"type":"Point","coordinates":[92.75,64.75]}},{"type":"Feature","properties":{"kind":"center","id":39,"lat":60.75,"lon":-171.75,"mslp":1003.3,"hvtl":98.7,"hvtu":21.8,"hb":-15.7,"idx":1.7,"cls":0,"psfc":1003.3,"terrain":false,"radius_km":200,"name":"sym deep warm","track":"T89"},"geometry":{"type":"Point","coordinates":[-171.75,60.75]}},{"type":"Feature","properties":{"kind":"center","id":40,"lat":53.5,"lon":-133.25,"mslp":1003.4,"hvtl":-111.5,"hvtu":-403.6,"hb":83.6,"idx":-2.6,"cls":4,"psfc":1003.4,"terrain":false,"radius_km":200,"name":"asym cold","track":"T84"},"geometry":{"type":"Point","coordinates":[-133.25,53.5]}},{"type":"Feature","properties":{"kind":"center","id":41,"lat":-9.75,"lon":-71.5,"mslp":1004.1,"hvtl":-31.8,"hvtu":-38.8,"hb":-3.9,"idx":-1.0,"cls":5,"psfc":970.2,"terrain":false,"radius_km":200,"name":"sym cold"},"geometry":{"type":"Point","coordinates":[-71.5,-9.75]}},{"type":"Feature","properties":{"kind":"center","id":42,"lat":-44.0,"lon":169.25,"mslp":1005.4,"hvtl":-277.5,"hvtu":-251.6,"hb":61.8,"idx":-3.0,"cls":4,"psfc":905.2,"terrain":true,"radius_km":200,"name":"asym cold"},"geometry":{"type":"Point","coordinates":[169.25,-44.0]}},{"type":"Feature","properties":{"kind":"center","id":43,"lat":59.5,"lon":11.0,"mslp":1006.0,"hvtl":-72.8,"hvtu":-209.6,"hb":28.7,"idx":-2.2,"cls":4,"psfc":993.3,"terrain":false,"radius_km":200,"name":"asym cold","track":"T103"},"geometry":{"type":"Point","coordinates":[11.0,59.5]}},{"type":"Feature","properties":{"kind":"center","id":44,"lat":-10.25,"lon":-75.0,"mslp":1006.0,"hvtl":85.8,"hvtu":-27.1,"hb":24.5,"idx":1.1,"cls":3,"psfc":965.0,"terrain":false,"radius_km":200,"name":"asym shallow warm"},"geometry":{"type":"Point","coordinates":[-75.0,-10.25]}},{"type":"Feature","properties":{"kind":"center","id":45,"lat":-12.0,"lon":-74.0,"mslp":1006.2,"hvtl":133.1,"hvtu":-53.0,"hb":46.7,"idx":1.3,"cls":3,"psfc":930.1,"terrain":false,"radius_km":200,"name":"asym shallow warm","track":"T97"},"geometry":{"type":"Point","coordinates":[-74.0,-12.0]}},{"type":"Feature","properties":{"kind":"center","id":46,"lat":38.5,"lon":-101.0,"mslp":1006.2,"hvtl":8.3,"hvtu":-336.7,"hb":44.8,"idx":-0.8,"cls":3,"psfc":903.6,"terrain":true,"radius_km":200,"name":"asym shallow warm"},"geometry":{"type":"Point","coordinates":[-101.0,38.5]}},{"type":"Feature","properties":{"kind":"center","id":47,"lat":-43.5,"lon":158.25,"mslp":1006.3,"hvtl":84.3,"hvtu":-91.1,"hb":-7.0,"idx":0.7,"cls":1,"psfc":1006.4,"terrain":false,"radius_km":200,"name":"sym shallow warm","track":"T55"},"geometry":{"type":"Point","coordinates":[158.25,-43.5]}},{"type":"Feature","properties":{"kind":"center","id":48,"lat":-35.75,"lon":166.75,"mslp":1007.8,"hvtl":-184.2,"hvtu":-202.6,"hb":44.3,"idx":-2.9,"cls":4,"psfc":1007.8,"terrain":false,"radius_km":200,"name":"asym cold"},"geometry":{"type":"Point","coordinates":[166.75,-35.75]}},{"type":"Feature","properties":{"kind":"center","id":49,"lat":-11.25,"lon":-74.25,"mslp":1007.9,"hvtl":104.8,"hvtu":-36.2,"hb":34.5,"idx":1.2,"cls":3,"psfc":901.9,"terrain":true,"radius_km":200,"name":"asym shallow warm"},"geometry":{"type":"Point","coordinates":[-74.25,-11.25]}},{"type":"Feature","properties":{"kind":"center","id":50,"lat":27.5,"lon":67.75,"mslp":1008.9,"hvtl":-52.5,"hvtu":-159.5,"hb":9.9,"idx":-1.9,"cls":5,"psfc":1003.7,"terrain":false,"radius_km":200,"name":"sym cold","track":"T104"},"geometry":{"type":"Point","coordinates":[67.75,27.5]}},{"type":"Feature","properties":{"kind":"center","id":51,"lat":17.5,"lon":-26.75,"mslp":1009.2,"hvtl":118.2,"hvtu":-23.3,"hb":4.5,"idx":1.4,"cls":1,"psfc":1009.2,"terrain":false,"radius_km":200,"name":"sym shallow warm","track":"T86"},"geometry":{"type":"Point","coordinates":[-26.75,17.5]}},{"type":"Feature","properties":{"kind":"center","id":52,"lat":-22.0,"lon":-63.5,"mslp":1009.3,"hvtl":-10.2,"hvtu":-149.1,"hb":69.5,"idx":-1.1,"cls":4,"psfc":949.5,"terrain":false,"radius_km":200,"name":"asym cold"},"geometry":{"type":"Point","coordinates":[-63.5,-22.0]}},{"type":"Feature","properties":{"kind":"center","id":53,"lat":-28.5,"lon":-66.5,"mslp":1009.8,"hvtl":-42.6,"hvtu":-351.0,"hb":37.1,"idx":-1.8,"cls":4,"psfc":926.7,"terrain":false,"radius_km":200,"name":"asym cold"},"geometry":{"type":"Point","coordinates":[-66.5,-28.5]}},{"type":"Feature","properties":{"kind":"center","id":54,"lat":-24.5,"lon":-64.75,"mslp":1010.7,"hvtl":-138.2,"hvtu":-235.9,"hb":51.2,"idx":-2.7,"cls":4,"psfc":924.8,"terrain":false,"radius_km":200,"name":"asym cold","track":"T101"},"geometry":{"type":"Point","coordinates":[-64.75,-24.5]}},{"type":"Feature","properties":{"kind":"center","id":55,"lat":41.75,"lon":49.0,"mslp":1011.2,"hvtl":46.7,"hvtu":-108.8,"hb":38.0,"idx":0.1,"cls":3,"psfc":1014.4,"terrain":false,"radius_km":200,"name":"asym shallow warm","track":"T114"},"geometry":{"type":"Point","coordinates":[49.0,41.75]}},{"type":"Feature","properties":{"kind":"center","id":56,"lat":38.25,"lon":21.5,"mslp":1011.3,"hvtl":-59.8,"hvtu":-268.3,"hb":19.6,"idx":-2.1,"cls":4,"psfc":1010.7,"terrain":false,"radius_km":200,"name":"asym cold"},"geometry":{"type":"Point","coordinates":[21.5,38.25]}},{"type":"Feature","properties":{"kind":"center","id":57,"lat":24.25,"lon":89.75,"mslp":1012.8,"hvtl":-62.0,"hvtu":-171.9,"hb":5.1,"idx":-2.0,"cls":5,"psfc":1011.5,"terrain":false,"radius_km":200,"name":"sym cold"},"geometry":{"type":"Point","coordinates":[89.75,24.25]}},{"type":"Feature","properties":{"kind":"center","id":58,"lat":-31.25,"lon":-68.25,"mslp":1013.1,"hvtl":-26.8,"hvtu":-287.7,"hb":30.9,"idx":-1.5,"cls":4,"psfc":935.6,"terrain":false,"radius_km":200,"name":"asym cold","track":"T96"},"geometry":{"type":"Point","coordinates":[-68.25,-31.25]}},{"type":"Feature","properties":{"kind":"center","id":59,"lat":-28.75,"lon":-66.0,"mslp":1013.3,"hvtl":-3.2,"hvtu":-353.0,"hb":37.9,"idx":-1.1,"cls":4,"psfc":950.6,"terrain":false,"radius_km":200,"name":"asym cold"},"geometry":{"type":"Point","coordinates":[-66.0,-28.75]}},{"type":"Feature","properties":{"kind":"center","id":60,"lat":28.5,"lon":65.5,"mslp":1014.9,"hvtl":-44.4,"hvtu":-145.1,"hb":30.4,"idx":-1.7,"cls":4,"psfc":933.8,"terrain":false,"radius_km":200,"name":"asym cold","track":"T94"},"geometry":{"type":"Point","coordinates":[65.5,28.5]}},{"type":"Feature","properties":{"kind":"center","id":61,"lat":26.75,"lon":93.0,"mslp":1014.9,"hvtl":10.6,"hvtu":-197.4,"hb":3.0,"idx":-0.8,"cls":1,"psfc":1005.2,"terrain":false,"radius_km":200,"name":"sym shallow warm","track":"T110"},"geometry":{"type":"Point","coordinates":[93.0,26.75]}},{"type":"Feature","properties":{"kind":"center","id":62,"lat":25.5,"lon":95.75,"mslp":1015.5,"hvtl":11.8,"hvtu":-188.8,"hb":4.4,"idx":-0.7,"cls":1,"psfc":989.3,"terrain":false,"radius_km":200,"name":"sym shallow warm","track":"T108"},"geometry":{"type":"Point","coordinates":[95.75,25.5]}},{"type":"Feature","properties":{"kind":"center","id":63,"lat":-30.75,"lon":-71.0,"mslp":1016.3,"hvtl":-87.2,"hvtu":-324.1,"hb":23.8,"idx":-2.4,"cls":4,"psfc":935.1,"terrain":false,"radius_km":200,"name":"asym cold"},"geometry":{"type":"Point","coordinates":[-71.0,-30.75]}},{"type":"Feature","properties":{"kind":"center","id":64,"lat":32.25,"lon":62.0,"mslp":1016.4,"hvtl":-12.2,"hvtu":-153.0,"hb":67.2,"idx":-1.2,"cls":4,"psfc":943.8,"terrain":false,"radius_km":200,"name":"asym cold"},"geometry":{"type":"Point","coordinates":[62.0,32.25]}},{"type":"Feature","properties":{"kind":"center","id":65,"lat":29.25,"lon":65.75,"mslp":1016.7,"hvtl":-48.8,"hvtu":-148.6,"hb":34.7,"idx":-1.8,"cls":4,"psfc":905.9,"terrain":true,"radius_km":200,"name":"asym cold"},"geometry":{"type":"Point","coordinates":[65.75,29.25]}}]}