{"type":"FeatureCollection","features":[{"type":"Feature","properties":{"kind":"blob","cls":4,"id":1},"geometry":{"type":"Polygon","coordinates":[[[-112.5,-60.38],[-110.88,-59.25],[-110.88,-58.25],[-111.5,-57.62],[-113.5,-56.88],[-116.75,-57.12],[-118.38,-58.25],[-118.38,-59.25],[-116.75,-60.38],[-112.5,-60.38]]]}},{"type":"Feature","properties":{"kind":"blob","cls":0,"id":2},"geometry":{"type":"Polygon","coordinates":[[[159.0,14.62],[160.5,14.62],[161.38,15.75],[161.12,17.25],[159.75,18.12],[158.5,17.88],[157.62,16.75],[157.75,16.12],[158.62,16.0],[157.88,15.25],[159.0,14.62]]]}},{"type":"Feature","properties":{"kind":"blob","cls":3,"id":3},"geometry":{"type":"Polygon","coordinates":[[[179.75,-69.88],[180.0,-65.38],[174.5,-65.62],[173.25,-66.12],[172.38,-67.0],[172.62,-68.0],[174.0,-68.88],[176.75,-69.62],[179.75,-69.88]]]}},{"type":"Feature","properties":{"kind":"blob","cls":3,"id":3},"geometry":{"type":"Polygon","coordinates":[[[-179.75,-65.38],[-180.0,-69.88],[-176.0,-69.62],[-174.25,-68.88],[-173.62,-68.0],[-174.75,-66.62],[-176.25,-65.88],[-179.75,-65.38]]]}},{"type":"Feature","properties":{"kind":"blob","cls":0,"id":4},"geometry":{"type":"Polygon","coordinates":[[[140.0,16.88],[140.62,17.5],[140.88,19.0],[140.0,20.12],[138.75,20.38],[137.38,19.5],[137.12,18.0],[137.5,17.38],[140.0,16.88]]]}},{"type":"Feature","properties":{"kind":"blob","cls":1,"id":5},"geometry":{"type":"Polygon","coordinates":[[[82.25,-66.12],[85.25,-65.62],[89.5,-63.88],[90.38,-63.25],[90.62,-62.25],[89.0,-60.88],[86.25,-60.12],[82.0,-60.62],[76.5,-62.62],[78.0,-62.88],[78.12,-63.25],[75.38,-64.25],[76.0,-65.12],[77.5,-65.88],[82.25,-66.12]]]}},{"type":"Feature","properties":{"kind":"blob","cls":1,"id":6},"geometry":{"type":"Polygon","coordinates":[[[-128.0,-70.62],[-126.25,-69.88],[-125.62,-69.0],[-126.25,-68.12],[-127.75,-67.38],[-130.25,-66.88],[-134.5,-67.12],[-136.88,-68.25],[-137.12,-69.0],[-136.5,-69.88],[-134.75,-70.62],[-128.0,-70.62]]]}},{"type":"Feature","properties":{"kind":"blob","cls":3,"id":7},"geometry":{"type":"Polygon","coordinates":[[[-95.0,-67.12],[-92.75,-66.12],[-91.88,-65.0],[-93.5,-63.38],[-96.75,-62.62],[-101.0,-62.88],[-102.5,-63.38],[-104.12,-64.75],[-104.38,-65.25],[-103.5,-66.38],[-101.75,-67.12],[-95.0,-67.12]]]}},{"type":"Feature","properties":{"kind":"blob","cls":4,"id":8},"geometry":{"type":"Polygon","coordinates":[[[-27.25,-64.62],[-25.25,-64.12],[-23.38,-63.0],[-23.12,-61.5],[-24.0,-60.62],[-26.25,-59.88],[-28.75,-59.88],[-30.75,-60.38],[-32.5,-61.12],[-33.88,-62.25],[-33.88,-63.25],[-33.25,-63.88],[-27.25,-64.62]]]}},{"type":"Feature","properties":{"kind":"blob","cls":5,"id":9},"geometry":{"type":"Polygon","coordinates":[[[136.75,-59.38],[138.75,-58.62],[139.62,-57.5],[139.38,-56.25],[138.5,-55.38],[135.75,-54.38],[132.25,-54.88],[131.38,-55.75],[131.62,-57.25],[132.75,-58.62],[136.75,-59.38]]]}},{"type":"Feature","properties":{"kind":"blob","cls":3,"id":10},"geometry":{"type":"Polygon","coordinates":[[[-19.25,-70.12],[-17.25,-69.38],[-16.38,-68.5],[-16.38,-68.0],[-17.0,-67.12],[-19.5,-66.12],[-27.0,-65.88],[-30.0,-66.62],[-31.0,-67.12],[-31.62,-68.0],[-31.0,-68.88],[-30.0,-69.38],[-27.75,-70.12],[-19.25,-70.12]]]}},{"type":"Feature","properties":{"kind":"blob","cls":3,"id":11},"geometry":{"type":"MultiPolygon","coordinates":[[[[-50.5,53.12],[-48.5,52.88],[-46.5,53.62],[-45.88,54.5],[-45.88,55.5],[-46.5,56.12],[-48.5,56.88],[-50.0,56.88],[-52.0,56.12],[-50.5,55.62],[-49.88,55.0],[-50.5,54.12],[-51.5,54.12],[-52.38,54.75],[-52.62,55.5],[-52.38,54.0],[-50.5,53.12]]],[[[-52.25,55.88],[-52.38,55.75],[-52.25,55.62],[-52.25,55.88]]]]}},{"type":"Feature","properties":{"kind":"blob","cls":4,"id":12},"geometry":{"type":"Polygon","coordinates":[[[114.25,-66.62],[126.25,-66.88],[130.5,-66.38],[134.38,-66.5],[133.0,-65.12],[129.75,-64.12],[126.75,-64.38],[124.75,-65.12],[121.75,-64.12],[118.25,-64.12],[116.0,-64.62],[114.0,-65.62],[113.62,-66.25],[114.25,-66.62]]]}},{"type":"Feature","properties":{"kind":"blob","cls":1,"id":13},"geometry":{"type":"Polygon","coordinates":[[[166.5,-78.38],[167.62,-77.75],[166.75,-77.38],[167.75,-77.38],[167.88,-77.0],[167.5,-76.62],[162.75,-76.62],[162.38,-77.0],[164.0,-78.38],[166.5,-78.38]]]}},{"type":"Feature","properties":{"kind":"blob","cls":4,"id":14},"geometry":{"type":"Polygon","coordinates":[[[-79.0,-78.62],[-76.0,-78.88],[-72.25,-78.38],[-70.5,-77.88],[-69.88,-76.75],[-70.5,-76.12],[-73.0,-76.12],[-72.38,-75.75],[-72.75,-75.38],[-79.0,-74.88],[-80.25,-75.38],[-80.62,-76.25],[-78.5,-76.62],[-77.62,-77.25],[-79.12,-77.5],[-79.0,-78.62]]]}},{"type":"Feature","properties":{"kind":"blob","cls":4,"id":15},"geometry":{"type":"Polygon","coordinates":[[[-46.5,-81.38],[-43.5,-81.12],[-42.88,-80.75],[-44.75,-79.88],[-48.0,-80.12],[-48.0,-79.38],[-57.75,-79.12],[-68.5,-79.62],[-71.75,-80.12],[-73.12,-80.75],[-46.5,-81.38]]]}},{"type":"Feature","properties":{"kind":"blob","cls":3,"id":16},"geometry":{"type":"Polygon","coordinates":[[[-172.75,59.62],[-168.5,59.38],[-165.75,59.88],[-164.75,60.38],[-163.88,61.5],[-165.75,63.62],[-168.75,64.38],[-170.75,64.38],[-171.25,63.38],[-174.0,63.62],[-175.88,62.0],[-175.62,61.0],[-174.75,60.12],[-172.75,59.62]]]}},{"type":"Feature","properties":{"kind":"blob","cls":4,"id":17},"geometry":{"type":"Polygon","coordinates":[[[19.25,-70.88],[28.5,-70.38],[29.88,-69.0],[29.25,-68.12],[27.0,-67.12],[20.25,-65.62],[15.25,-65.88],[11.5,-67.38],[10.62,-68.25],[10.88,-69.25],[12.25,-70.12],[19.25,-70.88]]]}},{"type":"Feature","properties":{"kind":"blob","cls":4,"id":18},"geometry":{"type":"Polygon","coordinates":[[[38.75,60.62],[40.12,62.25],[39.88,63.25],[39.25,63.88],[38.0,64.38],[33.75,64.38],[32.5,63.88],[31.62,62.75],[31.88,61.75],[32.5,61.38],[38.75,60.62]]]}},{"type":"Feature","properties":{"kind":"blob","cls":4,"id":19},"geometry":{"type":"Polygon","coordinates":[[[-4.5,-50.62],[-2.75,-49.88],[-2.38,-49.25],[-2.62,-47.5],[-4.5,-46.62],[-5.75,-46.62],[-7.5,-47.38],[-7.88,-48.0],[-7.62,-49.75],[-4.5,-50.62]]]}},{"type":"Feature","properties":{"kind":"blob","cls":3,"id":20},"geometry":{"type":"Polygon","coordinates":[[[177.25,-82.88],[179.38,-82.75],[179.25,-82.62],[177.25,-82.88]]]}},{"type":"Feature","properties":{"kind":"blob","cls":3,"id":21},"geometry":{"type":"MultiPolygon","coordinates":[[[[176.38,-82.5],[171.5,-81.62],[169.12,-81.75],[172.25,-82.38],[176.38,-82.5]]],[[[168.12,-81.5],[169.12,-81.5],[169.0,-81.38],[168.12,-81.5]]]]}},{"type":"Feature","properties":{"kind":"blob","cls":4,"id":22},"geometry":{"type":"Polygon","coordinates":[[[6.75,-52.62],[8.25,-52.12],[9.38,-50.75],[8.88,-49.0],[7.0,-47.62],[6.0,-47.38],[4.25,-47.38],[2.5,-48.12],[1.88,-49.25],[2.12,-50.75],[3.5,-52.12],[6.75,-52.62]]]}},{"type":"Feature","properties":{"kind":"blob","cls":1,"id":23},"geometry":{"type":"Polygon","coordinates":[[[161.75,-78.88],[164.12,-78.75],[164.0,-78.62],[161.75,-78.88]]]}},{"type":"Feature","properties":{"kind":"blob","cls":1,"id":24},"geometry":{"type":"Polygon","coordinates":[[[2.5,64.38],[7.0,64.38],[8.75,65.12],[9.62,66.5],[8.25,68.12],[6.25,68.88],[5.12,68.75],[7.12,66.0],[6.75,64.88],[4.75,64.88],[3.75,65.38],[0.5,69.12],[-2.75,68.62],[-4.12,67.5],[-4.12,66.5],[-2.25,65.12],[2.5,64.38]]]}},{"type":"Feature","properties":{"kind":"blob","cls":6,"id":25},"geometry":{"type":"Polygon","coordinates":[[[4.25,83.12],[18.75,82.88],[25.25,83.12],[35.5,84.38],[36.38,85.0],[36.25,85.38],[55.0,84.62],[82.0,84.88],[94.25,85.88],[98.25,86.88],[98.62,87.5],[97.0,88.12],[91.5,88.62],[74.25,89.38],[22.75,89.38],[6.25,88.62],[1.88,87.75],[4.0,87.12],[16.75,86.62],[17.62,86.0],[17.0,85.62],[-2.25,85.62],[-3.12,86.0],[-3.12,86.5],[-1.5,86.88],[-4.75,86.88],[-11.0,86.38],[-13.75,85.88],[-14.62,85.25],[-13.75,84.38],[-8.75,83.62],[2.0,84.38],[12.75,84.38],[17.12,83.75],[12.5,83.12],[4.25,83.12]]]}},{"type":"Feature","properties":{"kind":"blob","cls":4,"id":26},"geometry":{"type":"Polygon","coordinates":[[[-103.0,45.88],[-102.62,46.25],[-102.62,47.25],[-105.25,49.62],[-107.5,49.88],[-107.25,49.38],[-106.0,49.38],[-105.88,48.75],[-106.5,48.62],[-106.75,49.12],[-107.75,49.38],[-108.62,48.5],[-106.5,47.12],[-105.25,47.38],[-105.88,46.75],[-105.25,46.38],[-104.0,46.88],[-103.0,45.88]]]}},{"type":"Feature","properties":{"kind":"blob","cls":3,"id":27},"geometry":{"type":"Polygon","coordinates":[[[-122.5,22.12],[-120.88,23.25],[-120.88,25.25],[-122.75,26.62],[-124.5,26.38],[-125.38,25.5],[-125.12,23.25],[-124.25,22.38],[-122.5,22.12]]]}},{"type":"Feature","properties":{"kind":"blob","cls":6,"id":28},"geometry":{"type":"Polygon","coordinates":[[[2.12,87.0],[2.25,86.88],[2.38,87.0],[2.12,87.0]]]}},{"type":"Feature","properties":{"kind":"blob","cls":1,"id":29},"geometry":{"type":"Polygon","coordinates":[[[3.0,58.38],[4.75,58.88],[5.62,59.5],[5.88,60.5],[5.25,61.38],[3.0,62.12],[1.25,62.12],[-1.0,61.38],[-1.62,60.5],[-1.38,59.5],[-0.5,58.88],[3.0,58.38]]]}},{"type":"Feature","properties":{"kind":"blob","cls":4,"id":30},"geometry":{"type":"Polygon","coordinates":[[[-109.12,48.75],[-109.0,48.62],[-108.88,48.75],[-109.12,48.75]]]}},{"type":"Feature","properties":{"kind":"blob","cls":3,"id":31},"geometry":{"type":"Polygon","coordinates":[[[-108.5,50.88],[-107.0,51.38],[-106.12,52.25],[-106.12,53.25],[-107.0,54.12],[-108.5,54.62],[-111.0,54.12],[-111.88,53.25],[-111.88,52.25],[-111.0,51.38],[-108.5,50.88]]]}},{"type":"Feature","properties":{"kind":"blob","cls":4,"id":32},"geometry":{"type":"Polygon","coordinates":[[[-140.75,62.38],[-139.88,63.5],[-141.75,63.62],[-142.0,64.12],[-145.12,63.75],[-143.5,63.38],[-140.75,62.38]]]}},{"type":"Feature","properties":{"kind":"blob","cls":4,"id":33},"geometry":{"type":"Polygon","coordinates":[[[-118.12,35.25],[-118.0,34.88],[-116.75,34.88],[-116.12,35.25],[-116.5,35.62],[-117.25,35.12],[-116.88,35.75],[-117.75,35.88],[-117.62,35.5],[-118.12,35.25]]]}},{"type":"Feature","properties":{"kind":"blob","cls":3,"id":34},"geometry":{"type":"Polygon","coordinates":[[[-48.25,-35.38],[-46.88,-34.25],[-46.62,-32.75],[-47.5,-31.62],[-49.75,-31.12],[-51.62,-32.25],[-51.88,-34.25],[-51.25,-35.12],[-48.25,-35.38]]]}},{"type":"Feature","properties":{"kind":"blob","cls":3,"id":35},"geometry":{"type":"Polygon","coordinates":[[[-118.62,35.25],[-118.88,36.5],[-119.75,37.38],[-119.88,36.0],[-118.62,35.25]]]}},{"type":"Feature","properties":{"kind":"blob","cls":4,"id":36},"geometry":{"type":"Polygon","coordinates":[[[138.0,-46.38],[139.25,-45.88],[140.12,-44.5],[139.88,-43.75],[138.25,-42.38],[137.0,-41.88],[134.75,-42.38],[133.88,-43.25],[133.88,-44.75],[135.0,-45.88],[138.0,-46.38]]]}},{"type":"Feature","properties":{"kind":"blob","cls":4,"id":37},"geometry":{"type":"MultiPolygon","coordinates":[[[[-144.25,61.62],[-144.38,61.5],[-144.0,61.38],[-144.25,61.62]]],[[[-144.5,61.62],[-144.88,62.25],[-144.38,62.75],[-146.0,62.88],[-146.88,62.5],[-146.75,61.88],[-144.5,61.62]]]]}},{"type":"Feature","properties":{"kind":"blob","cls":3,"id":38},"geometry":{"type":"MultiPolygon","coordinates":[[[[117.0,47.38],[119.5,47.38],[120.75,48.88],[121.62,49.0],[121.38,49.25],[122.12,49.75],[121.38,50.25],[122.12,51.0],[120.75,50.88],[121.0,51.38],[121.62,51.5],[119.5,52.12],[118.5,51.62],[117.75,50.62],[116.0,50.62],[115.12,49.25],[115.75,47.88],[117.0,47.38]],[[118.62,51.0],[118.5,50.88],[118.38,51.0],[118.62,51.0]]],[[[121.88,50.25],[122.25,49.88],[122.38,50.5],[122.25,50.62],[121.88,50.25]]]]}},{"type":"Feature","properties":{"kind":"blob","cls":3,"id":39},"geometry":{"type":"Polygon","coordinates":[[[-131.75,69.88],[-129.75,70.62],[-129.12,71.75],[-130.75,72.88],[-134.5,73.62],[-139.5,73.38],[-142.12,72.25],[-142.12,71.25],[-141.25,70.62],[-139.25,69.88],[-131.75,69.88]]]}},{"type":"Feature","properties":{"kind":"blob","cls":2,"id":40},"geometry":{"type":"Polygon","coordinates":[[[-104.75,14.62],[-104.0,15.62],[-102.75,16.38],[-101.12,16.5],[-102.5,17.38],[-104.0,17.12],[-104.88,16.0],[-104.75,14.62]]]}},{"type":"Feature","properties":{"kind":"blob","cls":4,"id":41},"geometry":{"type":"Polygon","coordinates":[[[-79.5,-48.38],[-78.25,-47.88],[-77.38,-47.0],[-77.38,-45.0],[-75.75,-44.38],[-75.12,-43.5],[-75.12,-42.5],[-75.75,-41.62],[-77.0,-41.12],[-79.5,-41.38],[-80.38,-42.0],[-80.62,-43.5],[-82.0,-44.12],[-83.12,-45.25],[-83.12,-47.0],[-82.25,-47.88],[-79.5,-48.38]]]}},{"type":"Feature","properties":{"kind":"blob","cls":4,"id":42},"geometry":{"type":"Polygon","coordinates":[[[-143.25,61.12],[-142.62,61.25],[-142.75,61.38],[-143.25,61.12]]]}},{"type":"Feature","properties":{"kind":"blob","cls":4,"id":43},"geometry":{"type":"Polygon","coordinates":[[[78.25,67.38],[80.0,68.12],[80.88,69.0],[80.88,70.0],[78.5,71.62],[74.75,72.38],[69.5,72.12],[67.5,71.38],[66.62,70.5],[66.62,70.0],[68.0,68.62],[70.25,67.62],[78.25,67.38]]]}},{"type":"Feature","properties":{"kind":"blob","cls":4,"id":44},"geometry":{"type":"Polygon","coordinates":[[[-144.5,60.62],[-144.12,61.0],[-145.0,61.12],[-144.5,60.62]]]}},{"type":"Feature","properties":{"kind":"blob","cls":0,"id":45},"geometry":{"type":"Polygon","coordinates":[[[-103.0,13.62],[-101.75,13.62],[-101.12,14.25],[-100.88,15.25],[-102.0,14.12],[-103.0,13.62]]]}},{"type":"Feature","properties":{"kind":"blob","cls":4,"id":46},"geometry":{"type":"Polygon","coordinates":[[[-139.25,59.38],[-138.62,59.75],[-139.25,60.12],[-143.12,60.25],[-142.0,59.62],[-139.25,59.38]]]}},{"type":"Feature","properties":{"kind":"blob","cls":4,"id":47},"geometry":{"type":"Polygon","coordinates":[[[121.88,49.25],[122.0,49.12],[122.12,49.25],[121.88,49.25]]]}},{"type":"Feature","properties":{"kind":"blob","cls":4,"id":48},"geometry":{"type":"Polygon","coordinates":[[[179.75,27.88],[180.0,31.88],[178.38,30.25],[178.62,29.0],[179.75,27.88]]]}},{"type":"Feature","properties":{"kind":"blob","cls":4,"id":48},"geometry":{"type":"Polygon","coordinates":[[[-179.75,31.88],[-180.0,27.88],[-177.25,27.88],[-176.38,28.75],[-176.38,30.75],[-178.25,32.12],[-179.75,31.88]]]}},{"type":"Feature","properties":{"kind":"blob","cls":3,"id":49},"geometry":{"type":"Polygon","coordinates":[[[58.75,28.62],[60.12,28.5],[59.5,30.62],[58.12,29.75],[58.75,28.62]]]}},{"type":"Feature","properties":{"kind":"blob","cls":4,"id":50},"geometry":{"type":"Polygon","coordinates":[[[-5.5,-33.62],[-3.88,-32.75],[-3.62,-31.25],[-4.25,-30.38],[-6.0,-29.88],[-7.62,-30.75],[-7.62,-32.75],[-5.5,-33.62]]]}},{"type":"Feature","properties":{"kind":"blob","cls":1,"id":51},"geometry":{"type":"Polygon","coordinates":[[[49.5,28.38],[51.0,28.38],[51.88,29.5],[49.88,31.25],[49.5,32.38],[46.5,33.38],[46.12,31.75],[46.62,30.75],[47.75,29.38],[49.5,28.38]]]}},{"type":"Feature","properties":{"kind":"blob","cls":4,"id":52},"geometry":{"type":"Polygon","coordinates":[[[-138.25,59.62],[-137.88,59.75],[-138.0,59.88],[-138.25,59.62]]]}},{"type":"Feature","properties":{"kind":"blob","cls":1,"id":53},"geometry":{"type":"Polygon","coordinates":[[[57.75,28.38],[58.12,28.5],[57.75,28.88],[57.75,28.38]]]}},{"type":"Feature","properties":{"kind":"blob","cls":0,"id":54},"geometry":{"type":"Polygon","coordinates":[[[154.0,66.38],[157.75,66.88],[160.5,68.12],[160.88,68.75],[157.25,69.38],[157.0,70.12],[158.62,70.75],[156.75,71.12],[150.75,70.88],[147.38,69.25],[147.12,68.25],[148.25,67.12],[154.0,66.38]]]}},{"type":"Feature","properties":{"kind":"blob","cls":5,"id":55},"geometry":{"type":"Polygon","coordinates":[[[-66.5,-33.38],[-66.25,-32.62],[-65.38,-32.25],[-65.38,-31.0],[-65.88,-30.25],[-64.38,-28.75],[-64.38,-28.0],[-65.25,-26.88],[-65.88,-27.25],[-65.5,-28.62],[-65.75,-28.38],[-66.38,-28.75],[-66.25,-27.62],[-67.12,-28.25],[-66.62,-29.0],[-67.62,-30.5],[-67.38,-31.25],[-68.12,-31.5],[-67.62,-31.0],[-68.25,-29.88],[-68.62,-30.5],[-68.88,-33.25],[-66.5,-33.38]],[[-66.62,-31.0],[-66.5,-30.62],[-66.38,-30.75],[-66.62,-31.0]]]}},{"type":"Feature","properties":{"kind":"blob","cls":5,"id":56},"geometry":{"type":"Polygon","coordinates":[[[171.0,-38.62],[172.62,-37.5],[172.62,-35.5],[171.0,-34.38],[169.5,-34.38],[167.88,-35.5],[167.88,-37.5],[168.75,-38.12],[170.25,-37.38],[170.88,-37.75],[171.0,-38.62]]]}},{"type":"Feature","properties":{"kind":"blob","cls":3,"id":57},"geometry":{"type":"MultiPolygon","coordinates":[[[[62.38,29.75],[63.12,29.75],[63.0,29.88],[62.38,29.75]]],[[[61.0,29.88],[62.38,30.0],[61.0,30.88],[60.62,30.75],[61.0,29.88]]]]}},{"type":"Feature","properties":{"kind":"blob","cls":5,"id":58},"geometry":{"type":"Polygon","coordinates":[[[80.25,26.38],[81.12,27.25],[81.38,28.25],[81.0,28.88],[79.75,29.12],[79.25,29.62],[78.25,29.62],[77.38,28.75],[77.38,27.25],[78.25,26.38],[80.25,26.38]]]}},{"type":"Feature","properties":{"kind":"blob","cls":3,"id":59},"geometry":{"type":"Polygon","coordinates":[[[165.5,30.12],[167.12,31.0],[167.38,33.0],[166.75,33.88],[164.5,34.38],[162.62,33.25],[162.38,31.5],[163.0,30.62],[165.5,30.12]]]}},{"type":"Feature","properties":{"kind":"blob","cls":3,"id":60},"geometry":{"type":"Polygon","coordinates":[[[117.12,51.5],[117.25,51.38],[117.38,51.5],[117.12,51.5]]]}},{"type":"Feature","properties":{"kind":"blob","cls":5,"id":61},"geometry":{"type":"Polygon","coordinates":[[[91.0,23.62],[91.88,24.5],[91.88,25.25],[91.12,25.5],[91.88,25.75],[91.25,26.88],[88.75,27.12],[87.88,26.25],[87.88,24.75],[89.0,23.62],[91.0,23.62]]]}},{"type":"Feature","properties":{"kind":"blob","cls":4,"id":62},"geometry":{"type":"Polygon","coordinates":[[[-54.5,69.62],[-53.0,70.12],[-51.88,71.0],[-54.0,72.88],[-58.75,75.12],[-62.25,74.62],[-64.62,73.25],[-64.62,72.75],[-63.88,72.0],[-64.12,71.0],[-63.5,70.38],[-61.5,69.62],[-54.5,69.62]]]}},{"type":"Feature","properties":{"kind":"blob","cls":4,"id":63},"geometry":{"type":"Polygon","coordinates":[[[-64.0,-21.38],[-63.62,-21.25],[-64.0,-20.62],[-64.0,-21.38]]]}},{"type":"Feature","properties":{"kind":"blob","cls":4,"id":64},"geometry":{"type":"Polygon","coordinates":[[[-25.5,66.12],[-23.25,66.62],[-22.0,67.12],[-21.12,68.0],[-21.12,68.75],[-22.0,69.62],[-23.5,70.12],[-24.25,69.62],[-25.5,69.62],[-26.25,68.88],[-30.5,68.62],[-32.12,68.0],[-30.25,66.62],[-25.5,66.12]]]}},{"type":"Feature","properties":{"kind":"blob","cls":3,"id":65},"geometry":{"type":"MultiPolygon","coordinates":[[[[60.75,32.88],[61.38,33.25],[61.0,33.38],[60.75,32.88]]],[[[61.5,33.62],[61.38,33.5],[61.5,33.38],[61.5,33.62]]]]}},{"type":"Feature","properties":{"kind":"blob","cls":4,"id":66},"geometry":{"type":"Polygon","coordinates":[[[-28.0,70.12],[-27.25,69.88],[-24.88,70.25],[-27.25,70.38],[-28.0,70.12]]]}},{"type":"Feature","properties":{"kind":"center","id":1,"lat":-58.75,"lon":-114.5,"mslp":949.0,"hvtl":-18.1,"hvtu":-81.1,"hb":20.0,"idx":-1.0,"cls":4,"psfc":949.0,"terrain":false,"radius_km":200,"name":"asym cold","track":"T11"},"geometry":{"type":"Point","coordinates":[-114.5,-58.75]}},{"type":"Feature","properties":{"kind":"center","id":2,"lat":16.25,"lon":159.5,"mslp":951.7,"hvtl":87.2,"hvtu":231.8,"hb":7.7,"idx":2.4,"cls":0,"psfc":951.7,"terrain":false,"radius_km":200,"name":"sym deep warm","track":"T02"},"geometry":{"type":"Point","coordinates":[159.5,16.25]}},{"type":"Feature","properties":{"kind":"center","id":3,"lat":-67.75,"lon":179.75,"mslp":951.7,"hvtl":4.0,"hvtu":-65.8,"hb":71.4,"idx":-0.5,"cls":3,"psfc":951.7,"terrain":false,"radius_km":200,"name":"asym shallow warm","track":"T17"},"geometry":{"type":"Point","coordinates":[179.75,-67.75]}},{"type":"Feature","properties":{"kind":"center","id":4,"lat":18.5,"lon":139.0,"mslp":952.3,"hvtl":71.7,"hvtu":273.6,"hb":0.4,"idx":2.2,"cls":0,"psfc":952.3,"terrain":false,"radius_km":200,"name":"sym deep warm","track":"T08"},"geometry":{"type":"Point","coordinates":[139.0,18.5]}},{"type":"Feature","properties":{"kind":"center","id":5,"lat":-64.0,"lon":81.25,"mslp":958.8,"hvtl":198.8,"hvtu":-156.5,"hb":1.5,"idx":1.0,"cls":1,"psfc":958.8,"terrain":false,"radius_km":200,"name":"sym shallow warm","track":"T20"},"geometry":{"type":"Point","coordinates":[81.25,-64.0]}},{"type":"Feature","properties":{"kind":"center","id":6,"lat":-68.5,"lon":-131.0,"mslp":966.3,"hvtl":103.0,"hvtu":-28.0,"hb":-4.9,"idx":1.3,"cls":1,"psfc":966.3,"terrain":false,"radius_km":200,"name":"sym shallow warm"},"geometry":{"type":"Point","coordinates":[-131.0,-68.5]}},{"type":"Feature","properties":{"kind":"center","id":7,"lat":-65.0,"lon":-98.75,"mslp":970.4,"hvtl":55.8,"hvtu":-149.2,"hb":23.9,"idx":0.1,"cls":3,"psfc":970.4,"terrain":false,"radius_km":200,"name":"asym shallow warm","track":"T39"},"geometry":{"type":"Point","coordinates":[-98.75,-65.0]}},{"type":"Feature","properties":{"kind":"center","id":8,"lat":-62.5,"lon":-28.25,"mslp":972.0,"hvtl":-150.7,"hvtu":-351.9,"hb":33.0,"idx":-2.8,"cls":4,"psfc":972.0,"terrain":false,"radius_km":200,"name":"asym cold","track":"T32"},"geometry":{"type":"Point","coordinates":[-28.25,-62.5]}},{"type":"Feature","properties":{"kind":"center","id":9,"lat":-57.25,"lon":135.75,"mslp":972.5,"hvtl":-1.9,"hvtu":-42.1,"hb":2.2,"idx":-0.4,"cls":5,"psfc":972.5,"terrain":false,"radius_km":200,"name":"sym cold","track":"T22"},"geometry":{"type":"Point","coordinates":[135.75,-57.25]}},{"type":"Feature","properties":{"kind":"center","id":10,"lat":-68.25,"lon":-24.5,"mslp":974.8,"hvtl":22.6,"hvtu":-11.1,"hb":14.4,"idx":0.3,"cls":3,"psfc":974.8,"terrain":false,"radius_km":200,"name":"asym shallow warm","track":"T45"},"geometry":{"type":"Point","coordinates":[-24.5,-68.25]}},{"type":"Feature","properties":{"kind":"center","id":11,"lat":55.0,"lon":-49.25,"mslp":978.4,"hvtl":254.7,"hvtu":-79.0,"hb":50.2,"idx":1.3,"cls":3,"psfc":978.4,"terrain":false,"radius_km":200,"name":"asym shallow warm","track":"T47"},"geometry":{"type":"Point","coordinates":[-49.25,55.0]}},{"type":"Feature","properties":{"kind":"center","id":12,"lat":-66.0,"lon":129.0,"mslp":981.8,"hvtl":-246.1,"hvtu":-66.9,"hb":32.3,"idx":-2.6,"cls":4,"psfc":981.8,"terrain":false,"radius_km":200,"name":"asym cold"},"geometry":{"type":"Point","coordinates":[129.0,-66.0]}},{"type":"Feature","properties":{"kind":"center","id":13,"lat":-77.25,"lon":166.25,"mslp":982.2,"hvtl":178.1,"hvtu":-1.3,"hb":3.5,"idx":1.9,"cls":1,"psfc":974.4,"terrain":false,"radius_km":200,"name":"sym shallow warm"},"geometry":{"type":"Point","coordinates":[166.25,-77.25]}},{"type":"Feature","properties":{"kind":"center","id":14,"lat":-76.75,"lon":-78.25,"mslp":983.2,"hvtl":-302.8,"hvtu":-276.3,"hb":70.4,"idx":-3.0,"cls":4,"psfc":904.5,"terrain":false,"radius_km":200,"name":"asym cold","track":"T43"},"geometry":{"type":"Point","coordinates":[-78.25,-76.75]}},{"type":"Feature","properties":{"kind":"center","id":15,"lat":-81.25,"lon":-58.0,"mslp":984.2,"hvtl":-367.0,"hvtu":-65.1,"hb":66.5,"idx":-2.6,"cls":4,"psfc":966.2,"terrain":false,"radius_km":200,"name":"asym cold","track":"T60"},"geometry":{"type":"Point","coordinates":[-58.0,-81.25]}},{"type":"Feature","properties":{"kind":"center","id":16,"lat":61.5,"lon":-170.5,"mslp":984.3,"hvtl":73.3,"hvtu":-368.5,"hb":13.4,"idx":0.3,"cls":3,"psfc":984.3,"terrain":false,"radius_km":200,"name":"asym shallow warm","track":"T07"},"geometry":{"type":"Point","coordinates":[-170.5,61.5]}},{"type":"Feature","properties":{"kind":"center","id":17,"lat":-67.5,"lon":18.0,"mslp":984.8,"hvtl":-190.9,"hvtu":-61.7,"hb":35.3,"idx":-2.5,"cls":4,"psfc":984.8,"terrain":false,"radius_km":200,"name":"asym cold","track":"T46"},"geometry":{"type":"Point","coordinates":[18.0,-67.5]}},{"type":"Feature","properties":{"kind":"center","id":18,"lat":61.75,"lon":35.75,"mslp":988.0,"hvtl":-30.7,"hvtu":-141.8,"hb":27.9,"idx":-1.5,"cls":4,"psfc":985.1,"terrain":false,"radius_km":200,"name":"asym cold","track":"T70"},"geometry":{"type":"Point","coordinates":[35.75,61.75]}},{"type":"Feature","properties":{"kind":"center","id":19,"lat":-48.75,"lon":-5.0,"mslp":988.2,"hvtl":-30.1,"hvtu":-146.5,"hb":18.0,"idx":-1.5,"cls":4,"psfc":988.2,"terrain":false,"radius_km":200,"name":"asym cold","track":"T72"},"geometry":{"type":"Point","coordinates":[-5.0,-48.75]}},{"type":"Feature","properties":{"kind":"center","id":20,"lat":-82.75,"lon":179.25,"mslp":988.7,"hvtl":133.5,"hvtu":-148.7,"hb":31.8,"idx":0.8,"cls":3,"psfc":979.7,"terrain":false,"radius_km":200,"name":"asym shallow warm"},"geometry":{"type":"Point","coordinates":[179.25,-82.75]}},{"type":"Feature","properties":{"kind":"center","id":21,"lat":-81.75,"lon":171.5,"mslp":988.8,"hvtl":147.0,"hvtu":-138.7,"hb":30.7,"idx":0.9,"cls":3,"psfc":981.8,"terrain":false,"radius_km":200,"name":"asym shallow warm","track":"T64"},"geometry":{"type":"Point","coordinates":[171.5,-81.75]}},{"type":"Feature","properties":{"kind":"center","id":22,"lat":-49.75,"lon":5.0,"mslp":989.6,"hvtl":-130.7,"hvtu":-305.3,"hb":37.1,"idx":-2.7,"cls":4,"psfc":989.6,"terrain":false,"radius_km":200,"name":"asym cold","track":"T63"},"geometry":{"type":"Point","coordinates":[5.0,-49.75]}},{"type":"Feature","properties":{"kind":"center","id":23,"lat":-78.75,"lon":164.0,"mslp":989.7,"hvtl":107.4,"hvtu":-39.4,"hb":6.7,"idx":1.2,"cls":1,"psfc":963.3,"terrain":false,"radius_km":200,"name":"sym shallow warm"},"geometry":{"type":"Point","coordinates":[164.0,-78.75]}},{"type":"Feature","properties":{"kind":"center","id":24,"lat":66.75,"lon":2.0,"mslp":990.1,"hvtl":147.9,"hvtu":-43.4,"hb":-13.1,"idx":1.4,"cls":1,"psfc":990.2,"terrain":false,"radius_km":200,"name":"sym shallow warm","track":"T66"},"geometry":{"type":"Point","coordinates":[2.0,66.75]}},{"type":"Feature","properties":{"kind":"center","id":25,"lat":85.0,"lon":10.5,"mslp":992.0,"hvtl":-18.7,"hvtu":20.3,"hb":66.0,"idx":-0.2,"cls":6,"psfc":992.0,"terrain":false,"radius_km":200,"name":"shallow cold","track":"T73"},"geometry":{"type":"Point","coordinates":[10.5,85.0]}},{"type":"Feature","properties":{"kind":"center","id":26,"lat":47.75,"lon":-107.0,"mslp":992.3,"hvtl":-150.1,"hvtu":-158.6,"hb":109.6,"idx":-2.7,"cls":4,"psfc":909.5,"terrain":false,"radius_km":200,"name":"asym cold","track":"T68"},"geometry":{"type":"Point","coordinates":[-107.0,47.75]}},{"type":"Feature","properties":{"kind":"center","id":27,"lat":24.5,"lon":-123.25,"mslp":993.0,"hvtl":60.8,"hvtu":-51.6,"hb":26.3,"idx":0.6,"cls":3,"psfc":993.0,"terrain":false,"radius_km":200,"name":"asym shallow warm","track":"T48"},"geometry":{"type":"Point","coordinates":[-123.25,24.5]}},{"type":"Feature","properties":{"kind":"center","id":28,"lat":87.0,"lon":2.25,"mslp":995.2,"hvtl":-114.7,"hvtu":3.3,"hb":51.5,"idx":-1.6,"cls":6,"psfc":995.2,"terrain":false,"radius_km":200,"name":"shallow cold","track":"T41"},"geometry":{"type":"Point","coordinates":[2.25,87.0]}},{"type":"Feature","properties":{"kind":"center","id":29,"lat":61.75,"lon":3.5,"mslp":995.5,"hvtl":19.1,"hvtu":-108.3,"hb":0.2,"idx":-0.4,"cls":1,"psfc":995.5,"terrain":false,"radius_km":200,"name":"sym shallow warm","track":"T53"},"geometry":{"type":"Point","coordinates":[3.5,61.75]}},{"type":"Feature","properties":{"kind":"center","id":30,"lat":48.75,"lon":-109.0,"mslp":996.2,"hvtl":-120.7,"hvtu":-185.5,"hb":150.2,"idx":-2.6,"cls":4,"psfc":900.2,"terrain":true,"radius_km":200,"name":"asym cold"},"geometry":{"type":"Point","coordinates":[-109.0,48.75]}},{"type":"Feature","properties":{"kind":"center","id":31,"lat":52.75,"lon":-109.0,"mslp":997.5,"hvtl":1.5,"hvtu":-211.0,"hb":124.3,"idx":-0.9,"cls":3,"psfc":927.2,"terrain":false,"radius_km":200,"name":"asym shallow warm"},"geometry":{"type":"Point","coordinates":[-109.0,52.75]}},{"type":"Feature","properties":{"kind":"center","id":32,"lat":63.75,"lon":-145.0,"mslp":998.7,"hvtl":-126.2,"hvtu":-156.8,"hb":27.5,"idx":-2.6,"cls":4,"psfc":916.3,"terrain":false,"radius_km":200,"name":"asym cold"},"geometry":{"type":"Point","coordinates":[-145.0,63.75]}},{"type":"Feature","properties":{"kind":"center","id":33,"lat":35.75,"lon":-117.75,"mslp":999.0,"hvtl":-16.1,"hvtu":-281.6,"hb":72.6,"idx":-1.3,"cls":4,"psfc":912.0,"terrain":false,"radius_km":200,"name":"asym cold","track":"T95"},"geometry":{"type":"Point","coordinates":[-117.75,35.75]}},{"type":"Feature","properties":{"kind":"center","id":34,"lat":-33.5,"lon":-49.5,"mslp":999.1,"hvtl":112.7,"hvtu":-251.1,"hb":52.6,"idx":0.6,"cls":3,"psfc":999.1,"terrain":false,"radius_km":200,"name":"asym shallow warm","track":"T84"},"geometry":{"type":"Point","coordinates":[-49.5,-33.5]}},{"type":"Feature","properties":{"kind":"center","id":35,"lat":36.75,"lon":-119.75,"mslp":999.1,"hvtl":68.3,"hvtu":-277.0,"hb":77.4,"idx":0.2,"cls":3,"psfc":988.0,"terrain":false,"radius_km":200,"name":"asym shallow warm","track":"T96"},"geometry":{"type":"Point","coordinates":[-119.75,36.75]}},{"type":"Feature","properties":{"kind":"center","id":36,"lat":-44.25,"lon":137.0,"mslp":999.5,"hvtl":-315.4,"hvtu":-358.4,"hb":67.2,"idx":-3.0,"cls":4,"psfc":999.5,"terrain":false,"radius_km":200,"name":"asym cold"},"geometry":{"type":"Point","coordinates":[137.0,-44.25]}},{"type":"Feature","properties":{"kind":"center","id":37,"lat":61.75,"lon":-145.25,"mslp":999.6,"hvtl":-125.2,"hvtu":-154.9,"hb":31.8,"idx":-2.6,"cls":4,"psfc":921.3,"terrain":false,"radius_km":200,"name":"asym cold"},"geometry":{"type":"Point","coordinates":[-145.25,61.75]}},{"type":"Feature","properties":{"kind":"center","id":38,"lat":50.0,"lon":119.25,"mslp":999.9,"hvtl":154.9,"hvtu":-331.5,"hb":45.0,"idx":0.8,"cls":3,"psfc":934.2,"terrain":false,"radius_km":200,"name":"asym shallow warm"},"geometry":{"type":"Point","coordinates":[119.25,50.0]}},{"type":"Feature","properties":{"kind":"center","id":39,"lat":71.25,"lon":-136.75,"mslp":1000.6,"hvtl":9.7,"hvtu":-198.5,"hb":43.4,"idx":-0.8,"cls":3,"psfc":1000.6,"terrain":false,"radius_km":200,"name":"asym shallow warm","track":"T97"},"geometry":{"type":"Point","coordinates":[-136.75,71.25]}},{"type":"Feature","properties":{"kind":"center","id":40,"lat":16.25,"lon":-103.0,"mslp":1001.0,"hvtl":25.3,"hvtu":51.8,"hb":14.1,"idx":1.0,"cls":2,"psfc":1001.0,"terrain":false,"radius_km":200,"name":"asym deep warm","track":"T80"},"geometry":{"type":"Point","coordinates":[-103.0,16.25]}},{"type":"Feature","properties":{"kind":"center","id":41,"lat":-46.0,"lon":-80.0,"mslp":1001.0,"hvtl":-38.1,"hvtu":-130.0,"hb":17.1,"idx":-1.6,"cls":4,"psfc":1001.0,"terrain":false,"radius_km":200,"name":"asym cold","track":"T94"},"geometry":{"type":"Point","coordinates":[-80.0,-46.0]}},{"type":"Feature","properties":{"kind":"center","id":42,"lat":61.25,"lon":-142.75,"mslp":1001.7,"hvtl":-92.5,"hvtu":-139.9,"hb":25.8,"idx":-2.3,"cls":4,"psfc":915.1,"terrain":false,"radius_km":200,"name":"asym cold"},"geometry":{"type":"Point","coordinates":[-142.75,61.25]}},{"type":"Feature","properties":{"kind":"center","id":43,"lat":69.75,"lon":74.0,"mslp":1001.9,"hvtl":-142.4,"hvtu":-283.8,"hb":59.7,"idx":-2.8,"cls":4,"psfc":996.0,"terrain":false,"radius_km":200,"name":"asym cold","track":"T103"},"geometry":{"type":"Point","coordinates":[74.0,69.75]}},{"type":"Feature","properties":{"kind":"center","id":44,"lat":61.0,"lon":-144.25,"mslp":1002.5,"hvtl":-108.6,"hvtu":-151.5,"hb":30.4,"idx":-2.5,"cls":4,"psfc":903.2,"terrain":true,"radius_km":200,"name":"asym cold"},"geometry":{"type":"Point","coordinates":[-144.25,61.0]}},{"type":"Feature","properties":{"kind":"center","id":45,"lat":14.0,"lon":-102.25,"mslp":1002.6,"hvtl":48.2,"hvtu":48.0,"hb":-9.9,"idx":1.3,"cls":0,"psfc":1002.6,"terrain":false,"radius_km":200,"name":"sym deep warm"},"geometry":{"type":"Point","coordinates":[-102.25,14.0]}},{"type":"Feature","properties":{"kind":"center","id":46,"lat":60.25,"lon":-143.0,"mslp":1003.1,"hvtl":-146.6,"hvtu":-161.1,"hb":27.8,"idx":-2.7,"cls":4,"psfc":966.6,"terrain":false,"radius_km":200,"name":"asym cold"},"geometry":{"type":"Point","coordinates":[-143.0,60.25]}},{"type":"Feature","properties":{"kind":"center","id":47,"lat":49.25,"lon":122.0,"mslp":1005.9,"hvtl":-78.7,"hvtu":-308.8,"hb":63.1,"idx":-2.3,"cls":4,"psfc":906.2,"terrain":true,"radius_km":200,"name":"asym cold"},"geometry":{"type":"Point","coordinates":[122.0,49.25]}},{"type":"Feature","properties":{"kind":"center","id":48,"lat":29.75,"lon":-178.75,"mslp":1006.6,"hvtl":-2.2,"hvtu":-284.4,"hb":23.7,"idx":-1.0,"cls":4,"psfc":1006.6,"terrain":false,"radius_km":200,"name":"asym cold","track":"T81"},"geometry":{"type":"Point","coordinates":[-178.75,29.75]}},{"type":"Feature","properties":{"kind":"center","id":49,"lat":30.0,"lon":59.0,"mslp":1007.0,"hvtl":145.0,"hvtu":-92.0,"hb":29.4,"idx":1.1,"cls":3,"psfc":969.5,"terrain":false,"radius_km":200,"name":"asym shallow warm","track":"T106"},"geometry":{"type":"Point","coordinates":[59.0,30.0]}},{"type":"Feature","properties":{"kind":"center","id":50,"lat":-31.75,"lon":-5.75,"mslp":1007.0,"hvtl":-291.6,"hvtu":-402.1,"hb":68.9,"idx":-3.0,"cls":4,"psfc":1007.0,"terrain":false,"radius_km":200,"name":"asym cold","track":"T76"},"geometry":{"type":"Point","coordinates":[-5.75,-31.75]}},{"type":"Feature","properties":{"kind":"center","id":51,"lat":29.5,"lon":50.75,"mslp":1007.2,"hvtl":9.4,"hvtu":-80.7,"hb":3.2,"idx":-0.5,"cls":1,"psfc":1004.8,"terrain":false,"radius_km":200,"name":"sym shallow warm"},"geometry":{"type":"Point","coordinates":[50.75,29.5]}},{"type":"Feature","properties":{"kind":"center","id":52,"lat":59.75,"lon":-138.25,"mslp":1007.6,"hvtl":-62.9,"hvtu":-190.6,"hb":13.6,"idx":-2.1,"cls":4,"psfc":906.7,"terrain":true,"radius_km":200,"name":"asym cold"},"geometry":{"type":"Point","coordinates":[-138.25,59.75]}},{"type":"Feature","properties":{"kind":"center","id":53,"lat":28.5,"lon":57.75,"mslp":1008.5,"hvtl":72.9,"hvtu":-65.5,"hb":5.7,"idx":0.7,"cls":1,"psfc":939.0,"terrain":false,"radius_km":200,"name":"sym shallow warm","track":"T112"},"geometry":{"type":"Point","coordinates":[57.75,28.5]}},{"type":"Feature","properties":{"kind":"center","id":54,"lat":69.0,"lon":156.25,"mslp":1008.8,"hvtl":65.8,"hvtu":8.1,"hb":3.0,"idx":1.2,"cls":0,"psfc":1004.1,"terrain":false,"radius_km":200,"name":"sym deep warm","track":"T110"},"geometry":{"type":"Point","coordinates":[156.25,69.0]}},{"type":"Feature","properties":{"kind":"center","id":55,"lat":-28.5,"lon":-66.5,"mslp":1009.0,"hvtl":-71.8,"hvtu":-213.0,"hb":7.2,"idx":-2.2,"cls":5,"psfc":926.6,"terrain":false,"radius_km":200,"name":"sym cold"},"geometry":{"type":"Point","coordinates":[-66.5,-28.5]}},{"type":"Feature","properties":{"kind":"center","id":56,"lat":-36.5,"lon":170.25,"mslp":1009.0,"hvtl":-14.5,"hvtu":-159.8,"hb":2.4,"idx":-1.2,"cls":5,"psfc":1009.0,"terrain":false,"radius_km":200,"name":"sym cold","track":"T107"},"geometry":{"type":"Point","coordinates":[170.25,-36.5]}},{"type":"Feature","properties":{"kind":"center","id":57,"lat":29.75,"lon":62.5,"mslp":1010.0,"hvtl":122.0,"hvtu":-108.5,"hb":12.5,"idx":0.9,"cls":3,"psfc":947.4,"terrain":false,"radius_km":200,"name":"asym shallow warm","track":"T114"},"geometry":{"type":"Point","coordinates":[62.5,29.75]}},{"type":"Feature","properties":{"kind":"center","id":58,"lat":27.25,"lon":78.0,"mslp":1010.0,"hvtl":-25.0,"hvtu":-75.5,"hb":7.2,"idx":-1.1,"cls":5,"psfc":990.6,"terrain":false,"radius_km":200,"name":"sym cold"},"geometry":{"type":"Point","coordinates":[78.0,27.25]}},{"type":"Feature","properties":{"kind":"center","id":59,"lat":32.25,"lon":165.0,"mslp":1010.0,"hvtl":181.3,"hvtu":-168.1,"hb":26.7,"idx":1.0,"cls":3,"psfc":1010.0,"terrain":false,"radius_km":200,"name":"asym shallow warm","track":"T40"},"geometry":{"type":"Point","coordinates":[165.0,32.25]}},{"type":"Feature","properties":{"kind":"center","id":60,"lat":51.5,"lon":117.25,"mslp":1010.1,"hvtl":183.5,"hvtu":-90.6,"hb":29.6,"idx":1.2,"cls":3,"psfc":906.4,"terrain":true,"radius_km":200,"name":"asym shallow warm"},"geometry":{"type":"Point","coordinates":[117.25,51.5]}},{"type":"Feature","properties":{"kind":"center","id":61,"lat":23.5,"lon":89.75,"mslp":1010.6,"hvtl":-10.8,"hvtu":-152.3,"hb":6.7,"idx":-1.1,"cls":5,"psfc":1009.5,"terrain":false,"radius_km":200,"name":"sym cold","track":"T120"},"geometry":{"type":"Point","coordinates":[89.75,23.5]}},{"type":"Feature","properties":{"kind":"center","id":62,"lat":73.25,"lon":-57.75,"mslp":1010.8,"hvtl":-274.3,"hvtu":-243.8,"hb":76.5,"idx":-3.0,"cls":4,"psfc":1010.8,"terrain":false,"radius_km":200,"name":"asym cold","track":"T123"},"geometry":{"type":"Point","coordinates":[-57.75,73.25]}},{"type":"Feature","properties":{"kind":"center","id":63,"lat":-21.0,"lon":-63.75,"mslp":1013.3,"hvtl":-165.2,"hvtu":-176.0,"hb":41.5,"idx":-2.8,"cls":4,"psfc":924.3,"terrain":false,"radius_km":200,"name":"asym cold","track":"T119"},"geometry":{"type":"Point","coordinates":[-63.75,-21.0]}},{"type":"Feature","properties":{"kind":"center","id":64,"lat":68.25,"lon":-26.5,"mslp":1014.4,"hvtl":-105.6,"hvtu":-134.2,"hb":45.5,"idx":-2.4,"cls":4,"psfc":1014.4,"terrain":false,"radius_km":200,"name":"asym cold"},"geometry":{"type":"Point","coordinates":[-26.5,68.25]}},{"type":"Feature","properties":{"kind":"center","id":65,"lat":33.5,"lon":61.5,"mslp":1015.4,"hvtl":182.6,"hvtu":-129.9,"hb":95.7,"idx":1.0,"cls":3,"psfc":905.9,"terrain":true,"radius_km":200,"name":"asym shallow warm"},"geometry":{"type":"Point","coordinates":[61.5,33.5]}},{"type":"Feature","properties":{"kind":"center","id":66,"lat":70.25,"lon":-26.0,"mslp":1017.4,"hvtl":-88.5,"hvtu":-105.0,"hb":25.8,"idx":-2.2,"cls":4,"psfc":924.7,"terrain":true,"radius_km":200,"name":"asym cold"},"geometry":{"type":"Point","coordinates":[-26.0,70.25]}}]}