{"type":"FeatureCollection","features":[{"type":"Feature","properties":{"kind":"blob","cls":3,"id":1},"geometry":{"type":"Polygon","coordinates":[[[168.0,-64.62],[170.0,-64.12],[171.12,-63.25],[171.12,-62.25],[169.75,-60.88],[167.75,-60.38],[165.25,-60.38],[163.25,-60.88],[161.88,-62.25],[162.12,-63.25],[163.25,-64.12],[168.0,-64.62]]]}},{"type":"Feature","properties":{"kind":"blob","cls":3,"id":2},"geometry":{"type":"MultiPolygon","coordinates":[[[[-114.75,-69.88],[-112.5,-69.38],[-110.88,-68.25],[-110.88,-67.0],[-113.0,-65.88],[-117.75,-65.62],[-116.88,-66.5],[-116.88,-67.0],[-117.75,-67.62],[-119.75,-67.62],[-120.38,-67.0],[-120.25,-66.38],[-121.88,-67.25],[-121.88,-68.25],[-121.25,-68.88],[-119.5,-69.62],[-114.75,-69.88]]],[[[-120.0,-66.12],[-120.12,-66.25],[-120.0,-66.38],[-120.0,-66.12]]]]}},{"type":"Feature","properties":{"kind":"blob","cls":1,"id":3},"geometry":{"type":"Polygon","coordinates":[[[-32.75,57.62],[-31.0,58.12],[-29.62,59.5],[-29.62,60.0],[-30.75,61.38],[-33.38,62.25],[-31.12,63.75],[-31.5,65.12],[-33.0,65.88],[-36.5,66.12],[-39.0,64.88],[-39.88,64.0],[-39.5,63.38],[-37.75,62.38],[-36.38,62.25],[-38.62,61.0],[-36.62,60.5],[-38.25,59.88],[-38.38,59.5],[-36.5,58.12],[-32.75,57.62]]]}},{"type":"Feature","properties":{"kind":"blob","cls":1,"id":4},"geometry":{"type":"Polygon","coordinates":[[[-5.75,-61.88],[-2.5,-62.12],[-0.75,-61.62],[0.38,-60.75],[0.88,-59.5],[-0.75,-57.88],[-3.5,-57.12],[-7.75,-57.38],[-9.0,-57.88],[-9.88,-58.75],[-9.88,-59.75],[-8.5,-61.12],[-5.75,-61.88]],[[-4.5,-59.62],[-5.12,-59.25],[-5.12,-58.5],[-4.0,-58.12],[-3.62,-59.25],[-4.5,-59.62]]]}},{"type":"Feature","properties":{"kind":"blob","cls":3,"id":5},"geometry":{"type":"Polygon","coordinates":[[[179.88,-70.25],[180.0,-68.38],[179.38,-69.0],[179.38,-69.75],[179.88,-70.25]]]}},{"type":"Feature","properties":{"kind":"blob","cls":3,"id":5},"geometry":{"type":"Polygon","coordinates":[[[-179.75,-68.38],[-179.75,-70.62],[-176.5,-71.38],[-170.75,-71.12],[-169.25,-70.62],[-168.38,-69.75],[-168.38,-69.25],[-169.25,-68.38],[-173.5,-67.38],[-178.25,-67.62],[-179.75,-68.38]]]}},{"type":"Feature","properties":{"kind":"blob","cls":1,"id":6},"geometry":{"type":"Polygon","coordinates":[[[-117.0,-52.88],[-115.5,-52.38],[-114.62,-51.25],[-115.12,-49.75],[-113.88,-48.75],[-113.88,-47.5],[-114.75,-46.62],[-116.0,-46.12],[-117.5,-46.12],[-118.75,-46.62],[-119.62,-47.5],[-119.62,-48.5],[-120.0,-48.88],[-121.75,-49.38],[-122.62,-50.5],[-122.38,-51.5],[-121.5,-52.38],[-117.0,-52.88]]]}},{"type":"Feature","properties":{"kind":"blob","cls":4,"id":7},"geometry":{"type":"Polygon","coordinates":[[[120.5,-66.88],[121.38,-66.5],[120.5,-65.62],[119.25,-65.12],[113.5,-64.88],[111.25,-65.38],[109.62,-66.5],[111.0,-66.62],[111.25,-66.12],[113.0,-65.88],[114.25,-66.62],[120.5,-66.88]]]}},{"type":"Feature","properties":{"kind":"blob","cls":6,"id":8},"geometry":{"type":"Polygon","coordinates":[[[-155.0,-66.12],[-151.75,-65.62],[-148.5,-64.12],[-147.62,-63.25],[-147.62,-62.25],[-149.5,-61.12],[-152.5,-60.88],[-157.75,-62.38],[-159.62,-63.5],[-159.88,-64.5],[-159.5,-65.12],[-158.0,-65.88],[-155.0,-66.12]]]}},{"type":"Feature","properties":{"kind":"blob","cls":4,"id":9},"geometry":{"type":"Polygon","coordinates":[[[91.75,-65.12],[94.5,-64.38],[99.75,-64.38],[102.25,-63.88],[104.25,-63.12],[105.38,-62.0],[105.38,-61.5],[103.5,-60.12],[99.25,-59.88],[94.0,-60.62],[93.0,-61.12],[88.0,-61.38],[86.12,-62.5],[86.12,-63.5],[86.75,-64.12],[88.5,-64.88],[91.75,-65.12]],[[97.0,-64.12],[93.25,-63.38],[92.88,-62.75],[95.5,-62.62],[98.38,-63.5],[98.25,-63.88],[97.0,-64.12]]]}},{"type":"Feature","properties":{"kind":"blob","cls":0,"id":10},"geometry":{"type":"Polygon","coordinates":[[[148.25,27.88],[149.38,29.25],[149.12,30.5],[148.25,31.38],[146.25,31.38],[144.88,29.75],[145.12,28.75],[146.0,27.88],[148.25,27.88]]]}},{"type":"Feature","properties":{"kind":"blob","cls":4,"id":11},"geometry":{"type":"Polygon","coordinates":[[[49.5,-58.12],[51.75,-57.62],[53.12,-56.5],[53.12,-55.5],[51.75,-54.38],[49.5,-53.88],[44.75,-54.38],[43.38,-55.5],[43.38,-56.75],[44.75,-57.88],[49.5,-58.12]]]}},{"type":"Feature","properties":{"kind":"blob","cls":1,"id":12},"geometry":{"type":"Polygon","coordinates":[[[75.5,67.88],[78.75,68.62],[80.88,70.25],[81.12,71.0],[80.0,72.12],[76.0,73.12],[73.38,73.0],[74.88,71.5],[73.75,70.38],[70.5,70.62],[69.0,72.12],[67.88,71.5],[67.62,70.25],[68.75,69.12],[71.0,68.12],[75.5,67.88]]]}},{"type":"Feature","properties":{"kind":"blob","cls":4,"id":13},"geometry":{"type":"Polygon","coordinates":[[[17.25,-50.38],[19.0,-49.62],[19.62,-48.5],[19.62,-47.5],[18.5,-46.38],[17.25,-45.88],[16.25,-45.88],[14.5,-46.62],[13.62,-47.5],[13.62,-48.5],[14.25,-49.62],[17.25,-50.38]]]}},{"type":"Feature","properties":{"kind":"blob","cls":4,"id":14},"geometry":{"type":"Polygon","coordinates":[[[23.25,-46.38],[24.62,-45.0],[24.38,-43.75],[23.25,-42.62],[22.0,-42.12],[20.0,-42.38],[18.88,-43.25],[18.88,-44.75],[20.25,-46.12],[23.25,-46.38]]]}},{"type":"Feature","properties":{"kind":"blob","cls":1,"id":15},"geometry":{"type":"Polygon","coordinates":[[[134.75,-51.88],[136.5,-50.12],[138.5,-50.62],[140.25,-49.88],[140.62,-49.25],[140.38,-47.5],[138.5,-46.62],[137.5,-46.62],[135.75,-47.38],[135.5,-47.88],[133.0,-47.38],[131.5,-47.88],[130.38,-48.75],[130.12,-50.5],[131.0,-51.62],[134.75,-51.88]]]}},{"type":"Feature","properties":{"kind":"blob","cls":5,"id":16},"geometry":{"type":"Polygon","coordinates":[[[-168.5,60.38],[-166.5,60.88],[-165.38,61.75],[-165.12,63.25],[-166.5,64.38],[-169.75,64.88],[-169.88,64.0],[-171.0,63.12],[-174.25,63.12],[-174.62,62.75],[-174.0,61.38],[-172.5,60.62],[-168.5,60.38]]]}},{"type":"Feature","properties":{"kind":"blob","cls":4,"id":17},"geometry":{"type":"Polygon","coordinates":[[[-87.0,71.12],[-84.75,71.88],[-83.88,72.75],[-83.88,73.75],[-84.5,74.62],[-86.25,75.62],[-91.25,76.62],[-97.75,76.38],[-101.0,75.62],[-102.38,74.5],[-102.12,73.5],[-101.0,72.62],[-96.25,71.12],[-87.0,71.12]]]}},{"type":"Feature","properties":{"kind":"blob","cls":4,"id":18},"geometry":{"type":"Polygon","coordinates":[[[-18.75,-74.88],[-13.88,-73.75],[-15.25,-73.38],[-11.25,-73.38],[-9.62,-72.25],[-14.0,-71.38],[-19.0,-71.62],[-20.75,-72.12],[-22.38,-73.25],[-22.0,-74.12],[-18.75,-74.88]]]}},{"type":"Feature","properties":{"kind":"blob","cls":4,"id":19},"geometry":{"type":"Polygon","coordinates":[[[-147.0,81.38],[-140.25,82.12],[-138.25,82.62],[-137.38,83.25],[-139.25,84.38],[-142.25,84.88],[-150.0,85.38],[-160.0,85.38],[-169.5,84.62],[-172.5,83.88],[-173.38,83.25],[-171.75,82.38],[-167.75,81.62],[-147.0,81.38]]]}},{"type":"Feature","properties":{"kind":"blob","cls":4,"id":20},"geometry":{"type":"Polygon","coordinates":[[[-55.0,-78.62],[-47.0,-78.62],[-44.0,-77.88],[-43.12,-77.0],[-43.12,-76.5],[-44.5,-75.62],[-47.5,-74.88],[-54.75,-74.62],[-58.75,-75.12],[-61.38,-76.5],[-61.0,-77.38],[-59.5,-78.12],[-55.0,-78.62]]]}},{"type":"Feature","properties":{"kind":"blob","cls":4,"id":21},"geometry":{"type":"Polygon","coordinates":[[[-36.25,-80.12],[-30.0,-78.88],[-29.12,-78.5],[-35.0,-78.62],[-35.12,-78.25],[-29.38,-76.75],[-31.0,-76.38],[-38.5,-76.62],[-42.5,-77.62],[-43.62,-78.5],[-41.75,-79.62],[-36.25,-80.12]]]}},{"type":"Feature","properties":{"kind":"blob","cls":4,"id":22},"geometry":{"type":"Polygon","coordinates":[[[-44.0,-63.88],[-40.0,-62.88],[-37.62,-61.25],[-37.62,-60.25],[-39.25,-59.12],[-40.5,-58.88],[-43.0,-58.88],[-45.75,-59.62],[-47.75,-60.62],[-48.62,-61.5],[-48.62,-62.25],[-46.75,-63.62],[-44.0,-63.88]]]}},{"type":"Feature","properties":{"kind":"blob","cls":4,"id":23},"geometry":{"type":"Polygon","coordinates":[[[25.0,82.62],[31.5,83.38],[33.0,83.88],[33.12,84.5],[31.5,85.12],[25.0,85.88],[7.0,86.12],[-1.75,85.62],[-5.25,85.12],[-6.88,84.5],[-6.75,83.88],[-3.75,83.12],[1.25,82.62],[25.0,82.62]]]}},{"type":"Feature","properties":{"kind":"blob","cls":4,"id":24},"geometry":{"type":"Polygon","coordinates":[[[91.25,-48.62],[92.5,-48.12],[93.38,-47.25],[93.38,-46.25],[92.5,-45.38],[90.75,-44.62],[88.5,-45.12],[87.62,-46.0],[87.62,-47.0],[88.75,-48.12],[91.25,-48.62]]]}},{"type":"Feature","properties":{"kind":"blob","cls":4,"id":25},"geometry":{"type":"Polygon","coordinates":[[[-65.25,47.38],[-63.75,48.12],[-61.25,48.12],[-60.12,49.0],[-59.88,50.0],[-60.5,50.88],[-62.25,51.62],[-64.75,51.12],[-65.75,51.88],[-68.25,52.12],[-69.75,51.62],[-70.62,50.5],[-70.38,49.25],[-69.0,48.12],[-65.25,47.38]]]}},{"type":"Feature","properties":{"kind":"blob","cls":0,"id":26},"geometry":{"type":"Polygon","coordinates":[[[-25.0,14.12],[-23.62,15.0],[-23.38,16.5],[-24.25,17.62],[-25.88,17.75],[-26.62,15.75],[-27.62,15.0],[-25.0,14.12]]]}},{"type":"Feature","properties":{"kind":"blob","cls":4,"id":27},"geometry":{"type":"Polygon","coordinates":[[[-101.0,38.38],[-100.5,38.38],[-99.38,39.5],[-99.38,40.5],[-100.5,41.62],[-101.12,41.25],[-100.88,40.75],[-101.38,40.25],[-100.88,39.5],[-101.0,38.38]]]}},{"type":"Feature","properties":{"kind":"blob","cls":4,"id":28},"geometry":{"type":"Polygon","coordinates":[[[128.75,48.62],[130.38,49.75],[130.88,50.75],[130.88,53.5],[130.0,54.38],[128.5,54.88],[126.75,54.88],[124.75,54.12],[123.88,53.25],[123.88,50.0],[125.0,48.88],[128.75,48.62]]]}},{"type":"Feature","properties":{"kind":"blob","cls":5,"id":29},"geometry":{"type":"Polygon","coordinates":[[[-79.0,-52.12],[-77.5,-51.62],[-76.38,-50.25],[-76.62,-49.0],[-77.75,-48.12],[-79.25,-47.62],[-81.25,-47.88],[-82.0,-48.38],[-82.88,-49.5],[-82.88,-50.25],[-81.75,-51.62],[-79.0,-52.12]]]}},{"type":"Feature","properties":{"kind":"blob","cls":5,"id":30},"geometry":{"type":"MultiPolygon","coordinates":[[[[-118.88,36.5],[-119.0,36.62],[-119.12,36.5],[-118.88,36.5]]],[[[-119.12,36.75],[-119.25,36.88],[-119.38,36.75],[-119.12,36.75]]],[[[-119.38,37.0],[-119.5,37.12],[-119.62,37.0],[-119.38,37.0]]],[[[-123.0,36.62],[-121.25,36.38],[-119.62,37.25],[-121.88,40.25],[-122.0,41.12],[-122.88,40.75],[-122.75,39.12],[-123.5,40.38],[-124.38,39.5],[-124.38,38.5],[-123.0,36.62]]]]}},{"type":"Feature","properties":{"kind":"blob","cls":4,"id":31},"geometry":{"type":"Polygon","coordinates":[[[-31.5,-40.62],[-27.5,-39.38],[-26.38,-38.0],[-26.62,-36.5],[-28.25,-35.38],[-29.5,-35.38],[-32.5,-36.62],[-36.25,-36.88],[-37.12,-37.75],[-37.38,-39.0],[-36.25,-40.38],[-31.5,-40.62]]]}},{"type":"Feature","properties":{"kind":"blob","cls":4,"id":32},"geometry":{"type":"Polygon","coordinates":[[[-72.5,35.62],[-70.88,36.75],[-70.62,37.5],[-71.5,38.88],[-72.5,39.38],[-74.0,39.12],[-75.25,40.62],[-76.0,40.88],[-77.75,40.62],[-79.38,39.25],[-79.62,38.25],[-78.5,36.88],[-76.5,36.62],[-75.25,37.12],[-74.5,36.12],[-72.5,35.62]]]}},{"type":"Feature","properties":{"kind":"blob","cls":4,"id":33},"geometry":{"type":"MultiPolygon","coordinates":[[[[-73.25,-49.88],[-73.38,-50.0],[-73.25,-50.12],[-73.25,-49.88]]],[[[-72.0,-52.88],[-69.25,-52.88],[-67.38,-51.5],[-66.62,-49.5],[-68.0,-47.62],[-69.75,-46.88],[-72.25,-47.12],[-71.38,-47.75],[-71.88,-48.25],[-71.38,-48.5],[-71.75,-49.12],[-72.62,-48.5],[-72.38,-48.25],[-73.0,-47.62],[-73.38,-47.75],[-73.62,-48.25],[-73.0,-48.38],[-72.38,-49.25],[-73.12,-49.5],[-72.62,-50.0],[-73.12,-50.25],[-73.62,-51.75],[-72.0,-52.88]],[[-72.25,-50.88],[-72.62,-50.75],[-72.25,-50.38],[-72.25,-50.88]]],[[[-72.62,-47.5],[-72.75,-47.38],[-72.88,-47.5],[-72.62,-47.5]]]]}},{"type":"Feature","properties":{"kind":"blob","cls":4,"id":34},"geometry":{"type":"Polygon","coordinates":[[[-45.75,-38.12],[-43.75,-38.38],[-42.75,-37.88],[-42.12,-37.25],[-42.12,-35.5],[-44.25,-34.12],[-46.25,-34.62],[-47.12,-35.5],[-47.12,-37.25],[-45.75,-38.12]]]}},{"type":"Feature","properties":{"kind":"blob","cls":1,"id":35},"geometry":{"type":"Polygon","coordinates":[[[21.5,55.12],[24.0,56.12],[24.88,57.25],[24.62,58.75],[22.75,59.88],[20.5,57.62],[19.88,58.0],[19.75,60.62],[18.5,60.62],[16.5,59.88],[15.62,59.0],[15.62,57.75],[17.5,56.12],[19.0,55.38],[21.5,55.12]]]}},{"type":"Feature","properties":{"kind":"blob","cls":4,"id":36},"geometry":{"type":"Polygon","coordinates":[[[-68.0,38.88],[-66.88,40.0],[-66.88,41.25],[-68.0,42.38],[-70.0,42.62],[-71.88,41.25],[-71.88,40.25],[-70.5,38.88],[-68.0,38.88]]]}},{"type":"Feature","properties":{"kind":"blob","cls":3,"id":37},"geometry":{"type":"Polygon","coordinates":[[[8.25,64.88],[10.0,65.62],[10.62,67.0],[9.75,67.88],[8.5,68.38],[4.5,68.62],[2.25,68.12],[0.88,67.0],[0.62,66.5],[1.25,65.62],[3.0,64.88],[8.25,64.88]]]}},{"type":"Feature","properties":{"kind":"blob","cls":4,"id":38},"geometry":{"type":"Polygon","coordinates":[[[-64.0,-21.38],[-63.38,-21.25],[-64.0,-20.62],[-64.0,-21.38]]]}},{"type":"Feature","properties":{"kind":"blob","cls":3,"id":39},"geometry":{"type":"Polygon","coordinates":[[[49.25,29.38],[50.5,29.88],[50.62,30.75],[49.88,31.25],[49.5,32.38],[47.75,33.38],[47.5,32.88],[47.0,33.12],[46.62,32.5],[46.62,31.0],[47.5,29.88],[49.25,29.38]]]}},{"type":"Feature","properties":{"kind":"blob","cls":4,"id":40},"geometry":{"type":"MultiPolygon","coordinates":[[[[-64.25,-22.12],[-64.38,-22.25],[-64.25,-22.38],[-64.25,-22.12]]],[[[-64.0,-21.88],[-64.12,-22.0],[-64.0,-22.12],[-64.0,-21.88]]]]}},{"type":"Feature","properties":{"kind":"blob","cls":4,"id":41},"geometry":{"type":"Polygon","coordinates":[[[-73.88,-49.25],[-73.75,-49.38],[-73.62,-49.25],[-73.88,-49.25]]]}},{"type":"Feature","properties":{"kind":"blob","cls":3,"id":42},"geometry":{"type":"MultiPolygon","coordinates":[[[[62.25,30.62],[62.12,30.5],[62.25,30.38],[62.25,30.62]]],[[[61.38,31.0],[62.12,30.75],[61.88,31.75],[62.38,32.25],[62.38,32.75],[61.62,33.0],[61.5,33.62],[60.88,32.75],[60.88,31.75],[61.38,31.0]]]]}},{"type":"Feature","properties":{"kind":"center","id":1,"lat":-62.5,"lon":166.5,"mslp":946.9,"hvtl":119.1,"hvtu":-177.6,"hb":33.0,"idx":0.7,"cls":3,"psfc":946.9,"terrain":false,"radius_km":200,"name":"asym shallow warm","track":"T06"},"geometry":{"type":"Point","coordinates":[166.5,-62.5]}},{"type":"Feature","properties":{"kind":"center","id":2,"lat":-67.75,"lon":-116.25,"mslp":953.9,"hvtl":4.4,"hvtu":-32.5,"hb":12.7,"idx":-0.2,"cls":3,"psfc":953.9,"terrain":false,"radius_km":200,"name":"asym shallow warm","track":"T12"},"geometry":{"type":"Point","coordinates":[-116.25,-67.75]}},{"type":"Feature","properties":{"kind":"center","id":3,"lat":64.25,"lon":-35.5,"mslp":954.8,"hvtl":201.7,"hvtu":-105.9,"hb":-9.3,"idx":1.1,"cls":1,"psfc":954.8,"terrain":false,"radius_km":200,"name":"sym shallow warm","track":"T17"},"geometry":{"type":"Point","coordinates":[-35.5,64.25]}},{"type":"Feature","properties":{"kind":"center","id":4,"lat":-59.75,"lon":-4.75,"mslp":957.2,"hvtl":185.8,"hvtu":-78.7,"hb":-26.8,"idx":1.2,"cls":1,"psfc":957.2,"terrain":false,"radius_km":200,"name":"sym shallow warm","track":"T19"},"geometry":{"type":"Point","coordinates":[-4.75,-59.75]}},{"type":"Feature","properties":{"kind":"center","id":5,"lat":-69.5,"lon":-174.5,"mslp":957.6,"hvtl":44.5,"hvtu":-7.6,"hb":48.9,"idx":0.8,"cls":3,"psfc":957.7,"terrain":false,"radius_km":200,"name":"asym shallow warm","track":"T15"},"geometry":{"type":"Point","coordinates":[-174.5,-69.5]}},{"type":"Feature","properties":{"kind":"center","id":6,"lat":-48.0,"lon":-116.75,"mslp":962.6,"hvtl":6.1,"hvtu":-279.8,"hb":-1.9,"idx":-0.9,"cls":1,"psfc":962.6,"terrain":false,"radius_km":200,"name":"sym shallow warm","track":"T26"},"geometry":{"type":"Point","coordinates":[-116.75,-48.0]}},{"type":"Feature","properties":{"kind":"center","id":7,"lat":-66.5,"lon":116.0,"mslp":966.5,"hvtl":-257.7,"hvtu":-192.5,"hb":46.1,"idx":-2.9,"cls":4,"psfc":965.2,"terrain":false,"radius_km":200,"name":"asym cold","track":"T33"},"geometry":{"type":"Point","coordinates":[116.0,-66.5]}},{"type":"Feature","properties":{"kind":"center","id":8,"lat":-63.5,"lon":-153.5,"mslp":968.7,"hvtl":-45.5,"hvtu":28.5,"hb":44.7,"idx":-0.6,"cls":6,"psfc":968.7,"terrain":false,"radius_km":200,"name":"shallow cold"},"geometry":{"type":"Point","coordinates":[-153.5,-63.5]}},{"type":"Feature","properties":{"kind":"center","id":9,"lat":-62.0,"lon":99.5,"mslp":972.7,"hvtl":-193.1,"hvtu":-72.8,"hb":37.7,"idx":-2.5,"cls":4,"psfc":972.7,"terrain":false,"radius_km":200,"name":"asym cold","track":"T38"},"geometry":{"type":"Point","coordinates":[99.5,-62.0]}},{"type":"Feature","properties":{"kind":"center","id":10,"lat":29.5,"lon":147.25,"mslp":975.9,"hvtl":96.2,"hvtu":224.4,"hb":2.6,"idx":2.5,"cls":0,"psfc":975.9,"terrain":false,"radius_km":200,"name":"sym deep warm","track":"T09"},"geometry":{"type":"Point","coordinates":[147.25,29.5]}},{"type":"Feature","properties":{"kind":"center","id":11,"lat":-56.0,"lon":48.5,"mslp":980.7,"hvtl":-271.3,"hvtu":-262.8,"hb":69.6,"idx":-3.0,"cls":4,"psfc":980.7,"terrain":false,"radius_km":200,"name":"asym cold","track":"T13"},"geometry":{"type":"Point","coordinates":[48.5,-56.0]}},{"type":"Feature","properties":{"kind":"center","id":12,"lat":70.5,"lon":74.5,"mslp":981.3,"hvtl":97.2,"hvtu":-3.0,"hb":9.5,"idx":1.5,"cls":1,"psfc":977.8,"terrain":false,"radius_km":200,"name":"sym shallow warm","track":"T57"},"geometry":{"type":"Point","coordinates":[74.5,70.5]}},{"type":"Feature","properties":{"kind":"center","id":13,"lat":-48.5,"lon":16.5,"mslp":984.4,"hvtl":-197.5,"hvtu":-278.3,"hb":59.4,"idx":-2.9,"cls":4,"psfc":984.4,"terrain":false,"radius_km":200,"name":"asym cold"},"geometry":{"type":"Point","coordinates":[16.5,-48.5]}},{"type":"Feature","properties":{"kind":"center","id":14,"lat":-44.25,"lon":21.5,"mslp":985.2,"hvtl":-347.5,"hvtu":-353.3,"hb":73.0,"idx":-3.0,"cls":4,"psfc":985.2,"terrain":false,"radius_km":200,"name":"asym cold","track":"T29"},"geometry":{"type":"Point","coordinates":[21.5,-44.25]}},{"type":"Feature","properties":{"kind":"center","id":15,"lat":-49.5,"lon":133.75,"mslp":988.4,"hvtl":31.3,"hvtu":-289.5,"hb":-8.7,"idx":-0.4,"cls":1,"psfc":988.4,"terrain":false,"radius_km":200,"name":"sym shallow warm","track":"T55"},"geometry":{"type":"Point","coordinates":[133.75,-49.5]}},{"type":"Feature","properties":{"kind":"center","id":16,"lat":62.75,"lon":-169.5,"mslp":988.5,"hvtl":-1.6,"hvtu":-169.9,"hb":3.5,"idx":-1.0,"cls":5,"psfc":988.5,"terrain":false,"radius_km":200,"name":"sym cold","track":"T48"},"geometry":{"type":"Point","coordinates":[-169.5,62.75]}},{"type":"Feature","properties":{"kind":"center","id":17,"lat":74.25,"lon":-92.75,"mslp":989.1,"hvtl":-68.8,"hvtu":-229.1,"hb":63.9,"idx":-2.2,"cls":4,"psfc":988.6,"terrain":false,"radius_km":200,"name":"asym cold","track":"T68"},"geometry":{"type":"Point","coordinates":[-92.75,74.25]}},{"type":"Feature","properties":{"kind":"center","id":18,"lat":-71.75,"lon":-13.0,"mslp":989.6,"hvtl":-106.9,"hvtu":-49.7,"hb":30.1,"idx":-2.0,"cls":4,"psfc":989.6,"terrain":false,"radius_km":200,"name":"asym cold"},"geometry":{"type":"Point","coordinates":[-13.0,-71.75]}},{"type":"Feature","properties":{"kind":"center","id":19,"lat":83.25,"lon":-155.75,"mslp":989.9,"hvtl":-39.0,"hvtu":-117.8,"hb":28.7,"idx":-1.6,"cls":4,"psfc":989.9,"terrain":false,"radius_km":200,"name":"asym cold","track":"T72"},"geometry":{"type":"Point","coordinates":[-155.75,83.25]}},{"type":"Feature","properties":{"kind":"center","id":20,"lat":-77.0,"lon":-51.5,"mslp":990.4,"hvtl":-460.2,"hvtu":-69.2,"hb":98.7,"idx":-2.6,"cls":4,"psfc":985.3,"terrain":false,"radius_km":200,"name":"asym cold","track":"T65"},"geometry":{"type":"Point","coordinates":[-51.5,-77.0]}},{"type":"Feature","properties":{"kind":"center","id":21,"lat":-78.5,"lon":-35.25,"mslp":990.9,"hvtl":-319.3,"hvtu":-28.8,"hb":82.1,"idx":-2.3,"cls":4,"psfc":904.7,"terrain":false,"radius_km":200,"name":"asym cold","track":"T56"},"geometry":{"type":"Point","coordinates":[-35.25,-78.5]}},{"type":"Feature","properties":{"kind":"center","id":22,"lat":-61.25,"lon":-42.25,"mslp":994.5,"hvtl":-265.5,"hvtu":-219.9,"hb":53.4,"idx":-3.0,"cls":4,"psfc":994.5,"terrain":false,"radius_km":200,"name":"asym cold"},"geometry":{"type":"Point","coordinates":[-42.25,-61.25]}},{"type":"Feature","properties":{"kind":"center","id":23,"lat":84.25,"lon":13.25,"mslp":995.7,"hvtl":-283.0,"hvtu":-135.1,"hb":78.3,"idx":-2.9,"cls":4,"psfc":995.7,"terrain":false,"radius_km":200,"name":"asym cold","track":"T59"},"geometry":{"type":"Point","coordinates":[13.25,84.25]}},{"type":"Feature","properties":{"kind":"center","id":24,"lat":-47.75,"lon":92.0,"mslp":998.3,"hvtl":-293.0,"hvtu":-256.8,"hb":64.8,"idx":-3.0,"cls":4,"psfc":998.3,"terrain":false,"radius_km":200,"name":"asym cold"},"geometry":{"type":"Point","coordinates":[92.0,-47.75]}},{"type":"Feature","properties":{"kind":"center","id":25,"lat":50.0,"lon":-67.5,"mslp":1000.4,"hvtl":-429.7,"hvtu":-336.7,"hb":138.3,"idx":-3.0,"cls":4,"psfc":953.9,"terrain":false,"radius_km":200,"name":"asym cold"},"geometry":{"type":"Point","coordinates":[-67.5,50.0]}},{"type":"Feature","properties":{"kind":"center","id":26,"lat":16.0,"lon":-26.0,"mslp":1000.5,"hvtl":43.1,"hvtu":38.3,"hb":-4.5,"idx":1.2,"cls":0,"psfc":1000.5,"terrain":false,"radius_km":200,"name":"sym deep warm","track":"T86"},"geometry":{"type":"Point","coordinates":[-26.0,16.0]}},{"type":"Feature","properties":{"kind":"center","id":27,"lat":40.0,"lon":-101.0,"mslp":1001.6,"hvtl":-93.2,"hvtu":-169.9,"hb":35.7,"idx":-2.4,"cls":4,"psfc":902.9,"terrain":true,"radius_km":200,"name":"asym cold"},"geometry":{"type":"Point","coordinates":[-101.0,40.0]}},{"type":"Feature","properties":{"kind":"center","id":28,"lat":52.75,"lon":126.75,"mslp":1001.9,"hvtl":-159.4,"hvtu":-256.8,"hb":74.7,"idx":-2.8,"cls":4,"psfc":964.2,"terrain":false,"radius_km":200,"name":"asym cold","track":"T83"},"geometry":{"type":"Point","coordinates":[126.75,52.75]}},{"type":"Feature","properties":{"kind":"center","id":29,"lat":-50.0,"lon":-79.75,"mslp":1002.7,"hvtl":-7.9,"hvtu":-33.1,"hb":1.7,"idx":-0.5,"cls":5,"psfc":1002.7,"terrain":false,"radius_km":200,"name":"sym cold","track":"T79"},"geometry":{"type":"Point","coordinates":[-79.75,-50.0]}},{"type":"Feature","properties":{"kind":"center","id":30,"lat":38.75,"lon":-121.5,"mslp":1003.2,"hvtl":-0.7,"hvtu":-107.4,"hb":0.7,"idx":-0.8,"cls":5,"psfc":1001.9,"terrain":false,"radius_km":200,"name":"sym cold"},"geometry":{"type":"Point","coordinates":[-121.5,38.75]}},{"type":"Feature","properties":{"kind":"center","id":31,"lat":-38.25,"lon":-31.0,"mslp":1005.0,"hvtl":-223.9,"hvtu":-297.7,"hb":84.9,"idx":-2.9,"cls":4,"psfc":1005.0,"terrain":false,"radius_km":200,"name":"asym cold","track":"T05"},"geometry":{"type":"Point","coordinates":[-31.0,-38.25]}},{"type":"Feature","properties":{"kind":"center","id":32,"lat":37.5,"lon":-73.0,"mslp":1005.5,"hvtl":-134.9,"hvtu":-110.5,"hb":17.9,"idx":-2.5,"cls":4,"psfc":1005.5,"terrain":false,"radius_km":200,"name":"asym cold","track":"T100"},"geometry":{"type":"Point","coordinates":[-73.0,37.5]}},{"type":"Feature","properties":{"kind":"center","id":33,"lat":-50.0,"lon":-70.25,"mslp":1006.1,"hvtl":-137.6,"hvtu":-182.0,"hb":35.8,"idx":-2.7,"cls":4,"psfc":956.6,"terrain":false,"radius_km":200,"name":"asym cold","track":"T105"},"geometry":{"type":"Point","coordinates":[-70.25,-50.0]}},{"type":"Feature","properties":{"kind":"center","id":34,"lat":-36.25,"lon":-44.75,"mslp":1006.8,"hvtl":-39.2,"hvtu":-242.9,"hb":41.7,"idx":-1.7,"cls":4,"psfc":1006.8,"terrain":false,"radius_km":200,"name":"asym cold","track":"T93"},"geometry":{"type":"Point","coordinates":[-44.75,-36.25]}},{"type":"Feature","properties":{"kind":"center","id":35,"lat":57.75,"lon":20.75,"mslp":1007.1,"hvtl":96.1,"hvtu":-235.2,"hb":7.5,"idx":0.5,"cls":1,"psfc":1007.1,"terrain":false,"radius_km":200,"name":"sym shallow warm","track":"T80"},"geometry":{"type":"Point","coordinates":[20.75,57.75]}},{"type":"Feature","properties":{"kind":"center","id":36,"lat":40.75,"lon":-70.25,"mslp":1007.4,"hvtl":-87.9,"hvtu":-191.2,"hb":44.7,"idx":-2.4,"cls":4,"psfc":1007.4,"terrain":false,"radius_km":200,"name":"asym cold","track":"T64"},"geometry":{"type":"Point","coordinates":[-70.25,40.75]}},{"type":"Feature","properties":{"kind":"center","id":37,"lat":66.75,"lon":5.75,"mslp":1008.7,"hvtl":105.4,"hvtu":-280.0,"hb":35.5,"idx":0.6,"cls":3,"psfc":1008.7,"terrain":false,"radius_km":200,"name":"asym shallow warm","track":"T82"},"geometry":{"type":"Point","coordinates":[5.75,66.75]}},{"type":"Feature","properties":{"kind":"center","id":38,"lat":-21.0,"lon":-64.0,"mslp":1011.6,"hvtl":-181.4,"hvtu":-186.2,"hb":50.4,"idx":-2.8,"cls":4,"psfc":920.1,"terrain":true,"radius_km":200,"name":"asym cold"},"geometry":{"type":"Point","coordinates":[-64.0,-21.0]}},{"type":"Feature","properties":{"kind":"center","id":39,"lat":31.5,"lon":49.0,"mslp":1012.3,"hvtl":32.9,"hvtu":-70.9,"hb":18.9,"idx":0.0,"cls":3,"psfc":1008.8,"terrain":false,"radius_km":200,"name":"asym shallow warm"},"geometry":{"type":"Point","coordinates":[49.0,31.5]}},{"type":"Feature","properties":{"kind":"center","id":40,"lat":-22.0,"lon":-64.0,"mslp":1012.3,"hvtl":-163.3,"hvtu":-208.7,"hb":41.0,"idx":-2.8,"cls":4,"psfc":905.0,"terrain":true,"radius_km":200,"name":"asym cold"},"geometry":{"type":"Point","coordinates":[-64.0,-22.0]}},{"type":"Feature","properties":{"kind":"center","id":41,"lat":-49.25,"lon":-73.75,"mslp":1013.0,"hvtl":-86.2,"hvtu":-158.3,"hb":62.6,"idx":-2.3,"cls":4,"psfc":910.1,"terrain":true,"radius_km":200,"name":"asym cold"},"geometry":{"type":"Point","coordinates":[-73.75,-49.25]}},{"type":"Feature","properties":{"kind":"center","id":42,"lat":32.25,"lon":62.25,"mslp":1015.6,"hvtl":54.8,"hvtu":-166.5,"hb":88.0,"idx":0.1,"cls":3,"psfc":935.4,"terrain":false,"radius_km":200,"name":"asym shallow warm","track":"T112"},"geometry":{"type":"Point","coordinates":[62.25,32.25]}}]}