{"type":"FeatureCollection","features":[{"type":"Feature","properties":{"kind":"blob","cls":1,"id":1},"geometry":{"type":"Polygon","coordinates":[[[-169.5,-67.88],[-167.75,-67.12],[-167.12,-65.75],[-167.5,-65.12],[-169.0,-64.38],[-171.25,-63.88],[-175.25,-64.12],[-176.5,-64.62],[-177.38,-65.5],[-177.38,-66.25],[-176.75,-67.12],[-175.0,-67.88],[-169.5,-67.88]]]}},{"type":"Feature","properties":{"kind":"blob","cls":1,"id":2},"geometry":{"type":"Polygon","coordinates":[[[1.5,-60.88],[3.75,-60.38],[5.38,-59.25],[5.38,-58.25],[4.75,-57.62],[2.25,-56.62],[-2.25,-56.62],[-4.12,-58.0],[-4.12,-59.0],[-2.75,-60.38],[1.5,-60.88]],[[0.75,-59.12],[0.12,-58.75],[0.12,-58.25],[1.0,-57.62],[1.75,-57.62],[2.12,-58.5],[0.75,-59.12]]]}},{"type":"Feature","properties":{"kind":"blob","cls":4,"id":3},"geometry":{"type":"MultiPolygon","coordinates":[[[[-114.5,-73.38],[-111.75,-72.88],[-109.88,-71.5],[-109.88,-71.0],[-110.5,-70.12],[-111.5,-69.62],[-115.5,-68.62],[-121.0,-68.88],[-123.38,-70.0],[-120.25,-69.62],[-119.88,-70.75],[-120.25,-71.12],[-123.5,-71.12],[-123.62,-71.5],[-121.5,-72.62],[-114.5,-73.38]]],[[[-123.5,-70.12],[-123.62,-70.25],[-123.5,-70.38],[-123.5,-70.12]]]]}},{"type":"Feature","properties":{"kind":"blob","cls":3,"id":4},"geometry":{"type":"Polygon","coordinates":[[[33.5,-53.62],[35.0,-53.12],[35.88,-52.25],[35.88,-51.0],[35.0,-50.12],[33.5,-49.62],[30.75,-50.12],[29.88,-51.0],[29.88,-52.25],[30.75,-53.12],[33.5,-53.62]]]}},{"type":"Feature","properties":{"kind":"blob","cls":2,"id":5},"geometry":{"type":"MultiPolygon","coordinates":[[[[-43.5,60.62],[-43.62,60.5],[-43.5,60.38],[-43.5,60.62]]],[[[-40.5,58.88],[-38.25,59.62],[-37.62,60.25],[-37.88,61.5],[-35.75,62.12],[-34.38,63.5],[-34.38,64.0],[-35.75,65.12],[-38.0,65.38],[-41.5,63.62],[-42.88,62.75],[-42.88,61.5],[-40.25,61.38],[-40.5,60.62],[-42.0,60.12],[-44.5,60.12],[-45.12,60.5],[-44.5,59.62],[-40.5,58.88]]]]}},{"type":"Feature","properties":{"kind":"blob","cls":3,"id":6},"geometry":{"type":"Polygon","coordinates":[[[-108.75,-57.62],[-105.25,-57.62],[-103.88,-56.5],[-103.88,-55.5],[-105.62,-54.0],[-104.0,-53.38],[-103.12,-52.5],[-103.12,-51.25],[-104.25,-50.12],[-107.25,-49.62],[-108.75,-50.12],[-109.62,-51.0],[-109.62,-52.5],[-109.12,-53.0],[-111.5,-53.88],[-112.12,-54.5],[-112.12,-55.5],[-110.75,-57.12],[-108.75,-57.62]]]}},{"type":"Feature","properties":{"kind":"blob","cls":4,"id":7},"geometry":{"type":"Polygon","coordinates":[[[111.0,-66.62],[111.25,-66.12],[112.75,-65.88],[113.75,-66.38],[114.0,-65.38],[116.25,-66.12],[120.0,-65.88],[121.62,-65.0],[121.88,-63.75],[120.0,-62.38],[116.0,-61.88],[113.5,-62.62],[112.25,-64.12],[110.0,-63.62],[107.5,-63.62],[105.25,-64.12],[103.88,-65.25],[104.25,-66.38],[111.0,-66.62]]]}},{"type":"Feature","properties":{"kind":"blob","cls":4,"id":8},"geometry":{"type":"Polygon","coordinates":[[[100.75,-66.38],[102.12,-65.0],[101.25,-63.88],[98.75,-62.62],[97.25,-62.38],[93.0,-62.62],[90.38,-64.0],[90.38,-65.0],[90.75,-65.38],[92.75,-66.38],[100.75,-66.38]]]}},{"type":"Feature","properties":{"kind":"blob","cls":4,"id":9},"geometry":{"type":"Polygon","coordinates":[[[-127.25,-53.88],[-123.5,-52.38],[-122.62,-51.25],[-122.88,-50.25],[-124.0,-49.38],[-126.75,-49.12],[-130.75,-50.62],[-131.62,-51.5],[-131.62,-52.75],[-130.75,-53.62],[-127.25,-53.88]]]}},{"type":"Feature","properties":{"kind":"blob","cls":4,"id":10},"geometry":{"type":"Polygon","coordinates":[[[-9.5,59.38],[-7.88,60.5],[-7.62,62.0],[-8.5,62.88],[-10.75,63.62],[-13.75,63.38],[-15.25,62.62],[-16.12,61.5],[-15.88,60.75],[-14.0,59.38],[-9.5,59.38]]]}},{"type":"Feature","properties":{"kind":"blob","cls":4,"id":11},"geometry":{"type":"Polygon","coordinates":[[[73.75,-55.12],[75.25,-54.62],[76.38,-53.5],[76.38,-52.5],[75.5,-51.62],[74.0,-51.12],[71.5,-51.62],[70.12,-53.25],[71.25,-54.62],[73.75,-55.12]]]}},{"type":"Feature","properties":{"kind":"blob","cls":2,"id":12},"geometry":{"type":"Polygon","coordinates":[[[150.5,31.88],[152.12,32.75],[152.38,34.5],[151.75,35.38],[149.75,35.88],[148.12,35.0],[147.88,33.25],[148.5,32.38],[150.5,31.88]]]}},{"type":"Feature","properties":{"kind":"blob","cls":4,"id":13},"geometry":{"type":"Polygon","coordinates":[[[-19.75,68.12],[-13.75,68.12],[-11.0,69.38],[-10.12,70.25],[-10.12,70.75],[-11.75,71.88],[-13.75,72.38],[-17.75,72.62],[-22.25,71.62],[-23.88,70.5],[-23.38,70.0],[-23.62,69.5],[-22.75,68.62],[-19.75,68.12]]]}},{"type":"Feature","properties":{"kind":"blob","cls":4,"id":14},"geometry":{"type":"Polygon","coordinates":[[[-43.0,48.12],[-41.0,48.62],[-39.88,49.5],[-39.62,50.5],[-40.75,51.88],[-42.25,52.38],[-45.5,51.88],[-46.62,51.0],[-46.88,49.75],[-46.0,48.62],[-43.0,48.12]]]}},{"type":"Feature","properties":{"kind":"blob","cls":1,"id":15},"geometry":{"type":"Polygon","coordinates":[[[83.25,66.62],[85.75,67.12],[87.25,67.88],[87.88,69.0],[87.25,69.88],[86.25,70.38],[84.0,70.12],[82.5,71.12],[79.5,71.12],[77.0,70.62],[76.0,70.12],[75.12,69.0],[76.0,67.88],[77.0,67.38],[83.25,66.62]]]}},{"type":"Feature","properties":{"kind":"blob","cls":4,"id":16},"geometry":{"type":"Polygon","coordinates":[[[143.12,-67.0],[140.25,-66.12],[136.62,-66.5],[138.25,-66.88],[143.12,-67.0]]]}},{"type":"Feature","properties":{"kind":"blob","cls":1,"id":17},"geometry":{"type":"Polygon","coordinates":[[[45.0,85.88],[59.75,86.62],[63.25,87.12],[64.62,87.75],[60.25,88.62],[43.75,89.38],[5.75,89.62],[-22.0,88.88],[-27.75,88.38],[-29.88,87.75],[-27.0,86.88],[-21.5,86.38],[-10.0,85.88],[45.0,85.88]]]}},{"type":"Feature","properties":{"kind":"blob","cls":4,"id":18},"geometry":{"type":"Polygon","coordinates":[[[-20.75,-75.88],[-16.88,-74.0],[-17.5,-72.88],[-19.75,-71.88],[-22.75,-71.38],[-26.5,-71.38],[-31.5,-72.38],[-33.38,-74.0],[-32.75,-75.12],[-31.5,-75.62],[-20.75,-75.88]]]}},{"type":"Feature","properties":{"kind":"blob","cls":5,"id":19},"geometry":{"type":"Polygon","coordinates":[[[38.25,-69.38],[43.0,-68.38],[48.38,-66.5],[45.5,-65.62],[41.0,-65.88],[38.25,-67.12],[37.38,-68.0],[38.25,-69.38]]]}},{"type":"Feature","properties":{"kind":"blob","cls":4,"id":20},"geometry":{"type":"Polygon","coordinates":[[[-85.0,72.62],[-82.5,73.38],[-81.62,74.5],[-84.62,75.25],[-83.5,75.88],[-86.75,76.38],[-94.75,76.12],[-96.75,75.62],[-97.88,74.75],[-97.88,74.25],[-97.0,73.38],[-95.75,72.88],[-85.0,72.62]]]}},{"type":"Feature","properties":{"kind":"blob","cls":4,"id":21},"geometry":{"type":"Polygon","coordinates":[[[-102.0,64.62],[-99.75,65.12],[-98.0,65.88],[-97.12,66.75],[-97.12,67.25],[-98.0,68.12],[-99.25,68.62],[-105.0,68.88],[-107.25,68.38],[-108.88,67.0],[-108.25,65.62],[-106.5,64.88],[-102.0,64.62]]]}},{"type":"Feature","properties":{"kind":"blob","cls":4,"id":22},"geometry":{"type":"Polygon","coordinates":[[[-121.25,78.12],[-115.25,79.38],[-113.88,80.25],[-113.88,80.75],[-116.0,81.88],[-124.25,82.88],[-139.5,82.62],[-142.75,82.12],[-144.62,81.25],[-144.25,80.38],[-141.5,79.38],[-135.5,78.12],[-121.25,78.12]]]}},{"type":"Feature","properties":{"kind":"blob","cls":4,"id":23},"geometry":{"type":"Polygon","coordinates":[[[-55.0,40.12],[-53.5,40.88],[-52.88,41.75],[-53.12,43.25],[-54.75,44.12],[-55.75,44.12],[-57.25,43.38],[-57.88,42.5],[-57.88,41.5],[-57.5,40.88],[-55.0,40.12]]]}},{"type":"Feature","properties":{"kind":"blob","cls":4,"id":24},"geometry":{"type":"MultiPolygon","coordinates":[[[[143.75,-67.38],[143.62,-67.5],[143.75,-67.62],[143.75,-67.38]]],[[[143.5,-67.12],[143.38,-67.25],[143.5,-67.38],[143.5,-67.12]]]]}},{"type":"Feature","properties":{"kind":"blob","cls":3,"id":25},"geometry":{"type":"Polygon","coordinates":[[[175.12,-82.5],[171.5,-81.62],[167.88,-81.5],[172.0,-82.38],[175.12,-82.5]]]}},{"type":"Feature","properties":{"kind":"blob","cls":1,"id":26},"geometry":{"type":"Polygon","coordinates":[[[-167.25,60.62],[-165.25,61.12],[-163.62,62.5],[-163.62,63.75],[-165.0,64.88],[-167.75,65.62],[-172.12,61.0],[-167.25,60.62]]]}},{"type":"Feature","properties":{"kind":"blob","cls":0,"id":27},"geometry":{"type":"Polygon","coordinates":[[[-26.0,15.38],[-24.5,15.38],[-23.62,16.5],[-23.88,18.25],[-25.25,19.12],[-26.5,18.88],[-27.38,17.75],[-27.12,16.0],[-26.0,15.38]]]}},{"type":"Feature","properties":{"kind":"blob","cls":1,"id":28},"geometry":{"type":"Polygon","coordinates":[[[149.0,-48.88],[150.25,-48.38],[151.12,-47.5],[151.12,-46.5],[150.25,-45.62],[149.0,-45.12],[146.75,-45.62],[145.88,-46.5],[145.88,-47.5],[146.75,-48.38],[149.0,-48.88]]]}},{"type":"Feature","properties":{"kind":"blob","cls":4,"id":29},"geometry":{"type":"Polygon","coordinates":[[[-17.0,-38.38],[-14.25,-38.62],[-13.25,-38.12],[-12.38,-37.25],[-12.38,-35.75],[-14.5,-34.38],[-16.75,-34.62],[-17.75,-35.12],[-18.38,-35.75],[-18.38,-37.5],[-17.0,-38.38]]]}},{"type":"Feature","properties":{"kind":"blob","cls":4,"id":30},"geometry":{"type":"Polygon","coordinates":[[[-63.25,-20.62],[-62.25,-20.38],[-61.38,-19.25],[-61.62,-17.75],[-63.0,-16.88],[-64.38,-17.25],[-63.38,-18.25],[-63.88,-19.0],[-63.12,-19.5],[-63.25,-20.62]]]}},{"type":"Feature","properties":{"kind":"blob","cls":3,"id":31},"geometry":{"type":"Polygon","coordinates":[[[127.25,52.12],[131.25,52.12],[132.88,53.25],[133.12,54.25],[132.75,54.88],[131.25,54.62],[131.0,55.12],[130.25,55.12],[129.0,54.38],[127.75,54.38],[127.62,54.75],[128.25,55.62],[126.0,55.62],[125.12,55.0],[125.62,54.5],[124.88,54.25],[124.88,53.5],[125.5,52.62],[127.25,52.12]],[[131.25,53.62],[131.12,53.75],[131.5,53.88],[131.25,53.62]]]}},{"type":"Feature","properties":{"kind":"blob","cls":1,"id":32},"geometry":{"type":"Polygon","coordinates":[[[-74.0,-10.88],[-72.75,-10.88],[-72.12,-9.75],[-74.25,-9.62],[-75.5,-9.12],[-75.38,-10.25],[-74.75,-10.62],[-74.25,-10.12],[-74.0,-10.88]]]}},{"type":"Feature","properties":{"kind":"blob","cls":4,"id":33},"geometry":{"type":"MultiPolygon","coordinates":[[[[141.0,52.12],[143.5,53.12],[144.12,54.0],[144.12,55.75],[143.0,56.88],[140.75,57.62],[137.5,57.38],[137.38,56.5],[136.75,56.12],[136.88,56.75],[136.5,56.88],[135.88,56.25],[136.0,55.88],[135.62,56.0],[135.62,54.75],[137.0,53.12],[141.0,52.12]]],[[[137.0,57.12],[136.88,57.0],[137.25,56.88],[137.0,57.12]]]]}},{"type":"Feature","properties":{"kind":"blob","cls":4,"id":34},"geometry":{"type":"Polygon","coordinates":[[[-68.75,-32.88],[-68.0,-32.62],[-67.38,-31.75],[-67.5,-31.38],[-68.12,-31.5],[-67.62,-31.0],[-68.25,-29.88],[-68.62,-30.75],[-68.75,-32.88]]]}},{"type":"Feature","properties":{"kind":"blob","cls":4,"id":35},"geometry":{"type":"MultiPolygon","coordinates":[[[[-64.25,-22.62],[-64.38,-22.75],[-64.25,-22.88],[-64.25,-22.62]]],[[[-64.12,-22.0],[-64.0,-22.62],[-63.38,-22.0],[-63.5,-20.88],[-64.12,-21.0],[-63.62,-21.75],[-64.12,-22.0]]]]}},{"type":"Feature","properties":{"kind":"blob","cls":1,"id":36},"geometry":{"type":"Polygon","coordinates":[[[-74.38,-11.25],[-74.25,-11.38],[-74.12,-11.25],[-74.38,-11.25]]]}},{"type":"Feature","properties":{"kind":"blob","cls":4,"id":37},"geometry":{"type":"Polygon","coordinates":[[[-112.75,49.88],[-111.88,50.75],[-111.88,52.0],[-113.75,53.38],[-115.75,53.62],[-115.25,52.88],[-114.5,52.88],[-114.25,52.12],[-113.62,52.0],[-113.88,51.75],[-112.88,50.5],[-112.75,49.88]]]}},{"type":"Feature","properties":{"kind":"blob","cls":4,"id":38},"geometry":{"type":"MultiPolygon","coordinates":[[[[-65.5,-27.12],[-64.88,-26.75],[-65.25,-26.12],[-65.38,-26.25],[-65.5,-27.12]]],[[[-64.75,-26.62],[-64.38,-26.25],[-64.5,-24.62],[-65.12,-25.75],[-64.75,-26.62]]],[[[-64.62,-24.5],[-64.75,-24.38],[-64.88,-24.5],[-64.62,-24.5]]]]}},{"type":"Feature","properties":{"kind":"blob","cls":4,"id":39},"geometry":{"type":"Polygon","coordinates":[[[-145.0,45.12],[-143.75,45.62],[-142.88,46.5],[-142.88,47.5],[-143.75,48.38],[-145.0,48.88],[-147.5,48.38],[-148.38,47.5],[-148.38,46.5],[-147.5,45.62],[-145.0,45.12]]]}},{"type":"Feature","properties":{"kind":"blob","cls":4,"id":40},"geometry":{"type":"Polygon","coordinates":[[[-67.5,-49.62],[-66.25,-49.12],[-65.38,-48.25],[-65.38,-47.25],[-66.25,-46.38],[-67.5,-45.88],[-69.75,-46.38],[-70.62,-47.25],[-70.62,-48.25],[-69.75,-49.12],[-67.5,-49.62]]]}},{"type":"Feature","properties":{"kind":"blob","cls":4,"id":41},"geometry":{"type":"Polygon","coordinates":[[[-75.5,-35.88],[-73.88,-35.0],[-73.62,-33.25],[-74.25,-32.38],[-76.25,-31.88],[-77.88,-32.75],[-78.12,-34.25],[-77.75,-34.88],[-76.25,-34.88],[-75.5,-35.88]]]}},{"type":"Feature","properties":{"kind":"blob","cls":4,"id":42},"geometry":{"type":"Polygon","coordinates":[[[-67.25,-31.12],[-67.25,-30.12],[-67.38,-30.25],[-67.25,-31.12]]]}},{"type":"Feature","properties":{"kind":"blob","cls":4,"id":43},"geometry":{"type":"Polygon","coordinates":[[[47.0,30.62],[48.25,31.12],[48.88,32.0],[48.88,32.75],[48.0,32.88],[47.75,33.38],[47.5,32.88],[46.75,33.12],[45.88,34.0],[46.12,35.25],[45.0,35.88],[43.5,35.38],[42.88,34.5],[43.12,32.5],[43.75,31.88],[47.0,30.62]]]}},{"type":"Feature","properties":{"kind":"blob","cls":3,"id":44},"geometry":{"type":"Polygon","coordinates":[[[37.0,40.38],[37.0,40.88],[40.75,40.88],[42.38,42.0],[41.75,42.88],[39.75,43.88],[38.0,43.88],[36.5,43.12],[35.88,42.25],[35.88,41.25],[37.0,40.38]]]}},{"type":"Feature","properties":{"kind":"blob","cls":4,"id":45},"geometry":{"type":"MultiPolygon","coordinates":[[[[-71.12,-32.5],[-71.0,-32.62],[-70.88,-32.25],[-71.12,-32.5]]],[[[-71.62,-31.75],[-71.25,-32.12],[-70.88,-31.75],[-71.0,-29.62],[-71.62,-30.75],[-71.62,-31.75]]]]}},{"type":"Feature","properties":{"kind":"blob","cls":4,"id":46},"geometry":{"type":"Polygon","coordinates":[[[91.25,23.62],[92.12,24.5],[92.0,25.38],[91.12,25.5],[92.12,25.75],[91.25,26.88],[87.0,26.88],[82.0,28.38],[81.12,27.75],[81.12,26.25],[82.0,25.38],[86.5,24.88],[87.75,25.62],[87.88,24.75],[89.0,23.62],[91.25,23.62]]]}},{"type":"Feature","properties":{"kind":"blob","cls":1,"id":47},"geometry":{"type":"MultiPolygon","coordinates":[[[[97.5,23.38],[97.38,23.25],[97.5,23.12],[97.5,23.38]]],[[[97.0,23.12],[97.38,23.5],[97.38,24.25],[95.75,25.62],[94.12,24.75],[95.0,23.62],[97.0,23.12]]]]}},{"type":"Feature","properties":{"kind":"blob","cls":5,"id":48},"geometry":{"type":"Polygon","coordinates":[[[94.0,25.62],[94.62,26.25],[94.0,26.38],[94.0,25.62]]]}},{"type":"Feature","properties":{"kind":"blob","cls":4,"id":49},"geometry":{"type":"Polygon","coordinates":[[[173.75,36.12],[175.38,37.25],[175.62,38.25],[174.5,39.62],[172.75,39.88],[171.12,38.75],[171.12,37.25],[172.0,36.38],[173.75,36.12]]]}},{"type":"Feature","properties":{"kind":"blob","cls":1,"id":50},"geometry":{"type":"MultiPolygon","coordinates":[[[[48.25,39.62],[50.5,39.62],[51.62,40.75],[51.62,41.75],[50.0,43.88],[47.5,44.38],[46.25,43.88],[45.62,43.0],[46.5,43.12],[47.5,42.62],[48.88,41.0],[48.5,40.62],[46.5,41.88],[45.88,41.75],[48.25,39.62]]],[[[45.75,42.12],[45.62,42.0],[45.75,41.88],[45.75,42.12]]]]}},{"type":"Feature","properties":{"kind":"blob","cls":3,"id":51},"geometry":{"type":"MultiPolygon","coordinates":[[[[62.0,32.38],[61.88,32.25],[62.0,32.12],[62.0,32.38]]],[[[62.12,32.5],[62.25,32.38],[62.38,32.75],[62.12,32.5]]]]}},{"type":"Feature","properties":{"kind":"center","id":1,"lat":-66.0,"lon":-172.25,"mslp":947.0,"hvtl":6.9,"hvtu":-30.2,"hb":-1.3,"idx":-0.2,"cls":1,"psfc":947.0,"terrain":false,"radius_km":200,"name":"sym shallow warm","track":"T04"},"geometry":{"type":"Point","coordinates":[-172.25,-66.0]}},{"type":"Feature","properties":{"kind":"center","id":2,"lat":-58.5,"lon":-0.5,"mslp":958.8,"hvtl":111.9,"hvtu":-32.4,"hb":-8.6,"idx":1.3,"cls":1,"psfc":958.8,"terrain":false,"radius_km":200,"name":"sym shallow warm","track":"T19"},"geometry":{"type":"Point","coordinates":[-0.5,-58.5]}},{"type":"Feature","properties":{"kind":"center","id":3,"lat":-71.0,"lon":-116.25,"mslp":959.5,"hvtl":-16.6,"hvtu":-7.6,"hb":10.0,"idx":-0.4,"cls":4,"psfc":959.5,"terrain":false,"radius_km":200,"name":"asym cold","track":"T12"},"geometry":{"type":"Point","coordinates":[-116.25,-71.0]}},{"type":"Feature","properties":{"kind":"center","id":4,"lat":-51.5,"lon":32.75,"mslp":965.0,"hvtl":7.3,"hvtu":-188.6,"hb":24.9,"idx":-0.8,"cls":3,"psfc":965.0,"terrain":false,"radius_km":200,"name":"asym shallow warm","track":"T29"},"geometry":{"type":"Point","coordinates":[32.75,-51.5]}},{"type":"Feature","properties":{"kind":"center","id":5,"lat":63.25,"lon":-39.5,"mslp":965.6,"hvtl":76.0,"hvtu":65.9,"hb":20.7,"idx":1.9,"cls":2,"psfc":965.6,"terrain":false,"radius_km":200,"name":"asym deep warm","track":"T14"},"geometry":{"type":"Point","coordinates":[-39.5,63.25]}},{"type":"Feature","properties":{"kind":"center","id":6,"lat":-55.5,"lon":-108.0,"mslp":965.8,"hvtl":7.5,"hvtu":-129.6,"hb":16.7,"idx":-0.7,"cls":3,"psfc":965.8,"terrain":false,"radius_km":200,"name":"asym shallow warm","track":"T26"},"geometry":{"type":"Point","coordinates":[-108.0,-55.5]}},{"type":"Feature","properties":{"kind":"center","id":7,"lat":-64.0,"lon":117.0,"mslp":970.3,"hvtl":-361.4,"hvtu":-94.7,"hb":67.3,"idx":-2.7,"cls":4,"psfc":970.3,"terrain":false,"radius_km":200,"name":"asym cold","track":"T33"},"geometry":{"type":"Point","coordinates":[117.0,-64.0]}},{"type":"Feature","properties":{"kind":"center","id":8,"lat":-63.25,"lon":95.75,"mslp":970.7,"hvtl":-282.5,"hvtu":-3.8,"hb":61.2,"idx":-2.0,"cls":4,"psfc":970.7,"terrain":false,"radius_km":200,"name":"asym cold","track":"T38"},"geometry":{"type":"Point","coordinates":[95.75,-63.25]}},{"type":"Feature","properties":{"kind":"center","id":9,"lat":-51.0,"lon":-125.75,"mslp":972.2,"hvtl":-23.1,"hvtu":-90.9,"hb":34.7,"idx":-1.2,"cls":4,"psfc":972.2,"terrain":false,"radius_km":200,"name":"asym cold","track":"T39"},"geometry":{"type":"Point","coordinates":[-125.75,-51.0]}},{"type":"Feature","properties":{"kind":"center","id":10,"lat":61.25,"lon":-11.75,"mslp":976.9,"hvtl":-107.6,"hvtu":-488.5,"hb":66.9,"idx":-2.6,"cls":4,"psfc":976.9,"terrain":false,"radius_km":200,"name":"asym cold","track":"T32"},"geometry":{"type":"Point","coordinates":[-11.75,61.25]}},{"type":"Feature","properties":{"kind":"center","id":11,"lat":-54.75,"lon":74.5,"mslp":978.0,"hvtl":-181.5,"hvtu":-127.6,"hb":54.5,"idx":-2.8,"cls":4,"psfc":978.0,"terrain":false,"radius_km":200,"name":"asym cold","track":"T13"},"geometry":{"type":"Point","coordinates":[74.5,-54.75]}},{"type":"Feature","properties":{"kind":"center","id":12,"lat":34.0,"lon":150.0,"mslp":983.7,"hvtl":60.0,"hvtu":111.5,"hb":20.8,"idx":1.9,"cls":2,"psfc":983.7,"terrain":false,"radius_km":200,"name":"asym deep warm","track":"T09"},"geometry":{"type":"Point","coordinates":[150.0,34.0]}},{"type":"Feature","properties":{"kind":"center","id":13,"lat":70.25,"lon":-17.25,"mslp":987.2,"hvtl":-24.0,"hvtu":-339.8,"hb":42.2,"idx":-1.5,"cls":4,"psfc":987.3,"terrain":false,"radius_km":200,"name":"asym cold"},"geometry":{"type":"Point","coordinates":[-17.25,70.25]}},{"type":"Feature","properties":{"kind":"center","id":14,"lat":50.25,"lon":-43.25,"mslp":987.7,"hvtl":-367.4,"hvtu":-416.4,"hb":98.2,"idx":-3.0,"cls":4,"psfc":987.7,"terrain":false,"radius_km":200,"name":"asym cold","track":"T10"},"geometry":{"type":"Point","coordinates":[-43.25,50.25]}},{"type":"Feature","properties":{"kind":"center","id":15,"lat":69.0,"lon":81.5,"mslp":987.7,"hvtl":55.5,"hvtu":-9.0,"hb":3.1,"idx":0.9,"cls":1,"psfc":981.2,"terrain":false,"radius_km":200,"name":"sym shallow warm","track":"T57"},"geometry":{"type":"Point","coordinates":[81.5,69.0]}},{"type":"Feature","properties":{"kind":"center","id":16,"lat":-66.5,"lon":136.75,"mslp":989.8,"hvtl":-62.9,"hvtu":-187.0,"hb":22.5,"idx":-2.1,"cls":4,"psfc":930.2,"terrain":false,"radius_km":200,"name":"asym cold"},"geometry":{"type":"Point","coordinates":[136.75,-66.5]}},{"type":"Feature","properties":{"kind":"center","id":17,"lat":87.5,"lon":17.0,"mslp":989.9,"hvtl":50.0,"hvtu":-224.7,"hb":-15.0,"idx":-0.1,"cls":1,"psfc":989.9,"terrain":false,"radius_km":200,"name":"sym shallow warm","track":"T59"},"geometry":{"type":"Point","coordinates":[17.0,87.5]}},{"type":"Feature","properties":{"kind":"center","id":18,"lat":-73.75,"lon":-25.25,"mslp":990.4,"hvtl":-196.1,"hvtu":-79.0,"hb":19.4,"idx":-2.6,"cls":4,"psfc":990.4,"terrain":false,"radius_km":200,"name":"asym cold","track":"T56"},"geometry":{"type":"Point","coordinates":[-25.25,-73.75]}},{"type":"Feature","properties":{"kind":"center","id":19,"lat":-67.25,"lon":45.5,"mslp":990.6,"hvtl":-43.1,"hvtu":-40.0,"hb":4.4,"idx":-1.2,"cls":5,"psfc":990.6,"terrain":false,"radius_km":200,"name":"sym cold"},"geometry":{"type":"Point","coordinates":[45.5,-67.25]}},{"type":"Feature","properties":{"kind":"center","id":20,"lat":74.0,"lon":-86.5,"mslp":990.9,"hvtl":-169.8,"hvtu":-209.3,"hb":51.1,"idx":-2.8,"cls":4,"psfc":990.1,"terrain":false,"radius_km":200,"name":"asym cold","track":"T68"},"geometry":{"type":"Point","coordinates":[-86.5,74.0]}},{"type":"Feature","properties":{"kind":"center","id":21,"lat":67.0,"lon":-103.25,"mslp":991.4,"hvtl":-108.3,"hvtu":-235.3,"hb":19.0,"idx":-2.6,"cls":4,"psfc":972.1,"terrain":false,"radius_km":200,"name":"asym cold"},"geometry":{"type":"Point","coordinates":[-103.25,67.0]}},{"type":"Feature","properties":{"kind":"center","id":22,"lat":80.5,"lon":-128.75,"mslp":992.8,"hvtl":-24.3,"hvtu":-57.5,"hb":20.2,"idx":-1.0,"cls":4,"psfc":992.8,"terrain":false,"radius_km":200,"name":"asym cold","track":"T72"},"geometry":{"type":"Point","coordinates":[-128.75,80.5]}},{"type":"Feature","properties":{"kind":"center","id":23,"lat":42.25,"lon":-55.25,"mslp":993.3,"hvtl":-178.9,"hvtu":-285.9,"hb":67.5,"idx":-2.9,"cls":4,"psfc":993.3,"terrain":false,"radius_km":200,"name":"asym cold","track":"T64"},"geometry":{"type":"Point","coordinates":[-55.25,42.25]}},{"type":"Feature","properties":{"kind":"center","id":24,"lat":-67.25,"lon":143.5,"mslp":993.8,"hvtl":-92.8,"hvtu":-233.2,"hb":12.4,"idx":-2.4,"cls":4,"psfc":902.4,"terrain":true,"radius_km":200,"name":"asym cold"},"geometry":{"type":"Point","coordinates":[143.5,-67.25]}},{"type":"Feature","properties":{"kind":"center","id":25,"lat":-82.5,"lon":175.0,"mslp":993.9,"hvtl":159.3,"hvtu":-301.6,"hb":30.5,"idx":0.8,"cls":3,"psfc":986.0,"terrain":false,"radius_km":200,"name":"asym shallow warm","track":"T54"},"geometry":{"type":"Point","coordinates":[175.0,-82.5]}},{"type":"Feature","properties":{"kind":"center","id":26,"lat":63.0,"lon":-168.75,"mslp":995.2,"hvtl":89.0,"hvtu":-182.5,"hb":9.4,"idx":0.5,"cls":1,"psfc":995.2,"terrain":false,"radius_km":200,"name":"sym shallow warm","track":"T48"},"geometry":{"type":"Point","coordinates":[-168.75,63.0]}},{"type":"Feature","properties":{"kind":"center","id":27,"lat":17.0,"lon":-25.5,"mslp":1000.0,"hvtl":19.8,"hvtu":87.2,"hb":0.7,"idx":1.1,"cls":0,"psfc":999.2,"terrain":false,"radius_km":200,"name":"sym deep warm","track":"T86"},"geometry":{"type":"Point","coordinates":[-25.5,17.0]}},{"type":"Feature","properties":{"kind":"center","id":28,"lat":-47.0,"lon":148.5,"mslp":1000.2,"hvtl":34.9,"hvtu":-274.8,"hb":-3.0,"idx":-0.3,"cls":1,"psfc":1000.2,"terrain":false,"radius_km":200,"name":"sym shallow warm","track":"T55"},"geometry":{"type":"Point","coordinates":[148.5,-47.0]}},{"type":"Feature","properties":{"kind":"center","id":29,"lat":-36.5,"lon":-15.0,"mslp":1001.0,"hvtl":-256.9,"hvtu":-325.8,"hb":81.2,"idx":-3.0,"cls":4,"psfc":1001.0,"terrain":false,"radius_km":200,"name":"asym cold","track":"T05"},"geometry":{"type":"Point","coordinates":[-15.0,-36.5]}},{"type":"Feature","properties":{"kind":"center","id":30,"lat":-18.75,"lon":-63.25,"mslp":1002.4,"hvtl":-98.5,"hvtu":-167.0,"hb":48.7,"idx":-2.4,"cls":4,"psfc":947.9,"terrain":false,"radius_km":200,"name":"asym cold"},"geometry":{"type":"Point","coordinates":[-63.25,-18.75]}},{"type":"Feature","properties":{"kind":"center","id":31,"lat":54.0,"lon":128.75,"mslp":1003.3,"hvtl":140.0,"hvtu":-201.6,"hb":25.1,"idx":0.8,"cls":3,"psfc":947.5,"terrain":false,"radius_km":200,"name":"asym shallow warm","track":"T83"},"geometry":{"type":"Point","coordinates":[128.75,54.0]}},{"type":"Feature","properties":{"kind":"center","id":32,"lat":-9.75,"lon":-74.0,"mslp":1004.2,"hvtl":55.5,"hvtu":-22.5,"hb":0.2,"idx":0.8,"cls":1,"psfc":983.2,"terrain":false,"radius_km":200,"name":"sym shallow warm"},"geometry":{"type":"Point","coordinates":[-74.0,-9.75]}},{"type":"Feature","properties":{"kind":"center","id":33,"lat":53.25,"lon":137.75,"mslp":1005.2,"hvtl":-299.3,"hvtu":-306.7,"hb":76.4,"idx":-3.0,"cls":4,"psfc":977.2,"terrain":false,"radius_km":200,"name":"asym cold","track":"T87"},"geometry":{"type":"Point","coordinates":[137.75,53.25]}},{"type":"Feature","properties":{"kind":"center","id":34,"lat":-31.5,"lon":-68.5,"mslp":1005.5,"hvtl":-31.5,"hvtu":-225.4,"hb":28.5,"idx":-1.6,"cls":4,"psfc":930.6,"terrain":false,"radius_km":200,"name":"asym cold","track":"T101"},"geometry":{"type":"Point","coordinates":[-68.5,-31.5]}},{"type":"Feature","properties":{"kind":"center","id":35,"lat":-21.25,"lon":-63.5,"mslp":1007.0,"hvtl":-69.3,"hvtu":-203.6,"hb":70.0,"idx":-2.2,"cls":4,"psfc":934.6,"terrain":false,"radius_km":200,"name":"asym cold"},"geometry":{"type":"Point","coordinates":[-63.5,-21.25]}},{"type":"Feature","properties":{"kind":"center","id":36,"lat":-11.25,"lon":-74.25,"mslp":1007.5,"hvtl":55.5,"hvtu":-30.7,"hb":6.2,"idx":0.7,"cls":1,"psfc":901.5,"terrain":true,"radius_km":200,"name":"sym shallow warm"},"geometry":{"type":"Point","coordinates":[-74.25,-11.25]}},{"type":"Feature","properties":{"kind":"center","id":37,"lat":53.25,"lon":-115.5,"mslp":1008.4,"hvtl":-98.3,"hvtu":-194.5,"hb":11.0,"idx":-2.5,"cls":4,"psfc":900.7,"terrain":true,"radius_km":200,"name":"asym cold"},"geometry":{"type":"Point","coordinates":[-115.5,53.25]}},{"type":"Feature","properties":{"kind":"center","id":38,"lat":-24.5,"lon":-64.75,"mslp":1008.4,"hvtl":-118.4,"hvtu":-294.3,"hb":53.1,"idx":-2.7,"cls":4,"psfc":922.6,"terrain":false,"radius_km":200,"name":"asym cold","track":"T96"},"geometry":{"type":"Point","coordinates":[-64.75,-24.5]}},{"type":"Feature","properties":{"kind":"center","id":39,"lat":47.25,"lon":-146.5,"mslp":1008.8,"hvtl":-247.2,"hvtu":-301.1,"hb":62.6,"idx":-3.0,"cls":4,"psfc":1008.8,"terrain":false,"radius_km":200,"name":"asym cold","track":"T84"},"geometry":{"type":"Point","coordinates":[-146.5,47.25]}},{"type":"Feature","properties":{"kind":"center","id":40,"lat":-47.75,"lon":-68.0,"mslp":1009.9,"hvtl":-34.0,"hvtu":-105.1,"hb":29.1,"idx":-1.4,"cls":4,"psfc":996.0,"terrain":false,"radius_km":200,"name":"asym cold","track":"T105"},"geometry":{"type":"Point","coordinates":[-68.0,-47.75]}},{"type":"Feature","properties":{"kind":"center","id":41,"lat":-34.0,"lon":-75.75,"mslp":1010.1,"hvtl":-20.6,"hvtu":-142.2,"hb":22.9,"idx":-1.3,"cls":4,"psfc":1010.1,"terrain":false,"radius_km":200,"name":"asym cold"},"geometry":{"type":"Point","coordinates":[-75.75,-34.0]}},{"type":"Feature","properties":{"kind":"center","id":42,"lat":-31.0,"lon":-67.25,"mslp":1010.2,"hvtl":-1.0,"hvtu":-230.3,"hb":17.4,"idx":-1.0,"cls":4,"psfc":907.6,"terrain":true,"radius_km":200,"name":"asym cold"},"geometry":{"type":"Point","coordinates":[-67.25,-31.0]}},{"type":"Feature","properties":{"kind":"center","id":43,"lat":32.25,"lon":44.5,"mslp":1010.9,"hvtl":-117.0,"hvtu":-39.8,"hb":44.3,"idx":-2.0,"cls":4,"psfc":1007.9,"terrain":false,"radius_km":200,"name":"asym cold"},"geometry":{"type":"Point","coordinates":[44.5,32.25]}},{"type":"Feature","properties":{"kind":"center","id":44,"lat":42.25,"lon":36.75,"mslp":1011.0,"hvtl":19.0,"hvtu":-111.3,"hb":14.4,"idx":-0.4,"cls":3,"psfc":1011.0,"terrain":false,"radius_km":200,"name":"asym shallow warm"},"geometry":{"type":"Point","coordinates":[36.75,42.25]}},{"type":"Feature","properties":{"kind":"center","id":45,"lat":-31.0,"lon":-71.0,"mslp":1013.1,"hvtl":-93.8,"hvtu":-239.1,"hb":31.3,"idx":-2.5,"cls":4,"psfc":902.5,"terrain":true,"radius_km":200,"name":"asym cold"},"geometry":{"type":"Point","coordinates":[-71.0,-31.0]}},{"type":"Feature","properties":{"kind":"center","id":46,"lat":24.25,"lon":90.5,"mslp":1013.1,"hvtl":-92.6,"hvtu":-196.4,"hb":12.4,"idx":-2.4,"cls":4,"psfc":1011.4,"terrain":false,"radius_km":200,"name":"asym cold"},"geometry":{"type":"Point","coordinates":[90.5,24.25]}},{"type":"Feature","properties":{"kind":"center","id":47,"lat":25.5,"lon":95.5,"mslp":1014.5,"hvtl":0.9,"hvtu":-162.8,"hb":-0.4,"idx":-0.9,"cls":1,"psfc":990.6,"terrain":false,"radius_km":200,"name":"sym shallow warm","track":"T113"},"geometry":{"type":"Point","coordinates":[95.5,25.5]}},{"type":"Feature","properties":{"kind":"center","id":48,"lat":26.25,"lon":94.0,"mslp":1015.4,"hvtl":-18.5,"hvtu":-202.3,"hb":3.7,"idx":-1.3,"cls":5,"psfc":994.4,"terrain":false,"radius_km":200,"name":"sym cold"},"geometry":{"type":"Point","coordinates":[94.0,26.25]}},{"type":"Feature","properties":{"kind":"center","id":49,"lat":38.0,"lon":173.25,"mslp":1016.1,"hvtl":-131.5,"hvtu":-315.8,"hb":33.7,"idx":-2.7,"cls":4,"psfc":1016.1,"terrain":false,"radius_km":200,"name":"asym cold"},"geometry":{"type":"Point","coordinates":[173.25,38.0]}},{"type":"Feature","properties":{"kind":"center","id":50,"lat":43.5,"lon":46.25,"mslp":1016.4,"hvtl":164.6,"hvtu":-75.7,"hb":-8.4,"idx":1.2,"cls":1,"psfc":1013.6,"terrain":false,"radius_km":200,"name":"sym shallow warm","track":"T114"},"geometry":{"type":"Point","coordinates":[46.25,43.5]}},{"type":"Feature","properties":{"kind":"center","id":51,"lat":32.25,"lon":62.0,"mslp":1016.7,"hvtl":65.9,"hvtu":-171.8,"hb":77.3,"idx":0.2,"cls":3,"psfc":944.3,"terrain":false,"radius_km":200,"name":"asym shallow warm","track":"T104"},"geometry":{"type":"Point","coordinates":[62.0,32.25]}}]}