{"type":"FeatureCollection","features":[{"type":"Feature","properties":{"kind":"blob","cls":4,"id":1},"geometry":{"type":"Polygon","coordinates":[[[164.75,-67.62],[167.0,-67.12],[168.38,-66.0],[168.38,-65.25],[166.75,-63.62],[164.75,-62.62],[161.75,-61.88],[158.25,-62.12],[156.5,-62.88],[155.62,-63.75],[156.12,-65.0],[157.5,-66.12],[160.0,-67.12],[164.75,-67.62]]]}},{"type":"Feature","properties":{"kind":"blob","cls":4,"id":2},"geometry":{"type":"Polygon","coordinates":[[[-118.0,-56.88],[-116.0,-56.12],[-114.88,-54.75],[-115.12,-53.75],[-115.75,-53.12],[-117.75,-52.38],[-120.0,-52.62],[-121.5,-53.38],[-122.12,-54.25],[-122.12,-55.5],[-120.5,-56.62],[-118.0,-56.88]]]}},{"type":"Feature","properties":{"kind":"blob","cls":1,"id":3},"geometry":{"type":"Polygon","coordinates":[[[128.75,-58.62],[129.5,-57.88],[131.0,-57.62],[134.0,-58.38],[135.12,-57.25],[135.12,-56.75],[134.0,-55.38],[133.0,-54.88],[129.0,-54.88],[127.12,-56.75],[128.75,-58.62]]]}},{"type":"Feature","properties":{"kind":"blob","cls":3,"id":4},"geometry":{"type":"Polygon","coordinates":[[[73.5,-67.62],[78.0,-66.38],[81.25,-66.38],[84.25,-65.88],[85.88,-65.0],[86.12,-63.75],[84.75,-62.38],[83.0,-61.62],[78.5,-61.38],[76.25,-62.12],[71.75,-62.38],[69.75,-63.62],[68.0,-63.88],[66.88,-64.75],[66.62,-65.75],[67.5,-66.62],[69.5,-67.38],[73.5,-67.62]]]}},{"type":"Feature","properties":{"kind":"blob","cls":6,"id":5},"geometry":{"type":"Polygon","coordinates":[[[47.25,-65.12],[50.5,-65.12],[52.25,-64.12],[53.75,-64.62],[57.5,-64.38],[58.75,-63.88],[59.62,-63.0],[59.88,-61.75],[58.0,-60.38],[54.0,-60.12],[51.25,-60.88],[50.25,-61.62],[46.0,-61.62],[44.12,-62.75],[44.12,-63.75],[45.0,-64.62],[47.25,-65.12]]]}},{"type":"Feature","properties":{"kind":"blob","cls":0,"id":6},"geometry":{"type":"Polygon","coordinates":[[[142.25,16.12],[143.12,17.25],[142.88,18.75],[141.5,19.62],[140.25,19.38],[139.38,18.25],[139.38,17.25],[142.25,16.12]]]}},{"type":"Feature","properties":{"kind":"blob","cls":0,"id":7},"geometry":{"type":"Polygon","coordinates":[[[159.75,13.38],[161.25,13.38],[162.12,14.5],[161.88,16.25],[160.5,17.12],[159.25,16.88],[158.38,15.75],[158.62,14.0],[159.75,13.38]],[[159.5,14.38],[158.88,15.0],[160.0,15.38],[160.12,14.75],[159.5,14.38]]]}},{"type":"Feature","properties":{"kind":"blob","cls":4,"id":8},"geometry":{"type":"Polygon","coordinates":[[[149.0,-60.12],[150.62,-59.0],[150.62,-58.0],[150.0,-57.38],[148.0,-56.62],[144.75,-56.88],[143.12,-58.0],[143.12,-59.0],[144.75,-60.12],[149.0,-60.12]]]}},{"type":"Feature","properties":{"kind":"blob","cls":4,"id":9},"geometry":{"type":"Polygon","coordinates":[[[-27.0,-71.12],[-23.75,-70.38],[-22.12,-69.25],[-22.12,-68.25],[-23.25,-67.38],[-24.75,-66.88],[-28.75,-66.62],[-32.25,-67.38],[-33.88,-68.5],[-34.12,-69.0],[-33.25,-70.12],[-31.5,-70.88],[-27.0,-71.12]]]}},{"type":"Feature","properties":{"kind":"blob","cls":4,"id":10},"geometry":{"type":"Polygon","coordinates":[[[-93.75,-62.62],[-92.25,-61.88],[-91.12,-60.75],[-90.88,-59.5],[-92.25,-58.12],[-94.0,-57.62],[-95.75,-57.62],[-99.0,-58.62],[-100.88,-60.25],[-100.88,-61.5],[-99.25,-62.62],[-93.75,-62.62]]]}},{"type":"Feature","properties":{"kind":"blob","cls":4,"id":11},"geometry":{"type":"Polygon","coordinates":[[[-13.38,-73.0],[-13.25,-73.38],[-11.75,-73.38],[-10.0,-72.12],[-7.75,-72.12],[-5.0,-71.38],[-1.75,-71.62],[4.0,-70.88],[12.5,-70.88],[14.12,-69.75],[14.12,-69.25],[13.25,-68.38],[11.75,-67.88],[8.0,-67.62],[4.75,-68.38],[3.88,-69.25],[4.12,-70.0],[3.25,-70.38],[-0.75,-70.88],[-3.75,-70.12],[-8.25,-70.38],[-12.75,-72.12],[-13.38,-73.0]]]}},{"type":"Feature","properties":{"kind":"blob","cls":4,"id":12},"geometry":{"type":"MultiPolygon","coordinates":[[[[-17.5,-74.12],[-17.62,-74.25],[-17.25,-74.38],[-17.5,-74.12]]],[[[-17.12,-74.0],[-14.62,-73.75],[-16.0,-73.62],[-17.12,-74.0]]]]}},{"type":"Feature","properties":{"kind":"blob","cls":4,"id":13},"geometry":{"type":"Polygon","coordinates":[[[-46.5,-68.38],[-44.25,-67.88],[-41.75,-66.88],[-40.62,-65.75],[-40.62,-65.25],[-41.5,-64.38],[-42.75,-63.88],[-46.5,-63.62],[-52.0,-64.62],[-54.88,-66.0],[-55.12,-66.5],[-54.5,-67.38],[-52.75,-68.12],[-46.5,-68.38]]]}},{"type":"Feature","properties":{"kind":"blob","cls":5,"id":14},"geometry":{"type":"Polygon","coordinates":[[[179.88,55.25],[180.0,60.12],[179.5,60.12],[177.38,58.5],[177.12,57.25],[178.0,56.12],[179.88,55.25]]]}},{"type":"Feature","properties":{"kind":"blob","cls":5,"id":14},"geometry":{"type":"Polygon","coordinates":[[[-179.75,60.12],[-180.0,55.12],[-179.25,54.38],[-175.75,53.88],[-174.0,54.38],[-172.88,55.5],[-172.88,56.5],[-173.38,57.0],[-173.12,58.75],[-174.0,59.62],[-176.0,60.38],[-179.75,60.12]]]}},{"type":"Feature","properties":{"kind":"blob","cls":1,"id":15},"geometry":{"type":"Polygon","coordinates":[[[46.5,-67.88],[46.88,-67.75],[46.75,-67.62],[46.5,-67.88]]]}},{"type":"Feature","properties":{"kind":"blob","cls":4,"id":16},"geometry":{"type":"Polygon","coordinates":[[[21.5,-70.62],[23.88,-70.5],[23.75,-70.38],[21.5,-70.62]]]}},{"type":"Feature","properties":{"kind":"blob","cls":4,"id":17},"geometry":{"type":"Polygon","coordinates":[[[-63.25,-81.12],[-47.75,-81.38],[-44.12,-81.0],[-47.0,-80.62],[-54.25,-80.62],[-63.25,-81.12]]]}},{"type":"Feature","properties":{"kind":"blob","cls":4,"id":18},"geometry":{"type":"Polygon","coordinates":[[[-78.75,-79.38],[-77.5,-79.62],[-75.62,-78.5],[-76.75,-77.62],[-78.5,-77.38],[-78.75,-79.38]]]}},{"type":"Feature","properties":{"kind":"blob","cls":4,"id":19},"geometry":{"type":"Polygon","coordinates":[[[111.25,-66.62],[111.5,-66.12],[112.38,-66.0],[112.38,-65.25],[111.5,-64.38],[110.25,-63.88],[106.75,-63.62],[104.5,-64.12],[102.75,-65.12],[102.38,-65.75],[102.5,-66.12],[111.25,-66.62]]]}},{"type":"Feature","properties":{"kind":"blob","cls":1,"id":20},"geometry":{"type":"Polygon","coordinates":[[[5.0,64.38],[8.25,65.62],[8.88,67.0],[7.75,68.12],[6.0,68.88],[0.75,69.12],[-1.5,68.62],[-3.88,67.0],[-4.12,66.5],[-3.25,65.12],[-1.5,64.38],[5.0,64.38]],[[-1.0,65.38],[-2.12,66.0],[-1.75,66.88],[0.75,67.12],[1.12,66.75],[0.75,65.62],[-1.0,65.38]]]}},{"type":"Feature","properties":{"kind":"blob","cls":4,"id":21},"geometry":{"type":"Polygon","coordinates":[[[9.0,82.88],[22.25,83.62],[27.25,84.38],[28.38,85.25],[27.5,85.88],[24.75,86.38],[18.5,86.88],[-6.5,87.12],[-19.75,86.38],[-22.5,85.88],[-23.38,85.25],[-21.5,84.38],[-16.5,83.62],[9.0,82.88]]]}},{"type":"Feature","properties":{"kind":"blob","cls":4,"id":22},"geometry":{"type":"Polygon","coordinates":[[[-6.0,-48.88],[-4.75,-48.38],[-3.88,-47.5],[-3.88,-46.25],[-4.75,-45.38],[-6.0,-44.88],[-8.5,-45.38],[-9.38,-46.25],[-9.38,-47.5],[-8.5,-48.38],[-6.0,-48.88]]]}},{"type":"Feature","properties":{"kind":"blob","cls":1,"id":23},"geometry":{"type":"Polygon","coordinates":[[[-7.25,60.88],[-5.25,61.38],[-4.12,62.25],[-4.12,63.25],[-6.0,64.38],[-9.25,64.62],[-11.25,64.12],[-12.38,63.25],[-12.38,62.25],[-11.75,61.62],[-7.25,60.88]]]}},{"type":"Feature","properties":{"kind":"blob","cls":3,"id":24},"geometry":{"type":"Polygon","coordinates":[[[-124.25,21.62],[-123.38,22.5],[-123.38,24.5],[-125.25,25.88],[-126.5,25.62],[-127.38,24.75],[-127.38,22.5],[-126.5,21.62],[-124.25,21.62]]]}},{"type":"Feature","properties":{"kind":"blob","cls":4,"id":25},"geometry":{"type":"Polygon","coordinates":[[[21.0,55.12],[23.75,55.12],[25.12,56.25],[25.38,57.25],[24.25,58.38],[22.5,58.88],[19.0,58.38],[17.88,57.25],[17.88,56.75],[19.0,55.62],[21.0,55.12]]]}},{"type":"Feature","properties":{"kind":"blob","cls":4,"id":26},"geometry":{"type":"Polygon","coordinates":[[[-49.5,50.88],[-48.0,51.38],[-46.12,53.25],[-46.12,54.75],[-46.75,55.38],[-48.75,56.12],[-50.75,55.88],[-53.0,54.88],[-53.88,53.5],[-53.62,52.5],[-52.5,51.38],[-49.5,50.88]]]}},{"type":"Feature","properties":{"kind":"blob","cls":4,"id":27},"geometry":{"type":"Polygon","coordinates":[[[-111.0,50.12],[-109.0,49.88],[-108.38,51.0],[-108.38,52.25],[-109.25,53.12],[-110.75,53.62],[-113.75,53.12],[-113.88,52.75],[-112.88,52.0],[-113.12,51.75],[-112.75,51.38],[-112.5,51.88],[-112.0,51.62],[-112.38,51.25],[-111.0,50.12]]]}},{"type":"Feature","properties":{"kind":"blob","cls":6,"id":28},"geometry":{"type":"Polygon","coordinates":[[[64.0,77.62],[69.75,78.12],[74.75,79.38],[75.88,80.0],[75.88,80.5],[72.5,82.12],[69.25,82.62],[58.0,82.88],[51.0,82.12],[49.25,81.62],[47.38,80.5],[47.5,79.88],[50.0,78.62],[54.0,77.88],[64.0,77.62]]]}},{"type":"Feature","properties":{"kind":"blob","cls":0,"id":29},"geometry":{"type":"Polygon","coordinates":[[[-94.5,18.12],[-93.62,19.25],[-93.88,20.75],[-95.25,21.62],[-96.5,21.38],[-97.38,20.25],[-96.62,19.75],[-96.88,18.5],[-94.5,18.12]]]}},{"type":"Feature","properties":{"kind":"blob","cls":4,"id":30},"geometry":{"type":"Polygon","coordinates":[[[4.75,-49.62],[6.12,-48.5],[6.12,-47.25],[5.0,-46.12],[2.5,-45.62],[1.25,-46.12],[0.38,-47.0],[0.38,-48.0],[1.75,-49.38],[4.75,-49.62]]]}},{"type":"Feature","properties":{"kind":"blob","cls":4,"id":31},"geometry":{"type":"Polygon","coordinates":[[[-82.75,-45.88],[-81.5,-45.38],[-80.88,-44.75],[-80.88,-43.0],[-82.75,-41.88],[-85.0,-42.38],[-85.88,-43.25],[-85.88,-44.75],[-85.25,-45.38],[-82.75,-45.88]]]}},{"type":"Feature","properties":{"kind":"blob","cls":4,"id":32},"geometry":{"type":"MultiPolygon","coordinates":[[[[-151.25,57.38],[-149.5,57.88],[-147.88,59.25],[-147.88,59.75],[-148.5,60.38],[-149.12,60.25],[-149.0,60.88],[-150.75,61.38],[-152.0,61.38],[-153.25,60.12],[-153.75,60.12],[-153.75,60.62],[-154.5,60.88],[-155.88,59.25],[-154.75,57.88],[-151.25,57.38]],[[-150.62,59.75],[-150.0,60.38],[-149.88,60.0],[-150.62,59.75]]],[[[-148.75,60.62],[-148.88,60.5],[-148.75,60.38],[-148.75,60.62]]]]}},{"type":"Feature","properties":{"kind":"blob","cls":4,"id":33},"geometry":{"type":"Polygon","coordinates":[[[115.75,46.38],[116.5,46.62],[117.88,47.75],[117.62,49.5],[115.75,50.38],[113.0,50.38],[113.62,50.0],[113.38,49.5],[114.12,49.0],[113.62,48.75],[115.12,47.75],[115.75,46.38]]]}},{"type":"Feature","properties":{"kind":"blob","cls":3,"id":34},"geometry":{"type":"Polygon","coordinates":[[[-113.5,29.62],[-112.25,30.12],[-111.62,31.0],[-111.62,32.0],[-113.25,33.62],[-115.0,34.12],[-116.38,33.5],[-116.38,32.75],[-115.88,32.5],[-115.12,30.5],[-115.62,30.75],[-116.75,32.88],[-116.88,31.5],[-116.25,30.62],[-113.5,29.62]]]}},{"type":"Feature","properties":{"kind":"blob","cls":0,"id":35},"geometry":{"type":"Polygon","coordinates":[[[-101.75,12.62],[-100.75,13.88],[-99.5,13.12],[-98.25,13.38],[-97.38,14.5],[-97.62,16.0],[-98.75,16.62],[-101.25,14.12],[-102.25,13.62],[-103.5,13.62],[-103.88,14.0],[-103.88,15.0],[-103.38,15.75],[-103.75,15.88],[-104.62,14.75],[-104.62,13.75],[-103.75,12.62],[-101.75,12.62]]]}},{"type":"Feature","properties":{"kind":"blob","cls":4,"id":36},"geometry":{"type":"Polygon","coordinates":[[[-116.5,34.62],[-115.88,35.25],[-116.5,35.62],[-117.25,35.12],[-116.62,35.75],[-117.75,35.88],[-118.12,35.0],[-116.5,34.62]]]}},{"type":"Feature","properties":{"kind":"blob","cls":4,"id":37},"geometry":{"type":"Polygon","coordinates":[[[-135.25,68.38],[-132.5,68.88],[-130.62,70.25],[-130.62,70.75],[-132.0,71.88],[-133.75,72.38],[-138.25,72.62],[-141.75,71.88],[-142.88,70.75],[-142.88,70.25],[-141.75,69.38],[-140.75,69.38],[-140.25,68.88],[-139.0,68.62],[-135.25,68.38]]]}},{"type":"Feature","properties":{"kind":"blob","cls":3,"id":38},"geometry":{"type":"Polygon","coordinates":[[[58.75,28.62],[60.12,28.5],[59.75,30.12],[58.38,29.75],[58.75,28.62]]]}},{"type":"Feature","properties":{"kind":"blob","cls":1,"id":39},"geometry":{"type":"Polygon","coordinates":[[[59.62,27.75],[58.0,28.38],[57.75,28.88],[57.38,28.25],[59.62,27.75]]]}},{"type":"Feature","properties":{"kind":"blob","cls":4,"id":40},"geometry":{"type":"Polygon","coordinates":[[[-118.75,35.38],[-118.62,36.0],[-119.25,36.88],[-119.38,36.0],[-118.75,35.38]]]}},{"type":"Feature","properties":{"kind":"blob","cls":3,"id":41},"geometry":{"type":"Polygon","coordinates":[[[-176.75,29.38],[-175.38,30.0],[-174.88,30.75],[-174.88,32.25],[-175.5,33.12],[-177.5,33.62],[-179.38,32.5],[-179.62,30.75],[-179.0,29.88],[-176.75,29.38]]]}},{"type":"Feature","properties":{"kind":"blob","cls":3,"id":42},"geometry":{"type":"MultiPolygon","coordinates":[[[[61.25,29.88],[61.12,29.75],[61.25,29.62],[61.25,29.88]]],[[[60.62,30.25],[61.0,29.88],[61.12,30.0],[61.0,30.38],[60.62,30.25]]]]}},{"type":"Feature","properties":{"kind":"blob","cls":1,"id":43},"geometry":{"type":"Polygon","coordinates":[[[154.5,67.62],[156.75,68.38],[157.62,69.25],[157.62,70.0],[155.75,71.62],[150.75,72.62],[147.5,72.62],[144.5,72.12],[142.5,71.38],[141.88,70.75],[141.88,70.25],[142.75,69.38],[143.75,68.88],[145.75,68.62],[148.25,67.62],[154.5,67.62]]]}},{"type":"Feature","properties":{"kind":"blob","cls":4,"id":44},"geometry":{"type":"Polygon","coordinates":[[[-44.75,37.12],[-43.38,38.75],[-43.62,39.5],[-41.5,39.62],[-40.12,41.0],[-40.12,42.0],[-42.0,43.38],[-44.0,43.12],[-45.12,42.0],[-45.25,40.88],[-47.5,40.62],[-48.62,39.25],[-48.38,38.0],[-47.5,37.12],[-44.75,37.12]]]}},{"type":"Feature","properties":{"kind":"blob","cls":3,"id":45},"geometry":{"type":"Polygon","coordinates":[[[-50.5,-33.88],[-48.5,-33.12],[-47.88,-32.25],[-48.12,-30.5],[-50.5,-29.12],[-53.0,-29.88],[-53.62,-30.75],[-53.62,-32.5],[-53.0,-33.38],[-50.5,-33.88]]]}},{"type":"Feature","properties":{"kind":"blob","cls":4,"id":46},"geometry":{"type":"Polygon","coordinates":[[[169.25,-37.38],[169.75,-37.38],[171.0,-36.88],[171.62,-36.25],[171.62,-34.75],[170.75,-33.62],[168.75,-33.12],[167.12,-34.0],[166.88,-36.25],[167.5,-36.88],[169.0,-36.38],[169.38,-36.75],[169.25,-37.38]]]}},{"type":"Feature","properties":{"kind":"blob","cls":3,"id":47},"geometry":{"type":"Polygon","coordinates":[[[166.5,31.12],[167.62,32.25],[167.38,34.5],[165.5,35.62],[163.5,35.12],[162.88,34.25],[163.12,32.0],[163.75,31.38],[166.5,31.12]]]}},{"type":"Feature","properties":{"kind":"blob","cls":3,"id":48},"geometry":{"type":"Polygon","coordinates":[[[112.62,49.75],[112.75,49.62],[112.88,49.75],[112.62,49.75]]]}},{"type":"Feature","properties":{"kind":"blob","cls":4,"id":49},"geometry":{"type":"Polygon","coordinates":[[[96.75,23.12],[97.38,23.75],[95.5,25.62],[94.25,24.62],[93.88,24.75],[94.75,23.62],[96.75,23.12]]]}},{"type":"Feature","properties":{"kind":"blob","cls":4,"id":50},"geometry":{"type":"Polygon","coordinates":[[[-34.0,61.12],[-32.0,61.62],[-29.88,63.5],[-29.88,64.25],[-30.75,65.38],[-32.25,66.12],[-35.0,66.62],[-38.0,65.62],[-39.5,64.62],[-41.88,64.25],[-41.75,63.38],[-38.25,61.62],[-34.0,61.12]]]}},{"type":"Feature","properties":{"kind":"blob","cls":6,"id":51},"geometry":{"type":"MultiPolygon","coordinates":[[[[-81.25,77.88],[-81.38,77.75],[-81.25,77.62],[-81.25,77.88]]],[[[-67.25,76.38],[-66.75,76.88],[-65.75,76.88],[-64.62,77.5],[-65.5,77.88],[-69.62,78.0],[-64.88,79.0],[-68.0,79.62],[-75.75,77.62],[-78.5,77.62],[-79.75,78.12],[-80.0,77.62],[-81.12,77.5],[-77.5,76.38],[-67.25,76.38]],[[-71.62,78.25],[-70.12,78.25],[-70.25,78.12],[-71.62,78.25]],[[-68.0,76.88],[-68.12,77.0],[-67.5,77.12],[-68.0,76.88]]]]}},{"type":"Feature","properties":{"kind":"blob","cls":5,"id":52},"geometry":{"type":"Polygon","coordinates":[[[93.88,26.25],[94.0,25.88],[94.38,26.0],[94.25,26.38],[93.88,26.25]]]}},{"type":"Feature","properties":{"kind":"blob","cls":1,"id":53},"geometry":{"type":"Polygon","coordinates":[[[46.5,-19.12],[46.62,-18.75],[46.12,-18.5],[46.5,-18.12],[47.25,-17.88],[47.5,-18.38],[47.75,-17.62],[48.25,-17.88],[48.62,-17.25],[48.38,-15.75],[46.75,-14.62],[45.5,-14.88],[44.38,-16.25],[44.88,-18.25],[46.5,-19.12]],[[48.0,-16.88],[47.88,-16.75],[48.0,-16.62],[48.0,-16.88]]]}},{"type":"Feature","properties":{"kind":"blob","cls":4,"id":54},"geometry":{"type":"Polygon","coordinates":[[[-60.5,69.38],[-57.0,69.88],[-54.5,70.62],[-53.12,72.0],[-55.0,73.38],[-58.25,74.12],[-64.5,73.88],[-66.25,73.38],[-67.88,72.25],[-67.88,71.25],[-67.0,70.38],[-65.0,69.62],[-60.5,69.38]]]}},{"type":"Feature","properties":{"kind":"blob","cls":3,"id":55},"geometry":{"type":"Polygon","coordinates":[[[45.5,-23.62],[46.12,-23.25],[44.75,-22.62],[44.12,-21.5],[44.5,-20.88],[45.25,-20.62],[46.5,-21.38],[46.25,-20.12],[44.5,-19.88],[42.88,-21.0],[42.88,-22.5],[43.75,-23.38],[45.5,-23.62]]]}},{"type":"Feature","properties":{"kind":"blob","cls":5,"id":56},"geometry":{"type":"Polygon","coordinates":[[[97.38,23.25],[97.5,23.12],[97.62,23.25],[97.38,23.25]]]}},{"type":"Feature","properties":{"kind":"blob","cls":4,"id":57},"geometry":{"type":"Polygon","coordinates":[[[-32.5,47.62],[-30.75,48.38],[-30.12,49.5],[-30.38,50.75],[-31.0,51.38],[-32.5,51.88],[-35.0,51.38],[-35.88,50.5],[-36.12,49.5],[-35.5,48.38],[-32.5,47.62]]]}},{"type":"Feature","properties":{"kind":"blob","cls":4,"id":58},"geometry":{"type":"Polygon","coordinates":[[[-50.5,32.88],[-48.88,33.75],[-48.62,35.5],[-49.25,36.38],[-51.25,36.88],[-52.88,36.0],[-53.12,34.25],[-52.5,33.38],[-50.5,32.88]]]}},{"type":"Feature","properties":{"kind":"blob","cls":4,"id":59},"geometry":{"type":"Polygon","coordinates":[[[-16.5,-32.62],[-15.12,-32.0],[-14.62,-31.25],[-14.62,-30.25],[-15.25,-29.38],[-18.25,-28.62],[-20.12,-30.0],[-20.12,-31.0],[-19.0,-32.12],[-16.5,-32.62]]]}},{"type":"Feature","properties":{"kind":"blob","cls":1,"id":60},"geometry":{"type":"Polygon","coordinates":[[[29.88,-30.25],[30.0,-30.62],[30.75,-30.62],[32.38,-29.5],[32.62,-28.5],[31.5,-27.12],[30.88,-27.25],[31.0,-28.62],[29.88,-28.75],[30.88,-29.0],[29.88,-30.25]]]}},{"type":"Feature","properties":{"kind":"blob","cls":5,"id":61},"geometry":{"type":"Polygon","coordinates":[[[-78.75,79.12],[-78.0,78.88],[-76.62,79.5],[-77.5,79.62],[-78.75,79.12]]]}},{"type":"Feature","properties":{"kind":"center","id":1,"lat":-64.75,"lon":161.25,"mslp":954.1,"hvtl":-114.9,"hvtu":-208.0,"hb":52.0,"idx":-2.6,"cls":4,"psfc":954.1,"terrain":false,"radius_km":200,"name":"asym cold","track":"T17"},"geometry":{"type":"Point","coordinates":[161.25,-64.75]}},{"type":"Feature","properties":{"kind":"center","id":2,"lat":-55.0,"lon":-118.75,"mslp":957.2,"hvtl":-205.6,"hvtu":-125.4,"hb":37.3,"idx":-2.8,"cls":4,"psfc":957.2,"terrain":false,"radius_km":200,"name":"asym cold","track":"T11"},"geometry":{"type":"Point","coordinates":[-118.75,-55.0]}},{"type":"Feature","properties":{"kind":"center","id":3,"lat":-56.75,"lon":130.75,"mslp":965.7,"hvtl":74.7,"hvtu":-35.9,"hb":-13.6,"idx":0.9,"cls":1,"psfc":965.7,"terrain":false,"radius_km":200,"name":"sym shallow warm","track":"T22"},"geometry":{"type":"Point","coordinates":[130.75,-56.75]}},{"type":"Feature","properties":{"kind":"center","id":4,"lat":-64.25,"lon":78.5,"mslp":966.0,"hvtl":130.0,"hvtu":-210.3,"hb":33.2,"idx":0.8,"cls":3,"psfc":966.0,"terrain":false,"radius_km":200,"name":"asym shallow warm","track":"T20"},"geometry":{"type":"Point","coordinates":[78.5,-64.25]}},{"type":"Feature","properties":{"kind":"center","id":5,"lat":-62.5,"lon":54.75,"mslp":969.7,"hvtl":-64.1,"hvtu":15.5,"hb":29.1,"idx":-1.0,"cls":6,"psfc":969.7,"terrain":false,"radius_km":200,"name":"shallow cold"},"geometry":{"type":"Point","coordinates":[54.75,-62.5]}},{"type":"Feature","properties":{"kind":"center","id":6,"lat":17.75,"lon":141.25,"mslp":969.8,"hvtl":64.1,"hvtu":211.4,"hb":3.8,"idx":2.1,"cls":0,"psfc":969.8,"terrain":false,"radius_km":200,"name":"sym deep warm","track":"T08"},"geometry":{"type":"Point","coordinates":[141.25,17.75]}},{"type":"Feature","properties":{"kind":"center","id":7,"lat":15.0,"lon":160.25,"mslp":971.4,"hvtl":112.9,"hvtu":168.4,"hb":7.9,"idx":2.6,"cls":0,"psfc":971.4,"terrain":false,"radius_km":200,"name":"sym deep warm","track":"T02"},"geometry":{"type":"Point","coordinates":[160.25,15.0]}},{"type":"Feature","properties":{"kind":"center","id":8,"lat":-58.5,"lon":147.0,"mslp":971.5,"hvtl":-73.1,"hvtu":-338.5,"hb":25.6,"idx":-2.2,"cls":4,"psfc":971.5,"terrain":false,"radius_km":200,"name":"asym cold"},"geometry":{"type":"Point","coordinates":[147.0,-58.5]}},{"type":"Feature","properties":{"kind":"center","id":9,"lat":-69.0,"lon":-28.5,"mslp":973.2,"hvtl":-117.8,"hvtu":-150.2,"hb":26.4,"idx":-2.6,"cls":4,"psfc":973.2,"terrain":false,"radius_km":200,"name":"asym cold","track":"T45"},"geometry":{"type":"Point","coordinates":[-28.5,-69.0]}},{"type":"Feature","properties":{"kind":"center","id":10,"lat":-60.25,"lon":-95.75,"mslp":975.1,"hvtl":-51.5,"hvtu":-216.2,"hb":26.1,"idx":-1.9,"cls":4,"psfc":975.2,"terrain":false,"radius_km":200,"name":"asym cold","track":"T39"},"geometry":{"type":"Point","coordinates":[-95.75,-60.25]}},{"type":"Feature","properties":{"kind":"center","id":11,"lat":-69.5,"lon":9.0,"mslp":977.4,"hvtl":-136.9,"hvtu":-31.7,"hb":23.8,"idx":-2.1,"cls":4,"psfc":977.4,"terrain":false,"radius_km":200,"name":"asym cold","track":"T46"},"geometry":{"type":"Point","coordinates":[9.0,-69.5]}},{"type":"Feature","properties":{"kind":"center","id":12,"lat":-73.75,"lon":-15.0,"mslp":977.5,"hvtl":-289.8,"hvtu":-139.8,"hb":30.9,"idx":-2.9,"cls":4,"psfc":924.5,"terrain":false,"radius_km":200,"name":"asym cold","track":"T50"},"geometry":{"type":"Point","coordinates":[-15.0,-73.75]}},{"type":"Feature","properties":{"kind":"center","id":13,"lat":-66.25,"lon":-47.75,"mslp":977.8,"hvtl":-312.8,"hvtu":-371.7,"hb":55.2,"idx":-3.0,"cls":4,"psfc":977.8,"terrain":false,"radius_km":200,"name":"asym cold","track":"T32"},"geometry":{"type":"Point","coordinates":[-47.75,-66.25]}},{"type":"Feature","properties":{"kind":"center","id":14,"lat":57.75,"lon":-178.5,"mslp":978.2,"hvtl":-5.7,"hvtu":-316.7,"hb":6.5,"idx":-1.1,"cls":5,"psfc":978.2,"terrain":false,"radius_km":200,"name":"sym cold","track":"T07"},"geometry":{"type":"Point","coordinates":[-178.5,57.75]}},{"type":"Feature","properties":{"kind":"center","id":15,"lat":-67.75,"lon":46.75,"mslp":979.5,"hvtl":66.8,"hvtu":-56.0,"hb":-5.0,"idx":0.7,"cls":1,"psfc":908.3,"terrain":false,"radius_km":200,"name":"sym shallow warm","track":"T36"},"geometry":{"type":"Point","coordinates":[46.75,-67.75]}},{"type":"Feature","properties":{"kind":"center","id":16,"lat":-70.5,"lon":21.5,"mslp":981.1,"hvtl":-112.2,"hvtu":-92.6,"hb":36.3,"idx":-2.3,"cls":4,"psfc":966.0,"terrain":false,"radius_km":200,"name":"asym cold"},"geometry":{"type":"Point","coordinates":[21.5,-70.5]}},{"type":"Feature","properties":{"kind":"center","id":17,"lat":-80.75,"lon":-51.5,"mslp":981.1,"hvtl":-404.2,"hvtu":-4.2,"hb":54.6,"idx":-2.0,"cls":4,"psfc":940.8,"terrain":false,"radius_km":200,"name":"asym cold","track":"T60"},"geometry":{"type":"Point","coordinates":[-51.5,-80.75]}},{"type":"Feature","properties":{"kind":"center","id":18,"lat":-79.5,"lon":-78.5,"mslp":984.5,"hvtl":-352.7,"hvtu":-101.8,"hb":55.5,"idx":-2.8,"cls":4,"psfc":927.4,"terrain":false,"radius_km":200,"name":"asym cold","track":"T43"},"geometry":{"type":"Point","coordinates":[-78.5,-79.5]}},{"type":"Feature","properties":{"kind":"center","id":19,"lat":-65.5,"lon":107.75,"mslp":985.0,"hvtl":-68.9,"hvtu":-281.2,"hb":21.5,"idx":-2.2,"cls":4,"psfc":985.0,"terrain":false,"radius_km":200,"name":"asym cold"},"geometry":{"type":"Point","coordinates":[107.75,-65.5]}},{"type":"Feature","properties":{"kind":"center","id":20,"lat":67.0,"lon":2.75,"mslp":986.5,"hvtl":98.7,"hvtu":-103.3,"hb":4.2,"idx":0.7,"cls":1,"psfc":986.5,"terrain":false,"radius_km":200,"name":"sym shallow warm","track":"T66"},"geometry":{"type":"Point","coordinates":[2.75,67.0]}},{"type":"Feature","properties":{"kind":"center","id":21,"lat":85.0,"lon":4.25,"mslp":990.3,"hvtl":-63.1,"hvtu":-50.7,"hb":70.4,"idx":-1.6,"cls":4,"psfc":990.3,"terrain":false,"radius_km":200,"name":"asym cold","track":"T73"},"geometry":{"type":"Point","coordinates":[4.25,85.0]}},{"type":"Feature","properties":{"kind":"center","id":22,"lat":-46.75,"lon":-6.75,"mslp":990.6,"hvtl":-44.0,"hvtu":-209.1,"hb":24.5,"idx":-1.8,"cls":4,"psfc":990.6,"terrain":false,"radius_km":200,"name":"asym cold","track":"T72"},"geometry":{"type":"Point","coordinates":[-6.75,-46.75]}},{"type":"Feature","properties":{"kind":"center","id":23,"lat":62.75,"lon":-8.25,"mslp":990.6,"hvtl":25.9,"hvtu":-173.6,"hb":-0.3,"idx":-0.4,"cls":1,"psfc":990.6,"terrain":false,"radius_km":200,"name":"sym shallow warm","track":"T53"},"geometry":{"type":"Point","coordinates":[-8.25,62.75]}},{"type":"Feature","properties":{"kind":"center","id":24,"lat":23.75,"lon":-125.5,"mslp":992.6,"hvtl":74.6,"hvtu":-24.2,"hb":17.0,"idx":1.0,"cls":3,"psfc":992.6,"terrain":false,"radius_km":200,"name":"asym shallow warm","track":"T48"},"geometry":{"type":"Point","coordinates":[-125.5,23.75]}},{"type":"Feature","properties":{"kind":"center","id":25,"lat":57.0,"lon":21.75,"mslp":993.4,"hvtl":-49.8,"hvtu":-149.1,"hb":25.8,"idx":-1.8,"cls":4,"psfc":987.4,"terrain":false,"radius_km":200,"name":"asym cold","track":"T83"},"geometry":{"type":"Point","coordinates":[21.75,57.0]}},{"type":"Feature","properties":{"kind":"center","id":26,"lat":53.5,"lon":-50.5,"mslp":994.1,"hvtl":-68.4,"hvtu":-279.0,"hb":53.0,"idx":-2.2,"cls":4,"psfc":994.1,"terrain":false,"radius_km":200,"name":"asym cold","track":"T47"},"geometry":{"type":"Point","coordinates":[-50.5,53.5]}},{"type":"Feature","properties":{"kind":"center","id":27,"lat":50.75,"lon":-111.75,"mslp":994.4,"hvtl":-121.7,"hvtu":-153.4,"hb":121.1,"idx":-2.6,"cls":4,"psfc":913.4,"terrain":false,"radius_km":200,"name":"asym cold"},"geometry":{"type":"Point","coordinates":[-111.75,50.75]}},{"type":"Feature","properties":{"kind":"center","id":28,"lat":80.25,"lon":62.25,"mslp":996.3,"hvtl":-142.9,"hvtu":25.3,"hb":25.8,"idx":-1.5,"cls":6,"psfc":996.3,"terrain":false,"radius_km":200,"name":"shallow cold","track":"T41"},"geometry":{"type":"Point","coordinates":[62.25,80.25]}},{"type":"Feature","properties":{"kind":"center","id":29,"lat":19.75,"lon":-95.5,"mslp":996.8,"hvtl":28.7,"hvtu":77.9,"hb":6.4,"idx":1.2,"cls":0,"psfc":996.8,"terrain":false,"radius_km":200,"name":"sym deep warm","track":"T90"},"geometry":{"type":"Point","coordinates":[-95.5,19.75]}},{"type":"Feature","properties":{"kind":"center","id":30,"lat":-47.75,"lon":3.25,"mslp":997.6,"hvtl":-98.0,"hvtu":-241.4,"hb":35.7,"idx":-2.5,"cls":4,"psfc":997.6,"terrain":false,"radius_km":200,"name":"asym cold","track":"T63"},"geometry":{"type":"Point","coordinates":[3.25,-47.75]}},{"type":"Feature","properties":{"kind":"center","id":31,"lat":-44.0,"lon":-83.5,"mslp":998.3,"hvtl":-83.1,"hvtu":-157.7,"hb":24.8,"idx":-2.3,"cls":4,"psfc":998.3,"terrain":false,"radius_km":200,"name":"asym cold","track":"T94"},"geometry":{"type":"Point","coordinates":[-83.5,-44.0]}},{"type":"Feature","properties":{"kind":"center","id":32,"lat":59.5,"lon":-151.75,"mslp":998.6,"hvtl":-167.7,"hvtu":-285.3,"hb":42.2,"idx":-2.9,"cls":4,"psfc":992.3,"terrain":false,"radius_km":200,"name":"asym cold"},"geometry":{"type":"Point","coordinates":[-151.75,59.5]}},{"type":"Feature","properties":{"kind":"center","id":33,"lat":48.5,"lon":114.25,"mslp":1000.2,"hvtl":-81.1,"hvtu":-295.0,"hb":85.2,"idx":-2.3,"cls":4,"psfc":916.0,"terrain":false,"radius_km":200,"name":"asym cold"},"geometry":{"type":"Point","coordinates":[114.25,48.5]}},{"type":"Feature","properties":{"kind":"center","id":34,"lat":33.25,"lon":-115.75,"mslp":1001.4,"hvtl":8.3,"hvtu":-163.4,"hb":29.5,"idx":-0.8,"cls":3,"psfc":1007.1,"terrain":false,"radius_km":200,"name":"asym shallow warm"},"geometry":{"type":"Point","coordinates":[-115.75,33.25]}},{"type":"Feature","properties":{"kind":"center","id":35,"lat":15.0,"lon":-99.25,"mslp":1001.5,"hvtl":19.1,"hvtu":25.0,"hb":-11.7,"idx":0.6,"cls":0,"psfc":1001.5,"terrain":false,"radius_km":200,"name":"sym deep warm"},"geometry":{"type":"Point","coordinates":[-99.25,15.0]}},{"type":"Feature","properties":{"kind":"center","id":36,"lat":35.25,"lon":-116.0,"mslp":1002.1,"hvtl":-67.2,"hvtu":-173.4,"hb":53.4,"idx":-2.1,"cls":4,"psfc":943.7,"terrain":false,"radius_km":200,"name":"asym cold","track":"T95"},"geometry":{"type":"Point","coordinates":[-116.0,35.25]}},{"type":"Feature","properties":{"kind":"center","id":37,"lat":70.5,"lon":-137.5,"mslp":1002.4,"hvtl":-117.8,"hvtu":-239.1,"hb":40.5,"idx":-2.6,"cls":4,"psfc":1002.4,"terrain":false,"radius_km":200,"name":"asym cold","track":"T97"},"geometry":{"type":"Point","coordinates":[-137.5,70.5]}},{"type":"Feature","properties":{"kind":"center","id":38,"lat":29.75,"lon":59.0,"mslp":1002.7,"hvtl":54.7,"hvtu":-96.9,"hb":13.4,"idx":0.2,"cls":3,"psfc":967.8,"terrain":false,"radius_km":200,"name":"asym shallow warm","track":"T106"},"geometry":{"type":"Point","coordinates":[59.0,29.75]}},{"type":"Feature","properties":{"kind":"center","id":39,"lat":28.0,"lon":58.0,"mslp":1004.5,"hvtl":73.5,"hvtu":-57.8,"hb":-14.9,"idx":0.7,"cls":1,"psfc":950.6,"terrain":false,"radius_km":200,"name":"sym shallow warm","track":"T112"},"geometry":{"type":"Point","coordinates":[58.0,28.0]}},{"type":"Feature","properties":{"kind":"center","id":40,"lat":36.0,"lon":-119.25,"mslp":1005.1,"hvtl":-145.6,"hvtu":-170.2,"hb":57.0,"idx":-2.7,"cls":4,"psfc":994.6,"terrain":false,"radius_km":200,"name":"asym cold","track":"T96"},"geometry":{"type":"Point","coordinates":[-119.25,36.0]}},{"type":"Feature","properties":{"kind":"center","id":41,"lat":31.5,"lon":-177.25,"mslp":1005.3,"hvtl":19.5,"hvtu":-273.0,"hb":17.4,"idx":-0.6,"cls":3,"psfc":1005.3,"terrain":false,"radius_km":200,"name":"asym shallow warm","track":"T81"},"geometry":{"type":"Point","coordinates":[-177.25,31.5]}},{"type":"Feature","properties":{"kind":"center","id":42,"lat":30.25,"lon":61.0,"mslp":1005.9,"hvtl":38.6,"hvtu":-100.1,"hb":20.4,"idx":-0.0,"cls":3,"psfc":951.3,"terrain":false,"radius_km":200,"name":"asym shallow warm","track":"T114"},"geometry":{"type":"Point","coordinates":[61.0,30.25]}},{"type":"Feature","properties":{"kind":"center","id":43,"lat":70.25,"lon":149.75,"mslp":1006.0,"hvtl":44.0,"hvtu":-44.5,"hb":9.6,"idx":0.4,"cls":1,"psfc":990.2,"terrain":false,"radius_km":200,"name":"sym shallow warm","track":"T110"},"geometry":{"type":"Point","coordinates":[149.75,70.25]}},{"type":"Feature","properties":{"kind":"center","id":44,"lat":41.5,"lon":-42.5,"mslp":1006.9,"hvtl":-98.9,"hvtu":-261.1,"hb":26.2,"idx":-2.5,"cls":4,"psfc":1006.9,"terrain":false,"radius_km":200,"name":"asym cold"},"geometry":{"type":"Point","coordinates":[-42.5,41.5]}},{"type":"Feature","properties":{"kind":"center","id":45,"lat":-32.0,"lon":-51.0,"mslp":1007.1,"hvtl":108.4,"hvtu":-212.6,"hb":28.4,"idx":0.6,"cls":3,"psfc":1007.1,"terrain":false,"radius_km":200,"name":"asym shallow warm","track":"T84"},"geometry":{"type":"Point","coordinates":[-51.0,-32.0]}},{"type":"Feature","properties":{"kind":"center","id":46,"lat":-35.25,"lon":169.25,"mslp":1007.2,"hvtl":-29.7,"hvtu":-106.4,"hb":10.8,"idx":-1.4,"cls":4,"psfc":1007.2,"terrain":false,"radius_km":200,"name":"asym cold","track":"T107"},"geometry":{"type":"Point","coordinates":[169.25,-35.25]}},{"type":"Feature","properties":{"kind":"center","id":47,"lat":33.5,"lon":165.0,"mslp":1007.5,"hvtl":188.0,"hvtu":-159.3,"hb":29.0,"idx":1.0,"cls":3,"psfc":1007.5,"terrain":false,"radius_km":200,"name":"asym shallow warm","track":"T40"},"geometry":{"type":"Point","coordinates":[165.0,33.5]}},{"type":"Feature","properties":{"kind":"center","id":48,"lat":49.75,"lon":112.75,"mslp":1007.9,"hvtl":119.4,"hvtu":-305.5,"hb":105.1,"idx":0.7,"cls":3,"psfc":903.8,"terrain":true,"radius_km":200,"name":"asym shallow warm"},"geometry":{"type":"Point","coordinates":[112.75,49.75]}},{"type":"Feature","properties":{"kind":"center","id":49,"lat":24.25,"lon":96.5,"mslp":1008.0,"hvtl":-33.5,"hvtu":-88.1,"hb":10.0,"idx":-1.4,"cls":4,"psfc":992.4,"terrain":false,"radius_km":200,"name":"asym cold"},"geometry":{"type":"Point","coordinates":[96.5,24.25]}},{"type":"Feature","properties":{"kind":"center","id":50,"lat":64.5,"lon":-36.0,"mslp":1008.2,"hvtl":-34.3,"hvtu":-98.6,"hb":20.1,"idx":-1.4,"cls":4,"psfc":1008.2,"terrain":false,"radius_km":200,"name":"asym cold","track":"T62"},"geometry":{"type":"Point","coordinates":[-36.0,64.5]}},{"type":"Feature","properties":{"kind":"center","id":51,"lat":78.0,"lon":-72.5,"mslp":1008.6,"hvtl":-98.4,"hvtu":7.5,"hb":12.0,"idx":-1.4,"cls":6,"psfc":993.4,"terrain":false,"radius_km":200,"name":"shallow cold","track":"T115"},"geometry":{"type":"Point","coordinates":[-72.5,78.0]}},{"type":"Feature","properties":{"kind":"center","id":52,"lat":26.25,"lon":94.0,"mslp":1009.3,"hvtl":-42.1,"hvtu":-133.9,"hb":10.0,"idx":-1.7,"cls":5,"psfc":988.6,"terrain":false,"radius_km":200,"name":"sym cold","track":"T120"},"geometry":{"type":"Point","coordinates":[94.0,26.25]}},{"type":"Feature","properties":{"kind":"center","id":53,"lat":-16.75,"lon":46.5,"mslp":1009.7,"hvtl":60.1,"hvtu":-211.4,"hb":5.2,"idx":0.1,"cls":1,"psfc":996.9,"terrain":false,"radius_km":200,"name":"sym shallow warm"},"geometry":{"type":"Point","coordinates":[46.5,-16.75]}},{"type":"Feature","properties":{"kind":"center","id":54,"lat":72.0,"lon":-61.75,"mslp":1009.9,"hvtl":-273.2,"hvtu":-248.9,"hb":64.5,"idx":-3.0,"cls":4,"psfc":1009.9,"terrain":false,"radius_km":200,"name":"asym cold","track":"T123"},"geometry":{"type":"Point","coordinates":[-61.75,72.0]}},{"type":"Feature","properties":{"kind":"center","id":55,"lat":-20.25,"lon":45.5,"mslp":1010.6,"hvtl":101.5,"hvtu":-150.7,"hb":17.4,"idx":0.6,"cls":3,"psfc":991.7,"terrain":false,"radius_km":200,"name":"asym shallow warm"},"geometry":{"type":"Point","coordinates":[45.5,-20.25]}},{"type":"Feature","properties":{"kind":"center","id":56,"lat":23.25,"lon":97.5,"mslp":1010.9,"hvtl":-18.6,"hvtu":-66.7,"hb":6.9,"idx":-1.0,"cls":5,"psfc":918.0,"terrain":true,"radius_km":200,"name":"sym cold"},"geometry":{"type":"Point","coordinates":[97.5,23.25]}},{"type":"Feature","properties":{"kind":"center","id":57,"lat":49.75,"lon":-34.5,"mslp":1010.9,"hvtl":-97.7,"hvtu":-297.3,"hb":29.8,"idx":-2.5,"cls":4,"psfc":1010.9,"terrain":false,"radius_km":200,"name":"asym cold","track":"T42"},"geometry":{"type":"Point","coordinates":[-34.5,49.75]}},{"type":"Feature","properties":{"kind":"center","id":58,"lat":35.0,"lon":-51.0,"mslp":1011.2,"hvtl":-34.4,"hvtu":-180.8,"hb":16.7,"idx":-1.6,"cls":4,"psfc":1011.2,"terrain":false,"radius_km":200,"name":"asym cold","track":"T113"},"geometry":{"type":"Point","coordinates":[-51.0,35.0]}},{"type":"Feature","properties":{"kind":"center","id":59,"lat":-30.75,"lon":-17.0,"mslp":1011.3,"hvtl":-254.8,"hvtu":-369.8,"hb":70.8,"idx":-3.0,"cls":4,"psfc":1011.3,"terrain":false,"radius_km":200,"name":"asym cold","track":"T76"},"geometry":{"type":"Point","coordinates":[-17.0,-30.75]}},{"type":"Feature","properties":{"kind":"center","id":60,"lat":-28.75,"lon":30.0,"mslp":1011.8,"hvtl":79.6,"hvtu":-56.2,"hb":1.5,"idx":0.8,"cls":1,"psfc":908.8,"terrain":true,"radius_km":200,"name":"sym shallow warm"},"geometry":{"type":"Point","coordinates":[30.0,-28.75]}},{"type":"Feature","properties":{"kind":"center","id":61,"lat":79.25,"lon":-77.5,"mslp":1014.2,"hvtl":-1.5,"hvtu":-69.6,"hb":6.4,"idx":-0.6,"cls":5,"psfc":969.7,"terrain":false,"radius_km":200,"name":"sym cold"},"geometry":{"type":"Point","coordinates":[-77.5,79.25]}}]}